name,main_category,address,address_ward,address_street,address_city,address_postal_code,address_state,address_country_code,link,coordinates
Jama Masjid,Mosque,"Jama Masjid, Old Delhi, Delhi, 110006","Jama Masjid, Old Delhi",,Delhi,110006,Delhi,IN,https://www.google.com/maps/place/Jama+Masjid/data=!4m7!3m6!1s0x390cfd18df89b215:0xdd57369e29bf9d96!8m2!3d28.6506792!4d77.2334421!16zL20vMDR5emo1!19sChIJFbKJ3xj9DDkRlp2_KZ42V90?authuser=0&hl=en&rclk=1,"28.6506792,77.23344209999999"
Masjid Sarai Khalil,Mosque,"Masjid Sarai Khalil, 2733, Idgah Rd D.D.A FLAT SARAI KHALIL, Narain Market, Sadar Bazaar, New Delhi, Delhi 110006","Narain Market, Sadar Bazaar","2733, Idgah Rd D.D.A FLAT SARAI KHALIL","New Delhi, Delhi",110006,Delhi,IN,https://www.google.com/maps/place/Masjid+Sarai+Khalil/data=!4m7!3m6!1s0x390cfd6dca84d497:0xf96841361b10a0e2!8m2!3d28.6547095!4d77.2134842!16s%2Fg%2F11cn6htrcd!19sChIJl9SEym39DDkR4qAQGzZBaPk?authuser=0&hl=en&rclk=1,"28.6547095,77.2134842"
Masjid Abu bakar R.z Ahle Hadees,Mosque,"Masjid Abu bakar R.z Ahle Hadees, G.336 Juma bazar Road, Shaheed Nagar, Ghaziabad, Uttar Pradesh 201005",Shaheed Nagar,G.336 Juma bazar Road,Ghaziabad,201005,Uttar Pradesh,IN,https://www.google.com/maps/place/Masjid+Abu+bakar+R.z+Ahle+Hadees/data=!4m7!3m6!1s0x390cfb8374f606bb:0x8cdb3f4f490e4a2e!8m2!3d28.6806126!4d77.3359288!16s%2Fg%2F11h1pdqs72!19sChIJuwb2dIP7DDkRLkoOSU8_24w?authuser=0&hl=en&rclk=1,"28.6806126,77.33592879999999"
Al Noor Masjid,Mosque,"Al Noor Masjid, Nafees Rd, Batla House, Jamia Nagar, Okhla, New Delhi, Delhi 110025","Batla House, Jamia Nagar, Okhla",Nafees Rd,New Delhi,110025,Delhi,IN,https://www.google.com/maps/place/Al+Noor+Masjid/data=!4m7!3m6!1s0x390ce476496a23f3:0xa12d95c7c3bb68ab!8m2!3d28.569068!4d77.2862973!16s%2Fg%2F1tg_7v_w!19sChIJ8yNqSXbkDDkRq2i7w8eVLaE?authuser=0&hl=en&rclk=1,"28.569067999999998,77.2862973"
Moti Masjid mwty msjd,Mosque,"J6M9+G8H Moti Masjid mwty msjd, Block B, Connaught Place, New Delhi, Delhi 110001","Block B, Connaught Place",J6M9+G8H,New Delhi,110001,Delhi,IN,https://www.google.com/maps/place/Moti+Masjid+%D9%85%D9%88%D8%AA%DB%8C+%D9%85%D8%B3%D8%AC%D8%AF%E2%80%AD/data=!4m7!3m6!1s0x390cfd37e8bc616b:0x53561f476fe48084!8m2!3d28.6338043!4d77.2183479!16s%2Fg%2F12hvs_63d!19sChIJa2G86Df9DDkRhIDkb0cfVlM?authuser=0&hl=en&rclk=1,"28.633804299999998,77.2183479"
MASJID LAHORI GATE,Mosque,"M649+R65 MASJID LAHORI GATE, Lahori Gate Chowk, Naya Bazar New, Rui Mandi, Sadar Bazaar, New Delhi, Delhi 110006","Rui Mandi, Sadar Bazaar","M649+R65, Lahori Gate Chowk, Naya Bazar New","New Delhi, Delhi",110006,Delhi,IN,https://www.google.com/maps/place/MASJID+LAHORI+GATE/data=!4m7!3m6!1s0x390cfd12b059aa81:0x3ef9e6f71bcd0d22!8m2!3d28.6570074!4d77.2181025!16s%2Fg%2F11fxzjxlh5!19sChIJgapZsBL9DDkRIg3NG_fm-T4?authuser=0&hl=en&rclk=1,"28.657007399999998,77.2181025"
Zeenat-ul Masjid,Mosque,"J6WV+HXF Zeenat-ul Masjid, Daryaganj, New Delhi, Delhi, 110002",Daryaganj,J6WV+HXF,"New Delhi, Delhi",110002,Delhi,IN,https://www.google.com/maps/place/Zeenat-ul+Masjid/data=!4m7!3m6!1s0x390cfcde5e11d987:0xdf29372369063d5f!8m2!3d28.6464447!4d77.2449347!16s%2Fg%2F1vrq80b4!19sChIJh9kRXt78DDkRXz0GaSM3Kd8?authuser=0&hl=en&rclk=1,"28.6464447,77.2449347"
Hari Masjid - hry msjd,Mosque,"Hari Masjid - hry msjd, S5, Rajguru Marg, Chuna Mandi, Paharganj, New Delhi, Delhi 110055","Bazar Sangatrashan, Chuna Mandi, Paharganj","S5, Rajguru Marg",New Delhi,110055,Delhi,IN,https://www.google.com/maps/place/Hari+Masjid+-+%DB%81%D8%B1%DB%8C+%D9%85%D8%B3%D8%AC%D8%AF%E2%80%AD/data=!4m7!3m6!1s0x390cfd420fb3ca0d:0xb47391289f663fde!8m2!3d28.6451083!4d77.2107922!16s%2Fg%2F12ml2wx8n!19sChIJDcqzD0L9DDkR3j9mnyiRc7Q?authuser=0&hl=en&rclk=1,"28.6451083,77.2107922"
Color Leaf sign & fabrication,Mosque,"Color Leaf sign & fabrication, Shop no 1883 Houz wali masjid, Turkman Gate, Delhi, 110006","Turkman Gate, Chandni Chowk",Shop no 1883 Houz wali masjid,Delhi,110006,Delhi,IN,https://www.google.com/maps/place/Color+Leaf+sign+%26+fabrication/data=!4m7!3m6!1s0x390cfd22e6a5c5bf:0x7b76cad8fc88e2eb!8m2!3d28.645055!4d77.2307879!16s%2Fg%2F11btx09669!19sChIJv8Wl5iL9DDkR6-KI_NjKdns?authuser=0&hl=en&rclk=1,"28.645055,77.2307879"
Masjid Mubarak Begum,Mosque,"Masjid Mubarak Begum, 4959, Hauz Qazi Chowk, Bazar Sirkiwalan, Kaccha Pandit Main Bazar, Lal Kuan Bazar, Chandni Chowk, New Delhi, Delhi, 110006","Bazar Sirkiwalan, Kaccha Pandit Main Bazar, Lal Kuan Bazar, Chandni Chowk","4959, Hauz Qazi Chowk","New Delhi, Delhi",110006,Delhi,IN,https://www.google.com/maps/place/Masjid+Mubarak+Begum/data=!4m7!3m6!1s0x390cfd1654f26d27:0x1a2a01ea4e297fd3!8m2!3d28.6497554!4d77.2260268!16s%2Fg%2F11jlq7lcc_!19sChIJJ23yVBb9DDkR038pTuoBKho?authuser=0&hl=en&rclk=1,"28.6497554,77.2260268"
Sabz Masjid,Mosque,"Sabz Masjid, 3571, Lalkuan Bazar Rd, Bazar Sirkiwalan, Lal Kuan Bazar, Chandni Chowk, Delhi, 110006","Bazar Sirkiwalan, Lal Kuan Bazar, Chandni Chowk","3571, Lalkuan Bazar Rd",Delhi,110006,Delhi,IN,https://www.google.com/maps/place/Sabz+Masjid/data=!4m7!3m6!1s0x390cfd16a94877a7:0x7b35bb653cd42e20!8m2!3d28.652163!4d77.223599!16s%2Fm%2F04q247t!19sChIJp3dIqRb9DDkRIC7UPGW7NXs?authuser=0&hl=en&rclk=1,"28.652162999999998,77.223599"
"Masjid Bengali Market, New Delhi",Mosque,"Masjid Bengali Market, New Delhi, 63, Babar Rd, Todermal Road Area, Mandi House, New Delhi, Delhi 110001","Todermal Road Area, Mandi House","63, Babar Rd",New Delhi,110001,Delhi,IN,"https://www.google.com/maps/place/Masjid+Bengali+Market,+New+Delhi/data=!4m7!3m6!1s0x390cfd2c240fee67:0x197eb12fd25a0753!8m2!3d28.6302118!4d77.2327613!16s%2Fg%2F1vm_w860!19sChIJZ-4PJCz9DDkRUwda0i-xfhk?authuser=0&hl=en&rclk=1","28.630211799999998,77.23276129999999"
Chhoti Masjid,Mosque,"M664+CQQ Chhoti Masjid, Rani Jhansi Rd, Bara Hindu Rao, Sadar Bazaar, New Delhi, Delhi, 110006","Bara Hindu Rao, Sadar Bazaar","M664+CQQ, Rani Jhansi Rd","New Delhi, Delhi",110006,Delhi,IN,https://www.google.com/maps/place/Chhoti+Masjid/data=!4m7!3m6!1s0x390cfd7755000721:0xef06dba0e85ba84!8m2!3d28.6610752!4d77.2069708!16s%2Fg%2F11c6dfyx3s!19sChIJIQcAVXf9DDkRhLqFDrpt8A4?authuser=0&hl=en&rclk=1,"28.6610752,77.2069708"
Puliya Wali Masjid,Mosque,"J6R9+Q48 Puliya Wali Masjid, Main Bazar Rd, Ratan Lal Market, Aram Bagh, Paharganj, New Delhi, Delhi, 110055","Ratan Lal Market, Aram Bagh, Paharganj","J6R9+Q48, Main Bazar Rd","New Delhi, Delhi",110055,Delhi,IN,https://www.google.com/maps/place/Puliya+Wali+Masjid/data=!4m7!3m6!1s0x390cfd3f5dcc4137:0x1ed0072a0c155076!8m2!3d28.6419015!4d77.2178423!16s%2Fg%2F12q4q_hw8!19sChIJN0HMXT_9DDkRdlAVDCoH0B4?authuser=0&hl=en&rclk=1,"28.6419015,77.2178423"
Masjid Takia Wali,Mosque,"M634+XQF Masjid Takia Wali, Idgah Rd, Sarai Khalil, Sadar Bazaar, New Delhi, Delhi, 110006","Sarai Khalil, Sadar Bazaar","M634+XQF, Idgah Rd","New Delhi, Delhi",110006,Delhi,IN,https://www.google.com/maps/place/Masjid+Takia+Wali/data=!4m7!3m6!1s0x390cfd6f971e1e1b:0xe74631f43b7267ac!8m2!3d28.6549496!4d77.2069151!16s%2Fg%2F11bw3y5xhf!19sChIJGx4el2_9DDkRrGdyO_QxRuc?authuser=0&hl=en&rclk=1,"28.6549496,77.2069151"
Pathan Wali Masjid msjd ptthn wly,Mosque,"J6VP+Q2W Pathan Wali Masjid msjd ptthn wly, Bazar Chitli Qabar, Sheesh Mahal, Chandni Chowk, New Delhi, Delhi, 110006","Bazar Chitli Qabar, Sheesh Mahal, Chandni Chowk",J6VP+Q2W,"New Delhi, Delhi",110006,Delhi,IN,https://www.google.com/maps/place/Pathan+Wali+Masjid+%D9%85%D8%B3%D8%AC%D8%AF+%D9%BE%D9%B9%DA%BE%D8%A7%D9%86+%D9%88%D8%A7%D9%84%DB%8C%E2%80%AD/data=!4m7!3m6!1s0x390cfd217cbd6a89:0xcfebdd0b9ab3af1f!8m2!3d28.6444909!4d77.2350759!16s%2Fg%2F11c55k6289!19sChIJiWq9fCH9DDkRH6-zmgvd688?authuser=0&hl=en&rclk=1,"28.644490899999997,77.2350759"
MASJID AMROOD WALI,Mosque,"MASJID AMROOD WALI, Bulbuli khana, near kala masjid, Turkman Gate, Old Delhi, New Delhi, Delhi, 110006","Turkman Gate, Old Delhi","Bulbuli khana, near kala masjid","New Delhi, Delhi",110006,Delhi,IN,https://www.google.com/maps/place/MASJID+AMROOD+WALI/data=!4m7!3m6!1s0x390cfd22f0eb7eef:0xc91420f046ba3b88!8m2!3d28.6410797!4d77.2337194!16s%2Fg%2F11d_x09zhj!19sChIJ737r8CL9DDkRiDu6RvAgFMk?authuser=0&hl=en&rclk=1,"28.6410797,77.2337194"
MASJID RANGREZ msjd rng ryz,Mosque,"MASJID RANGREZ msjd rng ryz, 2503 chilli Qabar, Jama Masjid, Delhi","Bazar Chitli Qabar, Jama Masjid, Chandni Chowk",2503 chilli Qabar,Delhi,,Delhi,IN,https://www.google.com/maps/place/MASJID+RANGREZ+%D9%85%D8%B3%D8%AC%D8%AF+%D8%B1%D9%86%DA%AF+%D8%B1%DB%8C%D8%B2%E2%80%AD/data=!4m7!3m6!1s0x390cfd22182eb1e7:0x3a0dd8cfd0c15fdc!8m2!3d28.6466083!4d77.234047!16s%2Fg%2F11d_x26n4d!19sChIJ57EuGCL9DDkR3F_B0M_YDTo?authuser=0&hl=en&rclk=1,"28.6466083,77.23404699999999"
Masjid Mohtasib AhleHadees,Mosque,"Masjid Mohtasib AhleHadees, 1344, Tilak Bazar, Katra Ghel, Khari Baoli, Chandni Chowk, New Delhi, Delhi, 110006","Tilak Bazar, Katra Ghel, Khari Baoli, Chandni Chowk",1344,"New Delhi, Delhi",110006,Delhi,IN,https://www.google.com/maps/place/Masjid+Mohtasib+AhleHadees/data=!4m7!3m6!1s0x390cfd0d0b1ead27:0x268f74b032fdea77!8m2!3d28.6595809!4d77.2201947!16s%2Fg%2F11cnccdpfw!19sChIJJ60eCw39DDkRd-r9MrB0jyY?authuser=0&hl=en&rclk=1,"28.659580899999998,77.2201947"
Masjid Maqbara Iradatullah,Mosque,"M62C+JQX Masjid Maqbara Iradatullah, Rodgran,, Lal Kuan Bazar, Chandni Chowk, New Delhi, Delhi 110006","Lal Kuan Bazar, Chandni Chowk","M62C+JQX, Rodgran,","New Delhi, Delhi",110006,Delhi,IN,https://www.google.com/maps/place/Masjid+Maqbara+Iradatullah/data=!4m7!3m6!1s0x390cfd1413ef8593:0x1b323557db72f5ba!8m2!3d28.6516069!4d77.2219999!16s%2Fg%2F11clk_bbp5!19sChIJk4XvExT9DDkRuvVy21c1Mhs?authuser=0&hl=en&rclk=1,"28.651606899999997,77.2219999"
Mohammadi Masjid msjd mHmdy,Mosque,"Mohammadi Masjid msjd mHmdy, H834, Narayan Nagar, Laxmi Nagar, New Delhi, Delhi, 110092","Narayan Nagar, Laxmi Nagar",H834,"New Delhi, Delhi",110092,Delhi,IN,https://www.google.com/maps/place/Mohammadi+Masjid+%D9%85%D8%B3%D8%AC%D8%AF+%D9%85%D8%AD%D9%85%D8%AF%DB%8C%E2%80%AD/data=!4m7!3m6!1s0x390cfcb3d4737a4f:0x9962a808a391708d!8m2!3d28.6339702!4d77.2718636!16s%2Fg%2F11f3xz2hzb!19sChIJT3pz1LP8DDkRjXCRowioYpk?authuser=0&hl=en&rclk=1,"28.6339702,77.2718636"
Masjid Anjuman,Mosque,"Masjid Anjuman, 1591, Pahari Bhojla Rd, Pahari Bhojla, Sita Ram Bazar, Chandni Chowk, New Delhi, Delhi, 110006","Pahari Bhojla, Sita Ram Bazar, Chandni Chowk","1591, Pahari Bhojla Rd","New Delhi, Delhi",110006,Delhi,IN,https://www.google.com/maps/place/Masjid+Anjuman/data=!4m7!3m6!1s0x390cfd225b65df0d:0xed1b76f9da4847b!8m2!3d28.6459142!4d77.2324993!16s%2Fg%2F11c5_hvc53!19sChIJDd9lWyL9DDkRe4SknW-30Q4?authuser=0&hl=en&rclk=1,"28.6459142,77.2324993"
Khanqah Masjid,Mosque,"J6VM+XC9 Khanqah Masjid, Wali Baig St, Bazar Chitli Qabar, Sheesh Mahal, Daryaganj, New Delhi, Delhi, 110006","Bazar Chitli Qabar, Sheesh Mahal, Daryaganj","J6VM+XC9, Wali Baig St","New Delhi, Delhi",110006,Delhi,IN,https://www.google.com/maps/place/Khanqah+Masjid/data=!4m7!3m6!1s0x390cfd23cb1bce95:0xf2e67ef609136573!8m2!3d28.644907!4d77.2336105!16s%2Fg%2F1jkyy69j1!19sChIJlc4byyP9DDkRc2UTCfZ-5vI?authuser=0&hl=en&rclk=1,"28.644907,77.2336105"
Masjid Dhobiyan,Mosque,"Masjid Dhobiyan, 3280, Delhi Gate Bazar, Kucha Alam, Old Dariya Ganj, New Delhi, Delhi 110002","Chatta lal Miya, Chandni Mahal, Old Delhi","3280, Delhi Gate Bazar, Kucha Alam, Old Dariya Ganj","New Delhi, Delhi",110002,Delhi,IN,https://www.google.com/maps/place/Masjid+Dhobiyan/data=!4m7!3m6!1s0x390cfd273340d127:0x7d6d2edf4a35f8d9!8m2!3d28.6425263!4d77.2386389!16s%2Fg%2F11cs5s2vzb!19sChIJJ9FAMyf9DDkR2fg1St8ubX0?authuser=0&hl=en&rclk=1,"28.6425263,77.2386389"
Masjid Imli Wali,Mosque,"M63C+2W3 Masjid Imli Wali, gali imli wali, rodgran,, Lal Kuan Bazar, Chandni Chowk, Delhi, 110006","Lal Kuan Bazar, Chandni Chowk","M63C+2W3, gali imli wali, rodgran,",Delhi,110006,Delhi,IN,https://www.google.com/maps/place/Masjid+Imli+Wali/data=!4m7!3m6!1s0x390cfd13f621a2f1:0xdb13fc37da75795f!8m2!3d28.6525208!4d77.2222919!16s%2Fg%2F11ck8b_h2n!19sChIJ8aIh9hP9DDkRX3l12jf8E9s?authuser=0&hl=en&rclk=1,"28.652520799999998,77.2222919"
Masjid & Madarsa Riyazul Uloom (Ahle Hadees),Mosque,"J6XP+P3P Masjid & Madarsa Riyazul Uloom (Ahle Hadees), Urdu Bazar Rd, Jama Masjid, Chandni Chowk, New Delhi, Delhi, 110006","Jama Masjid, Chandni Chowk","J6XP+P3P, Urdu Bazar Rd","New Delhi, Delhi",110006,Delhi,IN,https://www.google.com/maps/place/Masjid+%26+Madarsa+Riyazul+Uloom+%28Ahle+Hadees%29/data=!4m7!3m6!1s0x390cfd18b61963d1:0x46947ab807553eee!8m2!3d28.6493294!4d77.2352044!16s%2Fg%2F1hf8mls9b!19sChIJ0WMZthj9DDkR7j5VB7h6lEY?authuser=0&hl=en&rclk=1,"28.6493294,77.2352044"
Masjid Sabeel Wali,Mosque,"J6WP+93F Masjid Sabeel Wali, Chittli Qabar Bazar Rd, Bazar Chitli Qabar, Kalan Mehal, Old Delhi, Delhi, 110002","Bazar Chitli Qabar, Kalan Mehal, Old Delhi","J6WP+93F, Chittli Qabar Bazar Rd",Delhi,110002,Delhi,IN,https://www.google.com/maps/place/Masjid+Sabeel+Wali/data=!4m7!3m6!1s0x390cfd218f4865b9:0x8392357b25cb3df8!8m2!3d28.6459304!4d77.2351802!16s%2Fg%2F11fxb41y92!19sChIJuWVIjyH9DDkR-D3LJXs1koM?authuser=0&hl=en&rclk=1,"28.645930399999997,77.2351802"
Pare wali masjid - paare vaalii msjid (vkph),Mosque,"Pare wali masjid - paare vaalii msjid (vkph), Dr Ambedkar Colony, near Nature Bazar, Andheria Mor Village, Chhatarpur, New Delhi, Delhi 110074","Pocket A, Andheria Mor Village, Chhatarpur","Dr Ambedkar Colony, near Nature Bazar",New Delhi,110074,Delhi,IN,https://www.google.com/maps/place/Pare+wali+masjid+-+%E0%A4%AA%E0%A4%BE%E0%A4%B0%E0%A5%87+%E0%A4%B5%E0%A4%BE%E0%A4%B2%E0%A5%80+%E0%A4%AE%E0%A4%B8%E0%A5%8D%E0%A4%9C%E0%A4%BF%E0%A4%A6+%28%E0%A4%B5%E0%A4%95%E0%A5%8D%E0%A4%AB%29/data=!4m7!3m6!1s0x390d1e16f6905e1f:0x25b96cc9ca94f881!8m2!3d28.5081282!4d77.1791472!16s%2Fg%2F1s04dqgww!19sChIJH16Q9hYeDTkRgfiUyslsuSU?authuser=0&hl=en&rclk=1,"28.508128199999998,77.1791472"
Masjid Nabi Bakhsh,Mosque,"Masjid Nabi Bakhsh, 3466, Netaji Subhash Marg, Kucha Lal Man, Daryaganj, New Delhi, Delhi, 110002","Kucha Lal Man, Daryaganj","3466, Netaji Subhash Marg","New Delhi, Delhi",110002,Delhi,IN,https://www.google.com/maps/place/Masjid+Nabi+Bakhsh/data=!4m7!3m6!1s0x390cfd275fb57917:0xa9077f1ba5a1b726!8m2!3d28.641538!4d77.240405!16s%2Fg%2F1jkx_pbzf!19sChIJF3m1Xyf9DDkRJrehpRt_B6k?authuser=0&hl=en&rclk=1,"28.641537999999997,77.240405"
Jama Masjid Gate Number 1,Mosque,"J6XM+XW9 Jama Masjid Gate Number 1, Urdu Bazar Rd, Meena Bazaar, Jama Masjid, Chandni Chowk, New Delhi, Delhi, 110006","Meena Bazaar, Jama Masjid, Chandni Chowk","J6XM+XW9, Urdu Bazar Rd","New Delhi, Delhi",110006,Delhi,IN,https://www.google.com/maps/place/Jama+Masjid+Gate+Number+1/data=!4m7!3m6!1s0x390cfdb4c9715319:0x6ce59b2dd83221f9!8m2!3d28.6499148!4d77.2348516!16s%2Fg%2F11v5bbt7zx!19sChIJGVNxybT9DDkR-SEy2C2b5Ww?authuser=0&hl=en&rclk=1,"28.649914799999998,77.2348516"
Masjid Imli Wali,Mosque,"Masjid Imli Wali, Gali Meer Afzal, Sirkiwalan, 1938, Lalkuan Bazar Rd, Lal Kuan Bazar, Delhi, 110006","Bazar Sirkiwalan, Lal Kuan Bazar, Chandni Chowk","Gali Meer Afzal, Sirkiwalan, 1938, Lalkuan Bazar Rd",Delhi,110006,Delhi,IN,https://www.google.com/maps/place/Masjid+Imli+Wali/data=!4m7!3m6!1s0x390cfd16c0100b05:0x35829f8b493c1018!8m2!3d28.6517808!4d77.2242281!16s%2Fg%2F12hnc0mqg!19sChIJBQsQwBb9DDkRGBA8SYufgjU?authuser=0&hl=en&rclk=1,"28.651780799999997,77.22422809999999"
Hauz Wali Masjid,Mosque,"Hauz Wali Masjid, 1706, Bazar Chitli Qabar, Hauz Suiwalan, Chandni Chowk, New Delhi, Delhi, 110006","Bazar Chitli Qabar, Hauz Suiwalan, Chandni Chowk",1706,"New Delhi, Delhi",110006,Delhi,IN,https://www.google.com/maps/place/Hauz+Wali+Masjid/data=!4m7!3m6!1s0x390cfd23de88e483:0xefdee4bc78655fb8!8m2!3d28.6438248!4d77.2344629!16s%2Fg%2F11gfjs08w6!19sChIJg-SI3iP9DDkRuF9leLzk3u8?authuser=0&hl=en&rclk=1,"28.643824799999997,77.2344629"
Masjid Neem Wali,Mosque,"J6XP+GQ3 Masjid Neem Wali, Street khidhki, Kalan Mahal, Daryaganj, New Delhi, Delhi 110002","Kalan Mahal, Daryaganj","J6XP+GQ3, Street khidhki","New Delhi, Delhi",110002,Delhi,IN,https://www.google.com/maps/place/Masjid+Neem+Wali/data=!4m7!3m6!1s0x390cfd1f65334c69:0x68db7ecd3a5693b1!8m2!3d28.6487668!4d77.236922!16s%2Fg%2F11c6wq6p8g!19sChIJaUwzZR_9DDkRsZNWOs1-22g?authuser=0&hl=en&rclk=1,"28.648766799999997,77.23692199999999"
Fakhrul Masjid msjd,Mosque,"Fakhrul Masjid msjd, 1268, Bara Bazar Rd, Chabi Ganj, Kashmere Gate, New Delhi, Delhi, 110006","Chabi Ganj, Kashmere Gate","1268, Bara Bazar Rd","New Delhi, Delhi",110006,Delhi,IN,https://www.google.com/maps/place/Fakhrul+Masjid+%D9%85%D8%B3%D8%AC%D8%AF%E2%80%AD/data=!4m7!3m6!1s0x390cfd060683b301:0xc9d92074bb420992!8m2!3d28.665012!4d77.2295583!16s%2Fg%2F11cmytc3k3!19sChIJAbODBgb9DDkRkglCu3Qg2ck?authuser=0&hl=en&rclk=1,"28.665011999999997,77.2295583"
Masjid Chhatta Nawab Saheb,Mosque,"Masjid Chhatta Nawab Saheb, 1441 Chhatta Nawab Saheb, Farash Khana, Chandni Chowk, Delhi, 110006","Farash Khana, Chandni Chowk",1441 Chhatta Nawab Saheb,Delhi,110006,Delhi,IN,https://www.google.com/maps/place/Masjid+Chhatta+Nawab+Saheb/data=!4m7!3m6!1s0x390cfd1389ac84d7:0x1da417aeb9f9a453!8m2!3d28.6526139!4d77.221316!16s%2Fg%2F11f_4rk3cy!19sChIJ14SsiRP9DDkRU6T5ua4XpB0?authuser=0&hl=en&rclk=1,"28.6526139,77.221316"
Masjid Kallu Wali,Mosque,"Masjid Kallu Wali, 7689, Daroga St, Sarai Khalil, Sadar Bazaar, Delhi, 110006","Sarai Khalil, Sadar Bazaar","7689, Daroga St",Delhi,110006,Delhi,IN,https://www.google.com/maps/place/Masjid+Kallu+Wali/data=!4m7!3m6!1s0x390cfd71d7401a45:0xdfce869413adf0b4!8m2!3d28.6572826!4d77.2095202!16s%2Fg%2F11d_88y49_!19sChIJRRpA13H9DDkRtPCtE5SGzt8?authuser=0&hl=en&rclk=1,"28.6572826,77.2095202"
Jama Masjid Qazi Wali,Mosque,"Jama Masjid Qazi Wali, 1116, Main Bazar Rd, Ratan Lal Market, Kaseru Walan, Paharganj, New Delhi, Delhi 110055","Ratan Lal Market, Kaseru Walan, Paharganj","1116, Main Bazar Rd",New Delhi,110055,Delhi,IN,https://www.google.com/maps/place/Jama+Masjid+Qazi+Wali/data=!4m7!3m6!1s0x390cfd4126b39e0d:0x81053f8c811d6429!8m2!3d28.641262!4d77.21435!16s%2Fg%2F11cn0q9crp!19sChIJDZ6zJkH9DDkRKWQdgYw_BYE?authuser=0&hl=en&rclk=1,"28.641261999999998,77.21435"
Masjid Peepal Wali,Mosque,"J6VM+5QM Masjid Peepal Wali, Ganj Meer Khan, Darya Ganj, Old Delhi, New Delhi, Delhi 110006","Bazar Chitli Qabar, Hauz Suiwalan, Old Delhi","J6VM+5QM, Ganj Meer Khan, Darya Ganj","New Delhi, Delhi",110006,Delhi,IN,https://www.google.com/maps/place/Masjid+Peepal+Wali/data=!4m7!3m6!1s0x390cfd23fcd85121:0xe9714e9952b95588!8m2!3d28.6429618!4d77.2344364!16s%2Fg%2F11dz5qbrgw!19sChIJIVHY_CP9DDkRiFW5UplOcek?authuser=0&hl=en&rclk=1,"28.6429618,77.23443639999999"
Laal Masjid - ll msjd,Mosque,"Laal Masjid - ll msjd, 399, Chawri Bazar Rd, Chitla Gate, Manohar Market, Hauz Qazi, Chandni Chowk, New Delhi, Delhi, 110006","Chitla Gate, Manohar Market, Hauz Qazi, Chandni Chowk","399, Chawri Bazar Rd","New Delhi, Delhi",110006,Delhi,IN,https://www.google.com/maps/place/Laal+Masjid+-+%D9%84%D8%A7%D9%84+%D9%85%D8%B3%D8%AC%D8%AF%E2%80%AD/data=!4m7!3m6!1s0x390cfd18f696a3c3:0x32265043550938e8!8m2!3d28.6494096!4d77.2321668!16s%2Fg%2F12hrvkc0d!19sChIJw6OW9hj9DDkR6DgJVUNQJjI?authuser=0&hl=en&rclk=1,"28.6494096,77.2321668"
Masjid Madarsay Wali msjd mdrsh wly,Mosque,"Masjid Madarsay Wali msjd mdrsh wly, 9/4062 Street Number 15 Ajeet Nagar, Gandhi Nagar, Seelampur, Shahdara, Delhi, 110031","Gandhi Nagar, Seelampur, Shahdara",9/4062 Street Number 15 Ajeet Nagar,Delhi,110031,Delhi,IN,https://www.google.com/maps/place/Masjid+Madarsay+Wali+%D9%85%D8%B3%D8%AC%D8%AF+%D9%85%D8%AF%D8%B1%D8%B3%DB%81+%D9%88%D8%A7%D9%84%DB%8C%E2%80%AD/data=!4m7!3m6!1s0x390cfd30c19695f1:0x56b150c51a56e61e!8m2!3d28.6682086!4d77.2644022!16s%2Fg%2F11g071sw7v!19sChIJ8ZWWwTD9DDkRHuZWGsVQsVY?authuser=0&hl=en&rclk=1,"28.6682086,77.26440219999999"
Masjid Badi msjd,Mosque,"Masjid Badi msjd, 893,, Chittli Qabar Bazar Rd, Jama Masjid, Chandni Chowk, New Delhi, Delhi 110006","Bazar Chitli Qabar, Kucha Chelan, Jama Masjid, Chandni Chowk","893,, Chittli Qabar Bazar Rd","New Delhi, Delhi",110006,Delhi,IN,https://www.google.com/maps/place/Masjid+Badi+%D9%85%D8%B3%D8%AC%D8%AF%E2%80%AD/data=!4m7!3m6!1s0x390cfd219cfec1f3:0x93ccacb281d71709!8m2!3d28.645321!4d77.2357133!16s%2Fg%2F12m98gjn5!19sChIJ88H-nCH9DDkRCRfXgbKszJM?authuser=0&hl=en&rclk=1,"28.645321,77.2357133"
Masjid Mashal Chiyan,Mosque,"Masjid Mashal Chiyan, 2100, Pahari Bhojla Rd, Pahari Bhojla, Sita Ram Bazar, Old Delhi, Delhi, 110006","Pahari Bhojla, Sita Ram Bazar, Old Delhi","2100, Pahari Bhojla Rd",Delhi,110006,Delhi,IN,https://www.google.com/maps/place/Masjid+Mashal+Chiyan/data=!4m7!3m6!1s0x390cfd225b6ed379:0x9d5cccd781f0a815!8m2!3d28.6454716!4d77.232231!16s%2Fg%2F11f1211zsv!19sChIJedNuWyL9DDkRFajwgdfMXJ0?authuser=0&hl=en&rclk=1,"28.6454716,77.232231"
Gulam Nabi Masjid,Mosque,"Gulam Nabi Masjid, 2851-52, Sitaram Bazar Road, Shanker gali, Asaf Ali Rd, Old Delhi, New Delhi, Delhi 110006","Bazar Sirkiwalan, Sita Ram Bazar, Old Delhi","2851-52, Sitaram Bazar Road, Shanker gali, Asaf Ali Rd","New Delhi, Delhi",110006,Delhi,IN,https://www.google.com/maps/place/Gulam+Nabi+Masjid/data=!4m7!3m6!1s0x390cfd22df889cab:0x4d6f70c56e899829!8m2!3d28.6466912!4d77.2298392!16s%2Fg%2F11c5ssnxdy!19sChIJq5yI3yL9DDkRKZiJbsVwb00?authuser=0&hl=en&rclk=1,"28.6466912,77.2298392"
Garahaiya Wali Masjid msjd ghrrhy wly,Mosque,"M645+P9X Garahaiya Wali Masjid msjd ghrrhy wly, Qureshnagar, Sadar Bazaar, Delhi, 110006","Sarai Khalil, Sadar Bazaar","M645+P9X, Qureshnagar, Sadar Bazaar",Delhi,110006,Delhi,IN,https://www.google.com/maps/place/Garahaiya+Wali+Masjid+%D9%85%D8%B3%D8%AC%D8%AF+%DA%AF%DA%BE%DA%91%DA%BE%DB%8C%D8%A7+%D9%88%D8%A7%D9%84%DB%8C%E2%80%AD/data=!4m7!3m6!1s0x390cfd6fd6004367:0xfebc1f26322235da!8m2!3d28.6568604!4d77.2084973!16s%2Fg%2F11c3w0w7y_!19sChIJZ0MA1m_9DDkR2jUiMiYfvP4?authuser=0&hl=en&rclk=1,"28.6568604,77.20849729999999"
Masjid Hazrat Bilal,Mosque,"Masjid Hazrat Bilal, 2407-2409, Wali Baig St, Bazar Chitli Qabar, Sita Ram Bazar, Old Delhi, New Delhi, Delhi, 110006","Bazar Chitli Qabar, Sita Ram Bazar, Old Delhi","2407-2409, Wali Baig St","New Delhi, Delhi",110006,Delhi,IN,https://www.google.com/maps/place/Masjid+Hazrat+Bilal/data=!4m7!3m6!1s0x390cfd22341ebbb7:0xbda35eb51011246c!8m2!3d28.6453131!4d77.2336802!16s%2Fg%2F11c5s86f2n!19sChIJt7seNCL9DDkRbCQRELVeo70?authuser=0&hl=en&rclk=1,"28.6453131,77.2336802"
Ek Burj Wali Masjid,Mosque,"Ek Burj Wali Masjid, 1285, pahari imli New, Sita Ram Bazar, Chandni Chowk, New Delhi, Delhi 110006","Sita Ram Bazar, Chandni Chowk","1285, pahari imli New","New Delhi, Delhi",110006,Delhi,IN,https://www.google.com/maps/place/Ek+Burj+Wali+Masjid/data=!4m7!3m6!1s0x390cfd22798933e9:0x952ef97cdf0d7140!8m2!3d28.6473909!4d77.2324918!16s%2Fg%2F11ddx07xmx!19sChIJ6TOJeSL9DDkRQHEN33z5LpU?authuser=0&hl=en&rclk=1,"28.647390899999998,77.23249179999999"
Masjid Phatak Dhobiyan,Mosque,"M639+4W9 Masjid Phatak Dhobiyan, Phatak Dhobiyan, Farash Khana, Chandni Chowk, Delhi, 110006","Chabdi Bazar, Shardhanand Market, Farash Khana, Chandni Chowk","M639+4W9, Phatak Dhobiyan",Delhi,110006,Delhi,IN,https://www.google.com/maps/place/Masjid+Phatak+Dhobiyan/data=!4m7!3m6!1s0x390cfd137ba86047:0x6315b181c3dabea9!8m2!3d28.6527816!4d77.2198509!16s%2Fg%2F11gcqww2w6!19sChIJR2CoexP9DDkRqb7aw4GxFWM?authuser=0&hl=en&rclk=1,"28.652781599999997,77.2198509"
Paharganj Masjid,Mosque,"J6R7+H9H Paharganj Masjid, Bazar Sangatrashan, Mantola Mohalla, Kaseru Walan, Paharganj, New Delhi, Delhi 110055","Bazar Sangatrashan, Mantola Mohalla, Kaseru Walan, Paharganj",J6R7+H9H,New Delhi,110055,Delhi,IN,https://www.google.com/maps/place/Paharganj+Masjid/data=!4m7!3m6!1s0x390cfd30ddf55795:0x9264ff7b1702a21c!8m2!3d28.6414463!4d77.2134999!16s%2Fg%2F11h24l2rg1!19sChIJlVf13TD9DDkRHKICF3v_ZJI?authuser=0&hl=en&rclk=1,"28.6414463,77.2134999"
Nurani Masjid,Mosque,"J7PC+G67 Nurani Masjid, Ansar Nagar, Ramesh Park, Laxmi Nagar, New Delhi, Delhi, 110092","Ansar Nagar, Ramesh Park, Laxmi Nagar",J7PC+G67,"New Delhi, Delhi",110092,Delhi,IN,https://www.google.com/maps/place/Nurani+Masjid/data=!4m7!3m6!1s0x390cfcb13d2eb817:0xccb1081aadae8215!8m2!3d28.6362839!4d77.2705327!16s%2Fg%2F11dxnmpqhm!19sChIJF7guPbH8DDkRFYKurRoIscw?authuser=0&hl=en&rclk=1,"28.6362839,77.27053269999999"
Masjid Barh Wali,Mosque,"M67F+GWW Masjid Barh Wali, Ram Bazar, South Indian Madrasi Colony, Old Delhi, New Delhi, Delhi, 110006","Ram Bazar, South Indian Madrasi Colony, Old Delhi",M67F+GWW,"New Delhi, Delhi",110006,Delhi,IN,https://www.google.com/maps/place/Masjid+Barh+Wali/data=!4m7!3m6!1s0x390cfd0ec99b60a9:0xd50c2467d3be3d5e!8m2!3d28.6638574!4d77.2248316!16s%2Fg%2F12hmx30fh!19sChIJqWCbyQ79DDkRXj2-02ckDNU?authuser=0&hl=en&rclk=1,"28.663857399999998,77.2248316"
Masjid Rang Mahal,Mosque,"J6WQ+29F Masjid Rang Mahal, Kucha Chelan, Kucha Chalan, Khabas Pura, Daryaganj, New Delhi, Delhi, 110002","Kucha Chalan, Khabas Pura, Daryaganj","J6WQ+29F, Kucha Chelan","New Delhi, Delhi",110002,Delhi,IN,https://www.google.com/maps/place/Masjid+Rang+Mahal/data=!4m7!3m6!1s0x390cfd20f0b4187b:0xf0975d157af3975a!8m2!3d28.6450644!4d77.2384327!16s%2Fg%2F11dxkd_c4g!19sChIJexi08CD9DDkRWpfzehVdl_A?authuser=0&hl=en&rclk=1,"28.6450644,77.23843269999999"
Masjid Chand Wali,Mosque,"M62P+M65 Masjid Chand Wali, GALI KHAN KHANA, Jama Masjid, Chandni Chowk, Delhi, 110006","Meena Bazaar, Jama Masjid, Chandni Chowk","M62P+M65, GALI KHAN KHANA",Delhi,110006,Delhi,IN,https://www.google.com/maps/place/Masjid+Chand+Wali/data=!4m7!3m6!1s0x390cfd1ec5555559:0x16c411cacfe948ea!8m2!3d28.6516284!4d77.2356067!16s%2Fg%2F11fx7ss058!19sChIJWVVVxR79DDkR6kjpz8oRxBY?authuser=0&hl=en&rclk=1,"28.6516284,77.23560669999999"
Chhoti Masjid,Mosque,"M654+G93 Chhoti Masjid, Md. Ismail Marg, Chowk Nai Basti, Sadar Bazaar, New Delhi, Delhi, 110006","Chowk Nai Basti, Sadar Bazaar","M654+G93, Md. Ismail Marg","New Delhi, Delhi",110006,Delhi,IN,https://www.google.com/maps/place/Chhoti+Masjid/data=!4m7!3m6!1s0x390cfdafc4f35c57:0x6a497198c209186f!8m2!3d28.6587652!4d77.2059106!16s%2Fg%2F11ghrgcj8y!19sChIJV1zzxK_9DDkRbxgJwphxSWo?authuser=0&hl=en&rclk=1,"28.658765199999998,77.2059106"
Masjid Sheesh Mahal,Mosque,"J6XF+7XC Masjid Sheesh Mahal, Gali Shahtara, Kaccha Pandit Main Bazar, Lal Kuan Bazar, Old Delhi, Delhi, 110006","Kaccha Pandit Main Bazar, Lal Kuan Bazar, Old Delhi","J6XF+7XC, Gali Shahtara",Delhi,110006,Delhi,IN,https://www.google.com/maps/place/Masjid+Sheesh+Mahal/data=!4m7!3m6!1s0x390cfd163ef59ad1:0x6ca55a04b61d5510!8m2!3d28.6481969!4d77.2248906!16s%2Fg%2F11f1wstcqk!19sChIJ0Zr1Phb9DDkREFUdtgRapWw?authuser=0&hl=en&rclk=1,"28.6481969,77.2248906"
Masjid Badal Beig,Mosque,"Masjid Badal Beig, 5005, Lalkuan Bazar Rd, Bazar Sirkiwalan, Kaccha Pandit Main Bazar, Lal Kuan Bazar, Chandni Chowk, Delhi, 110006","Bazar Sirkiwalan, Kaccha Pandit Main Bazar, Lal Kuan Bazar, Chandni Chowk","5005, Lalkuan Bazar Rd",Delhi,110006,Delhi,IN,https://www.google.com/maps/place/Masjid+Badal+Beig/data=!4m7!3m6!1s0x390cfd16f0b0654b:0xb1cce8d6fe259090!8m2!3d28.6503682!4d77.2254128!16s%2Fg%2F1hm2fcyvw!19sChIJS2Ww8Bb9DDkRkJAl_tbozLE?authuser=0&hl=en&rclk=1,"28.6503682,77.2254128"
Unchi Masjid,Mosque,"J6XG+JCF Unchi Masjid, Hauz Qazi Chowk, Bazar Sirkiwalan, Kaccha Pandit Main Bazar, Hauz Qazi, Chandni Chowk, New Delhi, Delhi, 110006","Bazar Sirkiwalan, Kaccha Pandit Main Bazar, Hauz Qazi, Chandni Chowk","J6XG+JCF, Hauz Qazi Chowk","New Delhi, Delhi",110006,Delhi,IN,https://www.google.com/maps/place/Unchi+Masjid/data=!4m7!3m6!1s0x390cfd164cdae451:0x7207fa523d5d853f!8m2!3d28.6490678!4d77.226062!16s%2Fg%2F1hm6mbrk9!19sChIJUeTaTBb9DDkRP4VdPVL6B3I?authuser=0&hl=en&rclk=1,"28.649067799999997,77.226062"
Bag-e-Nabiullah,Mosque,"Bag-e-Nabiullah, 387, Hauz Qazi Chowk, Bazar Sirkiwalan, Hauz Qazi, Old Delhi, Delhi, 110006","Bazar Sirkiwalan, Hauz Qazi, Old Delhi","387, Hauz Qazi Chowk",Delhi,110006,Delhi,IN,https://www.google.com/maps/place/Bag-e-Nabiullah/data=!4m7!3m6!1s0x390cfd17b134cbc7:0x7cbe724a92209969!8m2!3d28.6492393!4d77.2265837!16s%2Fg%2F1q6j9v4_x!19sChIJx8s0sRf9DDkRaZkgkkpyvnw?authuser=0&hl=en&rclk=1,"28.649239299999998,77.22658369999999"
Jahtari Wali Masjid,Mosque,"Jahtari Wali Masjid, 5077, Main Bazar Rd, Bharat Nagar, Main Bazar, Aram Bagh, Paharganj, New Delhi, Delhi 110055","Bharat Nagar, Main Bazar, Aram Bagh, Paharganj","5077, Main Bazar Rd",New Delhi,110055,Delhi,IN,https://www.google.com/maps/place/Jahtari+Wali+Masjid/data=!4m7!3m6!1s0x390cfd815a030b8b:0xe18350aa13859d7a!8m2!3d28.6406795!4d77.2115511!16s%2Fg%2F11gjxtbc0j!19sChIJiwsDWoH9DDkRep2FE6pQg-E?authuser=0&hl=en&rclk=1,"28.640679499999997,77.2115511"
Ghaziuddin's Mosque,Mosque,"J6WC+27Q Ghaziuddin's Mosque, Desh Bandhu Gupta Rd, Ajmeri Gate, New Delhi, Delhi, 110006",Ajmeri Gate,"J6WC+27Q, Desh Bandhu Gupta Rd","New Delhi, Delhi",110006,Delhi,IN,https://www.google.com/maps/place/Ghaziuddin%27s+Mosque/data=!4m7!3m6!1s0x390cfd3e4a23a085:0xc3158b353abd92f2!8m2!3d28.6450762!4d77.2207416!16s%2Fg%2F12hmk812x!19sChIJhaAjSj79DDkR8pK9OjWLFcM?authuser=0&hl=en&rclk=1,"28.6450762,77.2207416"
Masjid Gondeni Wali,Mosque,"J6XP+C9X Masjid Gondeni Wali, Gondeni Street, Kalan Mahel Bazar, Darya Ganj, New Delhi, Delhi 110002","Kalan Mehal, Old Delhi","J6XP+C9X, Gondeni Street, Kalan Mahel Bazar, Darya Ganj","New Delhi, Delhi",110002,Delhi,IN,https://www.google.com/maps/place/Masjid+Gondeni+Wali/data=!4m7!3m6!1s0x390cfd1f5cf7cc37:0x1e5b38f9d262d176!8m2!3d28.6486164!4d77.2359698!16s%2Fg%2F11df660ztc!19sChIJN8z3XB_9DDkRdtFi0vk4Wx4?authuser=0&hl=en&rclk=1,"28.648616399999998,77.23596979999999"
Masjid Sang-e-Mar Mar,Mosque,"J6XJ+C5G Masjid Sang-e-Mar Mar, Choori Walan, Hauz Qazi, Chandni Chowk, New Delhi, Delhi, 110006","Choori Walan, Hauz Qazi, Chandni Chowk",J6XJ+C5G,"New Delhi, Delhi",110006,Delhi,IN,https://www.google.com/maps/place/Masjid+Sang-e-Mar+Mar/data=!4m7!3m6!1s0x390cfd186cb4ab4b:0xbce4ed209ae07835!8m2!3d28.6485564!4d77.2304564!16s%2Fg%2F11f54769nj!19sChIJS6u0bBj9DDkRNXjgmiDt5Lw?authuser=0&hl=en&rclk=1,"28.6485564,77.2304564"
Mashal Shihan Masjid,Mosque,"Mashal Shihan Masjid, 2106, Sitaram Bazar Rd, Pahari Bhojla, Sita Ram Bazar, Chandni Chowk, Delhi, 110006","Pahari Bhojla, Sita Ram Bazar, Chandni Chowk","2106, Sitaram Bazar Rd",Delhi,110006,Delhi,IN,https://www.google.com/maps/place/Mashal+Shihan+Masjid/data=!4m7!3m6!1s0x390cfd22573ea689:0xd0bacca9e2a885ae!8m2!3d28.6458657!4d77.2314269!16s%2Fg%2F11g6rftfft!19sChIJiaY-VyL9DDkRroWo4qnMutA?authuser=0&hl=en&rclk=1,"28.645865699999998,77.2314269"
khwy'yN wly msjd Kuein Wali Masjid,Mosque,"khwy'yN wly msjd Kuein Wali Masjid, 3017, Ram Bazar Marg, Mori Gate, Delhi, 110006","Ganda Nala Bazar, South Indian Madrasi Colony, Mori Gate","3017, Ram Bazar Marg",Delhi,110006,Delhi,IN,https://www.google.com/maps/place/%DA%A9%D9%88%D8%A6%DB%8C%DA%BA+%D9%88%D8%A7%D9%84%DB%8C+%D9%85%D8%B3%D8%AC%D8%AF+Kuein+Wali+Masjid%E2%80%AD/data=!4m7!3m6!1s0x390cfd0eb6b8bd09:0x18933362fd3b39e4!8m2!3d28.663729!4d77.224411!16s%2Fg%2F12hqtrvvz!19sChIJCb24tg79DDkR5Dk7_WIzkxg?authuser=0&hl=en&rclk=1,"28.663729,77.224411"
Masjid Sanauji,Mosque,"Masjid Sanauji, Shop No. 1630, Lal Kuan, Lalkuan Bazar Rd, Baradari, Chandni Chowk, New Delhi, Delhi 110006","Bazar Sirkiwalan, Baradari, Chandni Chowk","Shop No. 1630, Lal Kuan, Lalkuan Bazar Rd","New Delhi, Delhi",110006,Delhi,IN,https://www.google.com/maps/place/Masjid+Sanauji/data=!4m7!3m6!1s0x390cfd13fe3ea72d:0x27ea23bc5f650202!8m2!3d28.6529317!4d77.2232485!16s%2Fg%2F12hplq4pp!19sChIJLac-_hP9DDkRAgJlX7wj6ic?authuser=0&hl=en&rclk=1,"28.6529317,77.2232485"
Meena Bazaar Masjid,Mosque,"M62M+9VM Meena Bazaar Masjid, Meena Bazaar, Jama Masjid, Chandni Chowk, New Delhi, Delhi, 110006","Meena Bazaar, Jama Masjid, Chandni Chowk",M62M+9VM,"New Delhi, Delhi",110006,Delhi,IN,https://www.google.com/maps/place/Meena+Bazaar+Masjid/data=!4m7!3m6!1s0x390cfd192ae616db:0x69477750af6f54cb!8m2!3d28.6509553!4d77.2346596!16s%2Fg%2F11f5474gcq!19sChIJ2xbmKhn9DDkRy1Rvr1B3R2k?authuser=0&hl=en&rclk=1,"28.6509553,77.2346596"
"BADI MASJID, RAKAB GANJ",Mosque,"BADI MASJID, RAKAB GANJ, Partap Gali, NEAR, Asaf Ali Rd, Rakab Ganj, New Delhi, Delhi","Bazar Chitli Qabar, Rakab Ganj, Katra Chobey Lal, Chandni Chowk","Partap Gali, NEAR, Asaf Ali Rd","New Delhi, Delhi",,Delhi,IN,"https://www.google.com/maps/place/BADI+MASJID,+RAKAB+GANJ/data=!4m7!3m6!1s0x390cfd26ab7e79ed:0x8000b54be94e3210!8m2!3d28.6420932!4d77.2351127!16s%2Fg%2F11f3rgtgrc!19sChIJ7Xl-qyb9DDkREDJO6Uu1AIA?authuser=0&hl=en&rclk=1","28.642093199999998,77.2351127"
Masjid Chatta Sheikh Manglo,Mosque,"J6XJ+HXC Masjid Chatta Sheikh Manglo, Choori Walan, Kalan Mehal, Chandni Chowk, New Delhi, Delhi, 110002","Choori Walan, Kalan Mehal, Chandni Chowk",J6XJ+HXC,"New Delhi, Delhi",110002,Delhi,IN,https://www.google.com/maps/place/Masjid+Chatta+Sheikh+Manglo/data=!4m7!3m6!1s0x390cfd188c598f69:0x5942000107ab82cb!8m2!3d28.6489319!4d77.2323897!16s%2Fg%2F11gchs9zp4!19sChIJaY9ZjBj9DDkRy4KrBwEAQlk?authuser=0&hl=en&rclk=1,"28.648931899999997,77.2323897"
Masjid Chimni Mill,Mosque,"M653+XFW Masjid Chimni Mill, Rani jhansi road, near filmistan cinema, Delhi 110006","Chowk Nai Basti, Sadar Bazaar","M653+XFW, Rani jhansi road, near filmistan cinema",Delhi,110006,Delhi,IN,https://www.google.com/maps/place/Masjid+Chimni+Mill/data=!4m7!3m6!1s0x390cfd7a50319859:0x8a53f297d6a79a39!8m2!3d28.6599931!4d77.2037159!16s%2Fg%2F11ggvm3y8m!19sChIJWZgxUHr9DDkROZqn1pfyU4o?authuser=0&hl=en&rclk=1,"28.659993099999998,77.20371589999999"
Masjid Badh Wali,Mosque,"J6VP+JV6 Masjid Badh Wali, Tiraha Behram Khan Rd, Bazar Chitli Qabar, Rakab Ganj, Chandni Mahal, Old Delhi, New Delhi, Delhi, 110002","Bazar Chitli Qabar, Rakab Ganj, Chandni Mahal, Old Delhi","J6VP+JV6, Tiraha Behram Khan Rd","New Delhi, Delhi",110002,Delhi,IN,https://www.google.com/maps/place/Masjid+Badh+Wali/data=!4m7!3m6!1s0x390cfd2118e572f3:0x9c213c137affb7ef!8m2!3d28.6440274!4d77.2371508!16s%2Fg%2F11dybg90wk!19sChIJ83LlGCH9DDkR77f_ehM8IZw?authuser=0&hl=en&rclk=1,"28.6440274,77.2371508"
Masjid Nawab Qutubuddin @ Amrood wali Masjid,Mosque,"Masjid Nawab Qutubuddin @ Amrood wali Masjid, Bulbuli Khana, 110006, Sita Ram Bazar, Chandni Chowk, Delhi, 110006","Sita Ram Bazar, Chandni Chowk","Bulbuli Khana, 110006",Delhi,110006,Delhi,IN,https://www.google.com/maps/place/Masjid+Nawab+Qutubuddin+@+Amrood+wali+Masjid/data=!4m7!3m6!1s0x390cfd22f08b979f:0xd0168ca11e45a358!8m2!3d28.6455631!4d77.2313851!16s%2Fg%2F11f_3tnsny!19sChIJn5eL8CL9DDkRWKNFHqGMFtA?authuser=0&hl=en&rclk=1,"28.6455631,77.2313851"
Baghwali Masjid msjd bG wly,Mosque,"Baghwali Masjid msjd bG wly, 785, Nicholson Rd, Kashmere Gate, New Delhi, Delhi 110006","Ganda Nala Bazar, Kashmere Gate","785, Nicholson Rd","New Delhi, Delhi",110006,Delhi,IN,https://www.google.com/maps/place/Baghwali+Masjid+%D9%85%D8%B3%D8%AC%D8%AF+%D8%A8%D8%A7%D8%BA+%D9%88%D8%A7%D9%84%DB%8C%E2%80%AD/data=!4m7!3m6!1s0x390cfd092767785b:0xd4966cf4d21cbda8!8m2!3d28.6653187!4d77.2261277!16s%2Fg%2F12llwbr4n!19sChIJW3hnJwn9DDkRqL0c0vRsltQ?authuser=0&hl=en&rclk=1,"28.6653187,77.22612769999999"
Noor Masjid,Mosque,"Noor Masjid, 5/9 B 110014, Jangpura, New Delhi, Delhi 110014","Jangpura, Samman Bazar, Bhogal",5/9 B 110014,New Delhi,110014,Delhi,IN,https://www.google.com/maps/place/Noor+Masjid/data=!4m7!3m6!1s0x390ce3070da347dd:0x604a9a50b5f9c007!8m2!3d28.5821032!4d77.2485251!16s%2Fg%2F11c1n7_vvk!19sChIJ3UejDQfjDDkRB8D5tVCaSmA?authuser=0&hl=en&rclk=1,"28.5821032,77.2485251"
Masjid Turkman Bayabani msjd trkhmn bybny,Mosque,"J6WJ+2Q8 Masjid Turkman Bayabani msjd trkhmn bybny, Mohallah Kabristan, Turkman Gate, Chandni Chowk, Delhi, 110006","Mohallah Kabristan, Turkman Gate, Chandni Chowk",J6WJ+2Q8,Delhi,,Delhi,IN,https://www.google.com/maps/place/Masjid+Turkman+Bayabani+%D9%85%D8%B3%D8%AC%D8%AF+%D8%AA%D8%B1%DA%A9%D9%85%D8%A7%D9%86+%D8%A8%DB%8C%D8%A7%D8%A8%D8%A7%D9%86%DB%8C%E2%80%AD/data=!4m7!3m6!1s0x390cfd22559b07a1:0x2ea06e27e88f4195!8m2!3d28.6450356!4d77.2319492!16s%2Fg%2F11f3r28483!19sChIJoQebVSL9DDkRlUGP6CduoC4?authuser=0&hl=en&rclk=1,"28.6450356,77.2319492"
Fatemi Masjid,Mosque,"Fatemi Masjid, 3673, Main Bazar, Sabzi Mandi Rd, New Delhi, Delhi 110007","Arya Pura, Sabzi Mandi Old","3673, Main Bazar, Sabzi Mandi Rd","New Delhi, Delhi",110007,Delhi,IN,https://www.google.com/maps/place/Fatemi+Masjid/data=!4m7!3m6!1s0x390cfd77d6b49cc1:0xb29abba5fdd4f679!8m2!3d28.669022!4d77.2078086!16s%2Fg%2F12lksysp9!19sChIJwZy01nf9DDkRefbU_aW7mrI?authuser=0&hl=en&rclk=1,"28.669022,77.20780859999999"
Fukrulla Beg Masjid,Mosque,"M62C+Q3V Fukrulla Beg Masjid, Fasil Rd, Chabdi Bazar, Shardhanand Market, Farash Khana, Chandni Chowk, New Delhi, Delhi, 110006","Chabdi Bazar, Shardhanand Market, Farash Khana, Chandni Chowk","M62C+Q3V, Fasil Rd","New Delhi, Delhi",110006,Delhi,IN,https://www.google.com/maps/place/Fukrulla+Beg+Masjid/data=!4m7!3m6!1s0x390cfd1483eebfb7:0xc967bc440a10c6d5!8m2!3d28.6519886!4d77.2201721!16s%2Fg%2F1hm6f2k64!19sChIJt7_ugxT9DDkR1cYQCkS8Z8k?authuser=0&hl=en&rclk=1,"28.6519886,77.2201721"
Masjid Ek Minar,Mosque,"J6WM+7R4 Masjid Ek Minar, Haveli Kallu Khawas, Chittli Qabar Bazar Rd, Bazar Chitli Qabar, Delhi","Bazar Chitli Qabar, Sheesh Mahal, Chandni Chowk","J6WM+7R4, Haveli Kallu Khawas, Chittli Qabar Bazar Rd",Delhi,,Delhi,IN,https://www.google.com/maps/place/Masjid+Ek+Minar/data=!4m7!3m6!1s0x390cfd2228f9a779:0xac83acaad2316183!8m2!3d28.6456464!4d77.234573!16s%2Fg%2F11g8xfpgnd!19sChIJeaf5KCL9DDkRg2Ex0qqsg6w?authuser=0&hl=en&rclk=1,"28.6456464,77.234573"
Masjid,Mosque,"M647+7CW Masjid, Narain Market, Sadar Bazaar, New Delhi, Delhi, 110006","Narain Market, Sadar Bazaar",M647+7CW,"New Delhi, Delhi",110006,Delhi,IN,https://www.google.com/maps/place/Masjid/data=!4m7!3m6!1s0x390cfde8cbf21c77:0x8550d15998f1660d!8m2!3d28.6557316!4d77.2135821!16s%2Fg%2F11gx_wrsm_!19sChIJdxzyy-j9DDkRDWbxmFnRUIU?authuser=0&hl=en&rclk=1,"28.6557316,77.2135821"
Nawabudheen Rahmathullah,Mosque,"Nawabudheen Rahmathullah, 3633, Chawri Bazar Rd, Khush Dil, Chandni Chowk, New Delhi, Delhi, 110006","Khush Dil, Chandni Chowk","3633, Chawri Bazar Rd","New Delhi, Delhi",110006,Delhi,IN,https://www.google.com/maps/place/Nawabudheen+Rahmathullah/data=!4m7!3m6!1s0x390cfd17816e0211:0xb99a4095c887ddcb!8m2!3d28.650049!4d77.2287523!16s%2Fg%2F11gbk2z8jx!19sChIJEQJugRf9DDkRy92HyJVAmrk?authuser=0&hl=en&rclk=1,"28.650049,77.2287523"
Maidan Wali Masjid,Mosque,"M62F+R2M Maidan Wali Masjid, Rodgran,, Lal Kuan Bazar, Chandni Chowk, Delhi, 110006","Lal Kuan Bazar, Chandni Chowk","M62F+R2M, Rodgran,",Delhi,110006,Delhi,IN,https://www.google.com/maps/place/Maidan+Wali+Masjid/data=!4m7!3m6!1s0x390cfd140f7a508d:0x560a8b02a3124bce!8m2!3d28.6520963!4d77.2225318!16s%2Fg%2F11clkwlqtz!19sChIJjVB6DxT9DDkRzksSowKLClY?authuser=0&hl=en&rclk=1,"28.6520963,77.2225318"
MASJID MUSTAFA,Mosque,"J6WM+98X MASJID MUSTAFA, Bhojla Pahari, Pahari Bhojla Rd, Old Delhi, New Delhi, Delhi 110006","Pahari Bhojla, Sita Ram Bazar, Old Delhi","J6WM+98X, Bhojla Pahari, Pahari Bhojla Rd","New Delhi, Delhi",110006,Delhi,IN,https://www.google.com/maps/place/MASJID+MUSTAFA/data=!4m7!3m6!1s0x390cfd2238a6c517:0x24ebe32c00cfddaf!8m2!3d28.6459819!4d77.2333439!16s%2Fg%2F11fxxyxmth!19sChIJF8WmOCL9DDkRr93PACzj6yQ?authuser=0&hl=en&rclk=1,"28.6459819,77.2333439"
Masjid Hare Bhare Shah Delhi India,Mosque,"Masjid Hare Bhare Shah Delhi India, 8, Meena Bazar, Meena Bazaar, Jama Masjid, Old Delhi, New Delhi, Delhi, 110006","Meena Bazaar, Jama Masjid, Old Delhi","8, Meena Bazar","New Delhi, Delhi",110006,Delhi,IN,https://www.google.com/maps/place/Masjid+Hare+Bhare+Shah+Delhi+India/data=!4m7!3m6!1s0x390cfd4c1b428f65:0xd91f3a97259bfd9e!8m2!3d28.6509395!4d77.2346319!16s%2Fg%2F11h1mf8ysk!19sChIJZY9CG0z9DDkRnv2bJZc6H9k?authuser=0&hl=en&rclk=1,"28.6509395,77.2346319"
Masjid Syed Rafai,Mosque,"J6WM+QH6 Masjid Syed Rafai, Bazar Chitli Qabar, Sheesh Mahal, Old Delhi, Delhi, 110006","Bazar Chitli Qabar, Sheesh Mahal, Old Delhi",J6WM+QH6,Delhi,110006,Delhi,IN,https://www.google.com/maps/place/Masjid+Syed+Rafai/data=!4m7!3m6!1s0x390cfd221053c913:0x87b5fec533d754bb!8m2!3d28.6469176!4d77.2338965!16s%2Fg%2F11g86m2x49!19sChIJE8lTECL9DDkRu1TXM8X-tYc?authuser=0&hl=en&rclk=1,"28.6469176,77.2338965"
Masjid Hakeem Noor- Ud- Din,Mosque,"Masjid Hakeem Noor- Ud- Din, 993, Chittli Qabar Bazar Rd, Bazar , Chittli Qabar , Jama Masjid, Sheesh Mahal, Old Delhi, Delhi, 110006","Bazar , Chittli Qabar , Jama Masjid, Sheesh Mahal, Old Delhi","993, Chittli Qabar Bazar Rd",Delhi,110006,Delhi,IN,https://www.google.com/maps/place/Masjid+Hakeem+Noor-+Ud-+Din/data=!4m7!3m6!1s0x390cfd2187c0212b:0xcb35bc06021712d1!8m2!3d28.6457364!4d77.234858!16s%2Fg%2F11b5qw82xw!19sChIJKyHAhyH9DDkR0RIXAga8Ncs?authuser=0&hl=en&rclk=1,"28.645736399999997,77.234858"
Masjid Quwwat Al Islam (Masjid Meer Lallan),Mosque,"J6WM+4WH Masjid Quwwat Al Islam (Masjid Meer Lallan), Kotana St, Bazar Chitli Qabar, Sheesh Mahal, Chandni Chowk, New Delhi, Delhi, 110002","Bazar Chitli Qabar, Sheesh Mahal, Chandni Chowk","J6WM+4WH, Kotana St","New Delhi, Delhi",110002,Delhi,IN,https://www.google.com/maps/place/Masjid+Quwwat+Al+Islam+%28Masjid+Meer+Lallan%29/data=!4m7!3m6!1s0x390cfd2180f2c855:0xafcd0c032a101b40!8m2!3d28.6453201!4d77.2348594!16s%2Fg%2F11f3zf4p10!19sChIJVcjygCH9DDkRQBsQKgMMza8?authuser=0&hl=en&rclk=1,"28.6453201,77.23485939999999"
Noori Masjid,Mosque,"Noori Masjid, S286, Block S, Brahampuri, Shahdara, Delhi, 110053","Block S, Brahampuri, Shahdara",S286,Delhi,110053,Delhi,IN,https://www.google.com/maps/place/Noori+Masjid/data=!4m7!3m6!1s0x390cfd49000e16b7:0x7fdd492a359ff0ad!8m2!3d28.68057!4d77.2665461!16s%2Fg%2F11rc9rdr_1!19sChIJtxYOAEn9DDkRrfCfNSpJ3X8?authuser=0&hl=en&rclk=1,"28.68057,77.2665461"
Masjid Abdul Ghani,Mosque,"J6VM+JHM Masjid Abdul Ghani, Takhat, Wali Baig St, Bazar Chitli Qabar, Hauz Suiwalan, Old Delhi, Delhi, 110006","Bazar Chitli Qabar, Hauz Suiwalan, Old Delhi","J6VM+JHM, Takhat, Wali Baig St",Delhi,110006,Delhi,IN,https://www.google.com/maps/place/Masjid+Abdul+Ghani/data=!4m7!3m6!1s0x390cfd23c4fcec3f:0xd8269c9851551df2!8m2!3d28.6440999!4d77.2339068!16s%2Fg%2F11ggls8983!19sChIJP-z8xCP9DDkR8h1VUZicJtg?authuser=0&hl=en&rclk=1,"28.644099899999997,77.2339068"
Bazar Wali Masjid,Mosque,"MC79+W5X Bazar Wali Masjid, near bagdad biryani, Kaila Bhatta Village, Madhopura, Ghaziabad, Uttar Pradesh 201009","Kaila Bhatta Village, Madhopura","MC79+W5X, near bagdad biryani",Ghaziabad,201009,Uttar Pradesh,IN,https://www.google.com/maps/place/Bazar+Wali+Masjid/data=!4m7!3m6!1s0x390cf1f5b15a76ff:0xc972ce948f63e9dc!8m2!3d28.6648534!4d77.4179796!16s%2Fg%2F11h_79cf0l!19sChIJ_3ZasfXxDDkR3Oljj5TOcsk?authuser=0&hl=en&rclk=1,"28.6648534,77.4179796"
Raj ki masjid,Mosque,"J6H9+856 Raj ki masjid, Janpath Ln, Janpath, Connaught Place, New Delhi, Delhi 110001","Janpath, Connaught Place","J6H9+856, Janpath Ln",New Delhi,110001,Delhi,IN,https://www.google.com/maps/place/Raj+ki+masjid/data=!4m7!3m6!1s0x390cfd35f0d20bdb:0x6a589fe7aea64422!8m2!3d28.6282976!4d77.2178997!16s%2Fg%2F11fxxthr4h!19sChIJ2wvS8DX9DDkRIkSmruefWGo?authuser=0&hl=en&rclk=1,"28.6282976,77.21789969999999"
Masjid Ramzan Shah,Mosque,"Masjid Ramzan Shah, 2426-27, Tilak Bazar, Chhota Chamarwara, Khari Baoli, Chandni Chowk, Delhi, 110006","Tilak Bazar, Chhota Chamarwara, Khari Baoli, Chandni Chowk",2426-27,Delhi,110006,Delhi,IN,https://www.google.com/maps/place/Masjid+Ramzan+Shah/data=!4m7!3m6!1s0x390cfd0d753d925d:0x642ac5cf3bf4413b!8m2!3d28.6593521!4d77.2201978!16s%2Fg%2F11cnczp9wn!19sChIJXZI9dQ39DDkRO0H0O8_FKmQ?authuser=0&hl=en&rclk=1,"28.6593521,77.2201978"
Masjid,Mosque,"Masjid, 242, Masjid Jheel Pio, Near ITO metro GateNo.3, Bahadur Shah Zafar Marg, Balmiki Basti, Vikram Nagar, Delhi, 110002","Bahadur Shah Zafar Marg, Balmiki Basti, Vikram Nagar","242, Masjid Jheel Pio, Near ITO metro GateNo.3, Bahadur Shah Zafar Marg",Delhi,110002,Delhi,IN,https://www.google.com/maps/place/Masjid/data=!4m7!3m6!1s0x390cfd441769149d:0xa1929f1b4f5921d6!8m2!3d28.6298914!4d77.2415098!16s%2Fg%2F11s2n38r9b!19sChIJnRRpF0T9DDkR1iFZTxufkqE?authuser=0&hl=en&rclk=1,"28.629891399999998,77.2415098"
Masjid,Mosque,"Masjid, 2508, Fasil Rd, Gali Sakko Wali, Shah Ganj, Chandni Chowk, New Delhi, Delhi, 110006","Gali Sakko Wali, Shah Ganj, Chandni Chowk","2508, Fasil Rd","New Delhi, Delhi",110006,Delhi,IN,https://www.google.com/maps/place/Masjid/data=!4m7!3m6!1s0x390cfd15c9a8a4b1:0xf975aada141da03e!8m2!3d28.6491552!4d77.2220471!16s%2Fg%2F1hm4gjxkd!19sChIJsaSoyRX9DDkRPqAdFNqqdfk?authuser=0&hl=en&rclk=1,"28.6491552,77.2220471"
Masjid Budhiya wali,Mosque,"Masjid Budhiya wali, 3337, Mohammad Ali Road, Ram Bazar, South Indian Madrasi Colony, Mori Gate, Delhi, 110006","Ram Bazar, South Indian Madrasi Colony, Mori Gate","3337, Mohammad Ali Road",Delhi,110006,Delhi,IN,https://www.google.com/maps/place/Masjid+Budhiya+wali/data=!4m7!3m6!1s0x390cfd0eb2db65ab:0xf1543148365c3338!8m2!3d28.6641006!4d77.224132!16s%2Fg%2F11f2sgfqxw!19sChIJq2Xbsg79DDkRODNcNkgxVPE?authuser=0&hl=en&rclk=1,"28.664100599999998,77.224132"
Masjid Anar Wali,Mosque,"J6WP+H6G Masjid Anar Wali, Haveli Azam Khan, Chittli Qabar Bazar Rd, Delhi, 110006","Kalan Mehal, Old Delhi","J6WP+H6G, Haveli Azam Khan, Chittli Qabar Bazar Rd",Delhi,110006,Delhi,IN,https://www.google.com/maps/place/Masjid+Anar+Wali/data=!4m7!3m6!1s0x390cfd2192f45833:0xddf1e01c9e23f7d3!8m2!3d28.6464403!4d77.2355876!16s%2Fg%2F11f4v9j1sy!19sChIJM1j0kiH9DDkR0_cjnhzg8d0?authuser=0&hl=en&rclk=1,"28.6464403,77.2355876"
Masjid golar wali,Mosque,"Shop No, Masjid golar wali, 4464, Gali Shahtara, Kaccha Pandit Main Bazar, Lal Kuan Bazar, Ajmeri Gate, New Delhi, Delhi, 110006","Kaccha Pandit Main Bazar, Lal Kuan Bazar, Ajmeri Gate","Shop No, 4464, Gali Shahtara","New Delhi, Delhi",110006,Delhi,IN,https://www.google.com/maps/place/Masjid+golar+wali/data=!4m7!3m6!1s0x390cfd15b3e12a53:0xc55cec9c0a829731!8m2!3d28.6478688!4d77.2247622!16s%2Fg%2F11h94g1jcr!19sChIJUyrhsxX9DDkRMZeCCpzsXMU?authuser=0&hl=en&rclk=1,"28.647868799999998,77.2247622"
Masjid Ghulam Nabi,Mosque,"Masjid Ghulam Nabi, 3102, Mohd Ali Bazar, Ram Bazar Marg, Kashmere Gate, Delhi 110006","kishan ghanj, South Indian Madrasi Colony, Kashmere Gate","3102, Mohd Ali Bazar, Ram Bazar Marg",Delhi,110006,Delhi,IN,https://www.google.com/maps/place/Masjid+Ghulam+Nabi/data=!4m7!3m6!1s0x390cfd0eabbb0709:0xf1ebdc428b96a6eb!8m2!3d28.6638527!4d77.2235088!16s%2Fg%2F11gdk_bl9n!19sChIJCQe7qw79DDkR66aWi0Lc6_E?authuser=0&hl=en&rclk=1,"28.6638527,77.22350879999999"
Badi Masjid,Mosque,"J6XJ+XGG Badi Masjid, Kucha Mir Ashiq, Chawri Bazar Rd, Hauz Qazi, Chandni Chowk, New Delhi, Delhi 110006","Manohar Market, Hauz Qazi, Chandni Chowk","J6XJ+XGG, Kucha Mir Ashiq, Chawri Bazar Rd","New Delhi, Delhi",110006,Delhi,IN,https://www.google.com/maps/place/Badi+Masjid/data=!4m7!3m6!1s0x390cfd185059c1f5:0xa748debb3532a!8m2!3d28.6499334!4d77.2313346!16s%2Fg%2F12hk5jmzf!19sChIJ9cFZUBj9DDkRKlOz6410CgA?authuser=0&hl=en&rclk=1,"28.6499334,77.2313346"
Masjid sadak wali,Mosque,"7992, Masjid sadak wali, 1, Md. Ismail Marg, Chowk Nai Basti, Sadar Bazaar, New Delhi, Delhi, 110006","Chowk Nai Basti, Sadar Bazaar","7992, 1, Md. Ismail Marg","New Delhi, Delhi",110006,Delhi,IN,https://www.google.com/maps/place/Masjid+sadak+wali/data=!4m7!3m6!1s0x390cfd2020037aed:0xf4109e03947cf68f!8m2!3d28.6602926!4d77.2062804!16s%2Fg%2F11jz7vcbwz!19sChIJ7XoDICD9DDkRj_Z8lAOeEPQ?authuser=0&hl=en&rclk=1,"28.6602926,77.2062804"
Masjid Katra Bariyan,Mosque,"Masjid Katra Bariyan, 68, Katra Bariyan, Baradari, Chandni Chowk, New Delhi, Delhi 110006","Baradari, Chandni Chowk","68, Katra Bariyan","New Delhi, Delhi",110006,Delhi,IN,https://www.google.com/maps/place/Masjid+Katra+Bariyan/data=!4m7!3m6!1s0x390cfd1234e59f9f:0x5c8de7b65427ae99!8m2!3d28.6554125!4d77.2221369!16s%2Fg%2F12hk64g_h!19sChIJn5_lNBL9DDkRma4nVLbnjVw?authuser=0&hl=en&rclk=1,"28.655412499999997,77.2221369"
Dari Wali Masjid,Mosque,"J6XF+QMW Dari Wali Masjid, Lambi Gali, Bazar Sirkiwalan, Kaccha Pandit Main Bazar, Shah Ganj, Old Delhi, Delhi, 110006","Bazar Sirkiwalan, Kaccha Pandit Main Bazar, Shah Ganj, Old Delhi","J6XF+QMW, Lambi Gali",Delhi,110006,Delhi,IN,https://www.google.com/maps/place/Dari+Wali+Masjid/data=!4m7!3m6!1s0x390cfdcb160bd643:0x79e70aae06e540fa!8m2!3d28.6494841!4d77.2242153!16s%2Fg%2F11l2r_fv6s!19sChIJQ9YLFsv9DDkR-kDlBq4K53k?authuser=0&hl=en&rclk=1,"28.6494841,77.2242153"
Masjid Anar Wali,Mosque,"J6VP+J8R Masjid Anar Wali, Gali Sheesh Mahal, Bazar Chitli Qabar, Rakab Ganj, Chandni Mahal, Old Delhi, New Delhi, Delhi, 110006","Bazar Chitli Qabar, Rakab Ganj, Chandni Mahal, Old Delhi","J6VP+J8R, Gali Sheesh Mahal","New Delhi, Delhi",110006,Delhi,IN,https://www.google.com/maps/place/Masjid+Anar+Wali/data=!4m7!3m6!1s0x390cfd21694b56ed:0xea36ed675f5bcb2!8m2!3d28.6441129!4d77.2357769!16s%2Fg%2F11g8w5tl7z!19sChIJ7VZLaSH9DDkRsrz1ddZuow4?authuser=0&hl=en&rclk=1,"28.6441129,77.23577689999999"
Masjid Sumbul Islam,Mosque,"Masjid Sumbul Islam, 2176, Tilak Bazar, Naya Bazar, Khari Baoli, Chandni Chowk, New Delhi, Delhi, 110006","Tilak Bazar, Naya Bazar, Khari Baoli, Chandni Chowk","2176, Tilak Bazar","New Delhi, Delhi",110006,Delhi,IN,https://www.google.com/maps/place/Masjid+Sumbul+Islam/data=!4m7!3m6!1s0x390cfd0d9b001377:0xd7847d9de7a9acbd!8m2!3d28.6588039!4d77.2208348!16s%2Fg%2F11cncrfn0v!19sChIJdxMAmw39DDkRvayp5519hNc?authuser=0&hl=en&rclk=1,"28.6588039,77.22083479999999"
masjid hafiz abdul qadeer,Mosque,"masjid hafiz abdul qadeer, 2505, Wali Baig St, Pahari Bhojla, Sheesh Mahal, Old Delhi, New Delhi, Delhi, 110006","Pahari Bhojla, Sheesh Mahal, Old Delhi","2505, Wali Baig St","New Delhi, Delhi",110006,Delhi,IN,https://www.google.com/maps/place/masjid+hafiz+abdul+qadeer/data=!4m7!3m6!1s0x390cfd223c9f4297:0x8837364f0113a6d5!8m2!3d28.6461098!4d77.2339485!16s%2Fg%2F11csrdyht5!19sChIJl0KfPCL9DDkR1aYTAU82N4g?authuser=0&hl=en&rclk=1,"28.646109799999998,77.2339485"
Badi masjid,Mosque,"J6VM+GF4 Badi masjid, Unnamed Road, Bazar Chitli Qabar, Hauz Suiwalan, Old Delhi, Delhi, 110006","Bazar Chitli Qabar, Hauz Suiwalan, Old Delhi","J6VM+GF4, Unnamed Road",Delhi,110006,Delhi,IN,https://www.google.com/maps/place/Badi+masjid/data=!4m7!3m6!1s0x390cfd5cb477432d:0x1e4d3ba7a9b468!8m2!3d28.6437557!4d77.233705!16s%2Fg%2F11l3xyqqc8!19sChIJLUN3tFz9DDkRaLSppztNHgA?authuser=0&hl=en&rclk=1,"28.6437557,77.233705"
Chatta Sheeshey Wali Masjid,Mosque,"M62F+WQ6 Chatta Sheeshey Wali Masjid, masjid chatta sheeshey waala, Tilak Nagar, Chhoti Baradari, Chandni Chowk, New Delhi, Delhi 110006","Bazar Sirkiwalan, Tilak Nagar, Chhoti Baradari, Chandni Chowk","M62F+WQ6, masjid chatta sheeshey waala","New Delhi, Delhi",110006,Delhi,IN,https://www.google.com/maps/place/Chatta+Sheeshey+Wali+Masjid/data=!4m7!3m6!1s0x390cfd543c613317:0x1c80b051da7a7a75!8m2!3d28.6522819!4d77.2243991!16s%2Fg%2F11g0qmlk9_!19sChIJFzNhPFT9DDkRdXp62lGwgBw?authuser=0&hl=en&rclk=1,"28.6522819,77.2243991"
Badi Masjid,Mosque,"Badi Masjid, 5691/2, North Dr, Rui Mandi, Sadar Bazaar, New Delhi, Delhi, 110006","Rui Mandi, Sadar Bazaar","5691/2, North Dr","New Delhi, Delhi",110006,Delhi,IN,https://www.google.com/maps/place/Badi+Masjid/data=!4m7!3m6!1s0x390cfdeaea1cfd8d:0xde446d76a9804e69!8m2!3d28.6584283!4d77.2146963!16s%2Fg%2F11n7ybk2nh!19sChIJjf0c6ur9DDkRaU6AqXZtRN4?authuser=0&hl=en&rclk=1,"28.658428299999997,77.2146963"
Masjid Haqim Baqa,Mosque,"Masjid Haqim Baqa, 3529, Khush Dil Baradari Rd, Bazar Sirkiwalan, Khush Dil, Chandni Chowk, New Delhi, Delhi, 110006","Bazar Sirkiwalan, Khush Dil, Chandni Chowk","3529, Khush Dil Baradari Rd","New Delhi, Delhi",110006,Delhi,IN,https://www.google.com/maps/place/Masjid+Haqim+Baqa/data=!4m7!3m6!1s0x390cfd59835ebd2b:0xc885d2c3df88c89a!8m2!3d28.649864!4d77.2272861!16s%2Fg%2F11j3vy4_s1!19sChIJK71eg1n9DDkRmsiI38PShcg?authuser=0&hl=en&rclk=1,"28.649863999999997,77.2272861"
Unchi Masjid,Mosque,"J6WM+9CV Unchi Masjid, Pahari Bhojla, Pahari Bhojla Rd, Old Delhi, New Delhi, Delhi 110006","Pahari Bhojla, Sita Ram Bazar, Old Delhi","J6WM+9CV, Pahari Bhojla, Pahari Bhojla Rd","New Delhi, Delhi",110006,Delhi,IN,https://www.google.com/maps/place/Unchi+Masjid/data=!4m7!3m6!1s0x390cfd2239235df9:0x1766e4e784153152!8m2!3d28.6459951!4d77.2335484!16s%2Fg%2F11fxxnc6f3!19sChIJ-V0jOSL9DDkRUjEVhOfkZhc?authuser=0&hl=en&rclk=1,"28.6459951,77.23354839999999"
Delhi 6,Mosque,"M65C+M9X Delhi 6, Tilak Bazar, Katra Ghel, Khari Baoli, masjid, Ramazan, Delhi, 110006","Tilak Bazar, Katra Ghel, Khari Baoli, masjid",M65C+M9X,"Ramazan, Delhi",110006,Delhi,IN,https://www.google.com/maps/place/Delhi+6/data=!4m7!3m6!1s0x390cfd9af0ee7b33:0xd2d65ae5a0e3ffde!8m2!3d28.659226!4d77.2209766!16s%2Fg%2F11jslnt0dg!19sChIJM3vu8Jr9DDkR3v_joOVa1tI?authuser=0&hl=en&rclk=1,"28.659226,77.2209766"
nazra Jama Masjid,Mosque,"M644+2QH nazra Jama Masjid, Sarai Khalil, Sadar Bazaar, Delhi, 847102","Sarai Khalil, Sadar Bazaar",M644+2QH,Delhi,847102,Delhi,IN,https://www.google.com/maps/place/nazra+Jama+Masjid/data=!4m7!3m6!1s0x390cfd87a2b947df:0xc5eef572a3787906!8m2!3d28.6550711!4d77.2069937!16s%2Fg%2F11h03dscpw!19sChIJ30e5oof9DDkRBnl4o3L17sU?authuser=0&hl=en&rclk=1,"28.655071099999997,77.2069937"
masjid bholu shah,Mosque,"masjid bholu shah, Peeli Kothi, 4297 madarsa islamia arabia tajweedul quran, Naya Bazar Rd, Bara Chamarwara, Khari Baoli, Chandni Chowk, New Delhi, Delhi 110006","Bara Chamarwara, Khari Baoli, Chandni Chowk","Peeli Kothi, 4297 madarsa islamia arabia tajweedul quran, Naya Bazar Rd","New Delhi, Delhi",110006,Delhi,IN,https://www.google.com/maps/place/masjid+bholu+shah/data=!4m7!3m6!1s0x390cfde1035210b7:0x28e20e77f600cdeb!8m2!3d28.6623988!4d77.2182565!16s%2Fg%2F11fd0tbq6z!19sChIJtxBSA-H9DDkR680A9ncO4ig?authuser=0&hl=en&rclk=1,"28.6623988,77.2182565"
Masjid Moulvi Muhammad Baqir Dehlavi,Mosque,"Masjid Moulvi Muhammad Baqir Dehlavi, Durga motor mkt, Punja Sharif Rd, Chhota Bazar, Kashmere Gate, Delhi, 110006","Chhota Bazar, Kashmere Gate","Durga motor mkt, Punja Sharif Rd",Delhi,110006,Delhi,IN,https://www.google.com/maps/place/Masjid+Moulvi+Muhammad+Baqir+Dehlavi/data=!4m7!3m6!1s0x390cfd28962f937b:0xbd98130b8f919c4e!8m2!3d28.6638068!4d77.2272271!16s%2Fg%2F11tfxtj2_l!19sChIJe5Mvlij9DDkRTpyRjwsTmL0?authuser=0&hl=en&rclk=1,"28.6638068,77.2272271"
Masjid Bodsawala Wali,Mosque,"Masjid Bodsawala Wali, 2370,Chatta Shahji,Chawri Bazar, Dharam Pura Rd, Nai Wala, Chandni Chowk, New Delhi, Delhi 110006","Nai Wala, Chandni Chowk","2370,Chatta Shahji,Chawri Bazar, Dharam Pura Rd","New Delhi, Delhi",110006,Delhi,IN,https://www.google.com/maps/place/Masjid+Bodsawala+Wali/data=!4m7!3m6!1s0x390cfd19b6b59b81:0x1d0c8dba8ab5b549!8m2!3d28.6509214!4d77.2308029!16s%2Fg%2F1ptx9cfbw!19sChIJgZu1thn9DDkRSbW1irqNDB0?authuser=0&hl=en&rclk=1,"28.650921399999998,77.2308029"
Masjid bahadur garh road,Mosque,"Masjid bahadur garh road, North, near Shiv Market, Rui Mandi, Sadar Bazaar, New Delhi, Delhi, 110006","Rui Mandi, Sadar Bazaar","North, near Shiv Market","New Delhi, Delhi",110006,Delhi,IN,https://www.google.com/maps/place/Masjid+bahadur+garh+road/data=!4m7!3m6!1s0x390cfd758fa5e35f:0xaa6b0d814bf891dd!8m2!3d28.6597839!4d77.2140799!16s%2Fg%2F11k3fx18cr!19sChIJX-Olj3X9DDkR3ZH4S4ENa6o?authuser=0&hl=en&rclk=1,"28.659783899999997,77.2140799"
Mosque Juma 1:30 PM,Mosque,"Mosque Juma 1:30 PM, hamdard dawakhana, 1559, Gali Qasim Jan, Bazar Sirkiwalan, Lal Kuan Bazar, Chandni Chowk, Old, Delhi, 110006","Bazar Sirkiwalan, Lal Kuan Bazar, Chandni Chowk","hamdard dawakhana, 1559, Gali Qasim Jan","Old, Delhi",110006,Delhi,IN,https://www.google.com/maps/place/Mosque+Juma+1:30+PM/data=!4m7!3m6!1s0x390cfd60299c2229:0x108754ccb5a64171!8m2!3d28.6529342!4d77.2234484!16s%2Fg%2F11mhpb1635!19sChIJKSKcKWD9DDkRcUGmtcxUhxA?authuser=0&hl=en&rclk=1,"28.652934199999997,77.2234484"
Masjid Peerji Wali,Mosque,"Masjid Peerji Wali, Chitli Qabar Rd, 110006, Turkman Gate, Chandni Chowk, Delhi, 110006","Bazar Chitli Qabar, Turkman Gate, Chandni Chowk","Chitli Qabar Rd, 110006",Delhi,110006,Delhi,IN,https://www.google.com/maps/place/Masjid+Peerji+Wali/data=!4m7!3m6!1s0x390cfd23cbc4bb81:0xf0ad0e52d2c26be7!8m2!3d28.6446931!4d77.2335229!16s%2Fg%2F11fzfbkyrv!19sChIJgbvEyyP9DDkR52vC0lIOrfA?authuser=0&hl=en&rclk=1,"28.644693099999998,77.2335229"
masjid gama wali,Mosque,"M666+GJJ masjid gama wali, Bahadurgarh Rd, Pahari Dhiraj, Sadar Bazaar, New Delhi, Delhi, 110055","Pahari Dhiraj, Sadar Bazaar","M666+GJJ, Bahadurgarh Rd","New Delhi, Delhi",110055,Delhi,IN,https://www.google.com/maps/place/masjid+gama+wali/data=!4m7!3m6!1s0x390cfdb4e071a533:0xd234dc6df62e52f3!8m2!3d28.6613455!4d77.2115274!16s%2Fg%2F11trh_21ty!19sChIJM6Vx4LT9DDkR81Iu9m3cNNI?authuser=0&hl=en&rclk=1,"28.6613455,77.2115274"
Kalai ghar masjid Ahle hadees,Mosque,"Kalai ghar masjid Ahle hadees, 2, kishan ghanj Rd, Ganda Nala Bazar, Chhota Bazar, Mori Gate, New Delhi, Delhi, 110006","Ganda Nala Bazar, Chhota Bazar, Mori Gate","2, kishan ghanj Rd","New Delhi, Delhi",110006,Delhi,IN,https://www.google.com/maps/place/Kalai+ghar+masjid+Ahle+hadees/data=!4m7!3m6!1s0x390cfd73d70bc265:0x37fb3702558813b8!8m2!3d28.6632791!4d77.2251756!16s%2Fg%2F11krrjghvw!19sChIJZcIL13P9DDkRuBOIVQI3-zc?authuser=0&hl=en&rclk=1,"28.6632791,77.2251756"
Masjid khabron wali,Mosque,"Masjid khabron wali, 4472, Kaccha Pandit Main Bazar, Lal Kuan Bazar, Chandni Chowk, New Delhi, Delhi, 110006","Kaccha Pandit Main Bazar, Lal Kuan Bazar, Chandni Chowk",4472,"New Delhi, Delhi",110006,Delhi,IN,https://www.google.com/maps/place/Masjid+khabron+wali/data=!4m7!3m6!1s0x390cfddc383d1cc1:0x1872bd92247472af!8m2!3d28.6484731!4d77.2242113!16s%2Fg%2F11r7xt5kr_!19sChIJwRw9ONz9DDkRr3J0JJK9chg?authuser=0&hl=en&rclk=1,"28.6484731,77.2242113"
Mehendi masjid,Mosque,"Mehendi masjid, 3331, Lal Kuan Bazar, Chandni Chowk, New Delhi, Delhi, 110006","Lal Kuan Bazar, Chandni Chowk",3331,"New Delhi, Delhi",110006,Delhi,IN,https://www.google.com/maps/place/Mehendi+masjid/data=!4m7!3m6!1s0x390cfd11d6254933:0x7c1821bcb713efad!8m2!3d28.6516061!4d77.2214466!16s%2Fg%2F11rn0l2gk4!19sChIJM0kl1hH9DDkRre8Tt7whGHw?authuser=0&hl=en&rclk=1,"28.6516061,77.2214466"
