name,main_category,address,address_ward,address_street,address_city,address_postal_code,address_state,address_country_code,link,coordinates
Masjid Umar Bin Khattab,Museum,"HGX7+JP2 Masjid Umar Bin Khattab, Khandela, Rajasthan 332709",,HGX7+JP2,Khandela,,Rajasthan,IN,https://www.google.com/maps/place/Masjid+Umar+Bin+Khattab/data=!4m7!3m6!1s0x396cc3b26c823e51:0x118bd37cf8857553!8m2!3d27.5990163!4d75.5142615!16s%2Fg%2F11fm9fs57f!19sChIJUT6CbLLDbDkRU3WF-HzTixE?authuser=0&hl=en&rclk=1,"27.5990163,75.5142615"
Bai Paas Masjid khandela,Mosque,"HGW4+JQG Bai Paas Masjid khandela, Sikar, Rajasthan 332709",,HGW4+JQG,Sikar,332709,Rajasthan,IN,https://www.google.com/maps/place/Bai+Paas+Masjid+khandela/data=!4m7!3m6!1s0x396cc33e7c8435d7:0x5e0b6adedc51e730!8m2!3d27.5965592!4d75.5069564!16s%2Fg%2F11c5s66r6b!19sChIJ1zWEfD7DbDkRMOdR3N5qC14?authuser=0&hl=en&rclk=1,"27.596559199999998,75.50695639999999"
Topchiwara Masjid khandela,Mosque,"JG53+C57 Topchiwara Masjid khandela, Khandela, Rajasthan 332709",,JG53+C57,Khandela,332709,Rajasthan,IN,https://www.google.com/maps/place/Topchiwara+Masjid+khandela/data=!4m7!3m6!1s0x396cc31bcb34a563:0x8cc218499ecbe718!8m2!3d27.6085384!4d75.5029194!16s%2Fg%2F11ghnyck29!19sChIJY6U0yxvDbDkRGOfLnkkYwow?authuser=0&hl=en&rclk=1,"27.6085384,75.5029194"
Mohammedi Masjid khandela.jahir tailor,Mosque,"JF3W+27J Mohammedi Masjid khandela.jahir tailor, Khandela, Rajasthan 332709",,JF3W+27J,Khandela,332709,Rajasthan,IN,https://www.google.com/maps/place/Mohammedi+Masjid+khandela.jahir+tailor/data=!4m7!3m6!1s0x396cc36d1d88761d:0x4d2100959fefc818!8m2!3d27.6025892!4d75.4956377!16s%2Fg%2F11c5s6_396!19sChIJHXaIHW3DbDkRGMjvn5UAIU0?authuser=0&hl=en&rclk=1,"27.602589199999997,75.4956377"
Nagina Masjid CHOPATI KHANDELA,Mosque,"JF3V+9CW Nagina Masjid CHOPATI KHANDELA, Khandela, Rajasthan 332709",,JF3V+9CW,Khandela,332709,Rajasthan,IN,https://www.google.com/maps/place/Nagina+Masjid+CHOPATI+KHANDELA/data=!4m7!3m6!1s0x396cc36d9c91d4ef:0xe214f29e49778daa!8m2!3d27.6034982!4d75.4935877!16s%2Fg%2F11ddwj6588!19sChIJ79SRnG3DbDkRqo13SZ7yFOI?authuser=0&hl=en&rclk=1,"27.603498199999997,75.49358769999999"
Hidayat Masjid khandela,Mosque,"HGX4+V86 Hidayat Masjid khandela, Khandela, Rajasthan 332709",,HGX4+V86,Khandela,332709,Rajasthan,IN,https://www.google.com/maps/place/Hidayat+Masjid+khandela/data=!4m7!3m6!1s0x396cc33fc7eb7857:0xa50cbe2fbdf40544!8m2!3d27.5996619!4d75.5057522!16s%2Fg%2F11c6_vn5z9!19sChIJV3jrxz_DbDkRRAX0vS--DKU?authuser=0&hl=en&rclk=1,"27.599661899999997,75.5057522"
QURESHIYAN MASJID khandela,Mosque,"QURESHIYAN MASJID khandela, NADI, BAZAR, Bhoji Ki Dhani, Khandela, Rajasthan 332709",Bhoji Ki Dhani,"NADI, BAZAR",Khandela,332709,Rajasthan,IN,https://www.google.com/maps/place/QURESHIYAN+MASJID+khandela/data=!4m7!3m6!1s0x396cc36bebe7ba95:0xd8ad71a150b71646!8m2!3d27.6040326!4d75.5014016!16s%2Fg%2F11f51_1jb3!19sChIJlbrn62vDbDkRRha3UKFxrdg?authuser=0&hl=en&rclk=1,"27.6040326,75.5014016"
"Masjid siras wali, khandela",Mosque,"Masjid siras wali, khandela, Unnamed Road, Khandela, Rajasthan 332709",,Unnamed Road,Khandela,332709,Rajasthan,IN,"https://www.google.com/maps/place/Masjid+siras+wali,+khandela/data=!4m7!3m6!1s0x396cc37993d9b58f:0xfcf96aae5be7f970!8m2!3d27.6038905!4d75.4982588!16s%2Fg%2F11hz162zg8!19sChIJj7XZk3nDbDkRcPnnW65q-fw?authuser=0&hl=en&rclk=1","27.6038905,75.4982588"
"Masjid Sahra, Ahle Hadees khandela",Mosque,"JF2R+VVV Masjid Sahra, Ahle Hadees khandela, Ward No 4, Khandela, Rajasthan 332709",Ward No 4,JF2R+VVV,Khandela,332709,Rajasthan,IN,"https://www.google.com/maps/place/Masjid+Sahra,+Ahle+Hadees+khandela/data=!4m7!3m6!1s0x396cddf430714caf:0xc819aa7e9b5e806d!8m2!3d27.6022453!4d75.4921683!16s%2Fg%2F11h3x5kckd!19sChIJr0xxMPTdbDkRbYBem36qGcg?authuser=0&hl=en&rclk=1","27.6022453,75.4921683"
RAHMANIYA MASJID BHUTKUI,Mosque,"JG42+2CC RAHMANIYA MASJID BHUTKUI, Khandela, Rajasthan 332709",,JG42+2CC,Khandela,,Rajasthan,IN,https://www.google.com/maps/place/RAHMANIYA+MASJID+BHUTKUI/data=!4m7!3m6!1s0x396cc36b00000007:0x4846f772910f376f!8m2!3d27.6050724!4d75.5010224!16s%2Fg%2F11f3jhtxqy!19sChIJBwAAAGvDbDkRbzcPkXL3Rkg?authuser=0&hl=en&rclk=1,"27.605072399999997,75.5010224"
Eidgah Maidan,Mosque,"JF2R+HJ8 Eidgah Maidan, Unnamed Road, Khandela, Rajasthan 332709",,"JF2R+HJ8, Unnamed Road",Khandela,332709,Rajasthan,IN,https://www.google.com/maps/place/Eidgah+Maidan/data=!4m7!3m6!1s0x396cc372be61e063:0x92e44b7cb0d4b173!8m2!3d27.6014245!4d75.491565!16s%2Fg%2F11c2y42q9h!19sChIJY-BhvnLDbDkRc7HUsHxL5JI?authuser=0&hl=en&rclk=1,"27.6014245,75.491565"
Markaz masjid khandela,Mosque,"JF3X+VWW Markaz masjid khandela, RJ SH 37, Khandela, Rajasthan 332709",,"JF3X+VWW, RJ SH 37",Khandela,332709,Rajasthan,IN,https://www.google.com/maps/place/Markaz+masjid+khandela/data=!4m7!3m6!1s0x396cc36b97a14bd7:0x1c5238105daac877!8m2!3d27.6047457!4d75.4998365!16s%2Fg%2F11dxkzpjpp!19sChIJ10uhl2vDbDkRd8iqXRA4Uhw?authuser=0&hl=en&rclk=1,"27.6047457,75.4998365"
aaiisaa msjid,Mosque,"JF4W+8RV aaiisaa msjid, chopati, Khandela, Rajasthan 332709",chopati,JF4W+8RV,Khandela,332709,Rajasthan,IN,https://www.google.com/maps/place/%E0%A4%86%E0%A4%88%E0%A4%B8%E0%A4%BE+%E0%A4%AE%E0%A4%B8%E0%A5%8D%E0%A4%9C%E0%A4%BF%E0%A4%A6/data=!4m7!3m6!1s0x396cc3c8766d8e99:0x3c9ed0e3a6f2321a!8m2!3d27.6058672!4d75.4970467!16s%2Fg%2F11fmrlpsqc!19sChIJmY5tdsjDbDkRGjLypuPQnjw?authuser=0&hl=en&rclk=1,"27.6058672,75.4970467"
Bilal Masjid,Mosque,"JF4W+4R7 Bilal Masjid, Khandela, Rajasthan 332709",,JF4W+4R7,Khandela,332709,Rajasthan,IN,https://www.google.com/maps/place/Bilal+Masjid/data=!4m7!3m6!1s0x396cc38eab7d3fab:0xccefc88b8abf082e!8m2!3d27.6052837!4d75.4970618!16s%2Fg%2F11h56hzrh7!19sChIJqz99q47DbDkRLgi_iovI78w?authuser=0&hl=en&rclk=1,"27.605283699999998,75.4970618"
Abubakar Masjid khandela,Mosque,"HGW4+V87 Abubakar Masjid khandela, Sikar, Rajasthan 332709",,HGW4+V87,Sikar,332709,Rajasthan,IN,https://www.google.com/maps/place/Abubakar+Masjid+khandela/data=!4m7!3m6!1s0x396cc33e6b4a07d5:0x8f023fb82a7d91c!8m2!3d27.5971698!4d75.50579!16s%2Fg%2F11g8fzkq3_!19sChIJ1QdKaz7DbDkRHNmngvsj8Ag?authuser=0&hl=en&rclk=1,"27.5971698,75.50578999999999"
Madina Masjid,Mosque,"JF3X+XMG Madina Masjid, Khandela, Rajasthan 332709",,JF3X+XMG,Khandela,332709,Rajasthan,IN,https://www.google.com/maps/place/Madina+Masjid/data=!4m7!3m6!1s0x396cc342d0ba5975:0xa94a755601fccab5!8m2!3d27.6049365!4d75.4992146!16s%2Fg%2F11h52ngmqm!19sChIJdVm60ELDbDkRtcr8AVZ1Sqk?authuser=0&hl=en&rclk=1,"27.604936499999997,75.4992146"
mkkaa msjid khandela,Mosque,"JG52+CX2 mkkaa msjid khandela, Khandela, Rajasthan 332709",,JG52+CX2,Khandela,332709,Rajasthan,IN,https://www.google.com/maps/place/%E0%A4%AE%E0%A4%95%E0%A5%8D%E0%A4%95%E0%A4%BE+%E0%A4%AE%E0%A4%B8%E0%A5%8D%E0%A4%9C%E0%A4%BF%E0%A4%A6+khandela/data=!4m7!3m6!1s0x396cc369962bcd4b:0x51963a3ed371780d!8m2!3d27.6085082!4d75.5024044!16s%2Fg%2F11f4pvhcfx!19sChIJS80rlmnDbDkRDXhx0z46llE?authuser=0&hl=en&rclk=1,"27.6085082,75.5024044"
Eidgah masjid khandela,Mosque,"Eidgah masjid khandela, RJ SH 37, udepurwati, road, Bhoji Ki Dhani, Khandela, Rajasthan 332709",Bhoji Ki Dhani,"RJ SH 37, udepurwati, road",Khandela,332709,Rajasthan,IN,https://www.google.com/maps/place/Eidgah+masjid+khandela/data=!4m7!3m6!1s0x396cc3eb0ca647ad:0xa8540e68a1b1094f!8m2!3d27.6021396!4d75.5039709!16s%2Fg%2F11v0c8ydpy!19sChIJrUemDOvDbDkRTwmxoWgOVKg?authuser=0&hl=en&rclk=1,"27.602139599999997,75.5039709"
MUHAMMADI MASJID,Mosque,"JF2X+PWV MUHAMMADI MASJID, BUDHA KA BAS, Khandela, Rajasthan 332709",,"JF2X+PWV, BUDHA KA BAS",Khandela,332709,Rajasthan,IN,https://www.google.com/maps/place/MUHAMMADI+MASJID/data=!4m7!3m6!1s0x396cc3178ebc4513:0xd907d3e894662d05!8m2!3d27.6018651!4d75.4997825!16s%2Fg%2F11ks0w6pwg!19sChIJE0W8jhfDbDkRBS1mlOjTB9k?authuser=0&hl=en&rclk=1,"27.601865099999998,75.4997825"
Kusar masjid,Museum,"Kusar masjid, Ward No.20 Brahampuri Mohalla, Khandela, Rajasthan 332709",,Ward No.20 Brahampuri Mohalla,Khandela,332709,Rajasthan,IN,https://www.google.com/maps/place/Kusar+masjid/data=!4m7!3m6!1s0x396cc3c54bef10df:0x62feeb1a130e2ed!8m2!3d27.6071754!4d75.4965683!16s%2Fg%2F11lpb_741c!19sChIJ3xDvS8XDbDkR7eIwobHuLwY?authuser=0&hl=en&rclk=1,"27.6071754,75.49656829999999"
