name,main_category,address,address_ward,address_street,address_city,address_postal_code,address_state,address_country_code,link,coordinates
Juma Masjid Kuppam North,Mosque,"382V+CHH Juma Masjid Kuppam North, Poozhikkadavu Road, Kuppam Poozhikkadavu Road, Kuppam, Kerala 670144",,"382V+CHH, Poozhikkadavu Road, Kuppam Poozhikkadavu Road",Kuppam,670144,Kerala,IN,https://www.google.com/maps/place/Juma+Masjid+Kuppam+North/data=!4m7!3m6!1s0x3ba440022ae9bfdf:0xd8ae424436457e12!8m2!3d12.0510537!4d75.3439963!16s%2Fg%2F1hf84x7vq!19sChIJ37_pKgJApDsREn5FNkRCrtg?authuser=0&hl=en&rclk=1,"12.051053699999999,75.3439963"
MASJID - E Bilal Pes Medical College Nalagampalli Kuppam,Mosque,"Q9R7+VHP MASJID - E Bilal Pes Medical College Nalagampalli Kuppam, Krishnagiri - Palamaner Hwy, Nalagampalli, Andhra Pradesh 517425",,"Q9R7+VHP, Krishnagiri - Palamaner Hwy",Nalagampalli,517425,Andhra Pradesh,IN,https://www.google.com/maps/place/MASJID+-+E+Bilal+Pes+Medical+College+Nalagampalli+Kuppam/data=!4m7!3m6!1s0x3badb96cf4ca61ed:0xf4a830de1ac04b6!8m2!3d12.792209!4d78.3639489!16s%2Fg%2F11dx8n4l9y!19sChIJ7WHK9Gy5rTsRtgSs4Q2DSg8?authuser=0&hl=en&rclk=1,"12.792209,78.3639489"
Madeena Majid,Mosque,"Madeena Majid, Palace extension, Kuppam, Andhra Pradesh 517425",Palace extension,,Kuppam,517425,Andhra Pradesh,IN,https://www.google.com/maps/place/Madeena+Majid/data=!4m7!3m6!1s0x3badb834e16f066d:0x9e76b5ce642cf91c!8m2!3d12.7498275!4d78.3372007!16s%2Fg%2F11c6vtzz32!19sChIJbQZv4TS4rTsRHPksZM61dp4?authuser=0&hl=en&rclk=1,"12.749827499999999,78.3372007"
Masjid azam,Mosque,"P8XV+84X Masjid azam, RS Pet, Kuppam, Andhra Pradesh 517425",RS Pet,P8XV+84X,Kuppam,517425,Andhra Pradesh,IN,https://www.google.com/maps/place/Masjid+azam/data=!4m7!3m6!1s0x3badb9b7c87ffefd:0xa32c3fdd46245413!8m2!3d12.7483659!4d78.3428474!16s%2Fg%2F1tgqgw1_!19sChIJ_f5_yLe5rTsRE1QkRt0_LKM?authuser=0&hl=en&rclk=1,"12.7483659,78.3428474"
Juma Masjid Kuppam,Mosque,"28XW+QJ5 Juma Masjid Kuppam, Kuppam Kadavu Road, Kerala 670144",,"28XW+QJ5, Kuppam Kadavu Road",,670144,Kerala,IN,https://www.google.com/maps/place/Juma+Masjid+Kuppam/data=!4m7!3m6!1s0x3ba440013404b435:0x979538ba8890215b!8m2!3d12.0493922!4d75.346611!16s%2Fg%2F1w0h5ywv!19sChIJNbQENAFApDsRWyGQiLo4lZc?authuser=0&hl=en&rclk=1,"12.0493922,75.346611"
Masjid e Noorani,Mosque,"HHQ5+6HG Masjid e Noorani, Jangalapuram - Attur Kuppam Rd, Athurkuppam, Tamil Nadu 635851",,"HHQ5+6HG, Jangalapuram - Attur Kuppam Rd",Athurkuppam,635851,Tamil Nadu,IN,https://www.google.com/maps/place/Masjid+e+Noorani/data=!4m7!3m6!1s0x3badac9bdd42df03:0x89aa47f8b641bf1a!8m2!3d12.5880655!4d78.5589469!16s%2Fg%2F11bysjwqcv!19sChIJA99C3ZusrTsRGr9BtvhHqok?authuser=0&hl=en&rclk=1,"12.588065499999999,78.5589469"
Kuppam Masjid,Mosque,"X59H+H5J Kuppam Masjid, Unnamed Rd, Hanumanthapura, Karnataka 563114",,"X59H+H5J, Unnamed Rd",Hanumanthapura,563114,Karnataka,IN,https://www.google.com/maps/place/Kuppam+Masjid/data=!4m7!3m6!1s0x3bade914de35e7e3:0xd2419c186393d723!8m2!3d12.96895!4d78.1778981!16s%2Fg%2F11b8szjf1g!19sChIJ4-c13hTprTsRI9eTYxicQdI?authuser=0&hl=en&rclk=1,"12.96895,78.1778981"
Masjid-e-muazam,Mosque,"P8VV+W2W Masjid-e-muazam, Kuppam, Chinnakurbalapalle Rural, Andhra Pradesh 517425",,P8VV+W2W,"Kuppam, Chinnakurbalapalle Rural",517425,Andhra Pradesh,IN,https://www.google.com/maps/place/Masjid-e-muazam/data=!4m7!3m6!1s0x3badb9b7c87ffefd:0x5c1879c964202d4c!8m2!3d12.744874!4d78.3425671!16s%2Fg%2F1tr8j_qy!19sChIJ_f5_yLe5rTsRTC0gZMl5GFw?authuser=0&hl=en&rclk=1,"12.744874,78.3425671"
Masjid,Mosque,"P8WC+J9W Masjid, Model Colony, Kuppam, Andhra Pradesh 517425",Model Colony,P8WC+J9W,Kuppam,517425,Andhra Pradesh,IN,https://www.google.com/maps/place/Masjid/data=!4m7!3m6!1s0x3badb83ea86c1ed5:0xcfac7ce2f40277f!8m2!3d12.7466065!4d78.3209659!16s%2Fg%2F11f_j21x9q!19sChIJ1R5sqD64rTsRfydAL87H-gw?authuser=0&hl=en&rclk=1,"12.746606499999999,78.32096589999999"
Masjid,Mosque,"RC34+9R2 Masjid, Ganeshpuram, Kuppam, Andhra Pradesh 517425",Ganeshpuram,RC34+9R2,Kuppam,517425,Andhra Pradesh,IN,https://www.google.com/maps/place/Masjid/data=!4m7!3m6!1s0x3badbbc9bdb49b33:0x3cf2aeb635173aa4!8m2!3d12.8033999!4d78.4070217!16s%2Fg%2F11h_1h3_fv!19sChIJM5u0vcm7rTsRpDoXNbau8jw?authuser=0&hl=en&rclk=1,"12.803399899999999,78.4070217"
"Masjid-E-saad ,Gopinagar ,Kuppam",Mosque,"P9HV+GQ7 Masjid-E-saad ,Gopinagar ,Kuppam, Kungegowniyur, Andhra Pradesh 517425",,P9HV+GQ7,Kungegowniyur,517425,Andhra Pradesh,IN,"https://www.google.com/maps/place/Masjid-E-saad+,Gopinagar+,Kuppam/data=!4m7!3m6!1s0x3badb0a894412c7d:0xfff4d14fc65502d5!8m2!3d12.7287757!4d78.3944239!16s%2Fg%2F11fy9tm5ps!19sChIJfSxBlKiwrTsR1QJVxk_R9P8?authuser=0&hl=en&rclk=1","12.7287757,78.39442389999999"
masjid-e-aisha,Mosque,"masjid-e-aisha, Near, Old Palamaner - Krishnagiri Rd, Bevanapalle, Rajiv Nagar, Kuppam, Bevanapalle, Andhra Pradesh 517425","Bevanapalle, Rajiv Nagar","Near, Old Palamaner - Krishnagiri Rd","Kuppam, Bevanapalle",517425,Andhra Pradesh,IN,https://www.google.com/maps/place/masjid-e-aisha/data=!4m7!3m6!1s0x3badb9d229b99e71:0x58c6639a6715f840!8m2!3d12.7395289!4d78.3442904!16s%2Fg%2F11f3n3l3l1!19sChIJcZ65KdK5rTsRQPgVZ5pjxlg?authuser=0&hl=en&rclk=1,"12.7395289,78.34429039999999"
Masjid E Bilal,Mosque,"P8WM+WCX Masjid E Bilal, D.K.Palli, Kuppam Rd, Chinnakurbalapalle Rural, Andhra Pradesh 517425",,"P8WM+WCX, D.K.Palli, Kuppam Rd",Chinnakurbalapalle Rural,517425,Andhra Pradesh,IN,https://www.google.com/maps/place/Masjid+E+Bilal/data=!4m7!3m6!1s0x3badb834066e0f09:0xa30dc9417628fef5!8m2!3d12.7473639!4d78.3336139!16s%2Fg%2F11f54mf_3k!19sChIJCQ9uBjS4rTsR9f4odkHJDaM?authuser=0&hl=en&rclk=1,"12.7473639,78.3336139"
"Big Mosque, M.V.Kuppam",Mosque,"RQXF+4W9 Big Mosque, M.V.Kuppam, Chokkarishikuppam, Tamil Nadu 635805",,RQXF+4W9,Chokkarishikuppam,635805,Tamil Nadu,IN,"https://www.google.com/maps/place/Big+Mosque,+M.V.Kuppam/data=!4m7!3m6!1s0x3bad0d042e6d42a5:0x80b7b24edb246500!8m2!3d12.8477805!4d78.7748523!16s%2Fg%2F11smlxcvxh!19sChIJpUJtLgQNrTsRAGUk206yt4A?authuser=0&hl=en&rclk=1","12.847780499999999,78.77485229999999"
Masjid-e-Muazzam,Mosque,"P8WM+R66 Masjid-e-Muazzam, Newpet, Kuppam, Chinnakurbalapalle Rural, Andhra Pradesh 517425",Newpet,P8WM+R66,"Kuppam, Chinnakurbalapalle Rural",,Andhra Pradesh,IN,https://www.google.com/maps/place/Masjid-e-Muazzam/data=!4m7!3m6!1s0x3badb83155555551:0x4384be06f6197506!8m2!3d12.7470313!4d78.3330156!16s%2Fg%2F11f3_3sdrv!19sChIJUVVVVTG4rTsRBnUZ9ga-hEM?authuser=0&hl=en&rclk=1,"12.7470313,78.3330156"
MASJID E MOHAMMEDI,Mosque,"6872+VV7 MASJID E MOHAMMEDI, So Kuppam Road, So Kuppam, Tamil Nadu 604153",,"6872+VV7, So Kuppam Road",So Kuppam,604153,Tamil Nadu,IN,https://www.google.com/maps/place/MASJID+E+MOHAMMEDI/data=!4m7!3m6!1s0x3bacb5e634b3e55b:0x35b035291a1430a2!8m2!3d12.2146673!4d79.3021703!16s%2Fg%2F11fmbk70hy!19sChIJW-WzNOa1rDsRojAUGik1sDU?authuser=0&hl=en&rclk=1,"12.214667299999999,79.3021703"
Masjid,Mosque,"WXPM+GG8 Masjid, Kuppam, Tamil Nadu 632201",,WXPM+GG8,Kuppam,,Tamil Nadu,IN,https://www.google.com/maps/place/Masjid/data=!4m7!3m6!1s0x3bad15961add8343:0x61f9d61350848dc7!8m2!3d12.9362869!4d78.9838407!16s%2Fg%2F11s92fwfgp!19sChIJQ4PdGpYVrTsRx42EUBPW-WE?authuser=0&hl=en&rclk=1,"12.936286899999999,78.9838407"
Masjid e Ali,Mosque,"Masjid e Ali, N T, R COLONY, Kuppam, Chinnakurbalapalle Rural, Andhra Pradesh 517425",R COLONY,N T,"Kuppam, Chinnakurbalapalle Rural",517425,Andhra Pradesh,IN,https://www.google.com/maps/place/Masjid+e+Ali/data=!4m7!3m6!1s0x3badb9141e37a3ad:0x861f706f8dad23ad!8m2!3d12.7421176!4d78.3383205!16s%2Fg%2F11twc8pw79!19sChIJraM3HhS5rTsRrSOtjW9wH4Y?authuser=0&hl=en&rclk=1,"12.7421176,78.3383205"
PALLI KULAM KUPPAM SMALL MASJID,Mosque,"29P6+3C4 PALLI KULAM KUPPAM SMALL MASJID, Taliparamba, Kerala 670141",,29P6+3C4,Taliparamba,,Kerala,IN,https://www.google.com/maps/place/PALLI+KULAM+KUPPAM+SMALL+MASJID/data=!4m7!3m6!1s0x3ba43fe206959d53:0x5074370dc531da8a!8m2!3d12.035137!4d75.3610936!16s%2Fg%2F11k9kd11fr!19sChIJU52VBuI_pDsRitoxxQ03dFA?authuser=0&hl=en&rclk=1,"12.035136999999999,75.36109359999999"
aissaa mjiid,Mosque,"P8QV+QPP aissaa mjiid, Kuppam, Bevanapalle, Andhra Pradesh 517425",,P8QV+QPP,"Kuppam, Bevanapalle",517425,Andhra Pradesh,IN,https://www.google.com/maps/place/%E0%B0%90%E0%B0%B7%E0%B0%BE+%E0%B0%AE%E0%B0%9C%E0%B1%80%E0%B0%A6%E0%B1%8D/data=!4m7!3m6!1s0x3badb9fd22677af7:0x5094f349ef864448!8m2!3d12.7394555!4d78.3443219!16s%2Fg%2F11v4dhj812!19sChIJ93pnIv25rTsRSESG70nzlFA?authuser=0&hl=en&rclk=1,"12.7394555,78.3443219"
