name,main_category,address,address_ward,address_street,address_city,address_postal_code,address_state,address_country_code,link,coordinates
"Masjid-e-Taj, Gajulpet",Mosque,"484M+GW7 Masjid-e-Taj, Gajulpet, Gajulpet, Telangana 504106",,484M+GW7,Gajulpet,504106,Telangana,IN,"https://www.google.com/maps/place/Masjid-e-Taj,+Gajulpet/data=!4m7!3m6!1s0x3bcd8b7ecb94f33f:0xa1733fcc34181556!8m2!3d19.1062844!4d78.3347824!16s%2Fg%2F1yg4v7gr2!19sChIJP_OUy36LzTsRVhUYNMw_c6E?authuser=0&hl=en&rclk=1","19.1062844,78.3347824"
Masjid E Shaikh Sahab Pet,Mosque,"Masjid E Shaikh Sahab Pet, Shaikh Sahab Pet, Teachers Colony, Besthawar Pet, Brahmapuri, Nirmal, Telangana 504106","Teachers Colony, Besthawar Pet, Brahmapuri",Shaikh Sahab Pet,Nirmal,504106,Telangana,IN,https://www.google.com/maps/place/Masjid+E+Shaikh+Sahab+Pet/data=!4m7!3m6!1s0x3bcd8b87fcfc70f9:0x89094e6bd421c225!8m2!3d19.1025254!4d78.3497556!16s%2Fg%2F1vc6bvmr!19sChIJ-XD8_IeLzTsRJcIh1GtOCYk?authuser=0&hl=en&rclk=1,"19.102525399999998,78.3497556"
Gulzar Masjid Nirmal,Mosque,"Gulzar Masjid Nirmal, Masjid-e-Gulzar, Post Office Rd, Balajiwada, Pinjari Gutta, Nirmal, Telangana 504106","Balajiwada, Pinjari Gutta","Masjid-e-Gulzar, Post Office Rd",Nirmal,504106,Telangana,IN,https://www.google.com/maps/place/Gulzar+Masjid+Nirmal/data=!4m7!3m6!1s0x3bcd8c78647f2d69:0x2baca699c5ac6b20!8m2!3d19.1007782!4d78.3476027!16s%2Fg%2F11cn93xd9y!19sChIJaS1_ZHiMzTsRIGusxZmmrCs?authuser=0&hl=en&rclk=1,"19.1007782,78.3476027"
Jama Masjid,Mosque,"482V+69G Jama Masjid, Gandhi Nagar Colony, Nirmal, Telangana 504106",Gandhi Nagar Colony,482V+69G,Nirmal,504106,Telangana,IN,https://www.google.com/maps/place/Jama+Masjid/data=!4m7!3m6!1s0x3bcd8c7f5b318beb:0xb8ae867a173de72b!8m2!3d19.1005579!4d78.343457!16s%2Fg%2F11dz19vt9b!19sChIJ64sxW3-MzTsRK-c9F3qGrrg?authuser=0&hl=en&rclk=1,"19.1005579,78.343457"
Masjid E Mahboobia,Mosque,"38RV+23Q Masjid E Mahboobia, Madina colony, Eidgoan, Nirmal, Telangana 504106",Eidgoan,"38RV+23Q, Madina colony",Nirmal,504106,Telangana,IN,https://www.google.com/maps/place/Masjid+E+Mahboobia/data=!4m7!3m6!1s0x3bcd8c7cc72f32ad:0xc87a1e0f04aa3a5d!8m2!3d19.0900799!4d78.3427318!16s%2Fg%2F11b6njqqlh!19sChIJrTIvx3yMzTsRXTqqBA8eesg?authuser=0&hl=en&rclk=1,"19.0900799,78.3427318"
"Masjid-e-Yahya, Gajulpet",Mosque,"485J+MRG Masjid-e-Yahya, Gajulpet, Gajulpet, Telangana 504106",,485J+MRG,Gajulpet,504106,Telangana,IN,"https://www.google.com/maps/place/Masjid-e-Yahya,+Gajulpet/data=!4m7!3m6!1s0x3bcd8b7bcb59113d:0x9c871539096c8956!8m2!3d19.1091943!4d78.3320753!16s%2Fg%2F11c716w5jr!19sChIJPRFZy3uLzTsRVolsCTkVh5w?authuser=0&hl=en&rclk=1","19.1091943,78.3320753"
Masjid E Chand Sultana,Mosque,"Masjid E Chand Sultana, 504106, Vidyanagar, Adharsha Nagar, Nirmal, Telangana 504106","Vidyanagar, Adharsha Nagar",504106,Nirmal,504106,Telangana,IN,https://www.google.com/maps/place/Masjid+E+Chand+Sultana/data=!4m7!3m6!1s0x3bcd8c644575ee19:0x37cd15e32a13fd32!8m2!3d19.0859119!4d78.3464606!16s%2Fg%2F11fzb16hxz!19sChIJGe51RWSMzTsRMv0TKuMVzTc?authuser=0&hl=en&rclk=1,"19.0859119,78.3464606"
Mohammadia Masjid,Mosque,"38JR+55J Mohammadia Masjid, Adharsha Nagar, Nirmal, Telangana 504106",Adharsha Nagar,38JR+55J,Nirmal,504106,Telangana,IN,https://www.google.com/maps/place/Mohammadia+Masjid/data=!4m7!3m6!1s0x3bcd8c604b0a54d3:0x67084e8473077f46!8m2!3d19.0804551!4d78.340404!16s%2Fg%2F11bzq338xz!19sChIJ01QKS2CMzTsRRn8Hc4ROCGc?authuser=0&hl=en&rclk=1,"19.0804551,78.34040399999999"
Soan(v&m)Madhapur Church,Church,"Soan(v&m)Madhapur Church, Madhapur road. Soan village, Nirmal, Telangana 504105",,Madhapur road. Soan village,Nirmal,504105,Telangana,IN,https://www.google.com/maps/place/Soan%28v%26m%29Madhapur+Church/data=!4m7!3m6!1s0x3bcd920a26e1af9b:0xad5d07a9ea0b4366!8m2!3d19.0070349!4d78.3670373!16s%2Fg%2F1hhh12n3l!19sChIJm6_hJgqSzTsRZkML6qkHXa0?authuser=0&hl=en&rclk=1,"19.0070349,78.36703729999999"
Masjid E Mastaniya,Mosque,"38MP+W6H Masjid E Mastaniya, Asra Colony, Adharsha Nagar, Nirmal, Telangana 504106","Asra Colony, Adharsha Nagar",38MP+W6H,Nirmal,504106,Telangana,IN,https://www.google.com/maps/place/Masjid+E+Mastaniya/data=!4m7!3m6!1s0x3bcd8c884b8cf3ad:0xc9b46d1316dfb1a6!8m2!3d19.0848125!4d78.3356094!16s%2Fg%2F11f126_006!19sChIJrfOMS4iMzTsRprHfFhNttMk?authuser=0&hl=en&rclk=1,"19.084812499999998,78.3356094"
Masjid E Bilal Haq,Mosque,"483M+C39 Masjid E Bilal Haq, Nirmal, Gajulpet, Telangana 504106",,"483M+C39, Nirmal",Gajulpet,504106,Telangana,IN,https://www.google.com/maps/place/Masjid+E+Bilal+Haq/data=!4m7!3m6!1s0x3bcd8b7c2b493a63:0xf421e956b0a01151!8m2!3d19.1035383!4d78.3327297!16s%2Fg%2F11dftfsfpm!19sChIJYzpJK3yLzTsRURGgsFbpIfQ?authuser=0&hl=en&rclk=1,"19.1035383,78.3327297"
Jamal Masjid,Mosque,"39X2+35R Jamal Masjid, Jamal, Masjid Road, Moghalpura, Nirmal, Telangana 504106",Moghalpura,"39X2+35R, Jamal, Masjid Road, Moghalpura",Nirmal,504106,Telangana,IN,https://www.google.com/maps/place/Jamal+Masjid/data=!4m7!3m6!1s0x3bcd8c7763fa0aff:0x8c287693ade0608a!8m2!3d19.0977279!4d78.3503946!16s%2Fg%2F11f4m6dzth!19sChIJ_wr6Y3eMzTsRimDgrZN2KIw?authuser=0&hl=en&rclk=1,"19.0977279,78.3503946"
Madina Masjid mdynh msjd,Mosque,"MGCJ+GX8 Madina Masjid mdynh msjd, Netaji Chowk Rd, Ponnar, Bhuktapur, Telangana 504001",Ponnar,"MGCJ+GX8, Netaji Chowk Rd",Bhuktapur,504001,Telangana,IN,https://www.google.com/maps/place/Madina+Masjid+%D9%85%D8%AF%DB%8C%D9%86%DB%81+%D9%85%D8%B3%D8%AC%D8%AF%E2%80%AD/data=!4m7!3m6!1s0x3bd25c7742dd0b05:0xf2fb259a889bfa78!8m2!3d19.6712846!4d78.5324561!16s%2Fg%2F11fzzxxq7l!19sChIJBQvdQndc0jsRePqbiJol-_I?authuser=0&hl=en&rclk=1,"19.6712846,78.53245609999999"
Masjid-e-Arfath,Mosque,"485P+MVR Masjid-e-Arfath, Gajulpet, Telangana 504106",,485P+MVR,Gajulpet,504106,Telangana,IN,https://www.google.com/maps/place/Masjid-e-Arfath/data=!4m7!3m6!1s0x3bcd8b78f38929b7:0xf1f6598f1f63e972!8m2!3d19.1092323!4d78.3371349!16s%2Fg%2F11g6xq1bxz!19sChIJtymJ83iLzTsRculjH49Z9vE?authuser=0&hl=en&rclk=1,"19.1092323,78.3371349"
Masjid e Khair Unnisa,Mosque,"38MV+W9G Masjid e Khair Unnisa, Eidgoam, Nirmal, Telangana 504106",Eidgoam,38MV+W9G,Nirmal,504106,Telangana,IN,https://www.google.com/maps/place/Masjid+e+Khair+Unnisa/data=!4m7!3m6!1s0x3bcd8c63ec272937:0x3c3ca7aa8f837a71!8m2!3d19.0848121!4d78.3434432!16s%2Fg%2F11bxf29qv6!19sChIJNykn7GOMzTsRcXqDj6qnPDw?authuser=0&hl=en&rclk=1,"19.0848121,78.3434432"
Darul Uloom Siddiqiya,Mosque,"2JXP+FRQ Darul Uloom Siddiqiya, Nirmal - Mancherial Rd, Khanapur, Thimmapur, Telangana 504203",,"2JXP+FRQ, Nirmal - Mancherial Rd","Khanapur, Thimmapur",504203,Telangana,IN,https://www.google.com/maps/place/Darul+Uloom+Siddiqiya/data=!4m7!3m6!1s0x3bcd82be2d60a465:0xf21d1157576bb584!8m2!3d19.0487197!4d78.6371133!16s%2Fg%2F11b77l3wct!19sChIJZaRgLb6CzTsRhLVrV1cRHfI?authuser=0&hl=en&rclk=1,"19.0487197,78.6371133"
Budharpet Masjid,Mosque,"483V+F49 Budharpet Masjid, Pinjari Gutta, Nirmal, Telangana 504106",Pinjari Gutta,483V+F49,Nirmal,504106,Telangana,IN,https://www.google.com/maps/place/Budharpet+Masjid/data=!4m7!3m6!1s0x3bcd8b80c2fc5e99:0xbd732aff04f66e07!8m2!3d19.1036542!4d78.3428597!16s%2Fg%2F11dxchc4cr!19sChIJmV78woCLzTsRB272BP8qc70?authuser=0&hl=en&rclk=1,"19.103654199999998,78.34285969999999"
MASJID - E - RIYAZUL HAQ,Mosque,"38WX+Q76 MASJID - E - RIYAZUL HAQ, Bagulwada, Nirmal, Telangana 504106",Bagulwada,38WX+Q76,Nirmal,504106,Telangana,IN,https://www.google.com/maps/place/MASJID+-+E+-+RIYAZUL+HAQ/data=!4m7!3m6!1s0x3bcd8c79971e96a1:0x16fef0fe66a6bb49!8m2!3d19.0969176!4d78.3481556!16s%2Fg%2F11ddxp28l8!19sChIJoZYel3mMzTsRSbumZv7w_hY?authuser=0&hl=en&rclk=1,"19.096917599999998,78.3481556"
"Masjid E Ibrahim, Barktpura",Mosque,"V5G2+6GW Masjid E Ibrahim, Barktpura, Nandipet, Telangana 503212",,V5G2+6GW,Nandipet,503212,Telangana,IN,"https://www.google.com/maps/place/Masjid+E+Ibrahim,+Barktpura/data=!4m7!3m6!1s0x3bcde8e0d7a7ca29:0x90e848f7ab731261!8m2!3d18.8756018!4d78.1513263!16s%2Fg%2F11c3117pqk!19sChIJKcqn1-DozTsRYRJzq_dI6JA?authuser=0&hl=en&rclk=1","18.8756018,78.1513263"
Jama Masjid,Mosque,"3CP2+VC4 Jama Masjid, Ratnapurkandla, Telangana 504106",,3CP2+VC4,Ratnapurkandla,504106,Telangana,IN,https://www.google.com/maps/place/Jama+Masjid/data=!4m7!3m6!1s0x3bcd8f4bdaaf8ff7:0x7e6311228e965496!8m2!3d19.0871397!4d78.4010718!16s%2Fg%2F11gjs05kwn!19sChIJ94-v2kuPzTsRllSWjiIRY34?authuser=0&hl=en&rclk=1,"19.087139699999998,78.4010718"
jama masjid,Mosque,"4556+99V jama masjid, Narsapur, Telangana 504104",,4556+99V,Narsapur,504104,Telangana,IN,https://www.google.com/maps/place/jama+masjid/data=!4m7!3m6!1s0x3bcdf6debe130ce1:0x496ea4eb093e0f95!8m2!3d19.1084754!4d78.1609358!16s%2Fg%2F11dymkzz5r!19sChIJ4QwTvt72zTsRlQ8-Ceukbkk?authuser=0&hl=en&rclk=1,"19.1084754,78.16093579999999"
Burhaniya Masjid Pan Galli,Mosque,"38WW+P6V Burhaniya Masjid Pan Galli, Market Rd, Bagulwada, Nirmal, Telangana 504106",Bagulwada,"38WW+P6V, Market Rd",Nirmal,504106,Telangana,IN,https://www.google.com/maps/place/Burhaniya+Masjid+Pan+Galli/data=!4m7!3m6!1s0x3bcd8c794121c375:0xc5851a3786d85199!8m2!3d19.0968567!4d78.345553!16s%2Fg%2F11c5814380!19sChIJdcMhQXmMzTsRmVHYhjcahcU?authuser=0&hl=en&rclk=1,"19.0968567,78.345553"
Jaama Masjid Kanjar,Mosque,"3756+GV6 Jaama Masjid Kanjar, Kanjar, Lingampalli, Telangana 504306",,3756+GV6,"Kanjar, Lingampalli",504306,Telangana,IN,https://www.google.com/maps/place/Jaama+Masjid+Kanjar/data=!4m7!3m6!1s0x3bcdf35773532b23:0xfc26b48181015783!8m2!3d19.0587778!4d78.2621545!16s%2Fg%2F11fhymsrwq!19sChIJIytTc1fzzTsRg1cBgYG0Jvw?authuser=0&hl=en&rclk=1,"19.058777799999998,78.2621545"
Masjid E Namrah,Mosque,"MGGM+7CV Masjid E Namrah, Ambedkar Chowk, Bhuktapur, Telangana 504001",,"MGGM+7CV, Ambedkar Chowk",Bhuktapur,,Telangana,IN,https://www.google.com/maps/place/Masjid+E+Namrah/data=!4m7!3m6!1s0x3bd25b8829cd21e7:0xb871a2b68c3b292c!8m2!3d19.6757458!4d78.5335363!16s%2Fg%2F11b6v0h3n3!19sChIJ5yHNKYhb0jsRLCk7jLaicbg?authuser=0&hl=en&rclk=1,"19.675745799999998,78.5335363"
Masjid-E-Azhar,Mosque,"388W+VQ3 Masjid-E-Azhar, Sofinagar, Telangana 504105",Sofinagar,388W+VQ3,,504105,Telangana,IN,https://www.google.com/maps/place/Masjid-E-Azhar/data=!4m7!3m6!1s0x3bcd8c5a64a82f47:0x6e7567ec579e9eaa!8m2!3d19.0671202!4d78.346909!16s%2Fg%2F1q67srj0j!19sChIJRy-oZFqMzTsRqp6eV-xndW4?authuser=0&hl=en&rclk=1,"19.067120199999998,78.346909"
Jama Masjid E Yaseen,Mosque,"48XM+F6C Jama Masjid E Yaseen, Hanuman Temple Road, Chincholi Buzurg, Telangana 504106",,"48XM+F6C, Hanuman Temple Road",Chincholi Buzurg,504106,Telangana,IN,https://www.google.com/maps/place/Jama+Masjid+E+Yaseen/data=!4m7!3m6!1s0x3bcd8afe0a8621e5:0x8fe4dfebe2fa5c5e!8m2!3d19.148678!4d78.3330188!16s%2Fg%2F11f2wfb5z6!19sChIJ5SGGCv6KzTsRXlz64uvf5I8?authuser=0&hl=en&rclk=1,"19.148678,78.33301879999999"
EIDGAH Renjarla,Mosque,"VCX9+J7X EIDGAH Renjarla, Renjarla, Telangana 503218",,VCX9+J7X,Renjarla,503218,Telangana,IN,https://www.google.com/maps/place/EIDGAH+Renjarla/data=!4m7!3m6!1s0x3bcd96c332e6bb89:0x3b9def3dc067e5a0!8m2!3d18.8991176!4d78.4182392!16s%2Fg%2F11fx8tw_bp!19sChIJibvmMsOWzTsRoOVnwD3vnTs?authuser=0&hl=en&rclk=1,"18.8991176,78.4182392"
"Old Masjid,Khudavandpoor",Mosque,"V5HP+PF8 Old Masjid,Khudavandpoor, Telangana 503212",,V5HP+PF8,,503212,Telangana,IN,"https://www.google.com/maps/place/Old+Masjid,Khudavandpoor/data=!4m7!3m6!1s0x3bcde969eaf5c695:0x61a5cf299e500802!8m2!3d18.8792964!4d78.1862171!16s%2Fg%2F11cs47y8xw!19sChIJlcb16mnpzTsRAghQninPpWE?authuser=0&hl=en&rclk=1","18.879296399999998,78.1862171"
MASJID-E-QUBA,Mosque,"2JPW+5WR MASJID-E-QUBA, Al-Kareem Colony, Khanapur, Telangana 504203",Al-Kareem Colony,2JPW+5WR,Khanapur,,Telangana,IN,https://www.google.com/maps/place/MASJID-E-QUBA/data=!4m7!3m6!1s0x3bcd8321fdc21c5d:0x2b7379e6067077c!8m2!3d19.0354786!4d78.6472701!16s%2Fg%2F11gpncgy65!19sChIJXRzC_SGDzTsRfAdnYJ43twI?authuser=0&hl=en&rclk=1,"19.035478599999998,78.6472701"
Macca Masjid,Mosque,"39G5+MMQ Macca Masjid, Shanthi Nagar Rd, Shanthinagar, Nirmal, Venkatapur Rural, Telangana 504105",Shanthinagar,"39G5+MMQ, Shanthi Nagar Rd","Nirmal, Venkatapur Rural",504105,Telangana,IN,https://www.google.com/maps/place/Macca+Masjid/data=!4m7!3m6!1s0x3bcd8db23dfdf8ed:0xe146a9cb766c453d!8m2!3d19.0767234!4d78.3592417!16s%2Fg%2F11h5lk1kll!19sChIJ7fj9PbKNzTsRPUVsdsupRuE?authuser=0&hl=en&rclk=1,"19.0767234,78.3592417"
"Jama Masjid, Muktapur",Mosque,"3C62+Q28 Jama Masjid, Muktapur, Muktapur, Telangana 504106",,3C62+Q28,Muktapur,,Telangana,IN,"https://www.google.com/maps/place/Jama+Masjid,+Muktapur/data=!4m7!3m6!1s0x3bcd8f9258c7c083:0x2f260bf9d293a969!8m2!3d19.0619098!4d78.4000766!16s%2Fg%2F11g1lsp89d!19sChIJg8DHWJKPzTsRaamT0vkLJi8?authuser=0&hl=en&rclk=1","19.0619098,78.40007659999999"
New EIDGAH NIRMAL,Mosque,"48PM+98W New EIDGAH NIRMAL, Chincholi Buzurg, Telangana 504110",,48PM+98W,Chincholi Buzurg,,Telangana,IN,https://www.google.com/maps/place/New+EIDGAH+NIRMAL/data=!4m7!3m6!1s0x3bcd8bb04ad05d83:0x31334f9c1ae9f252!8m2!3d19.1359868!4d78.3333393!16s%2Fg%2F11p0z5x1bs!19sChIJg13QSrCLzTsRUvLpGpxPMzE?authuser=0&hl=en&rclk=1,"19.135986799999998,78.33333929999999"
Jama Masjid,Mosque,"36QG+MQ8 Jama Masjid, Dilawarpur, Telangana 504306",,36QG+MQ8,Dilawarpur,504306,Telangana,IN,https://www.google.com/maps/place/Jama+Masjid/data=!4m7!3m6!1s0x3bcdf38b6d895ff3:0xfb92232411ea544f!8m2!3d19.0891544!4d78.2269668!16s%2Fg%2F11g7cxjty8!19sChIJ81-JbYvzzTsRT1TqESQjkvs?authuser=0&hl=en&rclk=1,"19.089154399999998,78.2269668"
Masjid E Muhammedia,Mosque,"294J+F67 Masjid E Muhammedia, Unnamed Road, Soan, Telangana 504105",,"294J+F67, Unnamed Road",Soan,504105,Telangana,IN,https://www.google.com/maps/place/Masjid+E+Muhammedia/data=!4m7!3m6!1s0x3bcd935526c583af:0xf58012623a212171!8m2!3d19.0061517!4d78.3805577!16s%2Fg%2F11g1nns_7j!19sChIJr4PFJlWTzTsRcSEhOmISgPU?authuser=0&hl=en&rclk=1,"19.0061517,78.3805577"
New Masjid,Mosque,"4536+837 New Masjid, Narsapur, Telangana 504104",,4536+837,Narsapur,504104,Telangana,IN,https://www.google.com/maps/place/New+Masjid/data=!4m7!3m6!1s0x3bcdf6d9badf7107:0x959db33fe812bc3a!8m2!3d19.1032998!4d78.1601806!16s%2Fg%2F11dyqr83fc!19sChIJB3Hfutn2zTsROrwS6D-znZU?authuser=0&hl=en&rclk=1,"19.1032998,78.16018059999999"
Jama Masjid,Mosque,"V8VX+7G8 Jama Masjid, Kisannagar, Telangana 503218",,V8VX+7G8,Kisannagar,503218,Telangana,IN,https://www.google.com/maps/place/Jama+Masjid/data=!4m7!3m6!1s0x3bcd9467c87c394d:0xbb8ab860317bff7f!8m2!3d18.8931544!4d78.3488276!16s%2Fg%2F11c74br178!19sChIJTTl8yGeUzTsRf_97MWC4irs?authuser=0&hl=en&rclk=1,"18.8931544,78.34882759999999"
Jama Masjid,Mosque,"X9HH+P64 Jama Masjid, Doodgaon, Telangana 503219",,X9HH+P64,Doodgaon,503219,Telangana,IN,https://www.google.com/maps/place/Jama+Masjid/data=!4m7!3m6!1s0x3bcd9224192c96bd:0x2e7e62bc05d54e75!8m2!3d18.9792705!4d78.3780674!16s%2Fg%2F11clsctqzf!19sChIJvZYsGSSSzTsRdU7VBbxifi4?authuser=0&hl=en&rclk=1,"18.9792705,78.37806739999999"
JAAMA MASJID,Mosque,"V5HQ+CR2 JAAMA MASJID, Khudavandapur, Telangana 503212",,V5HQ+CR2,Khudavandapur,503212,Telangana,IN,https://www.google.com/maps/place/JAAMA+MASJID/data=!4m7!3m6!1s0x3bcde9686667a3f5:0xee541aaa8c8de747!8m2!3d18.8785188!4d78.1895025!16s%2Fg%2F11c5350yrl!19sChIJ9aNnZmjpzTsRR-eNjKoaVO4?authuser=0&hl=en&rclk=1,"18.8785188,78.1895025"
Masjid,Mosque,"V8CR+8P4 Masjid, Balkonda, Telangana 503217",,V8CR+8P4,Balkonda,503217,Telangana,IN,https://www.google.com/maps/place/Masjid/data=!4m7!3m6!1s0x3bcd9454521a63f3:0x34641c42aab6e55b!8m2!3d18.8707534!4d78.3418171!16s%2Fg%2F11dxmf_g1k!19sChIJ82MaUlSUzTsRW-W2qkIcZDQ?authuser=0&hl=en&rclk=1,"18.870753399999998,78.3418171"
Zakariya Masjid,Mosque,"39W2+36R Zakariya Masjid, Unnamed Road, Nirmal, Telangana 504106",,"39W2+36R, Unnamed Road",Nirmal,504106,Telangana,IN,https://www.google.com/maps/place/Zakariya+Masjid/data=!4m7!3m6!1s0x3bcd8c70af3e69d3:0x5bd0199c0b37c400!8m2!3d19.0952397!4d78.3505245!16s%2Fg%2F11gg94g7gs!19sChIJ02k-r3CMzTsRAMQ3C5wZ0Fs?authuser=0&hl=en&rclk=1,"19.0952397,78.35052449999999"
Mosque,Mosque,"Mosque, shiva temple, Nallur mosque near lord, Nallur, Telangana",,"shiva temple, Nallur mosque near lord",Nallur,,Telangana,IN,https://www.google.com/maps/place/Mosque/data=!4m7!3m6!1s0x3bcd93ecce3162e9:0x89da8c7144c19593!8m2!3d18.9305867!4d78.3619769!16s%2Fg%2F11f53flxxq!19sChIJ6WIxzuyTzTsRk5XBRHGM2ok?authuser=0&hl=en&rclk=1,"18.9305867,78.3619769"
Masjid,Mosque,"W974+PWJ Masjid, Mukpal, Telangana 503218",,W974+PWJ,Mukpal,503218,Telangana,IN,https://www.google.com/maps/place/Masjid/data=!4m7!3m6!1s0x3bcd94758d02d67f:0x6283cbf356c32a5a!8m2!3d18.9143341!4d78.3572587!16s%2Fg%2F11g8160wmd!19sChIJf9YCjXWUzTsRWirDVvPLg2I?authuser=0&hl=en&rclk=1,"18.914334099999998,78.3572587"
Masjide Fasiyoddin,Mosque,"3GJF+67M Masjide Fasiyoddin, Mamda, Telangana 504310",,3GJF+67M,Mamda,504310,Telangana,IN,https://www.google.com/maps/place/Masjide+Fasiyoddin/data=!4m7!3m6!1s0x3bcd844cfe7a464f:0xc58abf5580d1fb20!8m2!3d19.0805774!4d78.5231638!16s%2Fg%2F11gd919v73!19sChIJT0Z6_kyEzTsRIPvRgFW_isU?authuser=0&hl=en&rclk=1,"19.0805774,78.52316379999999"
jame masjid godhur,Mosque,"VJW9+CRF jame masjid godhur, Godur, Telangana 505325",,VJW9+CRF,Godur,505325,Telangana,IN,https://www.google.com/maps/place/jame+masjid+godhur/data=!4m7!3m6!1s0x3bcd9e5082733b33:0x552f5b3a36bda65b!8m2!3d18.8960736!4d78.6195507!16s%2Fg%2F11cs0dx_yd!19sChIJMztzglCezTsRW6a9NjpbL1U?authuser=0&hl=en&rclk=1,"18.896073599999998,78.61955069999999"
msjd slym,Mosque,"38WV+RVR msjd slym, Market Rd, Zohra Nagar Colony, Moghalpura, Nirmal, Telangana 504106","Zohra Nagar Colony, Moghalpura","38WV+RVR, Market Rd",Nirmal,504106,Telangana,IN,https://www.google.com/maps/place/%D9%85%D8%B3%D8%AC%D8%AF+%D8%B3%D9%84%DB%8C%D9%85%E2%80%AD/data=!4m7!3m6!1s0x3bcd8d93a5254703:0x4da948bd804a0de8!8m2!3d19.0971183!4d78.3446414!16s%2Fg%2F11ft8n_qd4!19sChIJA0clpZONzTsR6A1KgL1IqU0?authuser=0&hl=en&rclk=1,"19.097118299999998,78.3446414"
Masjid E Vengwapet,Mosque,"48F8+H86 Masjid E Vengwapet, near, Vengwapet, Telangana",,"48F8+H86, near",Vengwapet,,Telangana,IN,https://www.google.com/maps/place/Masjid+E+Vengwapet/data=!4m7!3m6!1s0x3bcd8b26abb67a47:0xdd960d9a37ed94a!8m2!3d19.1239169!4d78.3157713!16s%2Fg%2F11f7sygp4b!19sChIJR3q2qyaLzTsRStl-o9lg2Q0?authuser=0&hl=en&rclk=1,"19.123916899999998,78.3157713"
masjid,Mosque,"masjid, Telangana 504106",,,,,Telangana,IN,https://www.google.com/maps/place/masjid/data=!4m7!3m6!1s0x3bcd8b75b8dbf64b:0xa8e676776b6b44e8!8m2!3d19.1200253!4d78.336862!16s%2Fg%2F124yjm8fs!19sChIJS_bbuHWLzTsR6ERra3d25qg?authuser=0&hl=en&rclk=1,"19.1200253,78.336862"
Madina Masjid,Mosque,"2JXR+2QJ Madina Masjid, Bellala Rd, Vidyanagar, Subhash nagar, Khanapur, Thimmapur, Telangana 504203","Vidyanagar, Subhash nagar","2JXR+2QJ Madina Masjid, Bellala Rd","Khanapur, Thimmapur",504203,Telangana,IN,https://www.google.com/maps/place/Madina+Masjid/data=!4m7!3m6!1s0x3bcd838576afb3b7:0x577acc4d6ab0d65d!8m2!3d19.0471158!4d78.6429724!16s%2Fg%2F11k2jqt9dc!19sChIJt7OvdoWDzTsRXdawak3Melc?authuser=0&hl=en&rclk=1,"19.0471158,78.64297239999999"
Masjid e Gulzar Ismaily,Mosque,"Masjid e Gulzar Ismaily, indiramma gruhalu, Telangana 504106",,indiramma gruhalu,,504106,Telangana,IN,https://www.google.com/maps/place/Masjid+e+Gulzar+Ismaily/data=!4m7!3m6!1s0x3bcd8b6f9a915c21:0xc1c5df9002bf1d41!8m2!3d19.1230496!4d78.3277848!16s%2Fg%2F11qqlz3ng3!19sChIJIVyRmm-LzTsRQR2_ApDfxcE?authuser=0&hl=en&rclk=1,"19.123049599999998,78.3277848"
Masjid-e-Noor,Mosque,"WGV5+747 Masjid-e-Noor, Gumeriyal, Telangana 503308",,WGV5+747,Gumeriyal,503308,Telangana,IN,https://www.google.com/maps/place/Masjid-e-Noor/data=!4m7!3m6!1s0x3bcd9a3994cdfc45:0xb97ff7133b6b0a6c!8m2!3d18.9431669!4d78.5077946!16s%2Fg%2F11dyxzj9zd!19sChIJRfzNlDmazTsRbAprOxP3f7k?authuser=0&hl=en&rclk=1,"18.943166899999998,78.5077946"
MASJID E SARWARI,Mosque,"48FJ+PHV MASJID E SARWARI, Telangana 504106",,48FJ+PHV,,504106,Telangana,IN,https://www.google.com/maps/place/MASJID+E+SARWARI/data=!4m7!3m6!1s0x3bcd8b00651e8ffd:0xa8f7ee52c6590d!8m2!3d19.1243734!4d78.3314346!16s%2Fg%2F11ry25t2vy!19sChIJ_Y8eZQCLzTsRDVnGUu73qAA?authuser=0&hl=en&rclk=1,"19.1243734,78.3314346"
Masjid e Akbar Ahle Hadees Gajulpet Nirmal,Mosque,"486M+7VW Masjid e Akbar Ahle Hadees Gajulpet Nirmal, Gajulpet, Telangana 504106",,486M+7VW,Gajulpet,,Telangana,IN,https://www.google.com/maps/place/Masjid+e+Akbar+Ahle+Hadees+Gajulpet+Nirmal/data=!4m7!3m6!1s0x3bcd8b1c1132400d:0xeed8f83e6793b63c!8m2!3d19.11075!4d78.3346899!16s%2Fg%2F11sdvg_vpv!19sChIJDUAyERyLzTsRPLaTZz742O4?authuser=0&hl=en&rclk=1,"19.11075,78.3346899"
Masijd,Mosque,"37RJ+GWX Masijd, Sirgapur, Telangana 504306",,37RJ+GWX,Sirgapur,504306,Telangana,IN,https://www.google.com/maps/place/Masijd/data=!4m7!3m6!1s0x3bcdf33758e9a9e3:0xdf1a41fcd63d0884!8m2!3d19.0913546!4d78.2823573!16s%2Fg%2F11ssjwr2t4!19sChIJ46npWDfzzTsRhAg91vxBGt8?authuser=0&hl=en&rclk=1,"19.0913546,78.2823573"
Masjid E Mohammedia,Mosque,"3F7C+F76 Masjid E Mohammedia, New Kanjar, Lakshman Chanda, Nirmal, Kotha Lingampalle (R.C), Telangana 504310","New Kanjar, Lakshman Chanda",3F7C+F76,"Nirmal, Kotha Lingampalle (R.C)",504310,Telangana,IN,https://www.google.com/maps/place/Masjid+E+Mohammedia/data=!4m7!3m6!1s0x3bcd8f014549f7a1:0x195f63566a908af2!8m2!3d19.0636637!4d78.4706476!16s%2Fg%2F11rdcq32xf!19sChIJofdJRQGPzTsR8oqQalZjXxk?authuser=0&hl=en&rclk=1,"19.0636637,78.47064759999999"
MAKTAB ABU BAKKAR SIDDIQ AILAPUR masjid,Mosque,"R4XC+R93 MAKTAB ABU BAKKAR SIDDIQ AILAPUR masjid, Ailapur, Gunjali, Telangana 503212",,R4XC+R93,"Ailapur, Gunjali",,Telangana,IN,https://www.google.com/maps/place/MAKTAB+ABU+BAKKAR+SIDDIQ+AILAPUR+masjid/data=!4m7!3m6!1s0x3bcde9f36adbabc3:0x71fe00fb81b6ee5d!8m2!3d18.849512!4d78.12091!16s%2Fg%2F11tx1s7mnm!19sChIJw6vbavPpzTsRXe62gfsA_nE?authuser=0&hl=en&rclk=1,"18.849512,78.12091"
Masjid-E-Saleema,Mosque,"RGM7+59X Masjid-E-Saleema, Nizamabad, Kammarpally, Telangana 503308",,RGM7+59X,"Nizamabad, Kammarpally",,Telangana,IN,https://www.google.com/maps/place/Masjid-E-Saleema/data=!4m7!3m6!1s0x3bcd992a4babcf4b:0x13dd6dc79729e38c!8m2!3d18.8329853!4d78.5134791!16s%2Fg%2F11gjhf7q_j!19sChIJS8-rSyqZzTsRjOMpl8dt3RM?authuser=0&hl=en&rclk=1,"18.8329853,78.5134791"
MASJID- E -SIDDIQ,Mosque,"39W3+9GR MASJID- E -SIDDIQ, Moghalpura, Nirmal, Telangana 504106",Moghalpura,39W3+9GR,Nirmal,504106,Telangana,IN,https://www.google.com/maps/place/MASJID-+E+-SIDDIQ/data=!4m7!3m6!1s0x3bcd8d77ced13693:0x2b1f9d1fdf452958!8m2!3d19.0959983!4d78.3537797!16s%2Fg%2F11g1gmhbgh!19sChIJkzbRzneNzTsRWClF3x-dHys?authuser=0&hl=en&rclk=1,"19.095998299999998,78.35377969999999"
Masjid,Place of worship,"483V+958 Masjid, Budhwarpet Rd, Pinjari Gutta, Nirmal, Telangana 504106",Pinjari Gutta,"483V+958, Budhwarpet Rd",Nirmal,504106,Telangana,IN,https://www.google.com/maps/place/Masjid/data=!4m7!3m6!1s0x3bcd8b68702e7e9f:0x35dd6a4ba8924719!8m2!3d19.1034044!4d78.3429492!16s%2Fg%2F11rc46yr5p!19sChIJn34ucGiLzTsRGUeSqEtq3TU?authuser=0&hl=en&rclk=1,"19.1034044,78.34294919999999"
Masjid bopparam,Mosque,"2CR5+8JC Masjid bopparam, Bapparam, Telangana 504105",,2CR5+8JC,Bapparam,504105,Telangana,IN,https://www.google.com/maps/place/Masjid+bopparam/data=!4m7!3m6!1s0x3bcd8e4188f2ae39:0xc07ac5e743d80df9!8m2!3d19.0408141!4d78.4090151!16s%2Fg%2F11f00qcn5d!19sChIJOa7yiEGOzTsR-Q3YQ-fFesA?authuser=0&hl=en&rclk=1,"19.0408141,78.40901509999999"
Masjid E Abu Bakar,Mosque,"2JXP+GVV Masjid E Abu Bakar, Nirmal - Mancherial Rd, Khanapur, Thimmapur, Telangana 504203",,"2JXP+GVV, Nirmal - Mancherial Rd","Khanapur, Thimmapur",504203,Telangana,IN,https://www.google.com/maps/place/Masjid+E+Abu+Bakar/data=!4m7!3m6!1s0x3bcd838be7675037:0x1ecef2637bebf20c!8m2!3d19.0488678!4d78.6371746!16s%2Fg%2F11kyxhjk80!19sChIJN1Bn54uDzTsRDPLre2Pyzh4?authuser=0&hl=en&rclk=1,"19.0488678,78.6371746"
Masjid,Mosque,"2F97+CXG Masjid, Laxmanchanda, Telangana 504106",,2F97+CXG,Laxmanchanda,504106,Telangana,IN,https://www.google.com/maps/place/Masjid/data=!4m7!3m6!1s0x3bcd8ffcdea173c7:0x891e0343679ed189!8m2!3d19.0185733!4d78.4649569!16s%2Fg%2F11gcx_s45d!19sChIJx3Oh3vyPzTsRidGeZ0MDHok?authuser=0&hl=en&rclk=1,"19.0185733,78.46495689999999"
JAMA MASJID POCHAMPAD,Mosque,"X9C5+H3C JAMA MASJID POCHAMPAD, Pochampadu Camp, Sonpet & Pochampad, Telangana 503219",Pochampadu Camp,X9C5+H3C,Sonpet & Pochampad,503219,Telangana,IN,https://www.google.com/maps/place/JAMA+MASJID+POCHAMPAD/data=!4m7!3m6!1s0x3bcd93a289153b5b:0x4cd2619f6c6dbab0!8m2!3d18.9714427!4d78.3576404!16s%2Fg%2F11h1fyrfv1!19sChIJWzsViaKTzTsRsLptbJ9h0kw?authuser=0&hl=en&rclk=1,"18.9714427,78.3576404"
"Jama Masjid, Maggidi",Mosque,"V7G8+395 Jama Masjid, Maggidi, Maggidi, Amdapur, Telangana 503224",,V7G8+395,"Maggidi, Amdapur",,Telangana,IN,"https://www.google.com/maps/place/Jama+Masjid,+Maggidi/data=!4m7!3m6!1s0x3bcdeb93f539f0c3:0xeb8e78ca7cdfd447!8m2!3d18.8751326!4d78.2659706!16s%2Fg%2F11rr2z1vdk!19sChIJw_A59ZPrzTsRR9TffMp4jus?authuser=0&hl=en&rclk=1","18.8751326,78.2659706"
Bappurchakka,Mosque,"3FJ5+GJC Bappurchakka, Arepalle, Telangana 504310",,3FJ5+GJC,Arepalle,504310,Telangana,IN,https://www.google.com/maps/place/Bappurchakka/data=!4m7!3m6!1s0x3bcd8ffb5d4c3a27:0xb441f0c3e5d2be39!8m2!3d19.0813153!4d78.4590085!16s%2Fg%2F11jbc8dgq4!19sChIJJzpMXfuPzTsROb7S5cPwQbQ?authuser=0&hl=en&rclk=1,"19.0813153,78.4590085"
MASJID E AYESHA(AHLE HADEES),Mosque,"VCX8+2H5 MASJID E AYESHA(AHLE HADEES), Renjarla, Telangana 503218",,VCX8+2H5,Renjarla,503218,Telangana,IN,https://www.google.com/maps/place/MASJID+E+AYESHA%28AHLE+HADEES%29/data=!4m7!3m6!1s0x3bcd97c4341caea1:0xb8cfa7b75c7be19d!8m2!3d18.8975075!4d78.4164921!16s%2Fg%2F11fpg73khm!19sChIJoa4cNMSXzTsRneF7XLenz7g?authuser=0&hl=en&rclk=1,"18.8975075,78.4164921"
Jama Masjid Nikalpoor,Mosque,"W5Q8+3CH Jama Masjid Nikalpoor, Nizmabad, Nikalpur, Telangana 503212",,"W5Q8+3CH, Nizmabad",Nikalpur,503212,Telangana,IN,https://www.google.com/maps/place/Jama+Masjid+Nikalpoor/data=!4m7!3m6!1s0x3bcdeee53497f8e9:0x39d6ff72e8b22f94!8m2!3d18.9376999!4d78.1661121!16s%2Fg%2F11g6bm2xmm!19sChIJ6fiXNOXuzTsRlC-y6HL_1jk?authuser=0&hl=en&rclk=1,"18.9376999,78.16611209999999"
Eidgah.Khudavandpoor,Mosque,"V5GW+H8G Eidgah.Khudavandpoor, Khudavandapur, Telangana 503212",,V5GW+H8G,Khudavandapur,,Telangana,IN,https://www.google.com/maps/place/Eidgah.Khudavandpoor/data=!4m7!3m6!1s0x3bcde9ac4d4f8c19:0xed0c61cfdbaf9aa5!8m2!3d18.8764358!4d78.1958335!16s%2Fg%2F11f653w8gn!19sChIJGYxPTazpzTsRpZqv289hDO0?authuser=0&hl=en&rclk=1,"18.8764358,78.19583349999999"
MASJID MANDAPALLY,Mosque,"5J6M+9RQ MASJID MANDAPALLY, Mandapalle, Telangana 504203",,5J6M+9RQ,Mandapalle,504203,Telangana,IN,https://www.google.com/maps/place/MASJID+MANDAPALLY/data=!4m7!3m6!1s0x3bcd81bf89d808fb:0x96838058f2313d83!8m2!3d19.1609524!4d78.634599!16s%2Fg%2F11j0wdqpdx!19sChIJ-wjYib-BzTsRgz0x8liAg5Y?authuser=0&hl=en&rclk=1,"19.1609524,78.634599"
MASJID E EIDGAON NIRMAL,Mosque,"38PV+W2C MASJID E EIDGAON NIRMAL, Unnamed Road, Natraj Nagar, Eidgoan, Nirmal, Telangana 504106","Natraj Nagar, Eidgoan","38PV+W2C, Unnamed Road",Nirmal,504106,Telangana,IN,https://www.google.com/maps/place/MASJID+E+EIDGAON+NIRMAL/data=!4m7!3m6!1s0x3bcd8c6358878827:0x9e6de3030bed805a!8m2!3d19.0873155!4d78.3425302!16s%2Fg%2F11hd07t83z!19sChIJJ4iHWGOMzTsRWoDtCwPjbZ4?authuser=0&hl=en&rclk=1,"19.0873155,78.3425302"
Masjid e zohra,Mosque,"38VR+WC6 Masjid e zohra, Maternity Hospital Rd, Eidgoan, Nirmal, Telangana 504106",Eidgoan,"38VR+WC6, Maternity Hospital Rd",Nirmal,504106,Telangana,IN,https://www.google.com/maps/place/Masjid+e+zohra/data=!4m7!3m6!1s0x3bcd8dad6ff99def:0xd1220326d03e7595!8m2!3d19.0947996!4d78.3410309!16s%2Fg%2F11mtd9pbxd!19sChIJ7535b62NzTsRlXU-0CYDItE?authuser=0&hl=en&rclk=1,"19.094799599999998,78.34103089999999"
Jama Masjid,Mosque,"4733+GPV Jama Masjid, Near the Nirmal Bhainsa main Road.Mdl: Dilawarpur. Dist:, Nirmal, Telangana 504306",,"4733+GPV, Near the Nirmal Bhainsa main Road.Mdl: Dilawarpur. Dist:","Nirmal, Lolam",504306,Telangana,IN,https://www.google.com/maps/place/Jama+Masjid/data=!4m7!3m6!1s0x3bcdfff87705fb39:0xd33edc6cec828713!8m2!3d19.1038707!4d78.2542839!16s%2Fg%2F11gtdzt517!19sChIJOfsFd_j_zTsRE4eC7GzcPtM?authuser=0&hl=en&rclk=1,"19.103870699999998,78.25428389999999"
Jamia Masjid,Mosque,"X8QP+XCM Jamia Masjid, Pakpatla, Telangana 504105",,X8QP+XCM,Pakpatla,504105,Telangana,IN,https://www.google.com/maps/place/Jamia+Masjid/data=!4m7!3m6!1s0x3bcd93fdbe33a335:0x8d4241faa54b72b7!8m2!3d18.9899607!4d78.3360374!16s%2Fg%2F11f6yvmh09!19sChIJNaMzvv2TzTsRt3JLpfpBQo0?authuser=0&hl=en&rclk=1,"18.989960699999997,78.3360374"
Imli band,Mosque,"39G3+P77 Imli band, Nirmal, Telangana 504105",,39G3+P77,Nirmal,,Telangana,IN,https://www.google.com/maps/place/Imli+band/data=!4m7!3m6!1s0x3bcd8d4ee2077133:0x67250b3aa8a34700!8m2!3d19.0767975!4d78.3531705!16s%2Fg%2F11kjgkv9wq!19sChIJM3EH4k6NzTsRAEejqDoLJWc?authuser=0&hl=en&rclk=1,"19.076797499999998,78.35317049999999"
Masjid e Dawood,Mosque,"485W+W49 Masjid e Dawood, Naidiwada, Nirmal, Telangana 504106",Naidiwada,485W+W49,Nirmal,504106,Telangana,IN,https://www.google.com/maps/place/Masjid+e+Dawood/data=!4m7!3m6!1s0x3bcd8b846475af3d:0x82ca3b48733cef62!8m2!3d19.1097927!4d78.3453625!16s%2Fg%2F11gbx8td_p!19sChIJPa91ZISLzTsRYu88c0g7yoI?authuser=0&hl=en&rclk=1,"19.1097927,78.3453625"
KABUTAR KAMAN,Mosque,"484V+FQM KABUTAR KAMAN, Budhwarpet, Nirmal, Telangana 504106",Budhwarpet,"484V+FQM, KABUTAR KAMAN",Nirmal,504106,Telangana,IN,https://www.google.com/maps/place/KABUTAR+KAMAN/data=!4m7!3m6!1s0x3bcd8bd5708f26cb:0x792046c333cc67b!8m2!3d19.1062005!4d78.3444343!16s%2Fg%2F11sx05gtdm!19sChIJyyaPcNWLzTsRe8Y8M2wEkgc?authuser=0&hl=en&rclk=1,"19.1062005,78.3444343"
Masjid E Yahya Noor,Mosque,"48GH+8X7 Masjid E Yahya Noor, Nirmal, Telangana 504106",,48GH+8X7,Nirmal,,Telangana,IN,https://www.google.com/maps/place/Masjid+E+Yahya+Noor/data=!4m7!3m6!1s0x3bcd8bfffa3ea767:0x2953448db738086!8m2!3d19.1257808!4d78.3299118!16s%2Fg%2F11kjg_cd_k!19sChIJZ6c--v-LzTsRhoBz20g0lQI?authuser=0&hl=en&rclk=1,"19.125780799999998,78.32991179999999"
Wadoor baba dargah,Mosque,"38PQ+VR8 Wadoor baba dargah, NH 61, Eidgoam, Nirmal, Telangana 504106",Eidgoam,"38PQ+VR8, NH 61",Nirmal,504106,Telangana,IN,https://www.google.com/maps/place/Wadoor+baba+dargah/data=!4m7!3m6!1s0x3bcd8d8814bbbc03:0x8605111567a4de7d!8m2!3d19.0872029!4d78.3397263!16s%2Fg%2F11t0pvwm4d!19sChIJA7y7FIiNzTsRfd6kZxURBYY?authuser=0&hl=en&rclk=1,"19.087202899999998,78.3397263"
Macca masjid Kuchanpally,Mosque,"2CF2+JG3 Macca masjid Kuchanpally, Kuchanpalli, Telangana 504105",,2CF2+JG3,Kuchanpalli,504105,Telangana,IN,https://www.google.com/maps/place/Macca+masjid+Kuchanpally/data=!4m7!3m6!1s0x3bcd8fe658bca58b:0xb4e37cabb874c898!8m2!3d19.0240113!4d78.4013!16s%2Fg%2F11s5ns0f1q!19sChIJi6W8WOaPzTsRmMh0uKt847Q?authuser=0&hl=en&rclk=1,"19.024011299999998,78.40129999999999"
"EIDGAH, NARSAPUR (G)",Mosque,"4575+M2P EIDGAH, NARSAPUR (G), Mallanna temple road, Narsapur G, Dist:Nirmal, Telangana 504104",,"4575+M2P, Mallanna temple road, Narsapur G, Dist:Nirmal",Shakapur,504104,Telangana,IN,"https://www.google.com/maps/place/EIDGAH,+NARSAPUR+%28G%29/data=!4m7!3m6!1s0x3bcdf72f7b2bd6cf:0xd8b0b0a1390199e5!8m2!3d19.1142006!4d78.1575704!16s%2Fg%2F11ffw748c1!19sChIJz9Yrey_3zTsR5ZkBOaGwsNg?authuser=0&hl=en&rclk=1","19.1142006,78.1575704"
Mosque( msjdmasjid ),Mosque,"X9C4+GWJ Mosque( msjdmasjid ), Pochampadu Camp, Sonpet & Pochampad, Telangana 503219",Pochampadu Camp,X9C4+GWJ,Sonpet & Pochampad,503219,Telangana,IN,https://www.google.com/maps/place/Mosque%28+%D9%85%D8%B3%D8%AC%D8%AF%E2%80%8Emasjid+%29%E2%80%AD/data=!4m7!3m6!1s0x3bcd9248e82c3223:0x5994e7883c31c9b9!8m2!3d18.9713482!4d78.3572591!16s%2Fg%2F11clyqz22b!19sChIJIzIs6EiSzTsRuckxPIjnlFk?authuser=0&hl=en&rclk=1,"18.971348199999998,78.3572591"
jaam msiid bttttpuur,Mosque,"WCJX+6HV jaam msiid bttttpuur, Battapur, Telangana 503308",,WCJX+6HV,Battapur,503308,Telangana,IN,https://www.google.com/maps/place/%E0%B0%9C%E0%B0%BE%E0%B0%AE+%E0%B0%AE%E0%B0%B8%E0%B1%80%E0%B0%A6%E0%B1%8D+%E0%B0%AC%E0%B0%9F%E0%B1%8D%E0%B0%9F%E0%B0%AA%E0%B1%82%E0%B0%B0%E0%B1%8D/data=!4m7!3m6!1s0x3bcd918b3f47d8ad:0xfe854f6f76021030!8m2!3d18.930614!4d78.448918!16s%2Fg%2F11nxqyzj_v!19sChIJrdhHP4uRzTsRMBACdm9Phf4?authuser=0&hl=en&rclk=1,"18.930614,78.44891799999999"
Masjid e shamshuddin,Mosque,"X99F+W2 Masjid e shamshuddin, Sonpet & Pochampad, Telangana 503219",,X99F+W2,Sonpet & Pochampad,,Telangana,IN,https://www.google.com/maps/place/Masjid+e+shamshuddin/data=!4m7!3m6!1s0x3bcd935faa4e0f05:0xf30579b261f9a81b!8m2!3d18.9698712!4d78.3725981!16s%2Fg%2F11sk0xtvqj!19sChIJBQ9Oql-TzTsRG6j5YbJ5BfM?authuser=0&hl=en&rclk=1,"18.9698712,78.37259809999999"
Eidgah / `yd gh - Kammarpally,Mosque,"RGQF+2H9 Eidgah / `yd gh - Kammarpally, Nizamabad - Mancherial - Jagdalpur Rd, Uploor, Telangana 503308",,"RGQF+2H9, Nizamabad - Mancherial - Jagdalpur Rd",Uploor,503308,Telangana,IN,https://www.google.com/maps/place/Eidgah+%2F+%D8%B9%DB%8C%D8%AF+%DA%AF%D8%A7%DB%81+-+Kammarpally%E2%80%AD/data=!4m7!3m6!1s0x3bcd9996e8ddfaf9:0x132ad191713368c!8m2!3d18.8385027!4d78.5243022!16s%2Fg%2F11tnlw13cr!19sChIJ-frd6JaZzTsRjDYTFxmtMgE?authuser=0&hl=en&rclk=1,"18.8385027,78.5243022"
Masjid,Mosque,"R6CR+JF9 Masjid, Rampur, Telangana 503224",,R6CR+JF9,Rampur,503224,Telangana,IN,https://www.google.com/maps/place/Masjid/data=!4m7!3m6!1s0x3bcdeb41cefe2a85:0xac18d6eb2f173a2e!8m2!3d18.8215488!4d78.2412238!16s%2Fg%2F11h7yt2994!19sChIJhSr-zkHrzTsRLjoXL-vWGKw?authuser=0&hl=en&rclk=1,"18.8215488,78.2412238"
Masjid-e-Taweed,Mosque,"W49M+X9V Masjid-e-Taweed, Ummeda, Telangana 503212",,W49M+X9V,Ummeda,503212,Telangana,IN,https://www.google.com/maps/place/Masjid-e-Taweed/data=!4m7!3m6!1s0x3bcdef84711adc7f:0x8386494f394d9ae7!8m2!3d18.9199843!4d78.1334202!16s%2Fg%2F11f9zdrpmj!19sChIJf9wacYTvzTsR55pNOU9JhoM?authuser=0&hl=en&rclk=1,"18.9199843,78.1334202"
Masjid Ithwarpet,Mosque,"V8H9+75X Masjid Ithwarpet, Jalalpur, Telangana 503217",,V8H9+75X,Jalalpur,503217,Telangana,IN,https://www.google.com/maps/place/Masjid+Ithwarpet/data=!4m7!3m6!1s0x3bcd9587441cdc81:0xe5b0196f008fdacb!8m2!3d18.8788814!4d78.3173663!16s%2Fg%2F11pd0sf9rd!19sChIJgdwcRIeVzTsRy9qPAG8ZsOU?authuser=0&hl=en&rclk=1,"18.878881399999997,78.3173663"
Jama masjid,Mosque,"Jama masjid, Tondakur, Shahpur, Telangana 503212",,,"Tondakur, Shahpur",503212,Telangana,IN,https://www.google.com/maps/place/Jama+masjid/data=!4m7!3m6!1s0x3bcde9b6689d0d6d:0xd82ac2d148723667!8m2!3d18.9007382!4d78.1827624!16s%2Fg%2F11ty4q1_7p!19sChIJbQ2daLbpzTsRZzZySNHCKtg?authuser=0&hl=en&rclk=1,"18.9007382,78.1827624"
Moti Masjid,Mosque,"38VX+Q23 Moti Masjid, Indira Nagar, Nirmal, Telangana 504106",Indira Nagar,38VX+Q23,Nirmal,504106,Telangana,IN,https://www.google.com/maps/place/Moti+Masjid/data=!4m7!3m6!1s0x3bcd8d81de0afe73:0xc3d36cad8b842584!8m2!3d19.094332!4d78.3485079!16s%2Fg%2F11tdc428l8!19sChIJc_4K3oGNzTsRhCWEi61s08M?authuser=0&hl=en&rclk=1,"19.094331999999998,78.3485079"
Masjid E Noor,Mosque,"39C3+79P Masjid E Noor, Venkatapur Rural, Telangana 504105",,39C3+79P,Venkatapur Rural,504105,Telangana,IN,https://www.google.com/maps/place/Masjid+E+Noor/data=!4m7!3m6!1s0x3bcd8ddcb5d9d5cf:0xd152c6f472fdfbfa!8m2!3d19.0707081!4d78.3534421!16s%2Fg%2F11hv9slfb2!19sChIJz9XZtdyNzTsR-vv9cvTGUtE?authuser=0&hl=en&rclk=1,"19.070708099999997,78.3534421"
Masjid E Sujath,Mosque,"38XR+3XQ Masjid E Sujath, Priyadarshini Nagar, Nirmal, Telangana 504106",Priyadarshini Nagar,38XR+3XQ,Nirmal,504106,Telangana,IN,https://www.google.com/maps/place/Masjid+E+Sujath/data=!4m7!3m6!1s0x3bcd8d0cdf8db947:0xb940a3d6fcfd8e89!8m2!3d19.097701!4d78.3424829!16s%2Fg%2F11ty07dz60!19sChIJR7mN3wyNzTsRiY79_NajQLk?authuser=0&hl=en&rclk=1,"19.097701,78.3424829"
Eid-Gah Nirmal,Mosque,"38PQ+7GQ Eid-Gah Nirmal, Adharsha Nagar, Nirmal, Telangana 504106",Adharsha Nagar,38PQ+7GQ,Nirmal,504106,Telangana,IN,https://www.google.com/maps/place/Eid-Gah+Nirmal/data=!4m7!3m6!1s0x3bcd8d90b7d8d435:0x3a2ad0646c5b8835!8m2!3d19.0857081!4d78.3388489!16s%2Fg%2F11ty5vs19m!19sChIJNdTYt5CNzTsRNYhbbGTQKjo?authuser=0&hl=en&rclk=1,"19.085708099999998,78.3388489"
Masjid e Hameeda,Mosque,"482M+GG9 Masjid e Hameeda, BARKATHPURA ROAD, Street No. 1, opposite MASJID E HAMEEDA, Priyadarshini Nagar, Nirmal, Telangana 504106",Priyadarshini Nagar,"482M+GG9, BARKATHPURA ROAD, Street No. 1, opposite MASJID E HAMEEDA",Nirmal,504106,Telangana,IN,https://www.google.com/maps/place/Masjid+e+Hameeda/data=!4m7!3m6!1s0x3bcd8b49775a452f:0x5f7719d97ca6869b!8m2!3d19.1012795!4d78.3338439!16s%2Fg%2F11t508g8hy!19sChIJL0Vad0mLzTsRm4amfNkZd18?authuser=0&hl=en&rclk=1,"19.1012795,78.33384389999999"
Sofiya Mosque,Mosque,"38CX+3Q8 Sofiya Mosque, Hiderabad, Road, Nirmal, Telangana 504105",,"38CX+3Q8, Hiderabad, Road","Nirmal, Venkatapur Rural",504105,Telangana,IN,https://www.google.com/maps/place/Sofiya+Mosque/data=!4m7!3m6!1s0x3bcd8dc385d7e307:0xccf929d1913274a5!8m2!3d19.0701694!4d78.3494416!16s%2Fg%2F11f5q881pr!19sChIJB-PXhcONzTsRpXQykdEp-cw?authuser=0&hl=en&rclk=1,"19.070169399999997,78.34944159999999"
Masjid E Anisa Rehman,Mosque,"38MM+H6W Masjid E Anisa Rehman, Adharsha Nagar, Nirmal, Telangana 504106",Adharsha Nagar,38MM+H6W,Nirmal,504106,Telangana,IN,https://www.google.com/maps/place/Masjid+E+Anisa+Rehman/data=!4m7!3m6!1s0x3bcd8d67f35dca5d:0xb622b1638f92c5fa!8m2!3d19.0839753!4d78.333078!16s%2Fg%2F11ty0pkpxq!19sChIJXcpd82eNzTsR-sWSj2OxIrY?authuser=0&hl=en&rclk=1,"19.0839753,78.333078"
budhwarpet,Mosque,"483X+455 budhwarpet, Besthawar Pet, Brahmapuri, Nirmal, Telangana 504106","Besthawar Pet, Brahmapuri",483X+455,Nirmal,504106,Telangana,IN,https://www.google.com/maps/place/budhwarpet/data=!4m7!3m6!1s0x3bcd8bfb66f83783:0x717d61d1e9109098!8m2!3d19.1027657!4d78.3479759!16s%2Fg%2F11q4d6wx1y!19sChIJgzf4ZvuLzTsRmJAQ6dFhfXE?authuser=0&hl=en&rclk=1,"19.1027657,78.3479759"
Chowk Masjid,Mosque,"484W+JHJ Chowk Masjid, Budhwarpet, Nirmal, Telangana 504106",Budhwarpet,484W+JHJ,Nirmal,504106,Telangana,IN,https://www.google.com/maps/place/Chowk+Masjid/data=!4m7!3m6!1s0x3bcd8b869a815555:0x72db1297ad447e04!8m2!3d19.1065965!4d78.3463755!16s%2Fg%2F11tgg7ngf0!19sChIJVVWBmoaLzTsRBH5ErZcS23I?authuser=0&hl=en&rclk=1,"19.1065965,78.3463755"
Masjid e ek qana Ahle sunnat,Mosque,"38XW+734 Masjid e ek qana Ahle sunnat, Chinthakunta Wada, Nirmal, Telangana 504106",Chinthakunta Wada,38XW+734,Nirmal,504106,Telangana,IN,https://www.google.com/maps/place/Masjid+e+ek+qana+Ahle+sunnat/data=!4m7!3m6!1s0x3bcd8d48e5bd11d1:0x50a266eda6fe4bb8!8m2!3d19.0982132!4d78.3452555!16s%2Fg%2F11t5wcvk7p!19sChIJ0RG95UiNzTsRuEv-pu1molA?authuser=0&hl=en&rclk=1,"19.0982132,78.3452555"
Eidgah Maidan,Mosque,"39G3+P6C Eidgah Maidan, Nirmal, Telangana 504105",,39G3+P6C,Nirmal,,Telangana,IN,https://www.google.com/maps/place/Eidgah+Maidan/data=!4m7!3m6!1s0x3bcd8de5e110d739:0xb7d80a9010e9a235!8m2!3d19.0768086!4d78.3530287!16s%2Fg%2F11ssvf7y9z!19sChIJOdcQ4eWNzTsRNaLpEJAK2Lc?authuser=0&hl=en&rclk=1,"19.0768086,78.3530287"
Syed Anwar Hussain villa (house),Mosque,"38WX+V72 Syed Anwar Hussain villa (house), Bagulwada, Nirmal, Telangana 504106",Bagulwada,38WX+V72,Nirmal,504106,Telangana,IN,https://www.google.com/maps/place/Syed+Anwar+Hussain+villa+%28house%29/data=!4m7!3m6!1s0x3bcd8d59b24e7ea7:0x761d2da4070c8e2e!8m2!3d19.0971408!4d78.3481407!16s%2Fg%2F11v3mghvfr!19sChIJp35OslmNzTsRLo4MB6QtHXY?authuser=0&hl=en&rclk=1,"19.0971408,78.3481407"
Gulzar Masjid,Mosque,"X8HG+VPJ Gulzar Masjid, Old Pochampad, Telangana 504105",,X8HG+VPJ,Old Pochampad,504105,Telangana,IN,https://www.google.com/maps/place/Gulzar+Masjid/data=!4m7!3m6!1s0x3bcd93d9a247858f:0x83eadf95473c0f39!8m2!3d18.9797089!4d78.3267702!16s%2Fg%2F11f6pqq_6r!19sChIJj4VHotmTzTsROQ88R5Xf6oM?authuser=0&hl=en&rclk=1,"18.9797089,78.3267702"
Nouman,Mosque,"X89R+CCX Nouman, Sri Ram Sagar Project, Telangana 503219",,X89R+CCX,Sri Ram Sagar Project,,Telangana,IN,https://www.google.com/maps/place/Nouman/data=!4m7!3m6!1s0x3bcd93de54aa4221:0x7987f7179a034d22!8m2!3d18.9686106!4d78.3411074!16s%2Fg%2F11nxc31hh7!19sChIJIUKqVN6TzTsRIk0Dmhf3h3k?authuser=0&hl=en&rclk=1,"18.968610599999998,78.3411074"
Muslim Grave Yard,Mosque,"48HP+C49 Muslim Grave Yard, Nirmal Rd, Telangana 504106",,"48HP+C49, Nirmal Rd",,504106,Telangana,IN,https://www.google.com/maps/place/Muslim+Grave+Yard/data=!4m7!3m6!1s0x3bcd8bd971e07cef:0x53003ac4c82628a3!8m2!3d19.1285475!4d78.3353687!16s%2Fg%2F11s0wn1j3y!19sChIJ73zgcdmLzTsRoygmyMQ6AFM?authuser=0&hl=en&rclk=1,"19.1285475,78.33536869999999"
Masjid Rajura,Mosque,"4HXQ+W63 Masjid Rajura, Rajura khanapoor, Nirmal, Telangana",,"4HXQ+W63, Rajura khanapoor","Nirmal, Rajura",,Telangana,IN,https://www.google.com/maps/place/Masjid+Rajura/data=!4m7!3m6!1s0x3bcd813978190703:0x445a0506188ff42f!8m2!3d19.1497513!4d78.5880551!16s%2Fg%2F11q941lptr!19sChIJAwcZeDmBzTsRL_SPGAYFWkQ?authuser=0&hl=en&rclk=1,"19.1497513,78.58805509999999"
Masjid,Mosque,"295P+V22 Masjid, Soan, Telangana 504105",,295P+V22,Soan,504105,Telangana,IN,https://www.google.com/maps/place/Masjid/data=!4m7!3m6!1s0x3bcd91ffe53c0001:0x3e5d940d2097ef6c!8m2!3d19.009637!4d78.3850004!16s%2Fg%2F11kj3f7lly!19sChIJAQA85f-RzTsRbO-XIA2UXT4?authuser=0&hl=en&rclk=1,"19.009636999999998,78.3850004"
Maszid,Mosque,"R8VJ+6F6 Maszid, Prem Nagar, Chittapur, Telangana 503217",Prem Nagar,R8VJ+6F6,Chittapur,503217,Telangana,IN,https://www.google.com/maps/place/Maszid/data=!4m7!3m6!1s0x3bcd953cecc11467:0xae658f92b3216db4!8m2!3d18.8427868!4d78.3303506!16s%2Fg%2F11smt9z8ls!19sChIJZxTB7DyVzTsRtG0hs5KPZa4?authuser=0&hl=en&rclk=1,"18.8427868,78.3303506"
Jama Masjid,Mosque,"WCX2+8W6 Jama Masjid, Mendora, Telangana 503219",,WCX2+8W6,Mendora,503219,Telangana,IN,https://www.google.com/maps/place/Jama+Masjid/data=!4m7!3m6!1s0x3bcd91cad6087121:0xaa05838b5c5e0ff7!8m2!3d18.9482898!4d78.402253!16s%2Fg%2F11kmrmcjlc!19sChIJIXEI1sqRzTsR9w9eXIuDBao?authuser=0&hl=en&rclk=1,"18.948289799999998,78.402253"
Raithufaram Jama masjid,Mosque,"R4RV+H45 Raithufaram Jama masjid, Ailapur, Gunjali, Telangana 503213",,R4RV+H45,"Ailapur, Gunjali",,Telangana,IN,https://www.google.com/maps/place/Raithufaram+Jama+masjid/data=!4m7!3m6!1s0x3bcde93d4b7e0f1d:0xe576038eba38fa5d!8m2!3d18.8413929!4d78.1428718!16s%2Fg%2F11kjhhhps4!19sChIJHQ9-Sz3pzTsRXfo4uo4DduU?authuser=0&hl=en&rclk=1,"18.8413929,78.1428718"
DARGAAH HAZRAT MEER SHAA RAHMATULAH,Mosque,"489C+M7Q DARGAAH HAZRAT MEER SHAA RAHMATULAH, Vengwapet, Telangana 504106",,489C+M7Q,Vengwapet,,Telangana,IN,https://www.google.com/maps/place/DARGAAH+HAZRAT+MEER+SHAA+RAHMATULAH/data=!4m7!3m6!1s0x3bcd8be72bd4ef79:0x3dd9bbdb24acd742!8m2!3d19.1192122!4d78.3207473!16s%2Fg%2F11spxhygyw!19sChIJee_UK-eLzTsRQtesJNu72T0?authuser=0&hl=en&rclk=1,"19.1192122,78.3207473"
