name,main_category,address,address_ward,address_street,address_city,address_postal_code,address_state,address_country_code,link,coordinates
Masjid Mujeeb Bagh,Mosque,"H74R+R4J Masjid Mujeeb Bagh, Mujeeb Bagh, Jamia Nagar, Okhla, New Delhi, Delhi 110025","Mujeeb Bagh, Jamia Nagar, Okhla",H74R+R4J,New Delhi,110025,Delhi,IN,https://www.google.com/maps/place/Masjid+Mujeeb+Bagh/data=!4m7!3m6!1s0x390ce40bc79e1ce9:0x18ab01f5fdcf10b3!8m2!3d28.5570856!4d77.2902574!16s%2Fg%2F11hbvrlrnj!19sChIJ6RyexwvkDDkRsxDP_fUBqxg?authuser=0&hl=en&rclk=1,"28.557085599999997,77.2902574"
Shafiquia Masjid,Mosque,"Shafiquia Masjid, Khasra No - 33/1 to 33/4, Village Shahbad urf Mitthepur, Sajwan Nagar, Vijay Nagar, NH 24, Pratap Vihar, Ghaziabad, Uttar Pradesh 201009",Pratap Vihar,"Khasra No - 33/1 to 33/4, Village Shahbad urf Mitthepur, Sajwan Nagar, Vijay Nagar, NH 24",Ghaziabad,201009,Uttar Pradesh,IN,https://www.google.com/maps/place/Shafiquia+Masjid/data=!4m7!3m6!1s0x390cf1f3ccd89915:0x4dcaeacf94a1bd94!8m2!3d28.6435138!4d77.3948454!16s%2Fg%2F11rnh4q1c5!19sChIJFZnYzPPxDDkRlL2hlM_qyk0?authuser=0&hl=en&rclk=1,"28.643513799999997,77.3948454"
Khalilullah Masjid,Mosque,"Khalilullah Masjid, KHALILULLAH masjid, I 80/A, Batla House, Jamia Nagar, Okhla, New Delhi, Delhi 110025","Batla House, Jamia Nagar, Okhla","KHALILULLAH masjid, I 80/A",New Delhi,110025,Delhi,IN,https://www.google.com/maps/place/Khalilullah+Masjid/data=!4m7!3m6!1s0x390ce475d1de5d13:0xe00156a6e547ab99!8m2!3d28.566411!4d77.2889085!16s%2Fg%2F1tj1kwt5!19sChIJE13e0XXkDDkRmatH5aZWAeA?authuser=0&hl=en&rclk=1,"28.566411,77.28890849999999"
Shaheen Masjid,Mosque,"G8W2+C2H Shaheen Masjid, Maulana Azad Rd, Shaheen Bagh, Block F, Jamia Nagar, Okhla, New Delhi, Delhi 110025","Shaheen Bagh, Block F, Jamia Nagar, Okhla","G8W2+C2H, Maulana Azad Rd",New Delhi,110025,Delhi,IN,https://www.google.com/maps/place/Shaheen+Masjid/data=!4m7!3m6!1s0x390ce41b6fd229d9:0xf74b00cc2e9f15af!8m2!3d28.5460506!4d77.300097!16s%2Fg%2F1hdztxn6q!19sChIJ2SnSbxvkDDkRrxWfLswAS_c?authuser=0&hl=en&rclk=1,"28.546050599999997,77.300097"
Shia Jama Masjid msjd shy`h,Mosque,"Shia Jama Masjid msjd shy`h, 2725, Hamilton Rd, Chabi Ganj, Kashmere Gate, New Delhi, Delhi, 110006","Chabi Ganj, Kashmere Gate","2725, Hamilton Rd","New Delhi, Delhi",110006,Delhi,IN,https://www.google.com/maps/place/Shia+Jama+Masjid+%D9%85%D8%B3%D8%AC%D8%AF+%D8%B4%DB%8C%D8%B9%DB%81%E2%80%AD/data=!4m7!3m6!1s0x390cfd05ae4afb2d:0xf62d6dbcc26ffcbb!8m2!3d28.6626295!4d77.2314668!16s%2Fm%2F0bwk37r!19sChIJLftKrgX9DDkRu_xvwrxtLfY?authuser=0&hl=en&rclk=1,"28.662629499999998,77.23146679999999"
Masjid Shahab,Mosque,"H78P+VWV Masjid Shahab, Jamia, Batla House, Jamia Nagar, Okhla, New Delhi, Delhi 110025","Jamia, Batla House, Jamia Nagar, Okhla",H78P+VWV,New Delhi,110025,Delhi,IN,https://www.google.com/maps/place/Masjid+Shahab/data=!4m7!3m6!1s0x390ce4760f556f8d:0xc0285f5f2f62012c!8m2!3d28.5672496!4d77.2873032!16s%2Fg%2F1hhm006pz!19sChIJjW9VD3bkDDkRLAFiL19fKMA?authuser=0&hl=en&rclk=1,"28.5672496,77.2873032"
Mohammadi Masjid,Mosque,"G7XX+C4X Mohammadi Masjid, Shaheen Bagh, Block E, Jamia Nagar, Okhla, New Delhi, Delhi 110025","Shaheen Bagh, Block E, Jamia Nagar, Okhla",G7XX+C4X,New Delhi,110025,Delhi,IN,https://www.google.com/maps/place/Mohammadi+Masjid/data=!4m7!3m6!1s0x390ce41acd709b67:0x8df25e5235479b77!8m2!3d28.5486052!4d77.2978715!16s%2Fg%2F11cp1893xh!19sChIJZ5twzRrkDDkRd5tHNVJe8o0?authuser=0&hl=en&rclk=1,"28.548605199999997,77.2978715"
Jama Masjid (Shaheen Bagh),Mosque,"Jama Masjid (Shaheen Bagh), 12, Kalindi Kunj Rd, Block B, Jamia Nagar, Jasola, New Delhi, Delhi 110025","Block B, Jamia Nagar, Jasola","12, Kalindi Kunj Rd",New Delhi,110025,Delhi,IN,https://www.google.com/maps/place/Jama+Masjid+%28Shaheen+Bagh%29/data=!4m7!3m6!1s0x390ce41a3d9d581b:0xc7b0e62465b11de9!8m2!3d28.5496905!4d77.3028252!16s%2Fg%2F11g7p2t2hd!19sChIJG1idPRrkDDkR6R2xZSTmsMc?authuser=0&hl=en&rclk=1,"28.549690499999997,77.3028252"
Sabz Masjid,Mosque,"Sabz Masjid, 3571, Lalkuan Bazar Rd, Bazar Sirkiwalan, Lal Kuan Bazar, Chandni Chowk, Delhi, 110006","Bazar Sirkiwalan, Lal Kuan Bazar, Chandni Chowk","3571, Lalkuan Bazar Rd",Delhi,110006,Delhi,IN,https://www.google.com/maps/place/Sabz+Masjid/data=!4m7!3m6!1s0x390cfd16a94877a7:0x7b35bb653cd42e20!8m2!3d28.652163!4d77.223599!16s%2Fm%2F04q247t!19sChIJp3dIqRb9DDkRIC7UPGW7NXs?authuser=0&hl=en&rclk=1,"28.652162999999998,77.223599"
Masjid Faizane Ghausia and Madarsa,Mosque,"Masjid Faizane Ghausia and Madarsa, D-100, Maulana Azad Rd, Shaheen Bagh, Jamia Nagar, Okhla, New Delhi, Delhi 110025","Shaheen Bagh, Jamia Nagar, Okhla","D-100, Maulana Azad Rd",New Delhi,110025,Delhi,IN,https://www.google.com/maps/place/Masjid+Faizane+Ghausia+and+Madarsa/data=!4m7!3m6!1s0x390ce41ba6415db1:0xa9911783ddc9514d!8m2!3d28.5472543!4d77.3012896!16s%2Fg%2F11b6pk_b3y!19sChIJsV1BphvkDDkRTVHJ3YMXkak?authuser=0&hl=en&rclk=1,"28.5472543,77.30128959999999"
Subhania Masjid( Badi Masjid),Mosque,"Subhania Masjid( Badi Masjid), Ghazipur Police Station, Mulla Colony, Rajbir Colony, I.P.Extension, Gharoli, New Delhi, Delhi, 110096","Mulla Colony, Rajbir Colony, I.P.Extension, Gharoli",Ghazipur Police Station,"New Delhi, Delhi",110096,Delhi,IN,https://www.google.com/maps/place/Subhania+Masjid%28+Badi+Masjid%29/data=!4m7!3m6!1s0x390ce4d854ffffff:0xb3add6f2399e893f!8m2!3d28.6208327!4d77.3291085!16s%2Fg%2F11cjp6912h!19sChIJ____VNjkDDkRP4meOfLWrbM?authuser=0&hl=en&rclk=1,"28.620832699999998,77.32910849999999"
Chhappar Wali Masjid,Mosque,"Chhappar Wali Masjid, 48, Okhla Rd, Jamia Nagar, Okhla, New Delhi, Delhi 110025","Jamia Nagar, Okhla","48, Okhla Rd",New Delhi,110025,Delhi,IN,https://www.google.com/maps/place/Chhappar+Wali+Masjid/data=!4m7!3m6!1s0x390ce47512f9ba69:0xdab55473377f5c32!8m2!3d28.5632638!4d77.2880895!16s%2Fg%2F11cn9tyv1h!19sChIJabr5EnXkDDkRMlx_N3NUtdo?authuser=0&hl=en&rclk=1,"28.563263799999998,77.2880895"
Shahi Masjid Khuwaja Pir,Mosque,"Shahi Masjid Khuwaja Pir, A9A, Block A, Friends Colony East, New Friends Colony, New Delhi, Delhi 110065","Block A, Friends Colony East, New Friends Colony",A9A,New Delhi,110065,Delhi,IN,https://www.google.com/maps/place/Shahi+Masjid+Khuwaja+Pir/data=!4m7!3m6!1s0x390ce3a2ce05250b:0xe736d93d4567accc!8m2!3d28.5705505!4d77.2613256!16s%2Fg%2F11b66bs93g!19sChIJCyUFzqLjDDkRzKxnRT3ZNuc?authuser=0&hl=en&rclk=1,"28.5705505,77.26132559999999"
Shaan E Ilaahi Masjid,Mosque,"H72W+WCQ Shaan E Ilaahi Masjid, Part 1 Abul Fazal Enclave, Block M, Jamia Nagar, Okhla, New Delhi, Delhi 110025","Part 1 Abul Fazal Enclave, Block M, Jamia Nagar, Okhla",H72W+WCQ,New Delhi,110025,Delhi,IN,https://www.google.com/maps/place/Shaan+E+Ilaahi+Masjid/data=!4m7!3m6!1s0x390ce40fbbf6e527:0xd5c852e4dc09e63e!8m2!3d28.5523463!4d77.2961247!16s%2Fg%2F11b8v9lpl_!19sChIJJ-X2uw_kDDkRPuYJ3ORSyNU?authuser=0&hl=en&rclk=1,"28.5523463,77.2961247"
Ashraf Masjid,Mosque,"Ashraf Masjid, Maulana Azad Rd, Shaheen Bagh, Block A, Jamia Nagar, Jasola Vihar, New Delhi, Delhi 110025","Shaheen Bagh, Block A, Jamia Nagar, Jasola Vihar",Maulana Azad Rd,New Delhi,110025,Delhi,IN,https://www.google.com/maps/place/Ashraf+Masjid/data=!4m7!3m6!1s0x390ce41a951a9c37:0x25df4ad8e378f753!8m2!3d28.5495577!4d77.2995432!16s%2Fg%2F11bztcz8tt!19sChIJN5walRrkDDkRU_d449hK3yU?authuser=0&hl=en&rclk=1,"28.549557699999998,77.2995432"
Masjid and Madarsa,Mosque,"H78P+G28 Masjid and Madarsa, Jamia, Batla House, Jamia Nagar, Okhla, New Delhi, Delhi 110025","Jamia, Batla House, Jamia Nagar, Okhla",H78P+G28,New Delhi,110025,Delhi,IN,https://www.google.com/maps/place/Masjid+and+Madarsa/data=!4m7!3m6!1s0x390ce38a18a5d97f:0xdcfc61f3d0f88168!8m2!3d28.5662905!4d77.2850829!16s%2Fg%2F1hg4wfd46!19sChIJf9mlGIrjDDkRaIH40PNh_Nw?authuser=0&hl=en&rclk=1,"28.566290499999997,77.28508289999999"
"Ibn Qaiyem Masjid ""SaLaf_AhLuLHadeeth""",Mosque,"Ibn Qaiyem Masjid ""SaLaf_AhLuLHadeeth"", D-41, Maulana Azad Rd, Shaheen Bagh, Jasola Vihar, New Delhi, Delhi 110020","Shaheen Bagh, Jasola Vihar","D-41, Maulana Azad Rd",New Delhi,110020,Delhi,IN,https://www.google.com/maps/place/Ibn+Qaiyem+Masjid+%22SaLaf_AhLuLHadeeth%22/data=!4m7!3m6!1s0x390ce41b187ad489:0xe6af2821a75ca812!8m2!3d28.5477876!4d77.2994573!16s%2Fg%2F11bttbrp19!19sChIJidR6GBvkDDkREqhcpyEor-Y?authuser=0&hl=en&rclk=1,"28.5477876,77.2994573"
Masjid Umar ibn Khattab Ahle Hadees,Mosque,"G8X3+2R4 Masjid Umar ibn Khattab Ahle Hadees, Kalindi Kunj Rd, Shaheen Bagh, Jamia Nagar, Okhla, New Delhi, Delhi 110025","Shaheen Bagh, Jamia Nagar, Okhla","G8X3+2R4, Kalindi Kunj Rd",New Delhi,110025,Delhi,IN,https://www.google.com/maps/place/Masjid+Umar+ibn+Khattab+Ahle+Hadees/data=!4m7!3m6!1s0x390ce4196e33e035:0x7187e898e383e521!8m2!3d28.5475049!4d77.3045864!16s%2Fg%2F11ddwvd6j7!19sChIJNeAzbhnkDDkRIeWD45joh3E?authuser=0&hl=en&rclk=1,"28.5475049,77.30458639999999"
Shafiqur Rehman Kidwai (SRK) Masjid,Mosque,"H76J+3F6 Shafiqur Rehman Kidwai (SRK) Masjid, Jamia Millia Islamia, Centre for Management Studies Road, Ghaffar Manzil Colony, Jamia Nagar, Okhla, New Delhi, Delhi 110025","Ghaffar Manzil Colony, Jamia Nagar, Okhla","H76J+3F6, Jamia Millia Islamia, Centre for Management Studies Road",New Delhi,110025,Delhi,IN,https://www.google.com/maps/place/Shafiqur+Rehman+Kidwai+%28SRK%29+Masjid/data=!4m7!3m6!1s0x390ce3f4a8d13ce5:0x13f67291c782d9e5!8m2!3d28.5601615!4d77.2811481!16s%2Fg%2F1ptwdvbfx!19sChIJ5TzRqPTjDDkR5dmCx5Fy9hM?authuser=0&hl=en&rclk=1,"28.5601615,77.2811481"
Masjid Shahi shhy msjd,Mosque,"Masjid Shahi shhy msjd, Sector 5 Rd, Sector 5, Rama Krishna Puram, New Delhi, Delhi 110022","Sector 5, Rama Krishna Puram",Sector 5 Rd,New Delhi,110022,Delhi,IN,https://www.google.com/maps/place/Masjid+Shahi+%D8%B4%D8%A7%DB%81%DB%8C+%D9%85%D8%B3%D8%AC%D8%AF%E2%80%AD/data=!4m7!3m6!1s0x390d1d980824e25f:0x2dae857cbcc7831f!8m2!3d28.562477!4d77.17156!16s%2Fg%2F1ptx9jy5j!19sChIJX-IkCJgdDTkRH4PHvHyFri0?authuser=0&hl=en&rclk=1,"28.562476999999998,77.17156"
Sunehari Bagh Masjid msjd,Mosque,"J666+5R2 Sunehari Bagh Masjid msjd, Motilal Nehru Marg, Rajpath Area, Central Secretariat, New Delhi, Delhi 110011","Rajpath Area, Central Secretariat","J666+5R2, Motilal Nehru Marg",New Delhi,110011,Delhi,IN,https://www.google.com/maps/place/Sunehari+Bagh+Masjid+%D9%85%D8%B3%D8%AC%D8%AF%E2%80%AD/data=!4m7!3m6!1s0x390ce2b9f7ae5b25:0x9e058e770ffa962f!8m2!3d28.610384!4d77.212024!16s%2Fg%2F124ycq4lc!19sChIJJVuu97niDDkRL5b6D3eOBZ4?authuser=0&hl=en&rclk=1,"28.610384,77.212024"
Ilahi Masjid,Mosque,"J8HW+HR5 Ilahi Masjid, Makanpur Colony, Sector 62A, Noida, Uttar Pradesh 201010","Makanpur Colony, Sector 62A",J8HW+HR5,Noida,201010,Uttar Pradesh,IN,https://www.google.com/maps/place/Ilahi+Masjid/data=!4m7!3m6!1s0x390ce53170e3bd5d:0xfbf82c09cfa6d3aa!8m2!3d28.6288947!4d77.3471098!16s%2Fg%2F11d_7y8d1z!19sChIJXb3jcDHlDDkRqtOmzwks-Ps?authuser=0&hl=en&rclk=1,"28.6288947,77.3471098"
Gausia Masjid (Ishtiyak),Mosque,"Gausia Masjid (Ishtiyak), gali no.24 L block 110080, Sangam Vihar, New Delhi, Delhi 110080","Block L 2, Devli, Sangam Vihar",gali no.24 L block 110080,New Delhi,110080,Delhi,IN,https://www.google.com/maps/place/Gausia+Masjid+%28Ishtiyak%29/data=!4m7!3m6!1s0x390ce1af8789b4d3:0x9a3ff5f69c351894!8m2!3d28.4984758!4d77.2312984!16s%2Fg%2F11g9djgs2m!19sChIJ07SJh6_hDDkRlBg1nPb1P5o?authuser=0&hl=en&rclk=1,"28.498475799999998,77.2312984"
Asharfiya Masjid,Mosque,"M7WJ+FX7 Asharfiya Masjid, Gali Number 3, Kardampuri Extn, Kardam Puri, Shahdara, Delhi, 110032","Kardampuri Extn, Kardam Puri, Shahdara","M7WJ+FX7, Gali Number 3",Delhi,110032,Delhi,IN,https://www.google.com/maps/place/Asharfiya+Masjid/data=!4m7!3m6!1s0x390cfc74f26e2ce9:0xa3575be1b7046443!8m2!3d28.6961692!4d77.2824116!16s%2Fg%2F11c30wk3qv!19sChIJ6Sxu8nT8DDkRQ2QEt-FbV6M?authuser=0&hl=en&rclk=1,"28.6961692,77.2824116"
Shahi Masjid,Mosque,"Shahi Masjid, 126A, Patparganj Rd, Adarsh Mohalla, Awadhpuri, Patparganj, Mayur Vihar, New Delhi, Delhi, 110091","Adarsh Mohalla, Awadhpuri, Patparganj, Mayur Vihar","126A, Patparganj Rd","New Delhi, Delhi",110091,Delhi,IN,https://www.google.com/maps/place/Shahi+Masjid/data=!4m7!3m6!1s0x390ce4a12be81e8d:0xb6f4e86ab6169456!8m2!3d28.6118456!4d77.2899913!16s%2Fg%2F11cly81dq4!19sChIJjR7oK6HkDDkRVpQWtmro9LY?authuser=0&hl=en&rclk=1,"28.6118456,77.2899913"
Ilahi Masjid,Mosque,"Ilahi Masjid, PLOT NO. 111, STREET NO.7, BLOCK F-1, NEAR SIWAS PUBLIC SCHOOL,, Sangam Vihar, New Delhi, Delhi 110080","Block F 2, Sangam Vihar","PLOT NO. 111, STREET NO.7, BLOCK F-1, NEAR SIWAS PUBLIC SCHOOL,",New Delhi,110080,Delhi,IN,https://www.google.com/maps/place/Ilahi+Masjid/data=!4m7!3m6!1s0x390ce108f98006db:0xa338e329f2b679ba!8m2!3d28.5019945!4d77.2437475!16s%2Fg%2F11c2nks7vg!19sChIJ2waA-QjhDDkRunm28injOKM?authuser=0&hl=en&rclk=1,"28.5019945,77.2437475"
Masjid Ahad msjd Hd,Mosque,"H73R+RR9 Masjid Ahad msjd Hd, C35 /A, Okhla Vihar Main Rd, Okhla Vihar, Okhla Vihar, Block C, Jamia Nagar, Okhla, New Delhi, Delhi 110025","Okhla Vihar, Okhla Vihar, Block C, Jamia Nagar, Okhla","H73R+RR9, C35 /A, Okhla Vihar Main Rd",New Delhi,110025,Delhi,IN,https://www.google.com/maps/place/Masjid+Ahad+%D9%85%D8%B3%D8%AC%D8%AF+%D8%A7%D8%AD%D8%AF%E2%80%AD/data=!4m7!3m6!1s0x390ce40931dfd3cd:0x3136d0d41ecf6789!8m2!3d28.5537242!4d77.2917823!16s%2Fg%2F11g6bptfv3!19sChIJzdPfMQnkDDkRiWfPHtTQNjE?authuser=0&hl=en&rclk=1,"28.553724199999998,77.2917823"
Tayyiba Masjid,Mosque,"H79J+768 Tayyiba Masjid, Street Number 12, Jogabai Extension, Zakir Nagar, Okhla, New Delhi, Delhi 110025","Jogabai Extension, Zakir Nagar, Okhla","H79J+768, Street Number 12",New Delhi,110025,Delhi,IN,https://www.google.com/maps/place/Tayyiba+Masjid/data=!4m7!3m6!1s0x390ce38ec9213115:0xab7c6b478fb01bca!8m2!3d28.5681551!4d77.2805765!16s%2Fg%2F11f39nzy8x!19sChIJFTEhyY7jDDkRyhuwj0drfKs?authuser=0&hl=en&rclk=1,"28.5681551,77.2805765"
Al-Mateen Masjid,Mosque,"Al-Mateen Masjid, Block M, Brahampuri, Shahdara, Delhi, 110053","Block M, Brahampuri, Shahdara",,Delhi,,Delhi,IN,https://www.google.com/maps/place/Al-Mateen+Masjid/data=!4m7!3m6!1s0x390cfc65cf47c239:0x9cb27deae050e07f!8m2!3d28.6830205!4d77.2668895!16s%2Fg%2F1pv2q6lxx!19sChIJOcJHz2X8DDkRf-BQ4Op9spw?authuser=0&hl=en&rclk=1,"28.683020499999998,77.26688949999999"
Gausiya Masjid,Mosque,"Gausiya Masjid, 122, Gali No. 10, New Seelampur, Jafrabad, Shahdara, Delhi, 110053","New Seelampur, Jafrabad, Shahdara","122, Gali No. 10",Delhi,110053,Delhi,IN,https://www.google.com/maps/place/Gausiya+Masjid/data=!4m7!3m6!1s0x390cfc63ceb84969:0x52a9b75ed1d9025e!8m2!3d28.6775577!4d77.2702337!16s%2Fg%2F11c74cy737!19sChIJaUm4zmP8DDkRXgLZ0V63qVI?authuser=0&hl=en&rclk=1,"28.677557699999998,77.27023369999999"
Muhammadi Masjid,Mosque,"Muhammadi Masjid, 2/55, Moonga Nagar, New Mustafabad, New Delhi, Delhi, 110094","Moonga Nagar, New Mustafabad",2/55,"New Delhi, Delhi",110094,Delhi,IN,https://www.google.com/maps/place/Muhammadi+Masjid/data=!4m7!3m6!1s0x390cfc175aee92eb:0xaa6d7ae014408908!8m2!3d28.7081354!4d77.2682226!16s%2Fg%2F11c5sz6frk!19sChIJ65LuWhf8DDkRCIlAFOB6bao?authuser=0&hl=en&rclk=1,"28.7081354,77.2682226"
AHLULBAYT MASJID,Mosque,"P77G+GM4 AHLULBAYT MASJID, Street Number 7, Block B, Old Mustafabad, New Mustafabad, Delhi, 110094","Block B, Old Mustafabad, New Mustafabad","P77G+GM4, Street Number 7",Delhi,110094,Delhi,IN,https://www.google.com/maps/place/AHLULBAYT+MASJID/data=!4m7!3m6!1s0x390cfc035216d2ed:0xe8f61cdd37ad8055!8m2!3d28.7137553!4d77.2767096!16s%2Fg%2F12lkfhdyg!19sChIJ7dIWUgP8DDkRVYCtN90c9ug?authuser=0&hl=en&rclk=1,"28.7137553,77.27670959999999"
Masjid Hanafiah,Mosque,"Masjid Hanafiah, 1377, Kalan Mahal, Daryaganj, New Delhi, Delhi, 110002","Kalan Mahal, Daryaganj",1377,"New Delhi, Delhi",110002,Delhi,IN,https://www.google.com/maps/place/Masjid+Hanafiah/data=!4m7!3m6!1s0x390cfd1f6023d9f9:0x718d28b56f35a1bf!8m2!3d28.6480915!4d77.2363378!16s%2Fg%2F11c6_strgn!19sChIJ-dkjYB_9DDkRv6E1b7UojXE?authuser=0&hl=en&rclk=1,"28.6480915,77.2363378"
Masjid Shaan E Ilahi,Mosque,"J835+M2W Masjid Shaan E Ilahi, Block 20, Part 2, Trilokpuri, Delhi, 110091","Block 20, Part 2, Trilokpuri",J835+M2W,Delhi,110091,Delhi,IN,https://www.google.com/maps/place/Masjid+Shaan+E+Ilahi/data=!4m7!3m6!1s0x390ce49491158b1b:0xc8cb89432adbf7ad!8m2!3d28.6042297!4d77.3075818!16s%2Fg%2F11cn5n3hlt!19sChIJG4sVkZTkDDkRrffbKkOJy8g?authuser=0&hl=en&rclk=1,"28.604229699999998,77.3075818"
Jama Masjid,Mosque,"Jama Masjid, F-132, Kalindi Kunj Rd, Abul Fazal Enclave Part 1, Part 1 Abul Fazal Enclave, Block C, Jamia Nagar, Okhla, New Delhi, Delhi 110025","Abul Fazal Enclave Part 1, Part 1 Abul Fazal Enclave, Block C, Jamia Nagar, Okhla","F-132, Kalindi Kunj Rd",New Delhi,110025,Delhi,IN,https://www.google.com/maps/place/Jama+Masjid/data=!4m7!3m6!1s0x390ce474fc283e6d:0xbf47a3d3e25a4cad!8m2!3d28.560132!4d77.294788!16s%2Fg%2F12hkzr6p1!19sChIJbT4o_HTkDDkRrUxa4tOjR78?authuser=0&hl=en&rclk=1,"28.560132,77.294788"
Fakhrul Masjid msjd,Mosque,"Fakhrul Masjid msjd, 1268, Bara Bazar Rd, Chabi Ganj, Kashmere Gate, New Delhi, Delhi, 110006","Chabi Ganj, Kashmere Gate","1268, Bara Bazar Rd","New Delhi, Delhi",110006,Delhi,IN,https://www.google.com/maps/place/Fakhrul+Masjid+%D9%85%D8%B3%D8%AC%D8%AF%E2%80%AD/data=!4m7!3m6!1s0x390cfd060683b301:0xc9d92074bb420992!8m2!3d28.665012!4d77.2295583!16s%2Fg%2F11cmytc3k3!19sChIJAbODBgb9DDkRkglCu3Qg2ck?authuser=0&hl=en&rclk=1,"28.665011999999997,77.2295583"
Masjid Aysha,Mosque,"H79J+PCW Masjid Aysha, Jogabai Extension, Zakir Nagar, Okhla, New Delhi, Delhi 110025","Jogabai Extension, Zakir Nagar, Okhla",H79J+PCW,New Delhi,110025,Delhi,IN,https://www.google.com/maps/place/Masjid+Aysha/data=!4m7!3m6!1s0x390ce388d5d2da9f:0x4a0f18f5383aa3d!8m2!3d28.5693712!4d77.2810653!16s%2Fg%2F11dxs8s30n!19sChIJn9rS1YjjDDkRPaqDU4_xoAQ?authuser=0&hl=en&rclk=1,"28.5693712,77.2810653"
Maszid Saifiyaan,Mosque,"Maszid Saifiyaan, A56, Deoli, Block C, Khanpur, New Delhi, Delhi 110080","Deoli, Block C, Khanpur",A56,New Delhi,110080,Delhi,IN,https://www.google.com/maps/place/Maszid+Saifiyaan/data=!4m7!3m6!1s0x390ce1e22fbf3cbf:0x7bb4134d107773d0!8m2!3d28.504321!4d77.226911!16s%2Fg%2F11ngbqm772!19sChIJvzy_L-LhDDkR0HN3EE0TtHs?authuser=0&hl=en&rclk=1,"28.504320999999997,77.226911"
Masjid Badi msjd,Mosque,"Masjid Badi msjd, 893,, Chittli Qabar Bazar Rd, Jama Masjid, Chandni Chowk, New Delhi, Delhi 110006","Bazar Chitli Qabar, Kucha Chelan, Jama Masjid, Chandni Chowk","893,, Chittli Qabar Bazar Rd","New Delhi, Delhi",110006,Delhi,IN,https://www.google.com/maps/place/Masjid+Badi+%D9%85%D8%B3%D8%AC%D8%AF%E2%80%AD/data=!4m7!3m6!1s0x390cfd219cfec1f3:0x93ccacb281d71709!8m2!3d28.645321!4d77.2357133!16s%2Fg%2F12m98gjn5!19sChIJ88H-nCH9DDkRCRfXgbKszJM?authuser=0&hl=en&rclk=1,"28.645321,77.2357133"
Masjid Mashal Chiyan,Mosque,"Masjid Mashal Chiyan, 2100, Pahari Bhojla Rd, Pahari Bhojla, Sita Ram Bazar, Old Delhi, Delhi, 110006","Pahari Bhojla, Sita Ram Bazar, Old Delhi","2100, Pahari Bhojla Rd",Delhi,110006,Delhi,IN,https://www.google.com/maps/place/Masjid+Mashal+Chiyan/data=!4m7!3m6!1s0x390cfd225b6ed379:0x9d5cccd781f0a815!8m2!3d28.6454716!4d77.232231!16s%2Fg%2F11f1211zsv!19sChIJedNuWyL9DDkRFajwgdfMXJ0?authuser=0&hl=en&rclk=1,"28.6454716,77.232231"
masjid fathulbari,Mosque,"P758+2G6 masjid fathulbari, Gali Number 1, Moonga Nagar, Tukhmirpur, Delhi, 110094","Moonga Nagar, Tukhmirpur","P758+2G6, Gali Number 1",Delhi,110094,Delhi,IN,https://www.google.com/maps/place/masjid+fathulbari/data=!4m7!3m6!1s0x390cfc179d36d02b:0xfa85f08206a9e6a!8m2!3d28.7075451!4d77.266267!16s%2Fg%2F11g9k203s1!19sChIJK9A2nRf8DDkRap5qIAhfqA8?authuser=0&hl=en&rclk=1,"28.707545099999997,77.266267"
Subhaniya Masjid,Mosque,"Subhaniya Masjid, F-3, Gali Number 4, Block C, Devli, Sangam Vihar, New Delhi, Delhi 110080, Gali Number 4, Block C, Devli, Sangam Vihar, New Delhi, Delhi 110080","Block C, Devli, Sangam Vihar","F-3, Gali Number 4, Block C, Devli, Sangam Vihar, New Delhi, Delhi 110080, Gali Number 4",New Delhi,110080,Delhi,IN,https://www.google.com/maps/place/Subhaniya+Masjid/data=!4m7!3m6!1s0x390ce107cf98c8e9:0x7387f695087ffa88!8m2!3d28.4986983!4d77.2427538!16s%2Fg%2F11g8wd8z83!19sChIJ6ciYzwfhDDkRiPp_CJX2h3M?authuser=0&hl=en&rclk=1,"28.498698299999997,77.2427538"
JAMA MASJID UMAR BIN KHATTAB,Mosque,"G8W3+XWV JAMA MASJID UMAR BIN KHATTAB, Kalindi Kunj Rd, Block H, Jamia Nagar, Okhla, New Delhi, Delhi 110025","Block H, Jamia Nagar, Okhla","G8W3+XWV, Kalindi Kunj Rd",New Delhi,110025,Delhi,IN,https://www.google.com/maps/place/JAMA+MASJID+UMAR+BIN+KHATTAB/data=!4m7!3m6!1s0x390ce51eb7ea0bfd:0xe968824c610cc265!8m2!3d28.5474867!4d77.3047909!16s%2Fg%2F11h7p6jtqd!19sChIJ_Qvqtx7lDDkRZcIMYUyCaOk?authuser=0&hl=en&rclk=1,"28.5474867,77.3047909"
Masjid Saifiyan,Mosque,"Masjid Saifiyan, Street Number 3, Block H, Block B, Shaheed Nagar, Ghaziabad, Uttar Pradesh 201005","Block H, Block B, Shaheed Nagar",Street Number 3,Ghaziabad,201005,Uttar Pradesh,IN,https://www.google.com/maps/place/Masjid+Saifiyan/data=!4m7!3m6!1s0x390cfb94f35c7b03:0xb4ee999e78196334!8m2!3d28.6844147!4d77.3375239!16s%2Fg%2F11g03_76zz!19sChIJA3tc85T7DDkRNGMZeJ6Z7rQ?authuser=0&hl=en&rclk=1,"28.684414699999998,77.3375239"
Firdausi Masjid Paharwali,Mosque,"Khasra no 217, Firdausi Masjid Paharwali, Aam Bagh, Ladha Sarai Village, Mehrauli, New Delhi, Delhi 110030","Aam Bagh, Ladha Sarai Village, Mehrauli",Khasra no 217,New Delhi,110030,Delhi,IN,https://www.google.com/maps/place/Firdausi+Masjid+Paharwali/data=!4m7!3m6!1s0x390d1e11215ab5b7:0x218c60053e177cac!8m2!3d28.5148924!4d77.1851807!16s%2Fg%2F11g63ztcq0!19sChIJt7VaIREeDTkRrHwXPgVgjCE?authuser=0&hl=en&rclk=1,"28.514892399999997,77.18518069999999"
Masjid Ziya Fatima F-17/6,Mosque,"H79P+54X Masjid Ziya Fatima F-17/6, Qamar St, Block F, Joga Bai Extension, Okhla, New Delhi, Delhi 110025","Block F, Joga Bai Extension, Okhla","H79P+54X, Qamar St",New Delhi,110025,Delhi,IN,https://www.google.com/maps/place/Masjid+Ziya+Fatima+F-17%2F6/data=!4m7!3m6!1s0x390ce3808e61549f:0xfdab33b336ace69c!8m2!3d28.5679916!4d77.2853694!16s%2Fg%2F11ffv26yxj!19sChIJn1RhjoDjDDkRnOasNrMzq_0?authuser=0&hl=en&rclk=1,"28.5679916,77.2853694"
SHAHI JAMA MASJID jm` msjd shhy,Mosque,"SHAHI JAMA MASJID jm` msjd shhy, 22, foot road, Shram Vihar, Pocket N, Madanpur Khadar, New Delhi, Delhi 110025","Shram Vihar, Pocket N, Madanpur Khadar","22, foot road",New Delhi,110025,Delhi,IN,https://www.google.com/maps/place/SHAHI+JAMA+MASJID+%D8%AC%D8%A7%D9%85%D8%B9+%D9%85%D8%B3%D8%AC%D8%AF+%D8%B4%D8%A7%DA%BE%DB%8C%E2%80%AD/data=!4m7!3m6!1s0x390ce5a36ba3a95d:0x7cb7c1435cda3fd2!8m2!3d28.5405938!4d77.3038368!16s%2Fg%2F11n733rllr!19sChIJXamja6PlDDkR0j_aXEPBt3w?authuser=0&hl=en&rclk=1,"28.5405938,77.3038368"
Mashal Shihan Masjid,Mosque,"Mashal Shihan Masjid, 2106, Sitaram Bazar Rd, Pahari Bhojla, Sita Ram Bazar, Chandni Chowk, Delhi, 110006","Pahari Bhojla, Sita Ram Bazar, Chandni Chowk","2106, Sitaram Bazar Rd",Delhi,110006,Delhi,IN,https://www.google.com/maps/place/Mashal+Shihan+Masjid/data=!4m7!3m6!1s0x390cfd22573ea689:0xd0bacca9e2a885ae!8m2!3d28.6458657!4d77.2314269!16s%2Fg%2F11g6rftfft!19sChIJiaY-VyL9DDkRroWo4qnMutA?authuser=0&hl=en&rclk=1,"28.645865699999998,77.2314269"
Masjid Sanauji,Mosque,"Masjid Sanauji, Shop No. 1630, Lal Kuan, Lalkuan Bazar Rd, Baradari, Chandni Chowk, New Delhi, Delhi 110006","Bazar Sirkiwalan, Baradari, Chandni Chowk","Shop No. 1630, Lal Kuan, Lalkuan Bazar Rd","New Delhi, Delhi",110006,Delhi,IN,https://www.google.com/maps/place/Masjid+Sanauji/data=!4m7!3m6!1s0x390cfd13fe3ea72d:0x27ea23bc5f650202!8m2!3d28.6529317!4d77.2232485!16s%2Fg%2F12hplq4pp!19sChIJLac-_hP9DDkRAgJlX7wj6ic?authuser=0&hl=en&rclk=1,"28.6529317,77.2232485"
Mosque msjd,Mosque,"Mosque msjd, 3696, Mori Gate, New Delhi, Delhi 110006",Mori Gate,3696,"New Delhi, Delhi",110006,Delhi,IN,https://www.google.com/maps/place/Mosque+%D9%85%D8%B3%D8%AC%D8%AF%E2%80%AD/data=!4m7!3m6!1s0x390cfd0c79fa6f11:0x326ac233054d2efa!8m2!3d28.6635017!4d77.2212005!16s%2Fg%2F12lkq2186!19sChIJEW_6eQz9DDkR-i5NBTPCajI?authuser=0&hl=en&rclk=1,"28.663501699999998,77.2212005"
Masjid Chatta Sheikh Manglo,Mosque,"J6XJ+HXC Masjid Chatta Sheikh Manglo, Choori Walan, Kalan Mehal, Chandni Chowk, New Delhi, Delhi, 110002","Choori Walan, Kalan Mehal, Chandni Chowk",J6XJ+HXC,"New Delhi, Delhi",110002,Delhi,IN,https://www.google.com/maps/place/Masjid+Chatta+Sheikh+Manglo/data=!4m7!3m6!1s0x390cfd188c598f69:0x5942000107ab82cb!8m2!3d28.6489319!4d77.2323897!16s%2Fg%2F11gchs9zp4!19sChIJaY9ZjBj9DDkRy4KrBwEAQlk?authuser=0&hl=en&rclk=1,"28.648931899999997,77.2323897"
Shia masjid,Mosque,"GJRX+H37 Shia masjid, Noorpur, Uttar Pradesh 203207",,GJRX+H37,Noorpur,203207,Uttar Pradesh,IN,https://www.google.com/maps/place/Shia+masjid/data=!4m7!3m6!1s0x390c94242124ef1d:0xf5c75ac7dc372015!8m2!3d28.5414079!4d77.647669!16s%2Fg%2F11f3_g8cr9!19sChIJHe8kISSUDDkRFSA33Mdax_U?authuser=0&hl=en&rclk=1,"28.5414079,77.647669"
Masjid Hussainiya,Mosque,"J6XM+GHP Masjid Hussainiya, Matia Mahal Rd, Kalan Mehal, Old Delhi, Delhi, 110006","Kalan Mehal, Old Delhi","J6XM+GHP, Matia Mahal Rd",Delhi,110006,Delhi,IN,https://www.google.com/maps/place/Masjid+Hussainiya/data=!4m7!3m6!1s0x390cfd18ba6b0bd5:0xced4d691b8d1a3fb!8m2!3d28.6488459!4d77.2339534!16s%2Fg%2F11gc9g4rkv!19sChIJ1Qtruhj9DDkR-6PRuJHW1M4?authuser=0&hl=en&rclk=1,"28.648845899999998,77.23395339999999"
Mosque msjd,Mosque,"J76X+W9R Mosque msjd, New, Kotla Village, Mayur Vihar, New Delhi, Delhi 110091","Kotla Village, Mayur Vihar","J76X+W9R, New","New Delhi, Delhi",110091,Delhi,IN,https://www.google.com/maps/place/Mosque+%D9%85%D8%B3%D8%AC%D8%AF%E2%80%AD/data=!4m7!3m6!1s0x390ce4bcc9c6272b:0x172c875eb9dd78e2!8m2!3d28.612373!4d77.2984052!16s%2Fg%2F11c3182y_w!19sChIJKyfGybzkDDkR4njduV6HLBc?authuser=0&hl=en&rclk=1,"28.612372999999998,77.29840519999999"
Baghwali Masjid msjd bG wly,Mosque,"Baghwali Masjid msjd bG wly, 785, Nicholson Rd, Kashmere Gate, New Delhi, Delhi 110006","Ganda Nala Bazar, Kashmere Gate","785, Nicholson Rd","New Delhi, Delhi",110006,Delhi,IN,https://www.google.com/maps/place/Baghwali+Masjid+%D9%85%D8%B3%D8%AC%D8%AF+%D8%A8%D8%A7%D8%BA+%D9%88%D8%A7%D9%84%DB%8C%E2%80%AD/data=!4m7!3m6!1s0x390cfd092767785b:0xd4966cf4d21cbda8!8m2!3d28.6653187!4d77.2261277!16s%2Fg%2F12llwbr4n!19sChIJW3hnJwn9DDkRqL0c0vRsltQ?authuser=0&hl=en&rclk=1,"28.6653187,77.22612769999999"
Masjid,Mosque,"H77Q+868 Masjid, Okhla Village, Okhla, New Delhi, Delhi 110025","Okhla Village, Okhla",H77Q+868,New Delhi,110025,Delhi,IN,https://www.google.com/maps/place/Masjid/data=!4m7!3m6!1s0x390ce47512f7aa2b:0x544337a9b9e5d7a2!8m2!3d28.5632814!4d77.2880932!16s%2Fg%2F11gbtpj5td!19sChIJK6r3EnXkDDkRotfluak3Q1Q?authuser=0&hl=en&rclk=1,"28.563281399999997,77.28809319999999"
Saeediya Masjid Road,Mosque,"Saeediya Masjid Road, Gali No.23, Saeediya -110053, Masjid Rd, New Seelampur, Chauhan Banger, Shahdara, Delhi, 110053","New Seelampur Phase II, New Seelampur, Chauhan Banger, Shahdara","Gali No.23, Saeediya -110053, Masjid Rd",Delhi,110053,Delhi,IN,https://www.google.com/maps/place/Saeediya+Masjid+Road/data=!4m7!3m6!1s0x390cfc6050ea77bb:0xd22718f2efe0f06e!8m2!3d28.6762654!4d77.2657631!16s%2Fg%2F11f125nm2g!19sChIJu3fqUGD8DDkRbvDg7_IYJ9I?authuser=0&hl=en&rclk=1,"28.6762654,77.2657631"
Ijaba Masjid,Mosque,"Ijaba Masjid, 1489/16, Block D, Chand Vihar, New Mustafabad, Delhi, 110094","Block D, Chand Vihar, New Mustafabad",1489/16,Delhi,110094,Delhi,IN,https://www.google.com/maps/place/Ijaba+Masjid/data=!4m7!3m6!1s0x390cfd4112cff819:0x124578cf76e8540b!8m2!3d28.7086594!4d77.2713446!16s%2Fg%2F11j08711wr!19sChIJGfjPEkH9DDkRC1Tods94RRI?authuser=0&hl=en&rclk=1,"28.7086594,77.27134459999999"
Mr.SAHEEM MALIK,Mosque,"Mr.SAHEEM MALIK, Gali no. 3 - Tirpal Factory Mustafabad, near Ayisha masjid, 25 Futa Rd, near by Aisha Masjid, chowk, Delhi 110094","Shakti Vihar, Old Mustafabad, chowk","Gali no. 3 - Tirpal Factory Mustafabad, near Ayisha masjid, 25 Futa Rd, near by Aisha Masjid",Delhi,110094,Delhi,IN,https://www.google.com/maps/place/Mr.SAHEEM+MALIK/data=!4m7!3m6!1s0x390cfd9a44cd4997:0xffdc8860c53e3f2b!8m2!3d28.7159667!4d77.272238!16s%2Fg%2F11h3cwgc8y!19sChIJl0nNRJr9DDkRKz8-xWCI3P8?authuser=0&hl=en&rclk=1,"28.7159667,77.272238"
Masjid Tariq Ul Saqib,Mosque,"H72X+XVH Masjid Tariq Ul Saqib, Abul Fazal Enclave Part 2, Jamia Nagar, Okhla, New Delhi, Delhi 110025","Abul Fazal Enclave Part 2, Jamia Nagar, Okhla",H72X+XVH,New Delhi,110025,Delhi,IN,https://www.google.com/maps/place/Masjid+Tariq+Ul+Saqib/data=!4m7!3m6!1s0x390ce5f89a22443d:0x7f1f8010c76175ea!8m2!3d28.5524415!4d77.2997285!16s%2Fg%2F11pdr6sc4g!19sChIJPUQimvjlDDkR6nVhxxCAH38?authuser=0&hl=en&rclk=1,"28.5524415,77.2997285"
Masjid Suhailwali,Mosque,"G59P+JVH Masjid Suhailwali, Archeological Pk Trl, Ladha Sarai Village, Mehrauli, New Delhi, Delhi 110030","Ladha Sarai Village, Mehrauli",G59P+JVH Archeological Pk Trl,New Delhi,110030,Delhi,IN,https://www.google.com/maps/place/Masjid+Suhailwali/data=!4m7!3m6!1s0x390d1f7c153e757f:0xd87f61dba133c08f!8m2!3d28.5182244!4d77.1874102!16s%2Fg%2F11k39wfxml!19sChIJf3U-FXwfDTkRj8Azodthf9g?authuser=0&hl=en&rclk=1,"28.518224399999998,77.1874102"
Hajra Masjid,Mosque,"M7MC+542 Hajra Masjid, Street Number 10, New Seelampur, Chauhan Banger, Shahdara, Delhi, 110031","New Seelampur, Chauhan Banger, Shahdara","M7MC+542, Street Number 10",Delhi,110031,Delhi,IN,https://www.google.com/maps/place/Hajra+Masjid/data=!4m7!3m6!1s0x390cfdcdb2279f75:0x7d20aba66d6d5ac9!8m2!3d28.6828822!4d77.2702585!16s%2Fg%2F11n8p4lf1b!19sChIJdZ8nss39DDkRyVptbaarIH0?authuser=0&hl=en&rclk=1,"28.682882199999998,77.2702585"
MASJID SHANULLAH AHLEY SUNNAT msjd shn llh,Mosque,"MASJID SHANULLAH AHLEY SUNNAT msjd shn llh, BLOCK 32 AND 33, E 36B 95, Mandigobindgarh, Block 32, Ambedkar Camp, Trilokpuri, Delhi, 110091","Mandigobindgarh, Block 32, Ambedkar Camp, Trilokpuri","BLOCK 32 AND 33, E 36B 95",Delhi,110091,Delhi,IN,https://www.google.com/maps/place/MASJID+SHANULLAH+AHLEY+SUNNAT+%D9%85%D8%B3%D8%AC%D8%AF+%D8%B4%D8%A7%D9%86+%D8%A7%D9%84%D9%84%DB%81%E2%80%AD/data=!4m7!3m6!1s0x390ce5341e9099f3:0x977863fb37296b78!8m2!3d28.6010633!4d77.303957!16s%2Fg%2F11mtfczhnm!19sChIJ85mQHjTlDDkReGspN_tjeJc?authuser=0&hl=en&rclk=1,"28.6010633,77.303957"
Masjid Chah hathi,Mosque,"M63M+FM7 Masjid Chah hathi, Kucha Bulaki Begam, Chandni Chowk, New Delhi, Delhi, 110006","Kucha Bulaki Begam, Chandni Chowk",M63M+FM7,"New Delhi, Delhi",110006,Delhi,IN,https://www.google.com/maps/place/Masjid+Chah+hathi/data=!4m7!3m6!1s0x390cfd21be28681f:0x89414e118639a027!8m2!3d28.6536676!4d77.2341741!16s%2Fg%2F11g5ssbglz!19sChIJH2goviH9DDkRJ6A5hhFOQYk?authuser=0&hl=en&rclk=1,"28.6536676,77.23417409999999"
Masjid,Mosque,"Masjid, 2508, Fasil Rd, Gali Sakko Wali, Shah Ganj, Chandni Chowk, New Delhi, Delhi, 110006","Gali Sakko Wali, Shah Ganj, Chandni Chowk","2508, Fasil Rd","New Delhi, Delhi",110006,Delhi,IN,https://www.google.com/maps/place/Masjid/data=!4m7!3m6!1s0x390cfd15c9a8a4b1:0xf975aada141da03e!8m2!3d28.6491552!4d77.2220471!16s%2Fg%2F1hm4gjxkd!19sChIJsaSoyRX9DDkRPqAdFNqqdfk?authuser=0&hl=en&rclk=1,"28.6491552,77.2220471"
HADHRAT UMAR MASJID ALMAROOF CHOTI MASJID,Mosque,"HADHRAT UMAR MASJID ALMAROOF CHOTI MASJID, Chotti Masjid, Street number 9, Mulla Colony, Gharoli Extension, Gharoli, Delhi, 110096","Mulla Colony, Gharoli Extension, Gharoli","Chotti Masjid, Street number 9",Delhi,110096,Delhi,IN,https://www.google.com/maps/place/HADHRAT+UMAR+MASJID+ALMAROOF+CHOTI+MASJID/data=!4m7!3m6!1s0x390ce5c6cf830b2f:0x6bb8084dadf0d513!8m2!3d28.6213398!4d77.3314246!16s%2Fg%2F11sy4vfb7s!19sChIJLwuDz8blDDkRE9XwrU0IuGs?authuser=0&hl=en&rclk=1,"28.621339799999998,77.33142459999999"
Masjid Aaisha (AhleHadees) msjd `y'shh,Mosque,"G8R2+7VC Masjid Aaisha (AhleHadees) msjd `y'shh, Abu Huraira Rd, Shram Vihar, Pocket N, Madanpur Khadar, New Delhi, Delhi 110025","Shram Vihar, Pocket N, Madanpur Khadar","G8R2+7VC, Abu Huraira Rd",New Delhi,110025,Delhi,IN,https://www.google.com/maps/place/Masjid+Aaisha+%28AhleHadees%29+%D9%85%D8%B3%D8%AC%D8%AF+%D8%B9%D8%A7%D8%A6%D8%B4%DB%81%E2%80%AD/data=!4m7!3m6!1s0x390ce5b89893a5af:0x11e8971831978edd!8m2!3d28.5406801!4d77.3021456!16s%2Fg%2F11n04m8twz!19sChIJr6WTmLjlDDkR3Y6XMRiX6BE?authuser=0&hl=en&rclk=1,"28.5406801,77.3021456"
Mosque,Mosque,"H77M+WWG Mosque, Jamia Nagar, Okhla, New Delhi, Delhi 110025","Jamia Nagar, Okhla",H77M+WWG,New Delhi,110025,Delhi,IN,https://www.google.com/maps/place/Mosque/data=!4m7!3m6!1s0x390ce3056adf2343:0x8df512d7aa631433!8m2!3d28.5648133!4d77.2848259!16s%2Fg%2F11n16y696z!19sChIJQyPfagXjDDkRMxRjqtcS9Y0?authuser=0&hl=en&rclk=1,"28.564813299999997,77.2848259"
Syed Hasan Masjid,Mosque,"Syed Hasan Masjid, 124, Sector C, Gole Market, New Delhi, Delhi 110001","Sector C, Gole Market",124,New Delhi,110001,Delhi,IN,https://www.google.com/maps/place/Syed+Hasan+Masjid/data=!4m7!3m6!1s0x390cfd263f536697:0x174e102183d9d2d1!8m2!3d28.63939!4d77.2065116!16s%2Fg%2F11pvclr7q6!19sChIJl2ZTPyb9DDkR0dLZgyEQThc?authuser=0&hl=en&rclk=1,"28.63939,77.2065116"
Masjid,Mosque,"M65J+GV7 Masjid, Chhippy Wada, Chandni Chowk, Delhi, 110006","Chhippy Wada, Chandni Chowk",M65J+GV7,Delhi,110006,Delhi,IN,https://www.google.com/maps/place/Masjid/data=!4m7!3m6!1s0x390cfd04823e663b:0x88920d6fe0b74a65!8m2!3d28.6587916!4d77.2321828!16s%2Fg%2F11n0gg69p2!19sChIJO2Y-ggT9DDkRZUq34G8Nkog?authuser=0&hl=en&rclk=1,"28.658791599999997,77.23218279999999"
Masjid Shatoot Wali,Mosque,"M67H+G5Q Masjid Shatoot Wali, Chhota Bazar, Mori Gate, New Delhi, Delhi, 110006","Chhota Bazar, Mori Gate",M67H+G5Q,"New Delhi, Delhi",110006,Delhi,IN,https://www.google.com/maps/place/Masjid+Shatoot+Wali/data=!4m7!3m6!1s0x390cfdd8114d08fd:0x326042596014276a!8m2!3d28.663827!4d77.2279973!16s%2Fg%2F11g4h_zjtj!19sChIJ_QhNEdj9DDkRaicUYFlCYDI?authuser=0&hl=en&rclk=1,"28.663826999999998,77.2279973"
Masjid,Mosque,"Masjid, 8/2, Budh Bazar, Block L 1, Devli, Sangam Vihar, New Delhi, Delhi 110062","Budh Bazar, Block L 1, Devli, Sangam Vihar",8/2,New Delhi,110062,Delhi,IN,https://www.google.com/maps/place/Masjid/data=!4m7!3m6!1s0x390ce1dde82b3bc3:0x4d3537cacd38aec4!8m2!3d28.4940769!4d77.2261653!16s%2Fg%2F11rk33_10p!19sChIJwzsr6N3hDDkRxK44zco3NU0?authuser=0&hl=en&rclk=1,"28.4940769,77.22616529999999"
Masjid,Mosque,"Masjid, Gali No 19, Gali Number 1, Mustafabad Extn, New Mustafabad, Delhi, 110094","E2 Block, Mustafabad Extn, New Mustafabad","Gali No 19, Gali Number 1",Delhi,110094,Delhi,IN,https://www.google.com/maps/place/Masjid/data=!4m7!3m6!1s0x390cfc1b020b0e91:0xb48a3c3233e41cbd!8m2!3d28.711773!4d77.272563!16s%2Fg%2F12hpqnhjr!19sChIJkQ4LAhv8DDkRvRzkMzI8irQ?authuser=0&hl=en&rclk=1,"28.711772999999997,77.27256299999999"
Masjid,Mosque,"Shop No: 5035, Masjid, Netaji Subhash Marg, Daryaganj, New Delhi, Delhi, 110002",Daryaganj,"Shop No: 5035, Netaji Subhash Marg","New Delhi, Delhi",110002,Delhi,IN,https://www.google.com/maps/place/Masjid/data=!4m7!3m6!1s0x390cfdf175041b95:0x8ef57a2bc9f92c1c!8m2!3d28.6480954!4d77.2403964!16s%2Fg%2F11s664lvxh!19sChIJlRsEdfH9DDkRHCz5ySt69Y4?authuser=0&hl=en&rclk=1,"28.6480954,77.2403964"
Masjid,Mosque,"Masjid, 94L, Adarsh Mohalla, Block P, Mayur Vihar, Delhi, 110091","Adarsh Mohalla, Block P, Mayur Vihar",94L,Delhi,110091,Delhi,IN,https://www.google.com/maps/place/Masjid/data=!4m7!3m6!1s0x390ce594aaf9a4ed:0x7705b6bd1214d779!8m2!3d28.6097585!4d77.2915521!16s%2Fg%2F11vdfgxvzr!19sChIJ7aT5qpTlDDkRedcUEr22BXc?authuser=0&hl=en&rclk=1,"28.609758499999998,77.29155209999999"
Maqqi masjid,Mosque,"Maqqi masjid, khushal park, Chand Market, Main Road, Loni, Ghaziabad, Uttar Pradesh 201102",Loni,"khushal park, Chand Market, Main Road",Ghaziabad,201102,Uttar Pradesh,IN,https://www.google.com/maps/place/Maqqi+masjid/data=!4m7!3m6!1s0x390cff5e0ec94889:0x5f11a2cfa7f2d1f6!8m2!3d28.7591698!4d77.2711527!16s%2Fg%2F11q57z_dlr!19sChIJiUjJDl7_DDkR9tHyp8-iEV8?authuser=0&hl=en&rclk=1,"28.7591698,77.2711527"
