name,main_category,address,address_ward,address_street,address_city,address_postal_code,address_state,address_country_code,link,coordinates
Masjid-e-Goodword,Mosque,"55Q3+FJ4 Masjid-e-Goodword, Kanimedu, Pammadukullam Village, Red Hills, Attanthangal, Tamil Nadu 600052","Pammadukullam Village, Red Hills","55Q3+FJ4, Kanimedu","Attanthangal, Pammathukulam",600052,Tamil Nadu,IN,https://www.google.com/maps/place/Masjid-e-Goodword/data=!4m7!3m6!1s0x3a527df7fd05c5d7:0xd72880687ebccc07!8m2!3d13.1886465!4d80.154085!16s%2Fg%2F11j53hhymn!19sChIJ18UF_fd9UjoRB8y8fmiAKNc?authuser=0&hl=en&rclk=1,"13.188646499999999,80.154085"
msjit muhmmtiyyaa MASJID E MOHAMMADIA,Mosque,"msjit muhmmtiyyaa MASJID E MOHAMMADIA, 786, Periyar Nagar Main Rd, Sathiamurthy Nagar, Vyasarpadi, Chennai, Tamil Nadu 600039","Sathiamurthy Nagar, Vyasarpadi","786, Periyar Nagar Main Rd",Chennai,600039,Tamil Nadu,IN,https://www.google.com/maps/place/%E0%AE%AE%E0%AE%B8%E0%AF%8D%E0%AE%9C%E0%AE%BF%E0%AE%A4%E0%AF%8D+%E0%AE%AE%E0%AF%81%E0%AE%B9%E0%AE%AE%E0%AF%8D%E0%AE%AE%E0%AE%A4%E0%AE%BF%E0%AE%AF%E0%AF%8D%E0%AE%AF%E0%AE%BE+MASJID+E+MOHAMMADIA/data=!4m7!3m6!1s0x3a5265b9d49f0caf:0x8f14aabeb7ff1f2a!8m2!3d13.1192897!4d80.267556!16s%2Fg%2F11fkdjpnmp!19sChIJrwyf1LllUjoRKh__t76qFI8?authuser=0&hl=en&rclk=1,"13.1192897,80.267556"
MASJID E MUHAMMED MEERAN TRUST,Mosque,"MASJID E MUHAMMED MEERAN TRUST, 4/256, ambattur main road valluvar nagar , surapet, Puzhal, Chennai, Tamil Nadu 600066",Puzhal,"4/256, ambattur main road valluvar nagar , surapet","Chennai, Kadirvedu",600066,Tamil Nadu,IN,https://www.google.com/maps/place/MASJID+E+MUHAMMED+MEERAN+TRUST/data=!4m7!3m6!1s0x3a526579f0d30c7d:0xcfb3461c83218c46!8m2!3d13.1542125!4d80.1949704!16s%2Fg%2F11h71hnhky!19sChIJfQzT8HllUjoRRowhgxxGs88?authuser=0&hl=en&rclk=1,"13.1542125,80.1949704"
Masjid Thaqwa,Mosque,"Masjid Thaqwa, Park Rd, U R Nagar Extension, AP Block, Anna Nagar West, Anna Nagar West Extension, Chennai, Tamil Nadu 600101","U R Nagar Extension, AP Block, Anna Nagar West, Anna Nagar West Extension",Park Rd,Chennai,600101,Tamil Nadu,IN,https://www.google.com/maps/place/Masjid+Thaqwa/data=!4m7!3m6!1s0x3a52640c7b995ca5:0x91c2623587668ca9!8m2!3d13.0987303!4d80.1933564!16s%2Fg%2F1tg38j7x!19sChIJpVyZewxkUjoRqYxmhzViwpE?authuser=0&hl=en&rclk=1,"13.0987303,80.1933564"
Muthamizh Nagar Al-Ameen Masjid,Mosque,"Muthamizh Nagar Al-Ameen Masjid, South Ave, MR Nagar, Kodungaiyur, Chennai, Tamil Nadu 600118","MR Nagar, Kodungaiyur",South Ave,Chennai,600118,Tamil Nadu,IN,https://www.google.com/maps/place/Muthamizh+Nagar+Al-Ameen+Masjid/data=!4m7!3m6!1s0x3a5265094957dbcf:0x23137eacd7da8292!8m2!3d13.1324343!4d80.2476033!16s%2Fg%2F1td2fb3n!19sChIJz9tXSQllUjoRkoLa16x-EyM?authuser=0&hl=en&rclk=1,"13.1324343,80.2476033"
Jamia Masjid Mugappair East,Mosque,"35JM+FMM Jamia Masjid Mugappair East, Pari Rd, Dudhiya, J J Nagar, Mogappair East, Chennai, Tamil Nadu 600050","Dudhiya, J J Nagar, Mogappair East","35JM+FMM, Pari Rd",Chennai,600050,Tamil Nadu,IN,https://www.google.com/maps/place/Jamia+Masjid+Mugappair+East/data=!4m7!3m6!1s0x3a5263fdd831cab1:0x1040a71fffac385!8m2!3d13.0812078!4d80.184185!16s%2Fg%2F1tlbmkxf!19sChIJscox2P1jUjoRhcP6_3EKBAE?authuser=0&hl=en&rclk=1,"13.0812078,80.184185"
Padi Jumma Masjid,Mosque,"Padi Jumma Masjid, 3/11, Mosque St, TMP Nagar, Mannurpet, Padi, Chennai, Tamil Nadu 600058","TMP Nagar, Mannurpet, Padi","3/11, Mosque St",Chennai,600058,Tamil Nadu,IN,https://www.google.com/maps/place/Padi+Jumma+Masjid/data=!4m7!3m6!1s0x3a5263f235d478a3:0x1ce0909f35ee78a0!8m2!3d13.0970022!4d80.1786803!16s%2Fg%2F11fx34rysm!19sChIJo3jUNfJjUjoRoHjuNZ-Q4Bw?authuser=0&hl=en&rclk=1,"13.097002199999999,80.1786803"
Rahmania Masjid,Mosque,"Rahmania Masjid, 82, 5th St, Shanthi Nagar, Jamaliya Nagar, Perambur, Chennai, Tamil Nadu 600011","Shanthi Nagar, Jamaliya Nagar, Perambur","82, 5th St",Chennai,600011,Tamil Nadu,IN,https://www.google.com/maps/place/Rahmania+Masjid/data=!4m7!3m6!1s0x3a5265af9c026f4d:0x1b835e79cf24729f!8m2!3d13.1177892!4d80.2421077!16s%2Fg%2F1tfcrn63!19sChIJTW8CnK9lUjoRn3Ikz3legxs?authuser=0&hl=en&rclk=1,"13.117789199999999,80.24210769999999"
Masjid-e-Abdul Ali,Mosque,"37Q3+W9M Masjid-e-Abdul Ali, Thandavarayan St, Near Tana Street, Otteri, Purasaiwakkam, Chennai, Tamil Nadu 600084","Otteri, Purasaiwakkam","37Q3+W9M, Thandavarayan St, Near Tana Street",Chennai,600084,Tamil Nadu,IN,https://www.google.com/maps/place/Masjid-e-Abdul+Ali/data=!4m7!3m6!1s0x3a5265dd9e79d571:0x814976539cdec938!8m2!3d13.089845!4d80.2534318!16s%2Fg%2F1260_bks8!19sChIJcdV5nt1lUjoROMnenFN2SYE?authuser=0&hl=en&rclk=1,"13.089844999999999,80.2534318"
Masjid-E Rahmaniah Villivakkam,Mosque,"4646+GP4 Masjid-E Rahmaniah Villivakkam, Tiru Vi Ka St, Seeyalam, Villivakkam, Chennai, Tamil Nadu 600049","Seeyalam, Villivakkam","4646+GP4, Tiru Vi Ka St",Chennai,600049,Tamil Nadu,IN,https://www.google.com/maps/place/Masjid-E+Rahmaniah+Villivakkam/data=!4m7!3m6!1s0x3a526441b0754deb:0x9414ab1bc732f77f!8m2!3d13.106272!4d80.2118277!16s%2Fg%2F11bbt5x85b!19sChIJ6011sEFkUjoRf_cyxxurFJQ?authuser=0&hl=en&rclk=1,"13.106271999999999,80.2118277"
MASJID E BILAL,Mosque,"MASJID E BILAL, No: 8, 'B' Block 5th Street Thanikachalam Nagar Ponniammanmedu Chennai :, 600110","Selvam Nagar Extension, C Block, Anna Ayyar Thottam, Ponniammanmedu","No: 8, 'B' Block 5th Street Thanikachalam Nagar Ponniammanmedu Chennai :",Chennai,600110,Tamil Nadu,IN,https://www.google.com/maps/place/MASJID+E+BILAL/data=!4m7!3m6!1s0x3a5264fe494586a1:0x4b9cbe80b1d00e34!8m2!3d13.1294409!4d80.2303768!16s%2Fg%2F11f0l21czh!19sChIJoYZFSf5kUjoRNA7QsYC-nEs?authuser=0&hl=en&rclk=1,"13.129440899999999,80.2303768"
Ansarul Islam Mosque,Mosque,"469P+FVW Ansarul Islam Mosque, Tiruvallur St, Kennedy Square, Perambur, Chennai, Tamil Nadu 600011","Kennedy Square, Perambur","469P+FVW, Tiruvallur St",Chennai,600011,Tamil Nadu,IN,https://www.google.com/maps/place/Ansarul+Islam+Mosque/data=!4m7!3m6!1s0x3a5265ac25a17815:0x1c7b367298662314!8m2!3d13.1187272!4d80.2372044!16s%2Fg%2F1pp2tk3y7!19sChIJFXihJaxlUjoRFCNmmHI2exw?authuser=0&hl=en&rclk=1,"13.118727199999999,80.2372044"
Masjid-e-Muqaddas,Mosque,"37X5+HQ4 Masjid-e-Muqaddas, Perambur Barracks Rd, Buckingham Carnatic Mills, Jamalia, Chennai, Tamil Nadu 600012","Buckingham Carnatic Mills, Jamalia","37X5+HQ4, Perambur Barracks Rd",Chennai,600012,Tamil Nadu,IN,https://www.google.com/maps/place/Masjid-e-Muqaddas/data=!4m7!3m6!1s0x3a5265ebfd44d207:0x10ae66faddf7fd18!8m2!3d13.0988812!4d80.259453!16s%2Fg%2F11b63c14bd!19sChIJB9JE_etlUjoRGP333fpmrhA?authuser=0&hl=en&rclk=1,"13.0988812,80.259453"
Masjid-e-Noor,Mosque,"Masjid-e-Noor, 631, 27th St, TNHB Colony, Venkatraman Nagar, Korattur, Chennai, Tamil Nadu 600098","TNHB Colony, Venkatraman Nagar, Korattur","631, 27th St",Chennai,600098,Tamil Nadu,IN,https://www.google.com/maps/place/Masjid-e-Noor/data=!4m7!3m6!1s0x3a52638999742e61:0x7ffc00ff828462a3!8m2!3d13.1086148!4d80.185239!16s%2Fg%2F11bbrcgdcj!19sChIJYS50mYljUjoRo2KEgv8A_H8?authuser=0&hl=en&rclk=1,"13.1086148,80.185239"
Masjid RAHMATH,Mosque,"Masjid RAHMATH, 1, Lakshmi Nagar Main Road, Siva Sakthi Nagar, Kolathur, Chennai, Tamil Nadu 600099","Siva Sakthi Nagar, Kolathur","1, Lakshmi Nagar Main Road",Chennai,600099,Tamil Nadu,IN,https://www.google.com/maps/place/Masjid+RAHMATH/data=!4m7!3m6!1s0x3a52645fd863109b:0xf0ccf2679b78b7a2!8m2!3d13.1234481!4d80.2098727!16s%2Fg%2F11clvn182g!19sChIJmxBj2F9kUjoRord4m2fyzPA?authuser=0&hl=en&rclk=1,"13.1234481,80.20987269999999"
Masjid E Dayeyane Islam,Mosque,"469J+GQV Masjid E Dayeyane Islam, SRP Koil St N, Peravallur, Perambur, Chennai, Tamil Nadu 600082","Peravallur, Perambur","469J+GQV, SRP Koil St N",Chennai,600082,Tamil Nadu,IN,https://www.google.com/maps/place/Masjid+E+Dayeyane+Islam/data=!4m7!3m6!1s0x3a52645334651191:0x65fb0cef65f8594a!8m2!3d13.1188562!4d80.2319252!16s%2Fg%2F1hm3fy6h3!19sChIJkRFlNFNkUjoRSln4Ze8M-2U?authuser=0&hl=en&rclk=1,"13.1188562,80.23192519999999"
Masjid E-Nooria,Mosque,"Masjid E-Nooria, 30, 31st St, General Kumaramangalam Colony, Kolathur, Chennai, Tamil Nadu 600082","General Kumaramangalam Colony, Kolathur","30, 31st St",Chennai,600082,Tamil Nadu,IN,https://www.google.com/maps/place/Masjid+E-Nooria/data=!4m7!3m6!1s0x3a5264448e831197:0x7ba9ea176947e9d2!8m2!3d13.1129503!4d80.216555!16s%2Fg%2F11bw5m8ggd!19sChIJlxGDjkRkUjoR0ulHaRfqqXs?authuser=0&hl=en&rclk=1,"13.1129503,80.216555"
Masjid-e-Maqthab Nooriyah,Mosque,"Masjid-e-Maqthab Nooriyah, # 11, North Side, New Avadi Rd, Villivakkam, Chennai, Tamil Nadu 600049",Villivakkam,"# 11, North Side, New Avadi Rd",Chennai,600049,Tamil Nadu,IN,https://www.google.com/maps/place/Masjid-e-Maqthab+Nooriyah/data=!4m7!3m6!1s0x3a526414cbf31539:0x388f691d909c39cb!8m2!3d13.1022174!4d80.2059634!16s%2Fg%2F11b6_j2728!19sChIJORXzyxRkUjoRyzmckB1pjzg?authuser=0&hl=en&rclk=1,"13.102217399999999,80.2059634"
Masjid Al Noor Makka Madrasa,Mosque,"Masjid Al Noor Makka Madrasa, Goyyathoppu, Gandhi Nagar, Kodungaiyur, Chennai, Tamil Nadu 600118","Goyyathoppu, Gandhi Nagar, Kodungaiyur",,Chennai,600118,Tamil Nadu,IN,https://www.google.com/maps/place/Masjid+Al+Noor+Makka+Madrasa/data=!4m7!3m6!1s0x3a526516db773787:0xab3febc7c89155fc!8m2!3d13.1449614!4d80.2465138!16s%2Fg%2F11b76fys7n!19sChIJhzd32xZlUjoR_FWRyMfrP6s?authuser=0&hl=en&rclk=1,"13.1449614,80.2465138"
Masjid - E - Massarrath,Mosque,"Masjid - E - Massarrath, 161, Majestic Colony Rd, Majestic Nagar, F Block, Ponniammanmedu, Chennai, Tamil Nadu 600099","Majestic Nagar, F Block, Ponniammanmedu","161, Majestic Colony Rd",Chennai,600099,Tamil Nadu,IN,https://www.google.com/maps/place/Masjid+-+E+-+Massarrath/data=!4m7!3m6!1s0x3a5264f9989ea40f:0xb886fe7888131edc!8m2!3d13.1302171!4d80.2233103!16s%2Fg%2F11c0xn7r3g!19sChIJD6SemPlkUjoR3B4TiHj-hrg?authuser=0&hl=en&rclk=1,"13.1302171,80.2233103"
Masjid E Muhammadiya,Mosque,"Masjid E Muhammadiya, 113, School Rd, Venkateswara Nagar, Kodungaiyur, Chennai, Tamil Nadu 600118","Venkateswara Nagar, Kodungaiyur","113, School Rd",Chennai,600118,Tamil Nadu,IN,https://www.google.com/maps/place/Masjid+E+Muhammadiya/data=!4m7!3m6!1s0x3a526512408421e9:0x227153a76f20e698!8m2!3d13.1399848!4d80.2502809!16s%2Fg%2F11dz5qkm2f!19sChIJ6SGEQBJlUjoRmOYgb6dTcSI?authuser=0&hl=en&rclk=1,"13.139984799999999,80.25028089999999"
Ayisha Masjid,Mosque,"Ayisha Masjid, 158, GNT Rd, Red Hills, Chennai, Tamil Nadu 600052",Red Hills,"158, GNT Rd",Chennai,600052,Tamil Nadu,IN,https://www.google.com/maps/place/Ayisha+Masjid/data=!4m7!3m6!1s0x3a527ca084018061:0x4bd50f83f78713a2!8m2!3d13.189486!4d80.1871953!16s%2Fg%2F11cs0qq446!19sChIJYYABhKB8UjoRohOH94MP1Us?authuser=0&hl=en&rclk=1,"13.189485999999999,80.1871953"
Masjid E Shariff,Mosque,"46RQ+G7C Masjid E Shariff, Selavoyal, KKR Garden, 1st Main Rd, Thapalpetti, Palaniappa Nagar, Madhavaram, Chennai, Tamil Nadu 600118","Thapalpetti, Palaniappa Nagar, Madhavaram","46RQ+G7C, Selavoyal, KKR Garden, 1st Main Rd",Chennai,600118,Tamil Nadu,IN,https://www.google.com/maps/place/Masjid+E+Shariff/data=!4m7!3m6!1s0x3a52651b86f82d0d:0xdf321bb5df945e69!8m2!3d13.1413063!4d80.2381269!16s%2Fg%2F124t434sz!19sChIJDS34hhtlUjoRaV6U37UbMt8?authuser=0&hl=en&rclk=1,"13.1413063,80.2381269"
Masjid -E -Hidayath,Mosque,"Masjid -E -Hidayath, No. 2A, 3rd Street, A Colony, 100 Feet Rd, Vivekananda Nagar, Korattur Village, Chennai, Tamil Nadu 600099","Vivekananda Nagar, Senthil Nagar, Korattur Village","No. 2A, 3rd Street, A Colony, 100 Feet Rd",Chennai,600099,Tamil Nadu,IN,https://www.google.com/maps/place/Masjid+-E+-Hidayath/data=!4m7!3m6!1s0x3a52646257d8e211:0xccfce4346450d316!8m2!3d13.1214107!4d80.2018663!16s%2Fg%2F1pxqcw1yy!19sChIJEeLYV2JkUjoRFtNQZDTk_Mw?authuser=0&hl=en&rclk=1,"13.1214107,80.20186629999999"
Masjid E Zohara,Mosque,"46G3+GRR Masjid E Zohara, 2nd Main Rd, Doctors Colony, Jayanthi Nagar, Kolathur, Chennai, Tamil Nadu 600099","Doctors Colony, Jayanthi Nagar, Kolathur","46G3+GRR, 2nd Main Rd",Chennai,600099,Tamil Nadu,IN,https://www.google.com/maps/place/Masjid+E+Zohara/data=!4m7!3m6!1s0x3a52648a1ebe83e5:0x5e2d796139572174!8m2!3d13.1263529!4d80.2045174!16s%2Fg%2F11gdkw_np0!19sChIJ5YO-HopkUjoRdCFXOWF5LV4?authuser=0&hl=en&rclk=1,"13.126352899999999,80.2045174"
Al Masjidul Aqsa Jumma Masjid,Mosque,"569X+VXF Al Masjidul Aqsa Jumma Masjid, 3rd Main Rd, MMDA Layout, Mathur, Tamil Nadu 600068",MMDA Layout,"569X+VXF, 3rd Main Rd",Mathur,600068,Tamil Nadu,IN,https://www.google.com/maps/place/Al+Masjidul+Aqsa+Jumma+Masjid/data=!4m7!3m6!1s0x3a52653461ff1e6f:0xbcc75e2d25eb92d8!8m2!3d13.1696809!4d80.2499154!16s%2Fg%2F11b708kf71!19sChIJbx7_YTRlUjoR2JLrJS1ex7w?authuser=0&hl=en&rclk=1,"13.1696809,80.24991539999999"
Noor sunnath Al-Jama Masjid,Mosque,"Noor sunnath Al-Jama Masjid, 175, Bazar Street, Venkatapuram, Ambattur, Chennai, Tamil Nadu 600053","Venkatapuram, Ambattur","175, Bazar Street","Ambattur, Chennai",600053,Tamil Nadu,IN,https://www.google.com/maps/place/Noor+sunnath+Al-Jama+Masjid/data=!4m7!3m6!1s0x3a5263a58a37b0c7:0x965919fa4f319cc4!8m2!3d13.115893!4d80.154162!16s%2Fg%2F1pyqt9xsr!19sChIJx7A3iqVjUjoRxJwxT_oZWZY?authuser=0&hl=en&rclk=1,"13.115893,80.154162"
Masjid E Hussaini and Madarasa,Mosque,"467P+GVG Masjid E Hussaini and Madarasa, Mohammadian St, Sembiyan, Perambur, Chennai, Tamil Nadu 600011","Sembiyan, Perambur","467P+GVG, Mohammadian St",Chennai,600011,Tamil Nadu,IN,https://www.google.com/maps/place/Masjid+E+Hussaini+and+Madarasa/data=!4m7!3m6!1s0x3a5265b21b8555df:0xe47232405e5203c2!8m2!3d13.1138123!4d80.2372136!16s%2Fg%2F1tjgysyf!19sChIJ31WFG7JlUjoRwgNSXkAycuQ?authuser=0&hl=en&rclk=1,"13.1138123,80.23721359999999"
Masjid Al Noor Trust,Mosque,"56H3+X22 Masjid Al Noor Trust, 4th St, karikalan Nagar, Grant Lyon, Red Hills, Chennai, Tamil Nadu 600052","karikalan Nagar, Grant Lyon, Red Hills","56H3+X22, 4th St",Chennai,600052,Tamil Nadu,IN,https://www.google.com/maps/place/Masjid+Al+Noor+Trust/data=!4m7!3m6!1s0x3a527b4f19fe55fb:0x4c197e27e865930a!8m2!3d13.1798928!4d80.2025004!16s%2Fg%2F11hbc4qmdt!19sChIJ-1X-GU97UjoRCpNl6Cd-GUw?authuser=0&hl=en&rclk=1,"13.1798928,80.20250039999999"
Makka Masjid,Mosque,"45MV+FVW Makka Masjid, Venkateshwara Nagar, Subash Nagar, Ayappakkam, Puthagaram, Chennai, Tamil Nadu 600099","Venkateshwara Nagar, Subash Nagar, Ayappakkam",45MV+FVW,"Puthagaram, Chennai",600099,Tamil Nadu,IN,https://www.google.com/maps/place/Makka+Masjid/data=!4m7!3m6!1s0x3a526484b0000001:0xe3e22315a3d04b0b!8m2!3d13.1337422!4d80.194695!16s%2Fg%2F11g6xd9sh_!19sChIJAQAAsIRkUjoRC0vQoxUj4uM?authuser=0&hl=en&rclk=1,"13.133742199999999,80.194695"
Zakariya Masjid Mosque,Mosque,"Zakariya Masjid Mosque, Akbar Nagar, Retteri, Kolathur, Chennai, Tamil Nadu 600099","Akbar Nagar, Retteri, Kolathur",,Chennai,600099,Tamil Nadu,IN,https://www.google.com/maps/place/Zakariya+Masjid+Mosque/data=!4m7!3m6!1s0x3a526492d1b8c84f:0xc28cd6e1c9ca666f!8m2!3d13.1390794!4d80.2093366!16s%2Fg%2F11bwpml925!19sChIJT8i40ZJkUjoRb2bKyeHWjMI?authuser=0&hl=en&rclk=1,"13.1390794,80.2093366"
Masjid E Mubarak,Mosque,"Masjid E Mubarak, 1/12, Padi Pudhu Nagar Main Rd, Padi Pudur Nagar, Anna Nagar West, Koyambedu, Chennai, Tamil Nadu 600050","Padi Pudur Nagar, Anna Nagar West, Koyambedu","1/12, Padi Pudhu Nagar Main Rd",Chennai,600050,Tamil Nadu,IN,https://www.google.com/maps/place/Masjid+E+Mubarak/data=!4m7!3m6!1s0x3a5264005b4c61b1:0x989a8a8405d97167!8m2!3d13.08122!4d80.1892429!16s%2Fg%2F11g6xwcyqb!19sChIJsWFMWwBkUjoRZ3HZBYSKmpg?authuser=0&hl=en&rclk=1,"13.08122,80.1892429"
MASJID AR RAHMAN,Mosque,"46CF+J4M MASJID AR RAHMAN, Anjugam Nagar, Santhi Nagar, Kolathur, Chennai, Tamil Nadu 600082","Anjugam Nagar, Santhi Nagar, Kolathur",46CF+J4M,Chennai,600082,Tamil Nadu,IN,https://www.google.com/maps/place/MASJID+AR+RAHMAN/data=!4m7!3m6!1s0x3a5264573ded3f3d:0xdb3f8f77751e5040!8m2!3d13.1215895!4d80.222803!16s%2Fg%2F11clrm9kzn!19sChIJPT_tPVdkUjoRQFAedXePP9s?authuser=0&hl=en&rclk=1,"13.121589499999999,80.222803"
Masjid E Muhammadiya,Mosque,"Masjid E Muhammadiya, 24th Avenue, Kavankarai, Kannada Palaiyam, Puzhal, Chennai, Tamil Nadu 600066","Kavankarai, Kannada Palaiyam, Puzhal",24th Avenue,Chennai,600066,Tamil Nadu,IN,https://www.google.com/maps/place/Masjid+E+Muhammadiya/data=!4m7!3m6!1s0x3a5264acadbe4237:0x5b0971877213ef96!8m2!3d13.170146!4d80.193689!16s%2Fg%2F1q2_d25nk!19sChIJN0K-raxkUjoRlu8TcodxCVs?authuser=0&hl=en&rclk=1,"13.170145999999999,80.19368899999999"
"Manali JAMIUL ANWAR MASJID, No.6, N.S.K.Street, Periya sekkadu, Manali, Chennai-600068.",Mosque,"5774+QR7 Manali JAMIUL ANWAR MASJID, No.6, N.S.K.Street, Periya sekkadu, Manali, Chennai-600068., Periya Thoppu, Manali, Chennai, Tamil Nadu 600051","Periya Thoppu, Manali",5774+QR7,Chennai,600051,Tamil Nadu,IN,"https://www.google.com/maps/place/Manali+JAMIUL+ANWAR+MASJID,+No.6,+N.S.K.Street,+Periya+sekkadu,+Manali,+Chennai-600068./data=!4m7!3m6!1s0x3a526549aafd17ad:0xdd658edf74d46695!8m2!3d13.1644072!4d80.2570558!16s%2Fg%2F11cm071hpx!19sChIJrRf9qkllUjoRlWbUdN-OZd0?authuser=0&hl=en&rclk=1","13.1644072,80.2570558"
Muhammadi Jamia Masjid,Mosque,"Muhammadi Jamia Masjid, # 34, Kumarappa Puram Republic of India, Milk Colony Road, Kavi St, Devi Nagar, Madhavaram Milk Colony, Chennai, Tamil Nadu 600051","Devi Nagar, Madhavaram Milk Colony","# 34, Kumarappa Puram Republic of India, Milk Colony Road, Kavi St",Chennai,600051,Tamil Nadu,IN,https://www.google.com/maps/place/Muhammadi+Jamia+Masjid/data=!4m7!3m6!1s0x3a5265230c9483d7:0x888f50c9ba22cfa9!8m2!3d13.15358!4d80.2409245!16s%2Fg%2F11b6_s8w4s!19sChIJ14OUDCNlUjoRqc8iuslQj4g?authuser=0&hl=en&rclk=1,"13.15358,80.24092449999999"
Makkah Masjid,Mosque,"448H+RVG Makkah Masjid, Senthil Nagar, Annanur, Thirumullaivoyal, Chennai, Tamil Nadu 600062","Senthil Nagar, Annanur, Thirumullaivoyal",448H+RVG,Chennai,600062,Tamil Nadu,IN,https://www.google.com/maps/place/Makkah+Masjid/data=!4m7!3m6!1s0x3a5262598f3f2b41:0x142cf7db5b62fe6b!8m2!3d13.117075!4d80.129696!16s%2Fg%2F1pyqwm58q!19sChIJQSs_j1liUjoRa_5iW9v3LBQ?authuser=0&hl=en&rclk=1,"13.117075,80.129696"
Masjid-e-Rahmaniya,Mosque,"5663+84G Masjid-e-Rahmaniya, NH16, New Central Jail, Puzhal, Vadaperumbakkam, Chennai, Tamil Nadu 600066","New Central Jail, Puzhal","5663+84G, NH16","Vadaperumbakkam, Chennai",600066,Tamil Nadu,IN,https://www.google.com/maps/place/Masjid-e-Rahmaniya/data=!4m7!3m6!1s0x3a5264b0c0060bd3:0x35e51bb589b21c50!8m2!3d13.160801!4d80.2028186!16s%2Fg%2F1hg4rs3bb!19sChIJ0wsGwLBkUjoRUByyibUb5TU?authuser=0&hl=en&rclk=1,"13.160801,80.2028186"
Masjid-e-Mubarak,Mosque,"Masjid-e-Mubarak, Masjid-E-Mubarak, Pilkington Road, 4th St, Railway Colony, Seeyalam, Ayanavaram, Chennai, Tamil Nadu 600023","Railway Colony, Seeyalam, Ayanavaram","Masjid-E-Mubarak, Pilkington Road, 4th St",Chennai,600023,Tamil Nadu,IN,https://www.google.com/maps/place/Masjid-e-Mubarak/data=!4m7!3m6!1s0x3a5265b64a95bb15:0x7cee6598aac005b!8m2!3d13.1039252!4d80.2402909!16s%2Fg%2F11b6_svq1m!19sChIJFbuVSrZlUjoRWwCsilnmzgc?authuser=0&hl=en&rclk=1,"13.103925199999999,80.24029089999999"
Masjid-e-Madeenathul Islam,Mosque,"Masjid-e-Madeenathul Islam, 600110, Valliammai Nagar Extension, Ponniammanmedu, Chennai, Tamil Nadu 600110","Valliammai Nagar Extension, Ponniammanmedu",600110,Chennai,600110,Tamil Nadu,IN,https://www.google.com/maps/place/Masjid-e-Madeenathul+Islam/data=!4m7!3m6!1s0x3a5264fb18fa5917:0x260ba2dcc2f34d20!8m2!3d13.1358308!4d80.2242288!16s%2Fg%2F11c5bt8zzp!19sChIJF1n6GPtkUjoRIE3zwtyiCyY?authuser=0&hl=en&rclk=1,"13.135830799999999,80.22422879999999"
TNTJ Kolathur Office(Masjid),Mosque,"46QG+32J TNTJ Kolathur Office(Masjid), Nagavalli Nagar, Ponniammanmedu, Chennai, Tamil Nadu 600110","Nagavalli Nagar, Ponniammanmedu",46QG+32J,Chennai,600110,Tamil Nadu,IN,https://www.google.com/maps/place/TNTJ+Kolathur+Office%28Masjid%29/data=!4m7!3m6!1s0x3a5264e4b3c01243:0x9e192a8a9dc2f2d7!8m2!3d13.1377174!4d80.2250265!16s%2Fg%2F11c324zfsk!19sChIJQxLAs-RkUjoR1_LCnYoqGZ4?authuser=0&hl=en&rclk=1,"13.1377174,80.2250265"
Masjid Al Noor,Mosque,"Masjid Al Noor, 4,, Sangam Street, Ayirankatha Amman Nagar, Oragadam, Chennai, Tamil Nadu 600053","Ayirankatha Amman Nagar, Oragadam","4,, Sangam Street",Chennai,600053,Tamil Nadu,IN,https://www.google.com/maps/place/Masjid+Al+Noor/data=!4m7!3m6!1s0x3a52631af4d03501:0x3f5bc9839d330557!8m2!3d13.1373068!4d80.1525294!16s%2Fg%2F11csqn_7r5!19sChIJATXQ9BpjUjoRVwUznYPJWz8?authuser=0&hl=en&rclk=1,"13.1373068,80.15252939999999"
Abuzer islam Masjid,Mosque,"46J7+2VH Abuzer islam Masjid, United Colony, Kolathur, Chennai, Tamil Nadu 600099","United Colony, Kolathur",46J7+2VH,Chennai,600099,Tamil Nadu,IN,https://www.google.com/maps/place/Abuzer+islam+Masjid/data=!4m7!3m6!1s0x3a5264f41f31cfcb:0x5106c0ce061d210a!8m2!3d13.1300623!4d80.214747!16s%2Fg%2F11bzx7khcn!19sChIJy88xH_RkUjoRCiEdBs7ABlE?authuser=0&hl=en&rclk=1,"13.130062299999999,80.214747"
Masjid E Mohammedia,Mosque,"Masjid E Mohammedia, Bharath Nagar, Menambedu, Ambattur, Chennai, Tamil Nadu 600053","Bharath Nagar, Menambedu, Ambattur",,Chennai,600053,Tamil Nadu,IN,https://www.google.com/maps/place/Masjid+E+Mohammedia/data=!4m7!3m6!1s0x3a52639e499a88f1:0xb7c7a4b08d98c843!8m2!3d13.1218883!4d80.1686544!16s%2Fg%2F11c7r200x_!19sChIJ8YiaSZ5jUjoRQ8iYjbCkx7c?authuser=0&hl=en&rclk=1,"13.1218883,80.1686544"
Rahmaniya Mosque,Mosque,"652G+9W3 Rahmaniya Mosque, Service Road, Naravarikuppam, Padianallur, Tamil Nadu 600052",,"652G+9W3, Service Road, Naravarikuppam",Padianallur,600052,Tamil Nadu,IN,https://www.google.com/maps/place/Rahmaniya+Mosque/data=!4m7!3m6!1s0x3a527c9a63fab4a3:0x82f554d72e6349d1!8m2!3d13.2008813!4d80.1773011!16s%2Fg%2F1hg4wrl7b!19sChIJo7T6Y5p8UjoR0UljLtdU9YI?authuser=0&hl=en&rclk=1,"13.200881299999999,80.1773011"
Masjid E Umar,Mosque,"46GJ+7W8 Masjid E Umar, Senthil Nagar, Perambur, Chennai, Tamil Nadu 600082","Senthil Nagar, Perambur",46GJ+7W8,Chennai,600082,Tamil Nadu,IN,https://www.google.com/maps/place/Masjid+E+Umar/data=!4m7!3m6!1s0x3a52651c93dd2a8b:0x8e468805676b5f79!8m2!3d13.125652!4d80.2323175!16s%2Fg%2F11f7bp75wt!19sChIJiyrdkxxlUjoReV9rZwWIRo4?authuser=0&hl=en&rclk=1,"13.125651999999999,80.2323175"
makkah majid,Mosque,"56CV+G4V makkah majid, Chennai, Kamaraj Nagar, Mathur, Tamil Nadu 600051",Kamaraj Nagar,"56CV+G4V, Chennai",Mathur,600051,Tamil Nadu,IN,https://www.google.com/maps/place/makkah+majid/data=!4m7!3m6!1s0x3a52652d5bb2f707:0x25cad12543578890!8m2!3d13.1713749!4d80.2428123!16s%2Fg%2F11g9pyk34b!19sChIJB_eyWy1lUjoRkIhXQyXRyiU?authuser=0&hl=en&rclk=1,"13.1713749,80.2428123"
Masjid Taqwa,Mosque,"Building No 313, Masjid Taqwa, 8th St, Mahakavi Bharathiyar Nagar West, Mahakavi Bharathi Nagar, Vyasarpadi, Chennai, Tamil Nadu 600039","Mahakavi Bharathiyar Nagar West, Mahakavi Bharathi Nagar, Vyasarpadi","Building No 313, 8th St",Chennai,600039,Tamil Nadu,IN,https://www.google.com/maps/place/Masjid+Taqwa/data=!4m7!3m6!1s0x3a52659ee0366c75:0x6022eb404f5dabfb!8m2!3d13.1230812!4d80.2577522!16s%2Fg%2F11d_2jcry_!19sChIJdWw24J5lUjoR-6tdT0DrImA?authuser=0&hl=en&rclk=1,"13.1230812,80.2577522"
Masjid E Noor,Mosque,"5693+W7F Masjid E Noor, Sakthivel Nagar, Mahalakshmi Nagar, Puzhal, Chennai, Lyon, Tamil Nadu 600066","Sakthivel Nagar, Mahalakshmi Nagar, Puzhal",5693+W7F,"Chennai, Lyon",600066,Tamil Nadu,IN,https://www.google.com/maps/place/Masjid+E+Noor/data=!4m7!3m6!1s0x3a5264b3469a926d:0xc05e1922d14b7a30!8m2!3d13.1698167!4d80.2031585!16s%2Fg%2F11f3b7j9z7!19sChIJbZKaRrNkUjoRMHpL0SIZXsA?authuser=0&hl=en&rclk=1,"13.1698167,80.2031585"
Noor Masjid,Mosque,"46J5+HRF Noor Masjid, Rajan Nagar, Lakshmipuram, Chennai, Tamil Nadu 600099","Rajan Nagar, Lakshmipuram",46J5+HRF,Chennai,600099,Tamil Nadu,IN,https://www.google.com/maps/place/Noor+Masjid/data=!4m7!3m6!1s0x3a52648ca9557119:0x4f242c6a33bc94fa!8m2!3d13.1314465!4d80.2095591!16s%2Fg%2F11bzx6vkvv!19sChIJGXFVqYxkUjoR-pS8M2osJE8?authuser=0&hl=en&rclk=1,"13.1314465,80.20955909999999"
Masjid,Mosque,"6, Masjid, E Kal Mandapam Rd, Kanniyappan Colony, Pudumanaikuppam, Tondiarpet, Chennai, Tamil Nadu 600013","Kanniyappan Colony, Pudumanaikuppam, Tondiarpet","6, E Kal Mandapam Rd",Chennai,600013,Tamil Nadu,IN,https://www.google.com/maps/place/Masjid/data=!4m7!3m6!1s0x3a526f719cb0a39f:0x7cc5ce98b5429480!8m2!3d13.1197257!4d80.2927141!16s%2Fg%2F11g01wtbyq!19sChIJn6OwnHFvUjoRgJRCtZjOxXw?authuser=0&hl=en&rclk=1,"13.1197257,80.2927141"
Masjid-Al-Haramain,Mosque,"56GG+5C5 Masjid-Al-Haramain, Parvathi puram, Vadaperumbakkam, Chennai, Ariyalur, Tamil Nadu 600060","Parvathi puram, Vadaperumbakkam",56GG+5C5,"Chennai, Ariyalur",600060,Tamil Nadu,IN,https://www.google.com/maps/place/Masjid-Al-Haramain/data=!4m7!3m6!1s0x3a527b422b369a4d:0x9286e1f0c67ed400!8m2!3d13.1753757!4d80.2261208!16s%2Fg%2F11g4lkp0m0!19sChIJTZo2K0J7UjoRANR-xvDhhpI?authuser=0&hl=en&rclk=1,"13.1753757,80.22612079999999"
Medina Mosque And Madharsha,Mosque,"Medina Mosque And Madharsha, 600062, Annai Indira Nagar, Surappattu, Mottur, Tamil Nadu 600062","Annai Indira Nagar, Surappattu",600062,Mottur,600062,Tamil Nadu,IN,https://www.google.com/maps/place/Medina+Mosque+And+Madharsha/data=!4m7!3m6!1s0x3a5263641d3e88e7:0xfc79e368134cba87!8m2!3d13.1413107!4d80.181154!16s%2Fg%2F11gbk2sdr2!19sChIJ54g-HWRjUjoRh7pME2jjefw?authuser=0&hl=en&rclk=1,"13.1413107,80.18115399999999"
Masjid-e-Firdous,Mosque,"46HV+JWJ Masjid-e-Firdous, Tondiarpet High Rd, Nehru Nagar, Kodungaiyur, Chennai, Tamil Nadu 600118","Nehru Nagar, Kodungaiyur","46HV+JWJ, Tondiarpet High Rd",Chennai,600118,Tamil Nadu,IN,https://www.google.com/maps/place/Masjid-e-Firdous/data=!4m7!3m6!1s0x3a5265085d9f56f1:0xdbab06dbdd014218!8m2!3d13.1290857!4d80.2447642!16s%2Fg%2F11b6_s8v4x!19sChIJ8VafXQhlUjoRGEIB3dsGq9s?authuser=0&hl=en&rclk=1,"13.1290857,80.24476419999999"
Masjid Sayeed,Mosque,"Masjid Sayeed, no2, 2nd Main Rd, srivathsala nagar, Lakeview Garden, Korattur, Chennai, Puthagaram, Tamil Nadu 600076","srivathsala nagar, Lakeview Garden, Korattur","no2, 2nd Main Rd","Chennai, Puthagaram",600076,Tamil Nadu,IN,https://www.google.com/maps/place/Masjid+Sayeed/data=!4m7!3m6!1s0x3a5263c706848695:0xda90b118ceaf9e72!8m2!3d13.1219191!4d80.1867676!16s%2Fg%2F11n0llx8n3!19sChIJlYaEBsdjUjoRcp6vzhixkNo?authuser=0&hl=en&rclk=1,"13.1219191,80.1867676"
Masjid & Madarasa-E-Ikhlas,Mosque,"Masjid & Madarasa-E-Ikhlas, Thirumal Srinivas Nagar, Katida Thozilalar Nagar, Tirumal Srinivas Nagar, Chennai, Tamil Nadu 600099","Katida Thozilalar Nagar, Tirumal Srinivas Nagar",Thirumal Srinivas Nagar,"Chennai, Kadirvedu",600099,Tamil Nadu,IN,https://www.google.com/maps/place/Masjid+%26+Madarasa-E-Ikhlas/data=!4m7!3m6!1s0x3a526553d9c3b86b:0x31bd4fe86fe6af02!8m2!3d13.1438222!4d80.2051745!16s%2Fg%2F11lt4wfwnz!19sChIJa7jD2VNlUjoRAq_mb-hPvTE?authuser=0&hl=en&rclk=1,"13.143822199999999,80.2051745"
Masjid e Mohsi,Mosque,"46VF+8J5 Masjid e Mohsi, MBTT Complex, Inside Heavy vehicle parking, Madhavaram, Chennai, Tamil Nadu 110","J Garden, Madhavaram","46VF+8J5, MBTT Complex, Inside Heavy vehicle parking",Chennai,110,Tamil Nadu,IN,https://www.google.com/maps/place/Masjid+e+Mohsi/data=!4m7!3m6!1s0x3a5265688694a01b:0xc0c240029a1fad0c!8m2!3d13.1432739!4d80.2241022!16s%2Fg%2F11h18bw7lx!19sChIJG6CUhmhlUjoRDK0fmgJAwsA?authuser=0&hl=en&rclk=1,"13.143273899999999,80.22410219999999"
madrasa & masjid dawathul huda,Mosque,"45PX+JF9 madrasa & masjid dawathul huda, near Thirumal Nagar 2nd Main Rd, Sairam Nagar, Lakshmipuram, Chennai, Tamil Nadu 600099","Sairam Nagar, Lakshmipuram","45PX+JF9, near Thirumal Nagar 2nd Main Rd",Chennai,600099,Tamil Nadu,IN,https://www.google.com/maps/place/madrasa+%26+masjid+dawathul+huda/data=!4m7!3m6!1s0x3a52649000662c29:0xde4cb0ce9aa19240!8m2!3d13.1365285!4d80.1987399!16s%2Fg%2F11c30qgrld!19sChIJKSxmAJBkUjoRQJKhms6wTN4?authuser=0&hl=en&rclk=1,"13.136528499999999,80.19873989999999"
MASJID,Mosque,"6496+58J MASJID, Unnamed Road, Old Erumaivettipalayam, Tamil Nadu 600052",,"6496+58J, Unnamed Road",Old Erumaivettipalayam,600052,Tamil Nadu,IN,https://www.google.com/maps/place/MASJID/data=!4m7!3m6!1s0x3a527d9c98624035:0xf46781d70312b420!8m2!3d13.21797!4d80.1107576!16s%2Fg%2F11dztnhqmh!19sChIJNUBimJx9UjoRILQSA9eBZ_Q?authuser=0&hl=en&rclk=1,"13.21797,80.1107576"
Masjid-e-Alhuda,Mosque,"446Q+J7F Masjid-e-Alhuda, Anna Nagar, Annanur, Ambattur, Chennai, Tamil Nadu 600062","Anna Nagar, Annanur, Ambattur",446Q+J7F,Chennai,600062,Tamil Nadu,IN,https://www.google.com/maps/place/Masjid-e-Alhuda/data=!4m7!3m6!1s0x3a52638d07c09733:0x9ec6a4b543d2402b!8m2!3d13.1115744!4d80.1381849!16s%2Fg%2F11g0gpwmd4!19sChIJM5fAB41jUjoRK0DSQ7Wkxp4?authuser=0&hl=en&rclk=1,"13.111574399999999,80.1381849"
jumma Mosque Al Masjid Hussian,Mosque,"545C+M3M jumma Mosque Al Masjid Hussian, New Vellanur, Tamil Nadu 600062",,545C+M3M,New Vellanur,,Tamil Nadu,IN,https://www.google.com/maps/place/jumma+Mosque+Al+Masjid+Hussian/data=!4m7!3m6!1s0x3a5262b62b80e845:0xafde63149d494d2c!8m2!3d13.1592138!4d80.1201843!16s%2Fg%2F11ggzlrvqk!19sChIJReiAK7ZiUjoRLE1JnRRj3q8?authuser=0&hl=en&rclk=1,"13.1592138,80.12018429999999"
Masjid,Mosque,"57W9+8M8 Masjid, Rajiv Gandhi Nagar, Andarkuppam, Manali New Town, Manali, Edayanchavadi, Tamil Nadu 600103","Rajiv Gandhi Nagar, Andarkuppam, Manali New Town, Manali",57W9+8M8,Edayanchavadi,600103,Tamil Nadu,IN,https://www.google.com/maps/place/Masjid/data=!4m7!3m6!1s0x3a527aa2772512e7:0xb1bfffc7f7597ee3!8m2!3d13.1957841!4d80.2692068!16s%2Fg%2F11hcvyk97s!19sChIJ5xIld6J6UjoR435Z98f_v7E?authuser=0&hl=en&rclk=1,"13.1957841,80.26920679999999"
Mosque,Mosque,"66CG+CFG Mosque, Tiruvallur, Tamil Nadu 600067",,66CG+CFG,Tiruvallur,,Tamil Nadu,IN,https://www.google.com/maps/place/Mosque/data=!4m7!3m6!1s0x3a527ba96389a26d:0x8e03eeb31454a352!8m2!3d13.2210613!4d80.2262151!16s%2Fg%2F11ggbbw42q!19sChIJbaKJY6l7UjoRUqNUFLPuA44?authuser=0&hl=en&rclk=1,"13.221061299999999,80.22621509999999"
Masjid Noorul-huda,Mosque,"4698+WC9 Masjid Noorul-huda, 11th Cross St, Poompuhar Nagar, Kolathur, Chennai, Tamil Nadu 600099","Poompuhar Nagar, Kolathur","4698+WC9, 11th Cross St",Chennai,600099,Tamil Nadu,IN,https://www.google.com/maps/place/Masjid+Noorul-huda/data=!4m7!3m6!1s0x3a52658bfac22535:0x8f9c81c72a58f692!8m2!3d13.119779!4d80.2161159!16s%2Fg%2F11fl5hkp1r!19sChIJNSXC-otlUjoRkvZYKseBnI8?authuser=0&hl=en&rclk=1,"13.119779,80.21611589999999"
Masjid e Khairia & Madrasa,Mosque,"65MH+3JV Masjid e Khairia & Madrasa, Unnamed Road, Sholavaram, Sembilivaram, Tamil Nadu 600067",,"65MH+3JV, Unnamed Road","Sholavaram, Sembilivaram",600067,Tamil Nadu,IN,https://www.google.com/maps/place/Masjid+e+Khairia+%26+Madrasa/data=!4m7!3m6!1s0x3a527df6308d397d:0x35d3ef2f88712cc3!8m2!3d13.232747!4d80.179062!16s%2Fg%2F11qygxy74q!19sChIJfTmNMPZ9UjoRwyxxiC_v0zU?authuser=0&hl=en&rclk=1,"13.232747,80.179062"
Masjid-e-Munawar Ibrahim,Mosque,"4787+5HG Masjid-e-Munawar Ibrahim, New Magazine Rd, Sathiamurthy Nagar, Vyasarpadi, Chennai, Tamil Nadu 600039","Sathiamurthy Nagar, Vyasarpadi","4787+5HG, New Magazine Rd",Chennai,600039,Tamil Nadu,IN,https://www.google.com/maps/place/Masjid-e-Munawar+Ibrahim/data=!4m7!3m6!1s0x3a52658fe3551855:0xaa52777db8cd7549!8m2!3d13.1154371!4d80.2639447!16s%2Fg%2F11bbt6n2vw!19sChIJVRhV449lUjoRSXXNuH13Uqo?authuser=0&hl=en&rclk=1,"13.1154371,80.2639447"
Masjid-UL-Hafeez,Mosque,"46PM+5J2 Masjid-UL-Hafeez, Dr. Ambedkar Nagar, KKR Nagar, Kolkata, Madhavaram, Chennai, Tamil Nadu 600060","Dr. Ambedkar Nagar, KKR Nagar, Kolkata, Madhavaram",46PM+5J2,Chennai,600060,Tamil Nadu,IN,https://www.google.com/maps/place/Masjid-UL-Hafeez/data=!4m7!3m6!1s0x3a526502f1052035:0x728b21a78e0deaaf!8m2!3d13.1353795!4d80.2340183!16s%2Fg%2F11gff75nqv!19sChIJNSAF8QJlUjoRr-oNjqchi3I?authuser=0&hl=en&rclk=1,"13.135379499999999,80.2340183"
MASJID E RAHMATH,Mosque,"469Q+4MQ MASJID E RAHMATH, Kannivakkam, State Bank Colony, Perambur, Chennai, Tamil Nadu 600011","Kannivakkam, State Bank Colony, Perambur",469Q+4MQ,Chennai,600011,Tamil Nadu,IN,https://www.google.com/maps/place/MASJID+E+RAHMATH/data=!4m7!3m6!1s0x3a5265ae5fac4ea3:0xdb70d624c12147b1!8m2!3d13.1178289!4d80.2392449!16s%2Fg%2F11cn9zqmhg!19sChIJo06sX65lUjoRsUchwSTWcNs?authuser=0&hl=en&rclk=1,"13.1178289,80.2392449"
TNEJ Head Office (Majidthur Rahman Mosque),Mosque,"55X8+HJF TNEJ Head Office (Majidthur Rahman Mosque), Kalaingar St, Malar Nagar, Gandhi Nagar, Red Hills, Chennai, Padianallur, Tamil Nadu 600062","Malar Nagar, Gandhi Nagar, Red Hills","55X8+HJF, Kalaingar St","Chennai, Padianallur",600062,Tamil Nadu,IN,https://www.google.com/maps/place/TNEJ+Head+Office+%28Majidthur+Rahman+Mosque%29/data=!4m7!3m6!1s0x3a527c9342049111:0xdc93cb657254575d!8m2!3d13.1989259!4d80.1665471!16s%2Fg%2F11gbk2s1rz!19sChIJEZEEQpN8UjoRXVdUcmXLk9w?authuser=0&hl=en&rclk=1,"13.198925899999999,80.1665471"
MASJID e IKHLAS,Mosque,"MASJID e IKHLAS, 1/226, Street, Edappalayam, Thanthai Periyar Nagar, Red Hills, Chennai, Nallur, Tamil Nadu 600052","Thanthai Periyar Nagar, Red Hills","1/226, Street, Edappalayam","Chennai, Nallur",600052,Tamil Nadu,IN,https://www.google.com/maps/place/MASJID+e+IKHLAS/data=!4m7!3m6!1s0x3a527d033a79a821:0x9a1ee5f608e3cd2e!8m2!3d13.2032284!4d80.139162!16s%2Fg%2F11gf8f3bqj!19sChIJIah5OgN9UjoRLs3jCPblHpo?authuser=0&hl=en&rclk=1,"13.203228399999999,80.139162"
Masjid e Ameen - Jumma Masjid,Mosque,"Masjid e Ameen - Jumma Masjid, 77, TNHB Colony, Annanur, Ambattur, Chennai, Tamil Nadu 600077","TNHB Colony, Annanur, Ambattur",77,Chennai,600077,Tamil Nadu,IN,https://www.google.com/maps/place/Masjid+e+Ameen+-+Jumma+Masjid/data=!4m7!3m6!1s0x3a526315bc844319:0x137d6988e767a97c!8m2!3d13.1069645!4d80.1357998!16s%2Fg%2F11rncvnjsh!19sChIJGUOEvBVjUjoRfKln54hpfRM?authuser=0&hl=en&rclk=1,"13.1069645,80.1357998"
JAMIA MASJID,Mosque,"55QQ+JP3 JAMIA MASJID, Red Hills, Chennai, Tamil Nadu 600052",Red Hills,55QQ+JP3,Chennai,600052,Tamil Nadu,IN,https://www.google.com/maps/place/JAMIA+MASJID/data=!4m7!3m6!1s0x3a527b4f1c111b6b:0xb1a5044967bf7df!8m2!3d13.1890183!4d80.1892894!16s%2Fg%2F11h1fyzy10!19sChIJaxsRHE97UjoR3_d7lkRQGgs?authuser=0&hl=en&rclk=1,"13.189018299999999,80.18928939999999"
Masjid-E-Noor,Mosque,"55W7+PJ2 Masjid-E-Noor, Padianallur, Tamil Nadu 600052",,55W7+PJ2,Padianallur,600052,Tamil Nadu,IN,https://www.google.com/maps/place/Masjid-E-Noor/data=!4m7!3m6!1s0x3a527ceb43c5b9cb:0xa0d0176a959b4d8b!8m2!3d13.1967538!4d80.1640082!16s%2Fg%2F11dxmqvsgj!19sChIJy7nFQ-t8UjoRi02blWoX0KA?authuser=0&hl=en&rclk=1,"13.1967538,80.1640082"
Masjid-e-Ansar Jumma Pallivasal,Mosque,"57F5+9CG Masjid-e-Ansar Jumma Pallivasal, Harikrishna Puram, Manali, Chennai, Tamil Nadu 600051","Harikrishna Puram, Manali",57F5+9CG,Chennai,600051,Tamil Nadu,IN,https://www.google.com/maps/place/Masjid-e-Ansar+Jumma+Pallivasal/data=!4m7!3m6!1s0x3a527b4ac524d479:0x67903c9584665299!8m2!3d13.1734453!4d80.258585!16s%2Fg%2F11s9g7mqry!19sChIJedQkxUp7UjoRmVJmhJU8kGc?authuser=0&hl=en&rclk=1,"13.1734453,80.258585"
Mosque,Mosque,"35WH+QHH Mosque, TMP Nagar, Padi, Chennai, Tamil Nadu 600058","TMP Nagar, Padi",35WH+QHH,Chennai,600058,Tamil Nadu,IN,https://www.google.com/maps/place/Mosque/data=!4m7!3m6!1s0x3a5263e2e5057213:0x6dcc2ce8e7c45103!8m2!3d13.0969476!4d80.1789931!16s%2Fg%2F11g0msb10h!19sChIJE3IF5eJjUjoRA1HE5-gszG0?authuser=0&hl=en&rclk=1,"13.0969476,80.1789931"
Madina masjid,Mosque,"Madina masjid, No25, Teeds Garden 5th St, Sembiyan, Perambur, Chennai, Tamil Nadu 600011","Sembiyan, Perambur","No25, Teeds Garden 5th St",Chennai,600011,Tamil Nadu,IN,https://www.google.com/maps/place/Madina+masjid/data=!4m7!3m6!1s0x3a5265eabdd7f2a9:0x74ddfdecd9e74081!8m2!3d13.1166677!4d80.2358746!16s%2Fg%2F11nmpk71l_!19sChIJqfLXveplUjoRgUDn2ez93XQ?authuser=0&hl=en&rclk=1,"13.116667699999999,80.2358746"
TNTJ REDHILLS,Mosque,"55QQ+RH4 TNTJ REDHILLS, Red Hills, Chennai, Tamil Nadu 600052",Red Hills,55QQ+RH4,Chennai,600052,Tamil Nadu,IN,https://www.google.com/maps/place/TNTJ+REDHILLS/data=!4m7!3m6!1s0x3a527b5f0d469c1f:0xfcf796c4010dba87!8m2!3d13.1895236!4d80.1889599!16s%2Fg%2F11f24x8kgd!19sChIJH5xGDV97UjoRh7oNAcSW9_w?authuser=0&hl=en&rclk=1,"13.1895236,80.1889599"
MASZID -E- RAHMANIYA KAZURA HANIFA,Mosque,"MASZID -E- RAHMANIYA KAZURA HANIFA, 81, GNT Rd, Red Hills, Sholavaram, Cholavaram, Tamil Nadu 600067",Red Hills,"81, GNT Rd","Sholavaram, Cholavaram",600067,Tamil Nadu,IN,https://www.google.com/maps/place/MASZID+-E-+RAHMANIYA+KAZURA+HANIFA/data=!4m7!3m6!1s0x3a527daf6518df3f:0xa7917eb933fe31c2!8m2!3d13.2419772!4d80.1598919!16s%2Fg%2F11mhxv0dxj!19sChIJP98YZa99UjoRwjH-M7l-kac?authuser=0&hl=en&rclk=1,"13.2419772,80.15989189999999"
Masjid E Umar Farooq,Mosque,"552V+6XJ Masjid E Umar Farooq, Unnamed Road, Surappattu, Chennai, Tamil Nadu 600066",Surappattu,"552V+6XJ, Unnamed Road",Chennai,600066,Tamil Nadu,IN,https://www.google.com/maps/place/Masjid+E+Umar+Farooq/data=!4m7!3m6!1s0x3a5265db154a1d87:0xc7a3bb09c2303568!8m2!3d13.1505908!4d80.1948845!16s%2Fg%2F11h2hm_xbh!19sChIJhx1KFdtlUjoRaDUwwgm7o8c?authuser=0&hl=en&rclk=1,"13.1505908,80.1948845"
MASJID-E-FATHIMA,Mosque,"55PX+62J MASJID-E-FATHIMA, JJ Nagar, Vadakarai, Grant Lyon, Red Hills, Chennai, Vedakarai, Tamil Nadu 600052","JJ Nagar, Vadakarai, Grant Lyon, Red Hills",55PX+62J,"Chennai, Vedakarai",600052,Tamil Nadu,IN,https://www.google.com/maps/place/MASJID-E-FATHIMA/data=!4m7!3m6!1s0x3a527b5f63fd19cd:0x901b1b9d339c3272!8m2!3d13.1855996!4d80.1975068!16s%2Fg%2F11h_y0zv2l!19sChIJzRn9Y197UjoRcjKcM50bG5A?authuser=0&hl=en&rclk=1,"13.1855996,80.1975068"
Masjid (Jumaah),Mosque,"Masjid (Jumaah), 6/27, 1st St, Bharath Nagar, Menambedu, Ambattur, Chennai, Tamil Nadu 600053","Bharath Nagar, Menambedu, Ambattur","6/27, 1st St",Chennai,600053,Tamil Nadu,IN,https://www.google.com/maps/place/Masjid+%28Jumaah%29/data=!4m7!3m6!1s0x3a5263fb45dc62ad:0x1a991b4b22948acd!8m2!3d13.1221984!4d80.1684609!16s%2Fg%2F11h87y8j_6!19sChIJrWLcRftjUjoRzYqUIksbmRo?authuser=0&hl=en&rclk=1,"13.1221984,80.1684609"
Masjid -e- Muhammadi,Mosque,"4543+39J Masjid -e- Muhammadi, Jiva St, Kamarajapuram, Ambattur, Chennai, Tamil Nadu 600053","Kamarajapuram, Ambattur","4543+39J, Jiva St",Chennai,600053,Tamil Nadu,IN,https://www.google.com/maps/place/Masjid+-e-+Muhammadi/data=!4m7!3m6!1s0x3a5263382ab28493:0xabb91dc26d4400e0!8m2!3d13.1052041!4d80.1534234!16s%2Fg%2F11rys3z9zc!19sChIJk4SyKjhjUjoR4ABEbcIduas?authuser=0&hl=en&rclk=1,"13.1052041,80.1534234"
Masjid-E-Mohammadia-Housing Board Masjid,Mosque,"36VH+X9G Masjid-E-Mohammadia-Housing Board Masjid, Bharathi Nagar, Ayanavaram, Chennai, Tamil Nadu 600023","Bharathi Nagar, Ayanavaram",36VH+X9G,Chennai,600023,Tamil Nadu,IN,https://www.google.com/maps/place/Masjid-E-Mohammadia-Housing+Board+Masjid/data=!4m7!3m6!1s0x3a526433b303bab7:0xdab5d9b68af84233!8m2!3d13.094938!4d80.2284577!16s%2Fg%2F11hblb2605!19sChIJt7oDszNkUjoRM0L4irbZtdo?authuser=0&hl=en&rclk=1,"13.094937999999999,80.22845769999999"
Masjid Muhammad Ali Ahle hadees,Mosque,"55RW+338 Masjid Muhammad Ali Ahle hadees, Jeyachandra Nagar, Red Hills, Chennai, Padianallur, Tamil Nadu 600052","Jeyachandra Nagar, Red Hills",55RW+338,"Chennai, Padianallur",600052,Tamil Nadu,IN,https://www.google.com/maps/place/Masjid+Muhammad+Ali+Ahle+hadees/data=!4m7!3m6!1s0x3a527b2e463dc02d:0xbc8b7a95b676199d!8m2!3d13.1901702!4d80.1952185!16s%2Fg%2F11fn7kr2_9!19sChIJLcA9Ri57UjoRnRl2tpV6i7w?authuser=0&hl=en&rclk=1,"13.190170199999999,80.1952185"
Masjid E Abubakr,Mosque,"41, Masjid E Abubakr, Dr, Ambedkar St, Red Hills, Chennai, Theerthagiriyampattu, Tamil Nadu 600052",Red Hills,"41, Dr, Ambedkar St","Chennai, Theerthagiriyampattu",600052,Tamil Nadu,IN,https://www.google.com/maps/place/Masjid+E+Abubakr/data=!4m7!3m6!1s0x3a527dba25dc7db7:0x3355aef8545a638b!8m2!3d13.1900793!4d80.1825553!16s%2Fg%2F11pz4_6ykm!19sChIJt33cJbp9UjoRi2NaVPiuVTM?authuser=0&hl=en&rclk=1,"13.190079299999999,80.18255529999999"
Masjid E Mahmood,Mosque,"55C3+77F Masjid E Mahmood, Unnamed Road, Chennai, Tamil Nadu 600062",,"55C3+77F, Unnamed Road",Chennai,600062,Tamil Nadu,IN,https://www.google.com/maps/place/Masjid+E+Mahmood/data=!4m7!3m6!1s0x3a527da8b5d81d27:0xeb9be01fbdeb5b96!8m2!3d13.1706985!4d80.1531762!16s%2Fg%2F11m_lwrl04!19sChIJJx3Ytah9UjoRllvrvR_gm-s?authuser=0&hl=en&rclk=1,"13.170698499999999,80.15317619999999"
Masjid E Aqsa And Madarasa,Mosque,"66GC+R47 Masjid E Aqsa And Madarasa, Arumandai, Kodipallam, Tamil Nadu 600067",,66GC+R47,"Arumandai, Kodipallam",600067,Tamil Nadu,IN,https://www.google.com/maps/place/Masjid+E+Aqsa+And+Madarasa/data=!4m7!3m6!1s0x3a527b48d9bf8cfb:0xe66d8b98df80fd2c!8m2!3d13.2270295!4d80.2202998!16s%2Fg%2F11fkdly1kp!19sChIJ-4y_2Uh7UjoRLP2A35iLbeY?authuser=0&hl=en&rclk=1,"13.227029499999999,80.22029979999999"
kaatiriyyaa mnnnjil,Mosque,"kaatiriyyaa mnnnjil, 9, Kamarajar St, Pudur, Ambattur, Chennai, Tamil Nadu 600053","Pudur, Ambattur","9, Kamarajar St",Chennai,600053,Tamil Nadu,IN,https://www.google.com/maps/place/%E0%AE%95%E0%AE%BE%E0%AE%A4%E0%AE%BF%E0%AE%B0%E0%AE%BF%E0%AE%AF%E0%AF%8D%E0%AE%AF%E0%AE%BE+%E0%AE%AE%E0%AE%A9%E0%AF%8D%E0%AE%9C%E0%AE%BF%E0%AE%B2%E0%AF%8D/data=!4m7!3m6!1s0x3a5263e1dc3020eb:0x237c248785405e6f!8m2!3d13.1299231!4d80.1605341!16s%2Fg%2F11swl6sshr!19sChIJ6yAw3OFjUjoRb15AhYckfCM?authuser=0&hl=en&rclk=1,"13.1299231,80.16053409999999"
Masjid E Noor,Mosque,"46GW+F9C Masjid E Noor, Kaveri Nagar, Erukkanchery, Nehru Nagar, Kodungaiyur, Chennai, Tamil Nadu 600118","Erukkanchery, Nehru Nagar, Kodungaiyur","46GW+F9C, Kaveri Nagar",Chennai,600118,Tamil Nadu,IN,https://www.google.com/maps/place/Masjid+E+Noor/data=!4m7!3m6!1s0x3a52659a40c35b5b:0x9af8aeac7ab1068f!8m2!3d13.1261758!4d80.2458945!16s%2Fg%2F11r4gycj16!19sChIJW1vDQJplUjoRjwaxeqyu-Jo?authuser=0&hl=en&rclk=1,"13.126175799999999,80.24589449999999"
Masjid E Elahi,Mosque,"775P+XM2 Masjid E Elahi, Reddy Palayam, Sridevi Nagar, Attipattu, Minjur, Nandiambakkam, Tamil Nadu 600120","Reddy Palayam, Sridevi Nagar, Attipattu",775P+XM2,"Minjur, Nandiambakkam",600120,Tamil Nadu,IN,https://www.google.com/maps/place/Masjid+E+Elahi/data=!4m7!3m6!1s0x3a52716d2da9541b:0xe7c2b0b225d4da37!8m2!3d13.2598789!4d80.2866527!16s%2Fg%2F11gy3h0l9h!19sChIJG1SpLW1xUjoRN9rUJbKwwuc?authuser=0&hl=en&rclk=1,"13.259878899999999,80.28665269999999"
Masjid-Us-Salaam (TNTJ Marcus),Mosque,"Masjid-Us-Salaam (TNTJ Marcus), 232, Big Mosque St, Veera Raghavan Nagar, Vilangadupakkam, Dhargaas, Singilimedu, Perungavoor, Tamil Nadu 600052","Veera Raghavan Nagar, Vilangadupakkam, Dhargaas","232, Big Mosque St","Singilimedu, Perungavoor",600052,Tamil Nadu,IN,https://www.google.com/maps/place/Masjid-Us-Salaam+%28TNTJ+Marcus%29/data=!4m7!3m6!1s0x3a527bcbc3c7e15f:0xf8eec74c318b23ef!8m2!3d13.2047223!4d80.2107579!16s%2Fg%2F11pw1q7_bw!19sChIJX-HHw8t7UjoR7yOLMUzH7vg?authuser=0&hl=en&rclk=1,"13.2047223,80.21075789999999"
MOSQUE,Mosque,"MOSQUE, 514, GNT Rd, Red Hills, Chennai, Padianallur, Tamil Nadu 600052",Red Hills,"514, GNT Rd","Chennai, Padianallur",600052,Tamil Nadu,IN,https://www.google.com/maps/place/MOSQUE/data=!4m7!3m6!1s0x3a527d013e2cd7c1:0xc1a2196869607e55!8m2!3d13.1907046!4d80.1866397!16s%2Fg%2F11fhv3wpqy!19sChIJwdcsPgF9UjoRVX5gaWgZosE?authuser=0&hl=en&rclk=1,"13.1907046,80.1866397"
Al-jamihq masjid,Mosque,"Al-jamihq masjid, 5/428, Nethaji st, Redhills - Thiruvallur High Rd, Ambedkar Nagar, Red Hills, Attanthangal, Tamil Nadu 600052","Ambedkar Nagar, Red Hills","5/428, Nethaji st, Redhills - Thiruvallur High Rd",Attanthangal,600052,Tamil Nadu,IN,https://www.google.com/maps/place/Al-jamihq+masjid/data=!4m7!3m6!1s0x3a527d4d30d2564d:0xdab5f5df171cc1e2!8m2!3d13.1983141!4d80.1528558!16s%2Fg%2F11ty2yrltf!19sChIJTVbSME19UjoR4sEcF9_1tdo?authuser=0&hl=en&rclk=1,"13.1983141,80.1528558"
TNTJ Kavangarai,Mosque,"55CW+H2R TNTJ Kavangarai, Kavankarai, Puzhal, Chennai, Tamil Nadu 600066","Kavankarai, Puzhal",55CW+H2R,Chennai,600066,Tamil Nadu,IN,https://www.google.com/maps/place/TNTJ+Kavangarai/data=!4m7!3m6!1s0x3a527b533b78e987:0x19119f9d4388cad6!8m2!3d13.1714882!4d80.1950106!16s%2Fg%2F11f39_lw3j!19sChIJh-l4O1N7UjoR1sqIQ52fERk?authuser=0&hl=en&rclk=1,"13.171488199999999,80.1950106"
Madina Masjid,Mosque,"No.139, Madina Masjid, Thirupthi Nagar, Subash Nagar, Vadaperumbakkam, Payasambakkam, Chennai, Tamil Nadu 600052","Thirupthi Nagar, Subash Nagar, Vadaperumbakkam",No.139,"Payasambakkam, Chennai",600052,Tamil Nadu,IN,https://www.google.com/maps/place/Madina+Masjid/data=!4m7!3m6!1s0x3a527b1b7b799c51:0x66a4c123e1f6c682!8m2!3d13.1834237!4d80.218037!16s%2Fg%2F11sdptg2xr!19sChIJUZx5ext7UjoRgsb24SPBpGY?authuser=0&hl=en&rclk=1,"13.183423699999999,80.218037"
Masjid,Mosque,"Masjid, 121, Madavaram Red Hills Rd, Thapalpetti, Madhavaram, Chennai, Tamil Nadu 600060","Thapalpetti, Madhavaram","121, Madavaram Red Hills Rd",Chennai,600060,Tamil Nadu,IN,https://www.google.com/maps/place/Masjid/data=!4m7!3m6!1s0x3a52654c693a702d:0xac5fa6f45b65900e!8m2!3d13.1438316!4d80.2329594!16s%2Fg%2F11scv3_c8x!19sChIJLXA6aUxlUjoRDpBlW_SmX6w?authuser=0&hl=en&rclk=1,"13.143831599999999,80.2329594"
Fathima Nagar Mosque,Mosque,"55R2+4Q7 Fathima Nagar Mosque, Red Hills, Chennai, Attanthangal, Tamil Nadu 600052",Red Hills,55R2+4Q7,"Chennai, Attanthangal",600052,Tamil Nadu,IN,https://www.google.com/maps/place/Fathima+Nagar+Mosque/data=!4m7!3m6!1s0x3a527d9e37737881:0xd3ea7d626542e19c!8m2!3d13.1902916!4d80.1519303!16s%2Fg%2F11n_zgpb5h!19sChIJgXhzN559UjoRnOFCZWJ96tM?authuser=0&hl=en&rclk=1,"13.1902916,80.15193029999999"
Madina Masjid,Mosque,"53WX+HPW Madina Masjid, Koduvalli, Tamil Nadu 600055",,53WX+HPW,Koduvalli,600055,Tamil Nadu,IN,https://www.google.com/maps/place/Madina+Masjid/data=!4m7!3m6!1s0x3a527da8a4b316ad:0xd7cfd252d0422511!8m2!3d13.196516!4d80.099418!16s%2Fg%2F11stxhrh_w!19sChIJrRazpKh9UjoRESVC0FLSz9c?authuser=0&hl=en&rclk=1,"13.196515999999999,80.099418"
Masjid-e-Anware Islam Ahle Hadees,Mosque,"Masjid-e-Anware Islam Ahle Hadees, 11, 1st line, United Colony, Kolathur, Chennai, Tamil Nadu 600099","United Colony, Kolathur","11, 1st line",Chennai,600099,Tamil Nadu,IN,https://www.google.com/maps/place/Masjid-e-Anware+Islam+Ahle+Hadees/data=!4m7!3m6!1s0x3a52651d3f40f277:0x1ca198145a24ffe0!8m2!3d13.130072!4d80.2148175!16s%2Fg%2F11t_zbt8vy!19sChIJd_JAPx1lUjoR4P8kWhSYoRw?authuser=0&hl=en&rclk=1,"13.130072,80.2148175"
Masjid-E-muhammed anas,Mosque,"Masjid-E-muhammed anas, bus stop, Masjed-E-muhammed anas 138/4, Ambedkar nagar, opposite Attanthangal, Attanthangal, Tamil Nadu 600052",,"bus stop, Masjed-E-muhammed anas 138/4, Ambedkar nagar, opposite Attanthangal",Attanthangal,600052,Tamil Nadu,IN,https://www.google.com/maps/place/Masjid-E-muhammed+anas/data=!4m7!3m6!1s0x3a527d3b822c1a55:0xc4d42dfb0b5770ea!8m2!3d13.1993184!4d80.1544221!16s%2Fg%2F11pr3xdq3k!19sChIJVRosgjt9UjoR6nBXC_st1MQ?authuser=0&hl=en&rclk=1,"13.1993184,80.15442209999999"
Dayane Masjid,Mosque,"469M+XMH Dayane Masjid, Tiru Vi Ka Nagar, Perambur, Chennai, Tamil Nadu 600011","Tiru Vi Ka Nagar, Perambur",469M+XMH,Chennai,600011,Tamil Nadu,IN,https://www.google.com/maps/place/Dayane+Masjid/data=!4m7!3m6!1s0x3a5265ba2c8ce563:0x9e3248b0b4392ea4!8m2!3d13.119938!4d80.2342226!16s%2Fg%2F11t0rwt6pm!19sChIJY-WMLLplUjoRpC45tLBIMp4?authuser=0&hl=en&rclk=1,"13.119938,80.2342226"
Masjid E Mamoor,Mosque,"68FG+C89 Masjid E Mamoor, 12th Cross St, Thazankuppam, Tulsi Kuppam, Ennore, Tamil Nadu 600057","Thazankuppam, Tulsi Kuppam","68FG+C89, 12th Cross St",Ennore,600057,Tamil Nadu,IN,https://www.google.com/maps/place/Masjid+E+Mamoor/data=!4m7!3m6!1s0x3a5271e42e64dc45:0x2ec3436ec0a88457!8m2!3d13.2235438!4d80.3258561!16s%2Fg%2F11q49v5qzk!19sChIJRdxkLuRxUjoRV4SowG5Dwy4?authuser=0&hl=en&rclk=1,"13.2235438,80.3258561"
Masjid E Nabavi Jumma Masjid,Mosque,"57CR+GMX Masjid E Nabavi Jumma Masjid, Abdul Sarthar St, Annai Gangai Amman Nagar, Balakrishna Nagar, Tiruvottiyur, Chennai, Tamil Nadu 600019","Annai Gangai Amman Nagar, Balakrishna Nagar, Tiruvottiyur","57CR+GMX, Abdul Sarthar St",Chennai,600019,Tamil Nadu,IN,https://www.google.com/maps/place/Masjid+E+Nabavi+Jumma+Masjid/data=!4m7!3m6!1s0x3a526f89645d8279:0xc50e8f5a0bec5930!8m2!3d13.1713569!4d80.2917309!16s%2Fg%2F11sh6bnw1s!19sChIJeYJdZIlvUjoRMFnsC1qPDsU?authuser=0&hl=en&rclk=1,"13.1713569,80.29173089999999"
Masjid E Salam,Mosque,"Masjid E Salam, 9, Kamarajar St, Pudur, Ambattur, Chennai, Tamil Nadu 600053","Pudur, Ambattur","9, Kamarajar St",Chennai,600053,Tamil Nadu,IN,https://www.google.com/maps/place/Masjid+E+Salam/data=!4m7!3m6!1s0x3a5263332f87abbd:0x8e1ba2ce3a648e60!8m2!3d13.1299231!4d80.1605341!16s%2Fg%2F11txvjf297!19sChIJvauHLzNjUjoRYI5kOs6iG44?authuser=0&hl=en&rclk=1,"13.1299231,80.16053409999999"
Perambur Ansarul islam masjid,Mosque,"Perambur Ansarul islam masjid, 56, Decastor Rd, VOC Nagar, Pulianthope, Chennai, Tamil Nadu 12","VOC Nagar, Pulianthope","56, Decastor Rd",Chennai,12,Tamil Nadu,IN,https://www.google.com/maps/place/Perambur+Ansarul+islam+masjid/data=!4m7!3m6!1s0x3a5265b476db71e1:0x7b28c35eaf59aff4!8m2!3d13.102819!4d80.2612405!16s%2Fg%2F11vcw8t220!19sChIJ4XHbdrRlUjoR9K9Zr17DKHs?authuser=0&hl=en&rclk=1,"13.102819,80.2612405"
Masjid,Place of worship,"55WJ+RHM Masjid, Padianallur, Tamil Nadu 600052",,55WJ+RHM,Padianallur,600052,Tamil Nadu,IN,https://www.google.com/maps/place/Masjid/data=!4m7!3m6!1s0x3a527c9949c9ef95:0xeb0e1eb868af3df5!8m2!3d13.1970914!4d80.1814286!16s%2Fg%2F11c20c1w3l!19sChIJle_JSZl8UjoR9T2vaLgeDus?authuser=0&hl=en&rclk=1,"13.1970914,80.18142859999999"
Masjid E Umar,Mosque,"Masjid E Umar, Vivek Akbar Avenue, Padianallur, Tamil Nadu 600052",,Vivek Akbar Avenue,Padianallur,600052,Tamil Nadu,IN,https://www.google.com/maps/place/Masjid+E+Umar/data=!4m7!3m6!1s0x3a527b9be9781c29:0xbe6de87670b9eb20!8m2!3d13.203946!4d80.190221!16s%2Fg%2F11kqvdmh8l!19sChIJKRx46Zt7UjoRIOu5cHbobb4?authuser=0&hl=en&rclk=1,"13.203946,80.190221"
Masjid E Mamoor,Mosque,"6668+558 Masjid E Mamoor, Sirugavur, Rajiv Gandhi Nagar General, Chennai, Perungavoor, Tamil Nadu 600067","Sirugavur, Rajiv Gandhi Nagar General",6668+558,"Chennai, Perungavoor",600067,Tamil Nadu,IN,https://www.google.com/maps/place/Masjid+E+Mamoor/data=!4m7!3m6!1s0x3a527bbd93a0ae1d:0xfb281bce1cca38c1!8m2!3d13.2103956!4d80.2154268!16s%2Fg%2F11pz3tdl42!19sChIJHa6gk717UjoRwTjKHM4bKPs?authuser=0&hl=en&rclk=1,"13.2103956,80.2154268"
MASJID E MAMOOR,Mosque,"MASJID E MAMOOR, 102V,Sitthi vinayagar Koil 7th Street, ambedkar nagar, siringavoor, Vilangadupakkam, Chennai, 52","Vilangadupakkam, Rajiv Gandhi Nagar General","102V,Sitthi vinayagar Koil 7th Street, ambedkar nagar, siringavoor","Chennai, Perungavoor",52,Tamil Nadu,IN,https://www.google.com/maps/place/MASJID+E+MAMOOR/data=!4m7!3m6!1s0x3a527b7c5044ffd3:0x5018ccf1310749ce!8m2!3d13.2071642!4d80.219469!16s%2Fg%2F11gy7qty5l!19sChIJ0_9EUHx7UjoRzkkHMfHMGFA?authuser=0&hl=en&rclk=1,"13.2071642,80.21946899999999"
Noor-E-Muhammadi Masjid.Madarsa Tajweedul Quran,Mosque,"66Q5+QWG Noor-E-Muhammadi Masjid.Madarsa Tajweedul Quran, Sholavaram, Mafaskanpet, Tamil Nadu 600067",,66Q5+QWG,"Sholavaram, Mafaskanpet",600067,Tamil Nadu,IN,https://www.google.com/maps/place/Noor-E-Muhammadi+Masjid.Madarsa+Tajweedul+Quran/data=!4m7!3m6!1s0x3a527b6207aa86d7:0x4c672cb94fc5e483!8m2!3d13.2394415!4d80.2098219!16s%2Fg%2F11qbfwj6m_!19sChIJ14aqB2J7UjoRg-TFT7ksZ0w?authuser=0&hl=en&rclk=1,"13.2394415,80.2098219"
Makkah Masjid,Mosque,"55X2+7F3 Makkah Masjid, Attanthangal, Tamil Nadu 600052",,55X2+7F3,Attanthangal,600052,Tamil Nadu,IN,https://www.google.com/maps/place/Makkah+Masjid/data=!4m7!3m6!1s0x3a527d2c40c7b387:0x916394f41cb3a5a8!8m2!3d13.1981449!4d80.1511772!16s%2Fg%2F11lrwj52m3!19sChIJh7PHQCx9UjoRqKWzHPSUY5E?authuser=0&hl=en&rclk=1,"13.198144899999999,80.15117719999999"
Nizam Mohideen,Mosque,"653H+XVM Nizam Mohideen, Jothi Nagar, Padianallur, Tamil Nadu 600052",Jothi Nagar,653H+XVM,Padianallur,600052,Tamil Nadu,IN,https://www.google.com/maps/place/Nizam+Mohideen/data=!4m7!3m6!1s0x3a527d78c6410259:0xdbd42cf2438c757f!8m2!3d13.2049522!4d80.1796634!16s%2Fg%2F11jz3ngh66!19sChIJWQJBxnh9UjoRf3WMQ_Is1Ns?authuser=0&hl=en&rclk=1,"13.2049522,80.1796634"
Masjidul Madarasthil Furquaniya,Mosque,"4684+HGV Masjidul Madarasthil Furquaniya, Main Rd, Kennedy Square, Perambur, Chennai, Tamil Nadu 600011","Barathy Nagar, Valluvar Nagar, Perambur","4684+HGV, Main Rd, Kennedy Square",Chennai,600011,Tamil Nadu,IN,https://www.google.com/maps/place/Masjidul+Madarasthil+Furquaniya/data=!4m7!3m6!1s0x3a52659115af6ad5:0x3dca6b9d43be00c9!8m2!3d13.1164953!4d80.2062867!16s%2Fg%2F11llzwc163!19sChIJ1WqvFZFlUjoRyQC-Q51ryj0?authuser=0&hl=en&rclk=1,"13.116495299999999,80.20628669999999"
