name,main_category,address,address_ward,address_street,address_city,address_postal_code,address_state,address_country_code,link,coordinates
"Masjid , Dhobari",Mosque,"Masjid , Dhobari, Village Dhobari, PO 802236, Badgaon, Bihar",,"Village Dhobari, PO 802236",Badgaon,,Bihar,IN,"https://www.google.com/maps/place/Masjid+,+Dhobari/data=!4m7!3m6!1s0x398d4340127969c5:0xee4965d3ff09045b!8m2!3d25.354656!4d84.6696802!16s%2Fg%2F11f39rr60n!19sChIJxWl5EkBDjTkRWwQJ_9NlSe4?authuser=0&hl=en&rclk=1","25.354656,84.6696802"
jama masjid parstand,Mosque,"F6FF+W9R jama masjid parstand, At parsatand po chatro ps deori, 815314",,"F6FF+W9R, At parsatand po chatro ps deori",Pataldih,815314,Jharkhand,IN,https://www.google.com/maps/place/jama+masjid+parstand/data=!4m7!3m6!1s0x39f3e1c333dff76d:0x907aa82a3ab7bd07!8m2!3d24.4748562!4d86.223381!16s%2Fg%2F11fjyx788m!19sChIJbfffM8Ph8zkRB723OiqoepA?authuser=0&hl=en&rclk=1,"24.474856199999998,86.22338099999999"
Madina Masjid Deori,Mosque,"92Q6+JVX Madina Masjid Deori, Deori, Madhya Pradesh 470226",,92Q6+JVX,Deori,470226,Madhya Pradesh,IN,https://www.google.com/maps/place/Madina+Masjid+Deori/data=!4m7!3m6!1s0x397f3f4e4d474651:0xf3903c5ae4b5d1ea!8m2!3d23.3891226!4d79.0122302!16s%2Fg%2F11f676_nc5!19sChIJUUZHTU4_fzkR6tG15Fo8kPM?authuser=0&hl=en&rclk=1,"23.3891226,79.01223019999999"
"Masjid, Kodar",Mosque,"R359+2RX Masjid, Kodar, Malpura, Bihar 821312",,R359+2RX,Malpura,821312,Bihar,IN,"https://www.google.com/maps/place/Masjid,+Kodar/data=!4m7!3m6!1s0x398db393527e2545:0x42c4f5172b1763d8!8m2!3d24.8076082!4d84.0696163!16s%2Fg%2F11h057cwym!19sChIJRSV-UpOzjTkR2GMXKxf1xEI?authuser=0&hl=en&rclk=1","24.807608199999997,84.06961629999999"
Deori Masjid,Mosque,"GXX6+FJM Deori Masjid, Deorikalan, Jharkhand 822116",,GXX6+FJM,Deorikalan,,Jharkhand,IN,https://www.google.com/maps/place/Deori+Masjid/data=!4m7!3m6!1s0x398c47a7ac038a8b:0x26f5e7ca7becd04a!8m2!3d24.5487209!4d83.9615536!16s%2Fg%2F11f32fpmwd!19sChIJi4oDrKdHjDkRStDse8rn9SY?authuser=0&hl=en&rclk=1,"24.5487209,83.9615536"
NOORI MASJID,Mosque,"4CQR+8MQ NOORI MASJID, Tendra alias Dhurki, Jharkhand 822121",,4CQR+8MQ,Tendra alias Dhurki,,Jharkhand,IN,https://www.google.com/maps/place/NOORI+MASJID/data=!4m7!3m6!1s0x398eaf954330bd7d:0xae20396327ce807c!8m2!3d24.1383452!4d83.4417224!16s%2Fg%2F11g4f1cvcf!19sChIJfb0wQ5WvjjkRfIDOJ2M5IK4?authuser=0&hl=en&rclk=1,"24.1383452,83.4417224"
Chhoti Masjid,Mosque,"92Q9+WPF Chhoti Masjid, Kanskheda Rd, Deori, Madhya Pradesh 470226",,"92Q9+WPF, Kanskheda Rd",Deori,470226,Madhya Pradesh,IN,https://www.google.com/maps/place/Chhoti+Masjid/data=!4m7!3m6!1s0x397f40082a89b97b:0x16e36f0e42e101e9!8m2!3d23.3898231!4d79.0193002!16s%2Fg%2F11f4pvb16v!19sChIJe7mJKghAfzkR6QHhQg5v4xY?authuser=0&hl=en&rclk=1,"23.389823099999997,79.01930019999999"
Nurani Masjid Sonar Deori,Mosque,"H67W+386 Nurani Masjid Sonar Deori, Sonar Deori, Chhattisgarh 493228",,H67W+386,Sonar Deori,493228,Chhattisgarh,IN,https://www.google.com/maps/place/Nurani+Masjid+Sonar+Deori/data=!4m7!3m6!1s0x3a262997313556f5:0xa8506a7c2a1cebf9!8m2!3d21.5626602!4d82.2457583!16s%2Fg%2F11b8_ttqls!19sChIJ9VY1MZcpJjoR-escKnxqUKg?authuser=0&hl=en&rclk=1,"21.5626602,82.24575829999999"
Jama Masjid Khariyodih,Mosque,"Jama Masjid Khariyodih, Asko, Khariodih, Jharkhand 815314",,,"Asko, Khariodih",815314,Jharkhand,IN,https://www.google.com/maps/place/Jama+Masjid+Khariyodih/data=!4m7!3m6!1s0x39f3dd52ee64efcb:0xc3a01343dd2c39ab!8m2!3d24.5316564!4d86.1463258!16s%2Fg%2F11ft9f3s02!19sChIJy-9k7lLd8zkRqzks3UMToMM?authuser=0&hl=en&rclk=1,"24.5316564,86.1463258"
Choti masjid,Mosque,"WH2J+X23 Choti masjid, Dudhwal, Baradih, Jharkhand 822125",,WH2J+X23,"Dudhwal, Baradih",822125,Jharkhand,IN,https://www.google.com/maps/place/Choti+masjid/data=!4m7!3m6!1s0x3989570b0e1b9ceb:0x8b44419e11cbc8bf!8m2!3d23.9023787!4d83.5800606!16s%2Fg%2F11mwxq2y41!19sChIJ65wbDgtXiTkRv8jLEZ5BRIs?authuser=0&hl=en&rclk=1,"23.9023787,83.5800606"
Masjid,Mosque,"RPPG+Q48 Masjid, Rajiv Nagar, Bada Bazaar, Sagar, Madhya Pradesh 470002","Rajiv Nagar, Bada Bazaar",RPPG+Q48,Sagar,470002,Madhya Pradesh,IN,https://www.google.com/maps/place/Masjid/data=!4m7!3m6!1s0x3978d6bd5de43319:0xe22d1e1e848450ca!8m2!3d23.836907!4d78.725334!16s%2Fg%2F1pv6xrn_6!19sChIJGTPkXb3WeDkRylCEhB4eLeI?authuser=0&hl=en&rclk=1,"23.836907,78.72533399999999"
Haraiyadih chhoti masjid,Mosque,"79HJ+F5 Haraiyadih chhoti masjid, Baisa Dih, Bihar 802207",,79HJ+F5,Baisa Dih,802207,Bihar,IN,https://www.google.com/maps/place/Haraiyadih+chhoti+masjid/data=!4m7!3m6!1s0x398d71992f77c105:0x17fa801bac3c46c!8m2!3d25.2779625!4d84.3806075!16s%2Fg%2F11t7gc9vyj!19sChIJBcF3L5lxjTkRbMTDugGofwE?authuser=0&hl=en&rclk=1,"25.277962499999997,84.3806075"
Ghose masjid,Mosque,"G56W+36C Ghose masjid, Unnamed Road, Deori, Ghose, Jharkhand 815314",,"G56W+36C, Unnamed Road","Deori, Ghose",815314,Jharkhand,IN,https://www.google.com/maps/place/Ghose+masjid/data=!4m7!3m6!1s0x39f3df2234ac14ef:0xb682df6abeb63ea2!8m2!3d24.5101811!4d86.1955075!16s%2Fg%2F11fpkkz2q4!19sChIJ7xSsNCLf8zkRoj62vmrfgrY?authuser=0&hl=en&rclk=1,"24.5101811,86.19550749999999"
Jama Masjid Devri,Mosque,"4MCQ+HMM Jama Masjid Devri, Deori, Madhya Pradesh 464774",,4MCQ+HMM,Deori,464774,Madhya Pradesh,IN,https://www.google.com/maps/place/Jama+Masjid+Devri/data=!4m7!3m6!1s0x397f03bfd3f37e11:0xd02332ba50b2f966!8m2!3d23.1214616!4d78.6891625!16s%2Fg%2F11hnb8_q78!19sChIJEX7z078DfzkRZvmyULoyI9A?authuser=0&hl=en&rclk=1,"23.1214616,78.6891625"
Dorhi Masjid,Mosque,"9PM8+R9G Dorhi Masjid, Dhori, Dorhi, Jharkhand 814114",,9PM8+R9G,"Dhori, Dorhi",,Jharkhand,IN,https://www.google.com/maps/place/Dorhi+Masjid/data=!4m7!3m6!1s0x39f13b83b2e59a33:0xd7aebae54daad4ec!8m2!3d24.3845577!4d86.7159485!16s%2Fg%2F11px9trrm7!19sChIJM5rlsoM78TkR7NSqTeW6rtc?authuser=0&hl=en&rclk=1,"24.3845577,86.7159485"
Jama Masjid Deori,Mosque,"92Q9+R3J Jama Masjid Deori, Deori, Madhya Pradesh 470226",,92Q9+R3J,Deori,470226,Madhya Pradesh,IN,https://www.google.com/maps/place/Jama+Masjid+Deori/data=!4m7!3m6!1s0x397f3ff7b441c05b:0xcccb61e159978d12!8m2!3d23.3895789!4d79.0176268!16s%2Fg%2F11hchy8wxt!19sChIJW8BBtPc_fzkREo2XWeFhy8w?authuser=0&hl=en&rclk=1,"23.3895789,79.0176268"
muhmmdii mkkaa msjid gaaNdhii vaardd,Mosque,"92R8+RJJ muhmmdii mkkaa msjid gaaNdhii vaardd, Deori, Madhya Pradesh 470226",,92R8+RJJ,Deori,,Madhya Pradesh,IN,https://www.google.com/maps/place/%E0%A4%AE%E0%A5%81%E0%A4%B9%E0%A4%AE%E0%A5%8D%E0%A4%AE%E0%A4%A6%E0%A5%80+%E0%A4%AE%E0%A4%95%E0%A5%8D%E0%A4%95%E0%A4%BE+%E0%A4%AE%E0%A4%B8%E0%A5%8D%E0%A4%9C%E0%A4%BF%E0%A4%A6+%E0%A4%97%E0%A4%BE%E0%A4%81%E0%A4%A7%E0%A5%80+%E0%A4%B5%E0%A4%BE%E0%A4%B0%E0%A5%8D%E0%A4%A1/data=!4m7!3m6!1s0x397f3fbc6aee18af:0xde68af6398fd580d!8m2!3d23.3920767!4d79.0165137!16s%2Fg%2F11j0nfqp7k!19sChIJrxjuarw_fzkRDVj9mGOvaN4?authuser=0&hl=en&rclk=1,"23.3920767,79.01651369999999"
Choti masjid sari toli,Mosque,"GXPC+WJQ Choti masjid sari toli, Ara, Badri, Jharkhand 829205",,GXPC+WJQ,"Ara, Badri",,Jharkhand,IN,https://www.google.com/maps/place/Choti+masjid+sari+toli/data=!4m7!3m6!1s0x39f4cdc38e312191:0x6e9f6ee8c0561d41!8m2!3d23.537331!4d84.971595!16s%2Fg%2F11txrpq44p!19sChIJkSExjsPN9DkRQR1WwOhun24?authuser=0&hl=en&rclk=1,"23.537331,84.971595"
Qadari masjid Dumaria,Mosque,"3MW6+6XG Qadari masjid Dumaria, Dumaria, Jharkhand 815352",,3MW6+6XG,Dumaria,815352,Jharkhand,IN,https://www.google.com/maps/place/Qadari+masjid+Dumaria/data=!4m7!3m6!1s0x39f6cd28214bea81:0xe5c15d4ac17ead82!8m2!3d24.0955725!4d86.6624502!16s%2Fg%2F11j38cbzww!19sChIJgepLISjN9jkRgq1-wUpdweU?authuser=0&hl=en&rclk=1,"24.0955725,86.6624502"
Ghausia masjid khas pargha,Mosque,"PFVH+G2P Ghausia masjid khas pargha, Pargha, Jharkhand 828108",,PFVH+G2P,Pargha,,Jharkhand,IN,https://www.google.com/maps/place/Ghausia+masjid+khas+pargha/data=!4m7!3m6!1s0x39f6bd43c1490dcb:0x7625be7f34ca9dc2!8m2!3d23.743827!4d86.4775916!16s%2Fg%2F11pdy13_9w!19sChIJyw1JwUO99jkRwp3KNH--JXY?authuser=0&hl=en&rclk=1,"23.743827,86.4775916"
tamir e ghausiya noori masjid,Mosque,"99J8+35Q tamir e ghausiya noori masjid, Nayakhap Sirma, Jharkhand 825406",,99J8+35Q,Nayakhap Sirma,825406,Jharkhand,IN,https://www.google.com/maps/place/tamir+e+ghausiya+noori+masjid/data=!4m7!3m6!1s0x39f36c129cc39527:0xf5377d483c555922!8m2!3d24.3802074!4d85.3654765!16s%2Fg%2F11f3f_dg01!19sChIJJ5XDnBJs8zkRIllVPEh9N_U?authuser=0&hl=en&rclk=1,"24.3802074,85.3654765"
Kakoriya masjid,Mosque,"H29R+X6M Kakoriya masjid, Kakoria, Jharkhand 822116",,H29R+X6M,Kakoria,822116,Jharkhand,IN,https://www.google.com/maps/place/Kakoriya+masjid/data=!4m7!3m6!1s0x398c45f7594aba6d:0xb2eaa5ac47b9bceb!8m2!3d24.5699539!4d84.0405322!16s%2Fg%2F11t5ds_fmj!19sChIJbbpKWfdFjDkR67y5R6yl6rI?authuser=0&hl=en&rclk=1,"24.569953899999998,84.0405322"
Kodiyari Eid Gaah Qabristan,Mosque,"H9QG+9J6 Kodiyari Eid Gaah Qabristan, Deo Block, Kauriari, Bihar",,"H9QG+9J6, Deo Block",Kauriari,,Bihar,IN,https://www.google.com/maps/place/Kodiyari+Eid+Gaah+Qabristan/data=!4m7!3m6!1s0x398cf1a64817f1cf:0xc8a7e50956c9c847!8m2!3d24.5884065!4d84.376504!16s%2Fg%2F11fhv34_pg!19sChIJz_EXSKbxjDkRR8jJVgnlp8g?authuser=0&hl=en&rclk=1,"24.588406499999998,84.376504"
Noori Masjid Dhubadih,Mosque,"8QWP+VV7 Noori Masjid Dhubadih, Dhubadih, Dasaro Kalan, Jharkhand 825318",,8QWP+VV7,"Dhubadih, Dasaro Kalan",825318,Jharkhand,IN,https://www.google.com/maps/place/Noori+Masjid+Dhubadih/data=!4m7!3m6!1s0x39f391611ec27f79:0xa036d4fc0d324b6b!8m2!3d24.3471716!4d85.7871663!16s%2Fg%2F11gl4dv4jn!19sChIJeX_CHmGR8zkRa0syDfzUNqA?authuser=0&hl=en&rclk=1,"24.3471716,85.7871663"
Koriad mosque,Mosque,"3GG4+6QM Koriad mosque, Koriad, Jharkhand 815352",,3GG4+6QM,Koriad,815352,Jharkhand,IN,https://www.google.com/maps/place/Koriad+mosque/data=!4m7!3m6!1s0x39f6b5bd6b4cacc3:0x80774e3ff47ef5b2!8m2!3d24.0755854!4d86.5069094!16s%2Fg%2F11s7zws5jv!19sChIJw6xMa7219jkRsvV-9D9Od4A?authuser=0&hl=en&rclk=1,"24.075585399999998,86.5069094"
