name,main_category,address,address_ward,address_street,address_city,address_postal_code,address_state,address_country_code,link,coordinates
Jama Masjid,Mosque,"Jama Masjid, Old Delhi, Delhi, 110006","Jama Masjid, Old Delhi",,Delhi,110006,Delhi,IN,https://www.google.com/maps/place/Jama+Masjid/data=!4m7!3m6!1s0x390cfd18df89b215:0xdd57369e29bf9d96!8m2!3d28.6506792!4d77.2334421!16zL20vMDR5emo1!19sChIJFbKJ3xj9DDkRlp2_KZ42V90?authuser=0&hl=en&rclk=1,"28.6506792,77.23344209999999"
Khalilullah Masjid,Mosque,"Khalilullah Masjid, KHALILULLAH masjid, I 80/A, Batla House, Jamia Nagar, Okhla, New Delhi, Delhi 110025","Batla House, Jamia Nagar, Okhla","KHALILULLAH masjid, I 80/A",New Delhi,110025,Delhi,IN,https://www.google.com/maps/place/Khalilullah+Masjid/data=!4m7!3m6!1s0x390ce475d1de5d13:0xe00156a6e547ab99!8m2!3d28.566411!4d77.2889085!16s%2Fg%2F1tj1kwt5!19sChIJE13e0XXkDDkRmatH5aZWAeA?authuser=0&hl=en&rclk=1,"28.566411,77.28890849999999"
Masjid Moth,Mosque,"Masjid Moth, 92, Masjid Moth Rd, South Extension II, Masjid Moth Village, New Delhi, Delhi 110049","South Extension II, Masjid Moth Village","92, Masjid Moth Rd",New Delhi,110049,Delhi,IN,https://www.google.com/maps/place/Masjid+Moth/data=!4m7!3m6!1s0x390ce242799950e9:0xb2f0ba5418b140f8!8m2!3d28.562458!4d77.2176906!16s%2Fm%2F05zxh9f!19sChIJ6VCZeULiDDkR-ECxGFS68LI?authuser=0&hl=en&rclk=1,"28.562458,77.2176906"
Masjid Shahab,Mosque,"H78P+VWV Masjid Shahab, Jamia, Batla House, Jamia Nagar, Okhla, New Delhi, Delhi 110025","Jamia, Batla House, Jamia Nagar, Okhla",H78P+VWV,New Delhi,110025,Delhi,IN,https://www.google.com/maps/place/Masjid+Shahab/data=!4m7!3m6!1s0x390ce4760f556f8d:0xc0285f5f2f62012c!8m2!3d28.5672496!4d77.2873032!16s%2Fg%2F1hhm006pz!19sChIJjW9VD3bkDDkRLAFiL19fKMA?authuser=0&hl=en&rclk=1,"28.5672496,77.2873032"
Hari Masjid - hry msjd,Mosque,"Hari Masjid - hry msjd, S5, Rajguru Marg, Chuna Mandi, Paharganj, New Delhi, Delhi 110055","Bazar Sangatrashan, Chuna Mandi, Paharganj","S5, Rajguru Marg",New Delhi,110055,Delhi,IN,https://www.google.com/maps/place/Hari+Masjid+-+%DB%81%D8%B1%DB%8C+%D9%85%D8%B3%D8%AC%D8%AF%E2%80%AD/data=!4m7!3m6!1s0x390cfd420fb3ca0d:0xb47391289f663fde!8m2!3d28.6451083!4d77.2107922!16s%2Fg%2F12ml2wx8n!19sChIJDcqzD0L9DDkR3j9mnyiRc7Q?authuser=0&hl=en&rclk=1,"28.6451083,77.2107922"
Sabz Masjid,Mosque,"Sabz Masjid, 3571, Lalkuan Bazar Rd, Bazar Sirkiwalan, Lal Kuan Bazar, Chandni Chowk, Delhi, 110006","Bazar Sirkiwalan, Lal Kuan Bazar, Chandni Chowk","3571, Lalkuan Bazar Rd",Delhi,110006,Delhi,IN,https://www.google.com/maps/place/Sabz+Masjid/data=!4m7!3m6!1s0x390cfd16a94877a7:0x7b35bb653cd42e20!8m2!3d28.652163!4d77.223599!16s%2Fm%2F04q247t!19sChIJp3dIqRb9DDkRIC7UPGW7NXs?authuser=0&hl=en&rclk=1,"28.652162999999998,77.223599"
"Jama Masjid, Khadda Colony jm` msjd",Mosque,"Jama Masjid, Khadda Colony jm` msjd, D-202, near by Jama Masjid Gali, Jaitpur Extension Part II, Khadda Colony, Badarpur, New Delhi, Delhi 110044","Jaitpur Extension Part II, Khadda Colony, Badarpur","D-202, near by Jama Masjid Gali",New Delhi,110044,Delhi,IN,"https://www.google.com/maps/place/Jama+Masjid,+Khadda+Colony+%D8%AC%D8%A7%D9%85%D8%B9+%D9%85%D8%B3%D8%AC%D8%AF%E2%80%AD/data=!4m7!3m6!1s0x390ce65a1cc2d345:0x508d72d241ba7c2f!8m2!3d28.5094725!4d77.3384064!16s%2Fg%2F11b_23cdbd!19sChIJRdPCHFrmDDkRL3y6QdJyjVA?authuser=0&hl=en&rclk=1","28.509472499999998,77.3384064"
Masjid Patherwali msjd,Mosque,"1608, Masjid Patherwali msjd, 32, Block 39E, Nai Walan, Karol Bagh, New Delhi, Delhi, 110005","Block 39E, Nai Walan, Karol Bagh","1608, 32","New Delhi, Delhi",110005,Delhi,IN,https://www.google.com/maps/place/Masjid+Patherwali+%D9%85%D8%B3%D8%AC%D8%AF%E2%80%AD/data=!4m7!3m6!1s0x390cfd61ca03d689:0x8ff36a5a3c66d0bd!8m2!3d28.6475823!4d77.1958499!16s%2Fg%2F12hm6x9t2!19sChIJidYDymH9DDkRvdBmPFpq848?authuser=0&hl=en&rclk=1,"28.6475823,77.1958499"
Masjid and Madarsa,Mosque,"H78P+G28 Masjid and Madarsa, Jamia, Batla House, Jamia Nagar, Okhla, New Delhi, Delhi 110025","Jamia, Batla House, Jamia Nagar, Okhla",H78P+G28,New Delhi,110025,Delhi,IN,https://www.google.com/maps/place/Masjid+and+Madarsa/data=!4m7!3m6!1s0x390ce38a18a5d97f:0xdcfc61f3d0f88168!8m2!3d28.5662905!4d77.2850829!16s%2Fg%2F1hg4wfd46!19sChIJf9mlGIrjDDkRaIH40PNh_Nw?authuser=0&hl=en&rclk=1,"28.566290499999997,77.28508289999999"
Madhi Masjid msjd,Mosque,"G57P+X22 Madhi Masjid msjd, Aam Bagh, Ladha Sarai Village, Mehrauli, New Delhi, Delhi 110030","Aam Bagh, Ladha Sarai Village, Mehrauli",G57P+X22,"Mehrauli, New Delhi",110030,Delhi,IN,https://www.google.com/maps/place/Madhi+Masjid+%D9%85%D8%B3%D8%AC%D8%AF%E2%80%AD/data=!4m7!3m6!1s0x390d1e1aefd51b73:0xeb817d5121e0c393!8m2!3d28.5148909!4d77.1850159!16s%2Fg%2F1tnk_stq!19sChIJcxvV7xoeDTkRk8PgIVF9ges?authuser=0&hl=en&rclk=1,"28.514890899999997,77.1850159"
Masjid Umar ibn Khattab Ahle Hadees,Mosque,"G8X3+2R4 Masjid Umar ibn Khattab Ahle Hadees, Kalindi Kunj Rd, Shaheen Bagh, Jamia Nagar, Okhla, New Delhi, Delhi 110025","Shaheen Bagh, Jamia Nagar, Okhla","G8X3+2R4, Kalindi Kunj Rd",New Delhi,110025,Delhi,IN,https://www.google.com/maps/place/Masjid+Umar+ibn+Khattab+Ahle+Hadees/data=!4m7!3m6!1s0x390ce4196e33e035:0x7187e898e383e521!8m2!3d28.5475049!4d77.3045864!16s%2Fg%2F11ddwvd6j7!19sChIJNeAzbhnkDDkRIeWD45joh3E?authuser=0&hl=en&rclk=1,"28.5475049,77.30458639999999"
Haneefa Maszid,Mosque,"Haneefa Maszid, Gareeb yar, Haneefa mszid road, 110044, near Dargah, Jaitpur Extension Part II, Khadda Colony, Jaitpur, New Delhi, Delhi 110044","Jaitpur Extension Part II, Khadda Colony, Jaitpur","Gareeb yar, Haneefa mszid road, 110044, near Dargah",New Delhi,110044,Delhi,IN,https://www.google.com/maps/place/Haneefa+Maszid/data=!4m7!3m6!1s0x390ce65bd7dcffed:0x835b6e616cf17019!8m2!3d28.5120862!4d77.3382194!16s%2Fg%2F11dxbjqkn2!19sChIJ7f_c11vmDDkRGXDxbGFuW4M?authuser=0&hl=en&rclk=1,"28.5120862,77.3382194"
Masjid Takia Wali,Mosque,"M634+XQF Masjid Takia Wali, Idgah Rd, Sarai Khalil, Sadar Bazaar, New Delhi, Delhi, 110006","Sarai Khalil, Sadar Bazaar","M634+XQF, Idgah Rd","New Delhi, Delhi",110006,Delhi,IN,https://www.google.com/maps/place/Masjid+Takia+Wali/data=!4m7!3m6!1s0x390cfd6f971e1e1b:0xe74631f43b7267ac!8m2!3d28.6549496!4d77.2069151!16s%2Fg%2F11bw3y5xhf!19sChIJGx4el2_9DDkRrGdyO_QxRuc?authuser=0&hl=en&rclk=1,"28.6549496,77.2069151"
Masjid Alahazrat,Mosque,"R342+CX5 Masjid Alahazrat, b block, JJ Colony, JJ Cluster Colony, Bawana, Delhi, 110039","JJ Colony, JJ Cluster Colony, Bawana","R342+CX5, b block",Delhi,110039,Delhi,IN,https://www.google.com/maps/place/Masjid+Alahazrat/data=!4m7!3m6!1s0x390da833b9909e53:0x7267e7ff8986237f!8m2!3d28.8060016!4d77.0524872!16s%2Fg%2F11bc7f9t38!19sChIJU56QuTOoDTkRfyOGif_nZ3I?authuser=0&hl=en&rclk=1,"28.8060016,77.0524872"
Purani Jama Masjid,Mosque,"XGFV+HCX Purani Jama Masjid, Halwai Hatta, Subhash Nagar, Saharanpur, Uttar Pradesh 247001","Halwai Hatta, Subhash Nagar",XGFV+HCX,Saharanpur,247001,Uttar Pradesh,IN,https://www.google.com/maps/place/Purani+Jama+Masjid/data=!4m7!3m6!1s0x390eea8c0a0e4a61:0xffdb320d5dca4459!8m2!3d29.9739848!4d77.5436138!16s%2Fg%2F11g6lwjdsm!19sChIJYUoOCozqDjkRWUTKXQ0y2_8?authuser=0&hl=en&rclk=1,"29.9739848,77.5436138"
Masjid Dhobiyan,Mosque,"Masjid Dhobiyan, 3280, Delhi Gate Bazar, Kucha Alam, Old Dariya Ganj, New Delhi, Delhi 110002","Chatta lal Miya, Chandni Mahal, Old Delhi","3280, Delhi Gate Bazar, Kucha Alam, Old Dariya Ganj","New Delhi, Delhi",110002,Delhi,IN,https://www.google.com/maps/place/Masjid+Dhobiyan/data=!4m7!3m6!1s0x390cfd273340d127:0x7d6d2edf4a35f8d9!8m2!3d28.6425263!4d77.2386389!16s%2Fg%2F11cs5s2vzb!19sChIJJ9FAMyf9DDkR2fg1St8ubX0?authuser=0&hl=en&rclk=1,"28.6425263,77.2386389"
Tayyiba Masjid,Mosque,"H79J+768 Tayyiba Masjid, Street Number 12, Jogabai Extension, Zakir Nagar, Okhla, New Delhi, Delhi 110025","Jogabai Extension, Zakir Nagar, Okhla","H79J+768, Street Number 12",New Delhi,110025,Delhi,IN,https://www.google.com/maps/place/Tayyiba+Masjid/data=!4m7!3m6!1s0x390ce38ec9213115:0xab7c6b478fb01bca!8m2!3d28.5681551!4d77.2805765!16s%2Fg%2F11f39nzy8x!19sChIJFTEhyY7jDDkRyhuwj0drfKs?authuser=0&hl=en&rclk=1,"28.5681551,77.2805765"
Al-Mateen Masjid,Mosque,"Al-Mateen Masjid, Block M, Brahampuri, Shahdara, Delhi, 110053","Block M, Brahampuri, Shahdara",,Delhi,,Delhi,IN,https://www.google.com/maps/place/Al-Mateen+Masjid/data=!4m7!3m6!1s0x390cfc65cf47c239:0x9cb27deae050e07f!8m2!3d28.6830205!4d77.2668895!16s%2Fg%2F1pv2q6lxx!19sChIJOcJHz2X8DDkRf-BQ4Op9spw?authuser=0&hl=en&rclk=1,"28.683020499999998,77.26688949999999"
Masjid Harsh Vihar msjd hrsh whr,Mosque,"Masjid Harsh Vihar msjd hrsh whr, 10A, Tanki Rd, Harsh Vihar, Badarpur, New Delhi, Delhi 110044","Harsh Vihar, Badarpur","10A, Tanki Rd",New Delhi,110044,Delhi,IN,https://www.google.com/maps/place/Masjid+Harsh+Vihar+%D9%85%D8%B3%D8%AC%D8%AF+%DA%BE%D8%B1%D8%B4+%D9%88%DB%81%D8%A7%D8%B1%E2%80%AD/data=!4m7!3m6!1s0x390ce6fee36498a7:0xdcaf1b79beed3b9c!8m2!3d28.4999889!4d77.3292359!16s%2Fg%2F11ddx3myrf!19sChIJp5hk4_7mDDkRnDvtvnkbr9w?authuser=0&hl=en&rclk=1,"28.499988899999998,77.3292359"
Jama Masjid Gate Number 1,Mosque,"J6XM+XW9 Jama Masjid Gate Number 1, Urdu Bazar Rd, Meena Bazaar, Jama Masjid, Chandni Chowk, New Delhi, Delhi, 110006","Meena Bazaar, Jama Masjid, Chandni Chowk","J6XM+XW9, Urdu Bazar Rd","New Delhi, Delhi",110006,Delhi,IN,https://www.google.com/maps/place/Jama+Masjid+Gate+Number+1/data=!4m7!3m6!1s0x390cfdb4c9715319:0x6ce59b2dd83221f9!8m2!3d28.6499148!4d77.2348516!16s%2Fg%2F11v5bbt7zx!19sChIJGVNxybT9DDkR-SEy2C2b5Ww?authuser=0&hl=en&rclk=1,"28.649914799999998,77.2348516"
"Masjid Madarsa Faizyab ISBT, Sarai Kale Khan Nizamuddin",Mosque,"Masjid Madarsa Faizyab ISBT, Sarai Kale Khan Nizamuddin, ISBT Sarai Kale Khan, Sarai Kale Khan, New Delhi, Delhi 110013","ISBT Sarai Kale Khan, Sarai Kale Khan",,New Delhi,110013,Delhi,IN,"https://www.google.com/maps/place/Masjid+Madarsa+Faizyab+ISBT,+Sarai+Kale+Khan+Nizamuddin/data=!4m7!3m6!1s0x390ce30be59a7b59:0x3d13dab7c7eb962f!8m2!3d28.586186!4d77.2584179!16s%2Fg%2F11ddwzrlh3!19sChIJWXua5QvjDDkRL5brx7faEz0?authuser=0&hl=en&rclk=1","28.586185999999998,77.2584179"
Hatta Grand Mosque,Mosque,Q4W8+G6P Hatta Grand Mosque - Unnamed Road - Dubai - United Arab Emirates,,Q4W8+G6P - Unnamed Road,,,Dubai,AE,https://www.google.com/maps/place/Hatta+Grand+Mosque/data=!4m7!3m6!1s0x3ef51ed4c2b93f8d:0xead5e0dc3debf375!8m2!3d24.7963252!4d56.1155891!16s%2Fg%2F11c2p7myd5!19sChIJjT-5wtQe9T4RdfPrPdzg1eo?authuser=0&hl=en&rclk=1,"24.7963252,56.115589099999994"
JAMA MASJID MACHHMAR,Mosque,"69RH+GXW JAMA MASJID MACHHMAR, Alakulipur, Uttar Pradesh 246733",,69RH+GXW,Alakulipur,246733,Uttar Pradesh,IN,https://www.google.com/maps/place/JAMA+MASJID+MACHHMAR/data=!4m7!3m6!1s0x390bbf7438bda5eb:0x3cf6505c8d3334a1!8m2!3d29.2413731!4d78.3799405!16s%2Fg%2F11g4dt9sqd!19sChIJ66W9OHS_CzkRoTQzjVxQ9jw?authuser=0&hl=en&rclk=1,"29.241373099999997,78.37994049999999"
MASJID KHASTA GUL,Mosque,"MASJID KHASTA GUL, T16353, Goutampuri, Shahdara, Delhi, 110053","Goutampuri, Shahdara",T16353,Delhi,110053,Delhi,IN,https://www.google.com/maps/place/MASJID+KHASTA+GUL/data=!4m7!3m6!1s0x390cfc674ffe69a9:0xf03028dcb171102a!8m2!3d28.6802209!4d77.2642006!16s%2Fg%2F11g8ngh1ss!19sChIJqWn-T2f8DDkRKhBxsdwoMPA?authuser=0&hl=en&rclk=1,"28.6802209,77.2642006"
Garahaiya Wali Masjid msjd ghrrhy wly,Mosque,"M645+P9X Garahaiya Wali Masjid msjd ghrrhy wly, Qureshnagar, Sadar Bazaar, Delhi, 110006","Sarai Khalil, Sadar Bazaar","M645+P9X, Qureshnagar, Sadar Bazaar",Delhi,110006,Delhi,IN,https://www.google.com/maps/place/Garahaiya+Wali+Masjid+%D9%85%D8%B3%D8%AC%D8%AF+%DA%AF%DA%BE%DA%91%DA%BE%DB%8C%D8%A7+%D9%88%D8%A7%D9%84%DB%8C%E2%80%AD/data=!4m7!3m6!1s0x390cfd6fd6004367:0xfebc1f26322235da!8m2!3d28.6568604!4d77.2084973!16s%2Fg%2F11c3w0w7y_!19sChIJZ0MA1m_9DDkR2jUiMiYfvP4?authuser=0&hl=en&rclk=1,"28.6568604,77.20849729999999"
Masjid Hazrat Huzaifa,Mosque,"M7JC+8GF Masjid Hazrat Huzaifa, Street Number 30/4, Chauhan Banger, Shahdara, Delhi, 110031","Chauhan Banger, Shahdara","M7JC+8GF, Street Number 30/4",Delhi,110031,Delhi,IN,https://www.google.com/maps/place/Masjid+Hazrat+Huzaifa/data=!4m7!3m6!1s0x390cfc6470276379:0x13367d88af14a2d4!8m2!3d28.6808212!4d77.2712851!16s%2Fg%2F11dfsnhrcx!19sChIJeWMncGT8DDkR1KIUr4h9NhM?authuser=0&hl=en&rclk=1,"28.6808212,77.2712851"
Madar Chilla Masjid,Mosque,"4HHX+XX9 Madar Chilla Masjid, Khachna Naka, Hatta, Madhya Pradesh 470775",Khachna Naka,4HHX+XX9,Hatta,470775,Madhya Pradesh,IN,https://www.google.com/maps/place/Madar+Chilla+Masjid/data=!4m7!3m6!1s0x398212fc814e9327:0x3a558a7ad14a3046!8m2!3d24.1299052!4d79.5999965!16s%2Fg%2F11dyq_2mqs!19sChIJJ5NOgfwSgjkRRjBK0XqKVTo?authuser=0&hl=en&rclk=1,"24.1299052,79.5999965"
Mustafa Masjid Ahle Sunnat Wal Jamat mSTfy msjd,Mosque,"J8CH+RX6 Mustafa Masjid Ahle Sunnat Wal Jamat mSTfy msjd, Mulla Colony, Rajbir Colony, Gharoli Extension, Gharoli, Delhi, 96","Mulla Colony, Rajbir Colony, Gharoli Extension, Gharoli",J8CH+RX6,Delhi,96,Delhi,IN,https://www.google.com/maps/place/Mustafa+Masjid+Ahle+Sunnat+Wal+Jamat+%D9%85%D8%B5%D8%B7%D9%81%DB%8C+%D9%85%D8%B3%D8%AC%D8%AF%E2%80%AD/data=!4m7!3m6!1s0x390ce577af585fed:0xaf67853a70c52ff9!8m2!3d28.6220404!4d77.329894!16s%2Fg%2F11h_9xcl8q!19sChIJ7V9Yr3flDDkR-S_FcDqFZ68?authuser=0&hl=en&rclk=1,"28.6220404,77.329894"
JAMA MASJID UMAR BIN KHATTAB,Mosque,"G8W3+XWV JAMA MASJID UMAR BIN KHATTAB, Kalindi Kunj Rd, Block H, Jamia Nagar, Okhla, New Delhi, Delhi 110025","Block H, Jamia Nagar, Okhla","G8W3+XWV, Kalindi Kunj Rd",New Delhi,110025,Delhi,IN,https://www.google.com/maps/place/JAMA+MASJID+UMAR+BIN+KHATTAB/data=!4m7!3m6!1s0x390ce51eb7ea0bfd:0xe968824c610cc265!8m2!3d28.5474867!4d77.3047909!16s%2Fg%2F11h7p6jtqd!19sChIJ_Qvqtx7lDDkRZcIMYUyCaOk?authuser=0&hl=en&rclk=1,"28.5474867,77.3047909"
Masjid Hanfia,Mosque,"Masjid Hanfia, 2782, Kinari Bazar Rd, Dariba Kalan, Chandni Chowk, New Delhi, Delhi, 110006","Dariba Kalan, Chandni Chowk","2782, Kinari Bazar Rd","New Delhi, Delhi",110006,Delhi,IN,https://www.google.com/maps/place/Masjid+Hanfia/data=!4m7!3m6!1s0x390cfd1bb62b3d41:0xf6fbda834003d153!8m2!3d28.6548812!4d77.2324217!16s%2Fg%2F12ll5bm71!19sChIJQT0rthv9DDkRU9EDQIPa-_Y?authuser=0&hl=en&rclk=1,"28.6548812,77.2324217"
Firdausi Masjid Paharwali,Mosque,"Khasra no 217, Firdausi Masjid Paharwali, Aam Bagh, Ladha Sarai Village, Mehrauli, New Delhi, Delhi 110030","Aam Bagh, Ladha Sarai Village, Mehrauli",Khasra no 217,New Delhi,110030,Delhi,IN,https://www.google.com/maps/place/Firdausi+Masjid+Paharwali/data=!4m7!3m6!1s0x390d1e11215ab5b7:0x218c60053e177cac!8m2!3d28.5148924!4d77.1851807!16s%2Fg%2F11g63ztcq0!19sChIJt7VaIREeDTkRrHwXPgVgjCE?authuser=0&hl=en&rclk=1,"28.514892399999997,77.18518069999999"
Masjid Ziya Fatima F-17/6,Mosque,"H79P+54X Masjid Ziya Fatima F-17/6, Qamar St, Block F, Joga Bai Extension, Okhla, New Delhi, Delhi 110025","Block F, Joga Bai Extension, Okhla","H79P+54X, Qamar St",New Delhi,110025,Delhi,IN,https://www.google.com/maps/place/Masjid+Ziya+Fatima+F-17%2F6/data=!4m7!3m6!1s0x390ce3808e61549f:0xfdab33b336ace69c!8m2!3d28.5679916!4d77.2853694!16s%2Fg%2F11ffv26yxj!19sChIJn1RhjoDjDDkRnOasNrMzq_0?authuser=0&hl=en&rclk=1,"28.5679916,77.2853694"
Masjid Kafayatullah,Mosque,"J6WP+5H4 Masjid Kafayatullah, Kucha Chelan, Chandni Mahal, Old Delhi, New Delhi, Delhi, 110002","Kucha Chelan, Chandni Mahal, Old Delhi",J6WP+5H4,"New Delhi, Delhi",110002,Delhi,IN,https://www.google.com/maps/place/Masjid+Kafayatullah/data=!4m7!3m6!1s0x390cfd21a0e634b3:0x6820ba2c491ea56a!8m2!3d28.645394!4d77.2364626!16s%2Fg%2F11dylzx87t!19sChIJszTmoCH9DDkRaqUeSSy6IGg?authuser=0&hl=en&rclk=1,"28.645394,77.2364626"
Jahtari Wali Masjid,Mosque,"Jahtari Wali Masjid, 5077, Main Bazar Rd, Bharat Nagar, Main Bazar, Aram Bagh, Paharganj, New Delhi, Delhi 110055","Bharat Nagar, Main Bazar, Aram Bagh, Paharganj","5077, Main Bazar Rd",New Delhi,110055,Delhi,IN,https://www.google.com/maps/place/Jahtari+Wali+Masjid/data=!4m7!3m6!1s0x390cfd815a030b8b:0xe18350aa13859d7a!8m2!3d28.6406795!4d77.2115511!16s%2Fg%2F11gjxtbc0j!19sChIJiwsDWoH9DDkRep2FE6pQg-E?authuser=0&hl=en&rclk=1,"28.640679499999997,77.2115511"
Masjid Chatta Sheikh Manglo,Mosque,"J6XJ+HXC Masjid Chatta Sheikh Manglo, Choori Walan, Kalan Mehal, Chandni Chowk, New Delhi, Delhi, 110002","Choori Walan, Kalan Mehal, Chandni Chowk",J6XJ+HXC,"New Delhi, Delhi",110002,Delhi,IN,https://www.google.com/maps/place/Masjid+Chatta+Sheikh+Manglo/data=!4m7!3m6!1s0x390cfd188c598f69:0x5942000107ab82cb!8m2!3d28.6489319!4d77.2323897!16s%2Fg%2F11gchs9zp4!19sChIJaY9ZjBj9DDkRy4KrBwEAQlk?authuser=0&hl=en&rclk=1,"28.648931899999997,77.2323897"
Mosque msjd,Mosque,"Mosque msjd, 3696, Mori Gate, New Delhi, Delhi 110006",Mori Gate,3696,"New Delhi, Delhi",110006,Delhi,IN,https://www.google.com/maps/place/Mosque+%D9%85%D8%B3%D8%AC%D8%AF%E2%80%AD/data=!4m7!3m6!1s0x390cfd0c79fa6f11:0x326ac233054d2efa!8m2!3d28.6635017!4d77.2212005!16s%2Fg%2F12lkq2186!19sChIJEW_6eQz9DDkR-i5NBTPCajI?authuser=0&hl=en&rclk=1,"28.663501699999998,77.2212005"
SHAHI JAMA MASJID jm` msjd shhy,Mosque,"SHAHI JAMA MASJID jm` msjd shhy, 22, foot road, Shram Vihar, Pocket N, Madanpur Khadar, New Delhi, Delhi 110025","Shram Vihar, Pocket N, Madanpur Khadar","22, foot road",New Delhi,110025,Delhi,IN,https://www.google.com/maps/place/SHAHI+JAMA+MASJID+%D8%AC%D8%A7%D9%85%D8%B9+%D9%85%D8%B3%D8%AC%D8%AF+%D8%B4%D8%A7%DA%BE%DB%8C%E2%80%AD/data=!4m7!3m6!1s0x390ce5a36ba3a95d:0x7cb7c1435cda3fd2!8m2!3d28.5405938!4d77.3038368!16s%2Fg%2F11n733rllr!19sChIJXamja6PlDDkR0j_aXEPBt3w?authuser=0&hl=en&rclk=1,"28.5405938,77.3038368"
Masjid Ayesha,Mosque,"R25M+39H Masjid Ayesha, Mohalla Chipiyan, Purana Ganj, Rampur, Uttar Pradesh 244901","Mohalla Chipiyan, Purana Ganj",R25M+39H,Rampur,244901,Uttar Pradesh,IN,https://www.google.com/maps/place/Masjid+Ayesha/data=!4m7!3m6!1s0x390a8d327f492a4b:0xefa30e5b2a9e6e1d!8m2!3d28.8076972!4d79.0334793!16s%2Fg%2F11ghp0nj3n!19sChIJSypJfzKNCjkRHW6eKlsOo-8?authuser=0&hl=en&rclk=1,"28.8076972,79.0334793"
Madarsa Rashidiya Masjid,Mosque,"J6MR+85P Madarsa Rashidiya Masjid, Bahadur Shah Zafar Marg, Maulana Azad Medical College Campus, Balmiki Basti, Vikram Nagar, New Delhi, Delhi, 110002","Maulana Azad Medical College Campus, Balmiki Basti, Vikram Nagar","J6MR+85P, Bahadur Shah Zafar Marg","New Delhi, Delhi",110002,Delhi,IN,https://www.google.com/maps/place/Madarsa+Rashidiya+Masjid/data=!4m7!3m6!1s0x390cfdeb4ab5bc19:0x53a0d804e40e1e9e!8m2!3d28.6333351!4d77.2404638!16s%2Fg%2F11sq1jxmjs!19sChIJGby1Suv9DDkRnh4O5ATYoFM?authuser=0&hl=en&rclk=1,"28.6333351,77.2404638"
Chhoti Masjid (Ahle Hadees),Mosque,"Chhoti Masjid (Ahle Hadees), 1350, Ballimaran Rd, Baradari, Chandni Chowk, New Delhi, Delhi, 110006","Baradari, Chandni Chowk","1350, Ballimaran Rd","New Delhi, Delhi",110006,Delhi,IN,https://www.google.com/maps/place/Chhoti+Masjid+%28Ahle+Hadees%29/data=!4m7!3m6!1s0x390cfd1114163021:0xfe55fec1a30e884f!8m2!3d28.6544687!4d77.2250088!16s%2Fg%2F11g03hfjlc!19sChIJITAWFBH9DDkRT4gOo8H-Vf4?authuser=0&hl=en&rclk=1,"28.6544687,77.2250088"
Masjid Hussainiya,Mosque,"J6XM+GHP Masjid Hussainiya, Matia Mahal Rd, Kalan Mehal, Old Delhi, Delhi, 110006","Kalan Mehal, Old Delhi","J6XM+GHP, Matia Mahal Rd",Delhi,110006,Delhi,IN,https://www.google.com/maps/place/Masjid+Hussainiya/data=!4m7!3m6!1s0x390cfd18ba6b0bd5:0xced4d691b8d1a3fb!8m2!3d28.6488459!4d77.2339534!16s%2Fg%2F11gc9g4rkv!19sChIJ1Qtruhj9DDkR-6PRuJHW1M4?authuser=0&hl=en&rclk=1,"28.648845899999998,77.23395339999999"
Jamia Masjid (Jamia Mazhariya Khalila Madarsa),Mosque,"MC87+897 Jamia Masjid (Jamia Mazhariya Khalila Madarsa), Islam Nagar, Madhopura, Ghaziabad, Uttar Pradesh 201009","Islam Nagar, Madhopura",MC87+897,Ghaziabad,201009,Uttar Pradesh,IN,https://www.google.com/maps/place/Jamia+Masjid+%28Jamia+Mazhariya+Khalila+Madarsa%29/data=!4m7!3m6!1s0x390cf0480e4c2a2f:0x1822670e8968be52!8m2!3d28.6657875!4d77.4134147!16s%2Fg%2F11g9dl8h05!19sChIJLypMDkjwDDkRUr5oiQ5nIhg?authuser=0&hl=en&rclk=1,"28.6657875,77.41341469999999"
Baghwali Masjid msjd bG wly,Mosque,"Baghwali Masjid msjd bG wly, 785, Nicholson Rd, Kashmere Gate, New Delhi, Delhi 110006","Ganda Nala Bazar, Kashmere Gate","785, Nicholson Rd","New Delhi, Delhi",110006,Delhi,IN,https://www.google.com/maps/place/Baghwali+Masjid+%D9%85%D8%B3%D8%AC%D8%AF+%D8%A8%D8%A7%D8%BA+%D9%88%D8%A7%D9%84%DB%8C%E2%80%AD/data=!4m7!3m6!1s0x390cfd092767785b:0xd4966cf4d21cbda8!8m2!3d28.6653187!4d77.2261277!16s%2Fg%2F12llwbr4n!19sChIJW3hnJwn9DDkRqL0c0vRsltQ?authuser=0&hl=en&rclk=1,"28.6653187,77.22612769999999"
Masjid,Mosque,"RFW6+4GQ Masjid, Kumheda, Uttar Pradesh 201206",,RFW6+4GQ,Kumheda,201206,Uttar Pradesh,IN,https://www.google.com/maps/place/Masjid/data=!4m7!3m6!1s0x390c58b0e1125b4d:0xfd9e63316d494a36!8m2!3d28.8453408!4d77.4613748!16s%2Fg%2F11gclz8wp4!19sChIJTVsS4bBYDDkRNkpJbTFjnv0?authuser=0&hl=en&rclk=1,"28.8453408,77.4613748"
Fatemi Masjid,Mosque,"Fatemi Masjid, 3673, Main Bazar, Sabzi Mandi Rd, New Delhi, Delhi 110007","Arya Pura, Sabzi Mandi Old","3673, Main Bazar, Sabzi Mandi Rd","New Delhi, Delhi",110007,Delhi,IN,https://www.google.com/maps/place/Fatemi+Masjid/data=!4m7!3m6!1s0x390cfd77d6b49cc1:0xb29abba5fdd4f679!8m2!3d28.669022!4d77.2078086!16s%2Fg%2F12lksysp9!19sChIJwZy01nf9DDkRefbU_aW7mrI?authuser=0&hl=en&rclk=1,"28.669022,77.20780859999999"
jama masjid madarsa taleemul quran,Mosque,"jama masjid madarsa taleemul quran, C 10, Captain Gaur Marg, C Block, Kailash Hills, East of Kailash, New Delhi, Delhi 110065","C Block, Kailash Hills, East of Kailash","C 10, Captain Gaur Marg",New Delhi,110065,Delhi,IN,https://www.google.com/maps/place/jama+masjid+madarsa+taleemul+quran/data=!4m7!3m6!1s0x390ce3bedd0d5df7:0x3a3b95b54ca809a8!8m2!3d28.5619545!4d77.2590985!16s%2Fg%2F11g7zz4m0j!19sChIJ910N3b7jDDkRqAmoTLWVOzo?authuser=0&hl=en&rclk=1,"28.5619545,77.2590985"
Masjid,Mosque,"H77Q+868 Masjid, Okhla Village, Okhla, New Delhi, Delhi 110025","Okhla Village, Okhla",H77Q+868,New Delhi,110025,Delhi,IN,https://www.google.com/maps/place/Masjid/data=!4m7!3m6!1s0x390ce47512f7aa2b:0x544337a9b9e5d7a2!8m2!3d28.5632814!4d77.2880932!16s%2Fg%2F11gbtpj5td!19sChIJK6r3EnXkDDkRotfluak3Q1Q?authuser=0&hl=en&rclk=1,"28.563281399999997,77.28809319999999"
Masjid Neelgaraan,Mosque,"XGGV+9MV Masjid Neelgaraan, Rani Bazar, Halwai Hatta, Subhash Nagar, Saharanpur, Uttar Pradesh 247001","Halwai Hatta, Subhash Nagar","XGGV+9MV, Rani Bazar",Saharanpur,247001,Uttar Pradesh,IN,https://www.google.com/maps/place/Masjid+Neelgaraan/data=!4m7!3m6!1s0x390eea8bc6a474fb:0x275fe4a199acd7a6!8m2!3d29.9759829!4d77.5441832!16s%2Fg%2F11d_7j32gg!19sChIJ-3SkxovqDjkRptesmaHkXyc?authuser=0&hl=en&rclk=1,"29.975982899999998,77.54418319999999"
Haji Rojdaar Wali Masjid,Mosque,"Haji Rojdaar Wali Masjid, 110074, Kharak, Sat Bari, New Delhi, Delhi 110074","Kharak, Sat Bari",110074,New Delhi,110074,Delhi,IN,https://www.google.com/maps/place/Haji+Rojdaar+Wali+Masjid/data=!4m7!3m6!1s0x390ce024a51f068f:0x1d8c2d91ee022fdd!8m2!3d28.4679055!4d77.2051939!16s%2Fg%2F11c5_hph3y!19sChIJjwYfpSTgDDkR3S8C7pEtjB0?authuser=0&hl=en&rclk=1,"28.467905499999997,77.2051939"
Masjid,Mosque,"Q6MJ+5H5 Masjid, Badarpur, Madanpur Khadar, New Delhi, 110084",Madanpur Khadar,"Q6MJ+5H5, Badarpur","New Delhi, Delhi",110084,Delhi,IN,https://www.google.com/maps/place/Masjid/data=!4m7!3m6!1s0x390cffb780460377:0x9fe224e9c653e965!8m2!3d28.7828891!4d77.2314704!16s%2Fg%2F11qn790lvq!19sChIJdwNGgLf_DDkRZelTxukk4p8?authuser=0&hl=en&rclk=1,"28.7828891,77.23147039999999"
Jama Madjid,Mosque,"Jama Madjid, khuwaja park Illaichipur, Trans Delhi Signature City, Ghaziabad, Uttar Pradesh 201102",Trans Delhi Signature City,khuwaja park Illaichipur,Ghaziabad,201102,Uttar Pradesh,IN,https://www.google.com/maps/place/Jama+Madjid/data=!4m7!3m6!1s0x390cffd519959253:0x75d57b5584aaf66f!8m2!3d28.764901!4d77.256208!16s%2Fg%2F11g2_3w7fd!19sChIJU5KVGdX_DDkRb_aqhFV71XU?authuser=0&hl=en&rclk=1,"28.764901,77.256208"
Masjid,Mosque,"Q7JJ+7WC Masjid, Pavi Sadakpur, Uttar Pradesh 201102",,Q7JJ+7WC,Pavi Sadakpur,201102,Uttar Pradesh,IN,https://www.google.com/maps/place/Masjid/data=!4m7!3m6!1s0x390cff3247b3c4d7:0xf1b7407f946dd8cc!8m2!3d28.7806806!4d77.2822504!16s%2Fg%2F11ggz8tfhy!19sChIJ18SzRzL_DDkRzNhtlH9At_E?authuser=0&hl=en&rclk=1,"28.7806806,77.2822504"
Hajra Masjid,Mosque,"M7MC+542 Hajra Masjid, Street Number 10, New Seelampur, Chauhan Banger, Shahdara, Delhi, 110031","New Seelampur, Chauhan Banger, Shahdara","M7MC+542, Street Number 10",Delhi,110031,Delhi,IN,https://www.google.com/maps/place/Hajra+Masjid/data=!4m7!3m6!1s0x390cfdcdb2279f75:0x7d20aba66d6d5ac9!8m2!3d28.6828822!4d77.2702585!16s%2Fg%2F11n8p4lf1b!19sChIJdZ8nss39DDkRyVptbaarIH0?authuser=0&hl=en&rclk=1,"28.682882199999998,77.2702585"
Masjid Hamam Wali,Mosque,"Masjid Hamam Wali, 6470, Katra Bariyan, Fatehpuri, Chandni Chowk, New Delhi, Delhi, 110006","Fatehpuri, Chandni Chowk","6470, Katra Bariyan","New Delhi, Delhi",110006,Delhi,IN,https://www.google.com/maps/place/Masjid+Hamam+Wali/data=!4m7!3m6!1s0x390cfd12316f31ef:0x174a76ac455f8b5!8m2!3d28.655784!4d77.222307!16s%2Fg%2F12hqwxj4v!19sChIJ7zFvMRL9DDkRtfhVxGqndAE?authuser=0&hl=en&rclk=1,"28.655783999999997,77.222307"
Jama Masjid,Mosque,"FRWJ+VRQ Jama Masjid, Atmadsarai, Uttar Pradesh 203408",,FRWJ+VRQ,Atmadsarai,,Uttar Pradesh,IN,https://www.google.com/maps/place/Jama+Masjid/data=!4m7!3m6!1s0x390c99adabd12df7:0x36eb4693029df4e4!8m2!3d28.4972237!4d77.8320953!16s%2Fg%2F11pwyrhdn1!19sChIJ9y3Rq62ZDDkR5PSdApNG6zY?authuser=0&hl=en&rclk=1,"28.4972237,77.83209529999999"
Jannatul firdau masjid (Deswaliyan mosque)),Mosque,"Jannatul firdau masjid (Deswaliyan mosque)), Mahalka, Uttar Pradesh 250222",,,Mahalka,250222,Uttar Pradesh,IN,https://www.google.com/maps/place/Jannatul+firdau+masjid+%28Deswaliyan+mosque%29%29/data=!4m7!3m6!1s0x390c735cb53dcc75:0x7becf41f16b561db!8m2!3d29.1527887!4d77.7803222!16s%2Fg%2F11f6384c1f!19sChIJdcw9tVxzDDkR22G1Fh_07Hs?authuser=0&hl=en&rclk=1,"29.1527887,77.7803222"
Jama masjid jaamaa msjid,Mosque,"Q482+XV3 Jama masjid jaamaa msjid, Uttar Pradesh 245205",,Q482+XV3,,245205,Uttar Pradesh,IN,https://www.google.com/maps/place/Jama+masjid+%E0%A4%9C%E0%A4%BE%E0%A4%AE%E0%A4%BE+%E0%A4%AE%E0%A4%B8%E0%A5%8D%E0%A4%9C%E0%A4%BF%E0%A4%A6/data=!4m7!3m6!1s0x390b7b094fbe2523:0x93fcc9b0617d84dc!8m2!3d28.7673839!4d78.1021844!16s%2Fg%2F11qnrrrssc!19sChIJIyW-Twl7CzkR3IR9YbDJ_JM?authuser=0&hl=en&rclk=1,"28.7673839,78.1021844"
HAJI Wali Masjid Hathiya,Mosque,"H9X9+HC2 HAJI Wali Masjid Hathiya, Hathiya, Uttar Pradesh 281405",,H9X9+HC2,Hathiya,,Uttar Pradesh,IN,https://www.google.com/maps/place/HAJI+Wali+Masjid+Hathiya/data=!4m7!3m6!1s0x39731b3a10ccbb6d:0x685dbffdefbcb73!8m2!3d27.5988906!4d77.3685011!16s%2Fg%2F11r_gpbg51!19sChIJbbvMEDobczkRc8v73v_bhQY?authuser=0&hl=en&rclk=1,"27.598890599999997,77.3685011"
Masjid Chah hathi,Mosque,"M63M+FM7 Masjid Chah hathi, Kucha Bulaki Begam, Chandni Chowk, New Delhi, Delhi, 110006","Kucha Bulaki Begam, Chandni Chowk",M63M+FM7,"New Delhi, Delhi",110006,Delhi,IN,https://www.google.com/maps/place/Masjid+Chah+hathi/data=!4m7!3m6!1s0x390cfd21be28681f:0x89414e118639a027!8m2!3d28.6536676!4d77.2341741!16s%2Fg%2F11g5ssbglz!19sChIJH2goviH9DDkRJ6A5hhFOQYk?authuser=0&hl=en&rclk=1,"28.6536676,77.23417409999999"
Masjid haji mohd jaan patna wali,Mosque,"M654+JX6 Masjid haji mohd jaan patna wali, Ahata Kidara, Sadar Bazaar, New Delhi, Delhi, 110006","Ahata Kidara, Sadar Bazaar",M654+JX6,"New Delhi, Delhi",110006,Delhi,IN,https://www.google.com/maps/place/Masjid+haji+mohd+jaan+patna+wali/data=!4m7!3m6!1s0x390cfd66d89606d1:0x493ed1c5176e034!8m2!3d28.6590458!4d77.2073922!16s%2Fg%2F11tcczv521!19sChIJ0QaW2Gb9DDkRNOB2URztkwQ?authuser=0&hl=en&rclk=1,"28.659045799999998,77.2073922"
Masjid,Mosque,"P9HF+33Q Masjid, Farukh Nagar, Uttar Pradesh 201003",,P9HF+33Q,Farukh Nagar,201003,Uttar Pradesh,IN,https://www.google.com/maps/place/Masjid/data=!4m7!3m6!1s0x390cfa018875b495:0xeea7b0caec7e470d!8m2!3d28.7277145!4d77.3727433!16s%2Fg%2F11f0krqvls!19sChIJlbR1iAH6DDkRDUd-7Mqwp-4?authuser=0&hl=en&rclk=1,"28.727714499999998,77.3727433"
Masjid machi hatta,Mosque,"9MXG+785 Masjid machi hatta, Machli Bazaar, Old City Bahawalpur, Bahawalpur, Punjab 63100, Pakistan",Old City Bahawalpur,"9MXG+785, Machli Bazaar",Bahawalpur,63100,"Bahawalpur, Punjab",PK,https://www.google.com/maps/place/Masjid+machi+hatta/data=!4m7!3m6!1s0x393b91c19c8ae08b:0x9fbbc707864a4e46!8m2!3d29.3981378!4d71.6758612!16s%2Fg%2F11h11l1y5_!19sChIJi-CKnMGROzkRRk5KhgfHu58?authuser=0&hl=en&rclk=1,"29.398137799999997,71.6758612"
Masjid Ahle Hadees,Mosque,"M674+QGW Masjid Ahle Hadees, Ram Bagh Rd, Beri Wala Bagh, Kishan Ganj, New Delhi, Delhi, 110055","Beri Wala Bagh, Kishan Ganj","M674+QGW, Ram Bagh Rd","New Delhi, Delhi",110055,Delhi,IN,https://www.google.com/maps/place/Masjid+Ahle+Hadees/data=!4m7!3m6!1s0x390cfd5d9d69bcbd:0x254f88ba779b1bd5!8m2!3d28.6644863!4d77.2063243!16s%2Fg%2F11j5yz06sv!19sChIJvbxpnV39DDkR1Rubd7qITyU?authuser=0&hl=en&rclk=1,"28.6644863,77.20632429999999"
Hadvi Masjid,Mosque,"WF47+9R5 Hadvi Masjid, Qureshi Mohalla, Mohalla Mullana, Amroha, Uttar Pradesh 244221","Qureshi Mohalla, Mohalla Mullana",WF47+9R5,Amroha,,Uttar Pradesh,IN,https://www.google.com/maps/place/Hadvi+Masjid/data=!4m7!3m6!1s0x390b080e3291b603:0xb518337f135e8f4d!8m2!3d28.9058815!4d78.4646092!16s%2Fg%2F11hbk5_35b!19sChIJA7aRMg4ICzkRTY9eE38zGLU?authuser=0&hl=en&rclk=1,"28.9058815,78.4646092"
Masjid Shatoot Wali,Mosque,"M67H+G5Q Masjid Shatoot Wali, Chhota Bazar, Mori Gate, New Delhi, Delhi, 110006","Chhota Bazar, Mori Gate",M67H+G5Q,"New Delhi, Delhi",110006,Delhi,IN,https://www.google.com/maps/place/Masjid+Shatoot+Wali/data=!4m7!3m6!1s0x390cfdd8114d08fd:0x326042596014276a!8m2!3d28.663827!4d77.2279973!16s%2Fg%2F11g4h_zjtj!19sChIJ_QhNEdj9DDkRaicUYFlCYDI?authuser=0&hl=en&rclk=1,"28.663826999999998,77.2279973"
Masjid Jahangeer (Chhoti Masjid),Mosque,"Masjid Jahangeer (Chhoti Masjid), 1020, Zorawar Singh Marg, Kashmere Gate, Delhi, 110006",Kashmere Gate,"1020, Zorawar Singh Marg",Delhi,110006,Delhi,IN,https://www.google.com/maps/place/Masjid+Jahangeer+%28Chhoti+Masjid%29/data=!4m7!3m6!1s0x390cfd065864abcb:0xc1a880ddc465573a!8m2!3d28.6626788!4d77.230199!16s%2Fg%2F11r_x6yt16!19sChIJy6tkWAb9DDkROldlxN2AqME?authuser=0&hl=en&rclk=1,"28.6626788,77.230199"
Masjid,Mosque,"Masjid, Gali No 19, Gali Number 1, Mustafabad Extn, New Mustafabad, Delhi, 110094","E2 Block, Mustafabad Extn, New Mustafabad","Gali No 19, Gali Number 1",Delhi,110094,Delhi,IN,https://www.google.com/maps/place/Masjid/data=!4m7!3m6!1s0x390cfc1b020b0e91:0xb48a3c3233e41cbd!8m2!3d28.711773!4d77.272563!16s%2Fg%2F12hpqnhjr!19sChIJkQ4LAhv8DDkRvRzkMzI8irQ?authuser=0&hl=en&rclk=1,"28.711772999999997,77.27256299999999"
Jamia FET Mosque,Mosque,"H75J+X2M Jamia FET Mosque, Jamia Millia Islamia, Jamia Nagar, Okhla, New Delhi, Delhi 110025","Jamia Millia Islamia, Jamia Nagar, Okhla",H75J+X2M,New Delhi,110025,Delhi,IN,https://www.google.com/maps/place/Jamia+FET+Mosque/data=!4m7!3m6!1s0x390ce3cda6b1a96b:0xe22005424b44a886!8m2!3d28.5599625!4d77.2800469!16s%2Fg%2F11v0mq7zhg!19sChIJa6mxps3jDDkRhqhES0IFIOI?authuser=0&hl=en&rclk=1,"28.559962499999997,77.2800469"
Chhoti Masjid Hatta,Mosque,"4HHX+XH8 Chhoti Masjid Hatta, Khachna Naka, Hatta, Madhya Pradesh 470775",Khachna Naka,4HHX+XH8,Hatta,,Madhya Pradesh,IN,https://www.google.com/maps/place/Chhoti+Masjid+Hatta/data=!4m7!3m6!1s0x398213ef75357439:0xd1863045e4bf5651!8m2!3d24.129906!4d79.5989426!16s%2Fg%2F11gsz17726!19sChIJOXQ1de8TgjkRUVa_5EUwhtE?authuser=0&hl=en&rclk=1,"24.129906,79.5989426"
Imam Bargah Samaniyan,Mosque,"XGGV+6H7 Imam Bargah Samaniyan, Halwai Hatta, Subhash Nagar, Saharanpur, Uttar Pradesh 247001","Halwai Hatta, Subhash Nagar","XGGV+6H7, Halwai Hatta",Saharanpur,247001,Uttar Pradesh,IN,https://www.google.com/maps/place/Imam+Bargah+Samaniyan/data=!4m7!3m6!1s0x390eeb9920ce9935:0xe7d99dcd6f0ca320!8m2!3d29.9755435!4d77.5439178!16s%2Fg%2F11fc9p7r34!19sChIJNZnOIJnrDjkRIKMMb82d2ec?authuser=0&hl=en&rclk=1,"29.975543499999997,77.5439178"
Zama Masjid Batnor,Mosque,"5QCW+5RC Zama Masjid Batnor, Batnor, Uttar Pradesh 250222",,5QCW+5RC,Batnor,250222,Uttar Pradesh,IN,https://www.google.com/maps/place/Zama+Masjid+Batnor/data=!4m7!3m6!1s0x390c73628434a437:0x353420d4abe27bde!8m2!3d29.170427!4d77.797118!16s%2Fg%2F11qh1bw_c3!19sChIJN6Q0hGJzDDkR3nviq9QgNDU?authuser=0&hl=en&rclk=1,"29.170427,77.797118"
Neelgran masjid,Mosque,"Neelgran masjid, Near, Halwai Hatta, Subhash Nagar, Saharanpur, Uttar Pradesh 247001","Halwai Hatta, Subhash Nagar","Near, Halwai Hatta",Saharanpur,247001,Uttar Pradesh,IN,https://www.google.com/maps/place/Neelgran+masjid/data=!4m7!3m6!1s0x390eeb95b73f03b3:0xea0c67ebecaad2a6!8m2!3d29.9758014!4d77.5452236!16s%2Fg%2F11h7sqfn58!19sChIJswM_t5XrDjkRptKq7OtnDOo?authuser=0&hl=en&rclk=1,"29.975801399999998,77.5452236"
Jama Masjid Hathiya,Mosque,"H9XF+CJX Jama Masjid Hathiya, Hathiya, Uttar Pradesh 281405",,H9XF+CJX,Hathiya,,Uttar Pradesh,IN,https://www.google.com/maps/place/Jama+Masjid+Hathiya/data=!4m7!3m6!1s0x39731b5c91485d87:0xb23fb8de794bebad!8m2!3d27.5986063!4d77.3741015!16s%2Fg%2F11q4jtgttf!19sChIJh11IkVwbczkRretLed64P7I?authuser=0&hl=en&rclk=1,"27.5986063,77.3741015"
Masjid Kakkar Ganu,Mosque,"XGFW+6J3 Masjid Kakkar Ganu, Kakkar Ganj, Halwai Hatta, Subhash Nagar, Saharanpur, Uttar Pradesh 247001","Kakkar Ganj, Halwai Hatta, Subhash Nagar",XGFW+6J3,Saharanpur,247001,Uttar Pradesh,IN,https://www.google.com/maps/place/Masjid+Kakkar+Ganu/data=!4m7!3m6!1s0x390eeb6292b6a41d:0xd1fde5f1026ce986!8m2!3d29.9730223!4d77.5465518!16s%2Fg%2F11fpnp4lz7!19sChIJHaS2kmLrDjkRhulsAvHl_dE?authuser=0&hl=en&rclk=1,"29.9730223,77.5465518"
Madina masjid,Mosque,"8WMR+94J Madina masjid, Hatta, Maharashtra 431705",,8WMR+94J,Hatta,431705,Maharashtra,IN,https://www.google.com/maps/place/Madina+masjid/data=!4m7!3m6!1s0x3bd03b19b3b99e99:0x637403e999e6ed30!8m2!3d19.333457!4d76.9402592!16s%2Fg%2F11s6435wxd!19sChIJmZ65sxk70DsRMO3mmekDdGM?authuser=0&hl=en&rclk=1,"19.333457,76.9402592"
Sri Hatta Masjid (Imam Sahab Room),Mosque,"Q4H3+79 Sri Hatta Masjid (Imam Sahab Room), Krishnapur, West Bengal 712404",,Q4H3+79,Krishnapur,,West Bengal,IN,https://www.google.com/maps/place/Sri+Hatta+Masjid+%28Imam+Sahab+Room%29/data=!4m7!3m6!1s0x39f87da79d076e13:0xa49b395bcc9dab94!8m2!3d22.7780769!4d88.1033861!16s%2Fg%2F11t9fd1lpy!19sChIJE24Hnad9-DkRlKudzFs5m6Q?authuser=0&hl=en&rclk=1,"22.7780769,88.1033861"
Shahi Masjid Hatta Wali,School,"8H9V+HWC Shahi Masjid Hatta Wali, Faizabad, Uttar Pradesh 247121",,8H9V+HWC,Faizabad,247121,Uttar Pradesh,IN,https://www.google.com/maps/place/Shahi+Masjid+Hatta+Wali/data=!4m7!3m6!1s0x390f21069fca7371:0x5e728c9e4919b2a7!8m2!3d30.3189254!4d77.5947719!16s%2Fg%2F11fm181dg_!19sChIJcXPKnwYhDzkRp7IZSZ6Mcl4?authuser=0&hl=en&rclk=1,"30.318925399999998,77.5947719"
Masjid,Mosque,"Shop No: 5035, Masjid, Netaji Subhash Marg, Daryaganj, New Delhi, Delhi, 110002",Daryaganj,"Shop No: 5035, Netaji Subhash Marg","New Delhi, Delhi",110002,Delhi,IN,https://www.google.com/maps/place/Masjid/data=!4m7!3m6!1s0x390cfdf175041b95:0x8ef57a2bc9f92c1c!8m2!3d28.6480954!4d77.2403964!16s%2Fg%2F11s664lvxh!19sChIJlRsEdfH9DDkRHCz5ySt69Y4?authuser=0&hl=en&rclk=1,"28.6480954,77.2403964"
Hafiz rahmatullah masjid,Mosque,"Hafiz rahmatullah masjid, 1781, Nai Sarak, Roshanpura, Old Delhi, New Delhi, Delhi, 110006","Roshanpura, Old Delhi","1781, Nai Sarak","New Delhi, Delhi",110006,Delhi,IN,https://www.google.com/maps/place/Hafiz+rahmatullah+masjid/data=!4m7!3m6!1s0x390cfd2879db6361:0x20597358d5a16508!8m2!3d28.651846!4d77.2294396!16s%2Fg%2F11s_xrwcf6!19sChIJYWPbeSj9DDkRCGWh1VhzWSA?authuser=0&hl=en&rclk=1,"28.651846,77.22943959999999"
Masjid,Mosque,"J2WM+MXF Masjid, Sunni Masjid Rd, Deep Enclave, Hastsal, Delhi, 110059","Deep Enclave, Hastsal","J2WM+MXF, Sunni Masjid Rd",Delhi,110059,Delhi,IN,https://www.google.com/maps/place/Masjid/data=!4m7!3m6!1s0x390d05267bb46283:0xaef6f06f366d7113!8m2!3d28.6466834!4d77.0349292!16s%2Fg%2F11vl8tpxw1!19sChIJg2K0eyYFDTkRE3FtNm_w9q4?authuser=0&hl=en&rclk=1,"28.646683399999997,77.0349292"
JAMA MASJID jm` msjd,Mosque,"JAMA MASJID jm` msjd, JAMIA TUL ABRAR, AL ISLAMIA, Madanpur Khadar Phase 3, Madanpur Khadar, New Delhi, Delhi 110076","Madanpur Khadar Phase 3, Madanpur Khadar","JAMIA TUL ABRAR, AL ISLAMIA",New Delhi,110076,Delhi,IN,https://www.google.com/maps/place/JAMA+MASJID+%D8%AC%D8%A7%D9%85%D8%B9+%D9%85%D8%B3%D8%AC%D8%AF%E2%80%AD/data=!4m7!3m6!1s0x390ce7a4c5ffc659:0x83d8ecc557f86b97!8m2!3d28.5270399!4d77.3257331!16s%2Fg%2F11krrd17t2!19sChIJWcb_xaTnDDkRl2v4V8Xs2IM?authuser=0&hl=en&rclk=1,"28.5270399,77.3257331"
Haji Hurmat wali masjid,Mosque,"W2G3+HVF Haji Hurmat wali masjid, Asaisika, Haryana 122108",,W2G3+HVF,Asaisika,122108,Haryana,IN,https://www.google.com/maps/place/Haji+Hurmat+wali+masjid/data=!4m7!3m6!1s0x3972cfdaec1528b3:0x5e30dfb74c61fbfd!8m2!3d27.9264299!4d77.0046755!16s%2Fg%2F11rkbk7fwl!19sChIJsygV7NrPcjkR_fthTLffMF4?authuser=0&hl=en&rclk=1,"27.9264299,77.00467549999999"
Nalwa house  Hatta (Sourav Nalwa),Housing society,"Nalwa house  Hatta (Sourav Nalwa), Assa, Uttar Pradesh 250401",,,Assa,250401,Uttar Pradesh,IN,https://www.google.com/maps/place/Nalwa+house+%EF%B8%8F+Hatta+%28Sourav+Nalwa%29/data=!4m7!3m6!1s0x390c75ae42bc9653:0x5568255c4db5ddfb!8m2!3d29.1817187!4d77.91659!16s%2Fg%2F11rzfljlt5!19sChIJU5a8Qq51DDkR-921TVwlaFU?authuser=0&hl=en&rclk=1,"29.181718699999998,77.91659"
Afsaan Masjid Hatho,Mosque,"J5FG+4V3 Afsaan Masjid Hatho, near by gove. high school, Hatho, Haryana 126116",,"J5FG+4V3, near by gove. high school",Hatho,,Haryana,IN,https://www.google.com/maps/place/Afsaan+Masjid+Hatho/data=!4m7!3m6!1s0x3911edac26157fbf:0xfc9344a4a3c4a5fc!8m2!3d29.6227551!4d76.1771691!16s%2Fg%2F11rccsm2n2!19sChIJv38VJqztETkR_KXEo6REk_w?authuser=0&hl=en&rclk=1,"29.6227551,76.1771691"
Shia Imambargah,Religious destination,"Shia Imambargah, machhi hatta, 39/4, 39/4, Samana, Punjab 147101",,"machhi hatta, 39/4, 39/4",Samana,147101,Punjab,IN,https://www.google.com/maps/place/Shia+Imambargah/data=!4m7!3m6!1s0x3911cd1367e01501:0x8d4fb4fc658335bf!8m2!3d30.1588256!4d76.1936996!16s%2Fg%2F11jz_kyg8j!19sChIJARXgZxPNETkRvzWDZfy0T40?authuser=0&hl=en&rclk=1,"30.1588256,76.1936996"
Madrase wali masjid,Mosque,"8C3V+VG6 Madrase wali masjid, Mandwara, Uttar Pradesh 251309",,8C3V+VG6,Mandwara,251309,Uttar Pradesh,IN,https://www.google.com/maps/place/Madrase+wali+masjid/data=!4m7!3m6!1s0x390c3b12d298b5a9:0x5622cd5064725df8!8m2!3d29.3040103!4d77.4432603!16s%2Fg%2F11s7xnx0h6!19sChIJqbWY0hI7DDkR-F1yZFDNIlY?authuser=0&hl=en&rclk=1,"29.304010299999998,77.44326029999999"
Mhjit,Mosque,"7923+CQ3 Mhjit, Unnamed Road, Biral, Uttar Pradesh 247771",,"7923+CQ3, Unnamed Road",Biral,247771,Uttar Pradesh,IN,https://www.google.com/maps/place/Mhjit/data=!4m7!3m6!1s0x390c37ad5bbedea5:0x6590f343f7c648f2!8m2!3d29.2510172!4d77.3544176!16s%2Fg%2F11nmgzxzw1!19sChIJpd6-W603DDkR8kjG90PzkGU?authuser=0&hl=en&rclk=1,"29.2510172,77.35441759999999"
Jamiya Mewat Masjid,Mosque,"G9CW+6QW Jamiya Mewat Masjid, Devseras, Uttar Pradesh 281502",,G9CW+6QW,Devseras,,Uttar Pradesh,IN,https://www.google.com/maps/place/Jamiya+Mewat+Masjid/data=!4m7!3m6!1s0x39730f1895b221ed:0xe9474c4ea091d886!8m2!3d27.520617!4d77.3969483!16s%2Fg%2F11tx4r7x8y!19sChIJ7SGylRgPczkRhtiRoE5MR-k?authuser=0&hl=en&rclk=1,"27.520616999999998,77.39694829999999"
Masjid,Mosque,"8WJR+C27 Masjid, Hatta, Maharashtra 431705",,8WJR+C27,Hatta,431705,Maharashtra,IN,https://www.google.com/maps/place/Masjid/data=!4m7!3m6!1s0x3bd03b9a993ab1f7:0xbde4e0e57fce27d9!8m2!3d19.3309768!4d76.9397969!16s%2Fg%2F11sgqk8rwm!19sChIJ97E6mZo70DsR2SfOf-Xg5L0?authuser=0&hl=en&rclk=1,"19.3309768,76.93979689999999"
