name,main_category,address,address_ward,address_street,address_city,address_postal_code,address_state,address_country_code,link,coordinates
MOMINPURA MASJID DARYAPUR,Mosque,"MOMINPURA MASJID DARYAPUR, Mominpura, Daryapur, Maharashtra 444803",Mominpura,,Daryapur,444803,Maharashtra,IN,https://www.google.com/maps/place/MOMINPURA+MASJID+DARYAPUR/data=!4m7!3m6!1s0x3bd6dd27d64bbf11:0xd44b3346e85c0c8c!8m2!3d20.9274809!4d77.3330944!16s%2Fg%2F11fmdwns60!19sChIJEb9L1ifd1jsRjAxc6EYzS9Q?authuser=0&hl=en&rclk=1,"20.9274809,77.3330944"
Daryapur Masjid - drypwr msjd,Mosque,"J584+VQF Daryapur Masjid - drypwr msjd, Dariyapur Gola Rd, Sabzibagh, Machhua Toli, Patna, Bihar 800004","Sabzibagh, Machhua Toli","J584+VQF, Dariyapur Gola Rd",Patna,800004,Bihar,IN,https://www.google.com/maps/place/Daryapur+Masjid+-+%D8%AF%D8%B1%DB%8C%D8%A7%D9%BE%D9%88%D8%B1+%D9%85%D8%B3%D8%AC%D8%AF%E2%80%AD/data=!4m7!3m6!1s0x39ed58f06c82ad57:0xab0154c59c6051f3!8m2!3d25.6171791!4d85.1569129!16s%2Fg%2F1tfc5098!19sChIJV62CbPBY7TkR81FgnMVUAas?authuser=0&hl=en&rclk=1,"25.617179099999998,85.1569129"
Jama Masjid Dariyapur.,Mosque,"CRF2+49H Jama Masjid Dariyapur., Dariyapur, Uttar Pradesh 203001",,CRF2+49H,Dariyapur,203001,Uttar Pradesh,IN,https://www.google.com/maps/place/Jama+Masjid+Dariyapur./data=!4m7!3m6!1s0x390ca39838635959:0x8f7ea45f62c570e9!8m2!3d28.4228149!4d77.8009956!16s%2Fg%2F11c60mhwqw!19sChIJWVljOJijDDkR6XDFYl-kfo8?authuser=0&hl=en&rclk=1,"28.4228149,77.8009956"
Markaz Masjid Daryapur,Mosque,"W8HJ+FJC Markaz Masjid Daryapur, Markaz masjid daryapur, Daryapur Banosa",Vidyadeep Colony,"W8HJ+FJC, Markaz masjid daryapur","Daryapur Banosa, Daryapur",,Maharashtra,IN,https://www.google.com/maps/place/Markaz+Masjid+Daryapur/data=!4m7!3m6!1s0x3bd6dc5fe4f50e4f:0x438805c3b09c0fdc!8m2!3d20.9286773!4d77.3315303!16s%2Fg%2F11cjkmrpdg!19sChIJTw715F_c1jsR3A-csMMFiEM?authuser=0&hl=en&rclk=1,"20.9286773,77.3315303"
Bada Pura Masjid Salim Daryapuri,Mosque,"W8H6+MRG Bada Pura Masjid Salim Daryapuri, Babhali, Daryapur, Maharashtra 444803",Babhali,W8H6+MRG,Daryapur,444803,Maharashtra,IN,https://www.google.com/maps/place/Bada+Pura+Masjid+Salim+Daryapuri/data=!4m7!3m6!1s0x3bd6dc40522d788d:0x97a74e349efdc8f9!8m2!3d20.9291836!4d77.3120741!16s%2Fg%2F11hbpr1s8m!19sChIJjXgtUkDc1jsR-cj9njROp5c?authuser=0&hl=en&rclk=1,"20.929183599999998,77.31207409999999"
Sofi Plot Masjid,Mosque,"Sofi Plot Masjid, Civil Line, Daryapur, Maharashtra 444803",Civil Line,,Daryapur,444803,Maharashtra,IN,https://www.google.com/maps/place/Sofi+Plot+Masjid/data=!4m7!3m6!1s0x3bd6dc606960d73d:0x9a1eb90c04c784cd!8m2!3d20.9270536!4d77.330689!16s%2Fg%2F11g68z93vr!19sChIJPddgaWDc1jsRzYTHBAy5Hpo?authuser=0&hl=en&rclk=1,"20.9270536,77.33068899999999"
Jama Masjid Babbhli,Mosque,"W8G7+JCG Jama Masjid Babbhli, Babhali, Daryapur, Maharashtra 444803",Babhali,W8G7+JCG,Daryapur,444803,Maharashtra,IN,https://www.google.com/maps/place/Jama+Masjid+Babbhli/data=!4m7!3m6!1s0x3bd6dc6a7380a4e3:0x90113dc0b400ae80!8m2!3d20.9265746!4d77.3135669!16s%2Fg%2F11f3wky1lb!19sChIJ46SAc2rc1jsRgK4AtMA9EZA?authuser=0&hl=en&rclk=1,"20.9265746,77.3135669"
`yd gh drypwr Eid Gah Daryapur,Mosque,"W8MJ+P9M `yd gh drypwr Eid Gah Daryapur, S B Singh Rd, Bhim Nagar, Daryapur Banosa, Lodhipur, Maharashtra 444803",Bhim Nagar,"W8MJ+P9M, S B Singh Rd","Daryapur Banosa, Lodhipur",444803,Maharashtra,IN,https://www.google.com/maps/place/%D8%B9%DB%8C%D8%AF+%DA%AF%D8%A7%DB%81+%D8%AF%D8%B1%DB%8C%D8%A7%D9%BE%D9%88%D8%B1+Eid+Gah+Daryapur%E2%80%AD/data=!4m7!3m6!1s0x3bd6dd2209917633:0x1f25fad7f6d0db44!8m2!3d20.9343394!4d77.33093!16s%2Fg%2F11nn3_2k3x!19sChIJM3aRCSLd1jsRRNvQ9tf6JR8?authuser=0&hl=en&rclk=1,"20.9343394,77.33093"
Pathanpura Masjid,Mosque,"W8HJ+G29 Pathanpura Masjid, Pathanpura, Civil Line, Daryapur, Maharashtra 444803","Pathanpura, Civil Line",W8HJ+G29,Daryapur,444803,Maharashtra,IN,https://www.google.com/maps/place/Pathanpura+Masjid/data=!4m7!3m6!1s0x3bd6dd01184cc03f:0x51f23f7288a75f6a!8m2!3d20.9287825!4d77.3301073!16s%2Fg%2F11f6dj38dl!19sChIJP8BMGAHd1jsRal-niHI_8lE?authuser=0&hl=en&rclk=1,"20.9287825,77.3301073"
Saudagar Pura Masjid,Museum,"W8HM+FR8 Saudagar Pura Masjid, Bhim Nagar, Daryapur, Maharashtra 444803",Bhim Nagar,W8HM+FR8,Daryapur,444803,Maharashtra,IN,https://www.google.com/maps/place/Saudagar+Pura+Masjid/data=!4m7!3m6!1s0x3bd6dde663a09c2d:0x999c7eb126bb6e35!8m2!3d20.9286502!4d77.334585!16s%2Fg%2F11ff42tddt!19sChIJLZygY-bd1jsRNW67JrF-nJk?authuser=0&hl=en&rclk=1,"20.9286502,77.33458499999999"
Masjid E Huda,Mosque,"Masjid E Huda, Huda Colony, Civil Line, Daryapur, Maharashtra 444803","Huda Colony, Civil Line",,Daryapur,444803,Maharashtra,IN,https://www.google.com/maps/place/Masjid+E+Huda/data=!4m7!3m6!1s0x3bd6dc6069592e95:0x33828fc963aa85fd!8m2!3d20.9270542!4d77.3306347!16s%2Fg%2F11g6q6bvr5!19sChIJlS5ZaWDc1jsR_YWqY8mPgjM?authuser=0&hl=en&rclk=1,"20.9270542,77.33063469999999"
Fatima Mosque T.Point (Masjid),Mosque,"W8H5+FR3 Fatima Mosque T.Point (Masjid), Babhali, Daryapur, Maharashtra 444803",Babhali,W8H5+FR3,Daryapur,444803,Maharashtra,IN,https://www.google.com/maps/place/Fatima+Mosque+T.Point+%28Masjid%29/data=!4m7!3m6!1s0x3bd6dd7ab3db1051:0xcc5f25833bf2008e!8m2!3d20.9286388!4d77.3095564!16s%2Fg%2F11gmyv0b5x!19sChIJURDbs3rd1jsRjgDyO4MlX8w?authuser=0&hl=en&rclk=1,"20.928638799999998,77.30955639999999"
Masjid E Fatema,Mosque,"Masjid E Fatema, Kachipura, Banosa, Daryapur Banosa, Daryapur, Maharashtra 444803","Kachipura, Banosa",,"Daryapur Banosa, Daryapur",444803,Maharashtra,IN,https://www.google.com/maps/place/Masjid+E+Fatema/data=!4m7!3m6!1s0x3bd6dd7af682f591:0x822ed335680c5a5e!8m2!3d20.9269481!4d77.3188033!16s%2Fg%2F11fj609mb4!19sChIJkfWC9nrd1jsRXloMaDXTLoI?authuser=0&hl=en&rclk=1,"20.9269481,77.3188033"
Tata Nagar masjid,Mosque,"W8J6+CM9 Tata Nagar masjid, Babhali, Daryapur, Maharashtra 444803",Babhali,W8J6+CM9,Daryapur,444803,Maharashtra,IN,https://www.google.com/maps/place/Tata+Nagar+masjid/data=!4m7!3m6!1s0x3bd6dd4b5cdcabb7:0x7c0916956fcfea56!8m2!3d20.9310398!4d77.3117443!16s%2Fg%2F11lrgl0h0f!19sChIJt6vcXEvd1jsRVurPb5UWCXw?authuser=0&hl=en&rclk=1,"20.9310398,77.3117443"
Meher Baba Adhyatmik Kendra,Place of worship,"W8CP+W9M Meher Baba Adhyatmik Kendra, MH SH 194, Sainagar, Daryapur, Maharashtra 444803",Sainagar,"W8CP+W9M, MH SH 194",Daryapur,444803,Maharashtra,IN,https://www.google.com/maps/place/Meher+Baba+Adhyatmik+Kendra/data=!4m7!3m6!1s0x3bd6ddca5855ac71:0x77843fad6d9eaf5e!8m2!3d20.9223495!4d77.3359105!16s%2Fg%2F11p3nq8k00!19sChIJcaxVWMrd1jsRXq-eba0_hHc?authuser=0&hl=en&rclk=1,"20.9223495,77.3359105"
Dariyapur masjid,Mosque,"Dariyapur masjid, masjid, Dariyapur, Jahira Bad, Uttar Pradesh 246734",,masjid,"Dariyapur, Jahira Bad",,Uttar Pradesh,IN,https://www.google.com/maps/place/Dariyapur+masjid/data=!4m7!3m6!1s0x390bbbf914473f53:0xc3895f7a0bdb9ca2!8m2!3d29.1895664!4d78.4500494!16s%2Fg%2F11rtz7l99x!19sChIJUz9HFPm7CzkRopzbC3pficM?authuser=0&hl=en&rclk=1,"29.1895664,78.4500494"
Madina masjid,Mosque,"W8G8+6F2 Madina masjid, Gandhinagar, Daryapur, Maharashtra 444803",Gandhinagar,W8G8+6F2,Daryapur,444803,Maharashtra,IN,https://www.google.com/maps/place/Madina+masjid/data=!4m7!3m6!1s0x3bd6dd811db94551:0x2f695aaea3a67039!8m2!3d20.9255188!4d77.316139!16s%2Fg%2F11r6kvp_c0!19sChIJUUW5HYHd1jsROXCmo65aaS8?authuser=0&hl=en&rclk=1,"20.9255188,77.31613899999999"
Masjid e aqsa,Mosque,"W8M6+2WF Masjid e aqsa, Babhali, Daryapur, Maharashtra 444803",Babhali,W8M6+2WF,Daryapur,444803,Maharashtra,IN,https://www.google.com/maps/place/Masjid+e+aqsa/data=!4m7!3m6!1s0x3bd6dd9f316335dd:0x48ad4c6c30aececa!8m2!3d20.932551!4d77.312284!16s%2Fg%2F11r6syz083!19sChIJ3TVjMZ_d1jsRys6uMGxMrUg?authuser=0&hl=en&rclk=1,"20.932551,77.31228399999999"
Masjid e madni,Mosque,"W8FJ+WWM Masjid e madni, Narayan Nagar, Daryapur, Maharashtra 444803",Narayan Nagar,W8FJ+WWM,Daryapur,444803,Maharashtra,IN,https://www.google.com/maps/place/Masjid+e+madni/data=!4m7!3m6!1s0x3bd6dd26b2fc413f:0x14bd84b3f1caaa0e!8m2!3d20.9248259!4d77.3322927!16s%2Fg%2F11nxt7ql0z!19sChIJP0H8sibd1jsRDqrK8bOEvRQ?authuser=0&hl=en&rclk=1,"20.9248259,77.3322927"
Masjid darusslam,Mosque,"W8FF+VQ9 Masjid darusslam, Gandhinagar, Daryapur, Maharashtra 444803",Gandhinagar,W8FF+VQ9,Daryapur,444803,Maharashtra,IN,https://www.google.com/maps/place/Masjid+darusslam/data=!4m7!3m6!1s0x3bd6dd1f78960c8b:0x3f621d4bd1aa4eb8!8m2!3d20.9246535!4d77.3244716!16s%2Fg%2F11pwxvvk9p!19sChIJiwyWeB_d1jsRuE6q0UsdYj8?authuser=0&hl=en&rclk=1,"20.924653499999998,77.3244716"
Masjid E Abubakar,Mosque,"W8C8+72X Masjid E Abubakar, Shiwarkar Nagar, Daryapur, Maharashtra 444803",Shiwarkar Nagar,W8C8+72X,Daryapur,444803,Maharashtra,IN,https://www.google.com/maps/place/Masjid+E+Abubakar/data=!4m7!3m6!1s0x3bd6ddc073676771:0x868af8f57db99b19!8m2!3d20.9207361!4d77.315097!16s%2Fg%2F11rx0mv3vm!19sChIJcWdnc8Dd1jsRGZu5ffX4ioY?authuser=0&hl=en&rclk=1,"20.9207361,77.315097"
nuuraanii msjid kuraishii puraa,Mosque,"W8H6+58H nuuraanii msjid kuraishii puraa, Babhali, Daryapur, Maharashtra 444803",Babhali,W8H6+58H,Daryapur,444803,Maharashtra,IN,https://www.google.com/maps/place/%E0%A4%A8%E0%A5%82%E0%A4%B0%E0%A4%BE%E0%A4%A8%E0%A5%80+%E0%A4%AE%E0%A4%B8%E0%A5%8D%E0%A4%9C%E0%A4%BF%E0%A4%A6+%E0%A4%95%E0%A5%81%E0%A4%B0%E0%A5%88%E0%A4%B6%E0%A5%80+%E0%A4%AA%E0%A5%81%E0%A4%B0%E0%A4%BE/data=!4m7!3m6!1s0x3bd6ddf9124c5821:0x36ef12e5498f2eba!8m2!3d20.9279361!4d77.3108688!16s%2Fg%2F11tcw0nyw_!19sChIJIVhMEvnd1jsRui6PSeUS7zY?authuser=0&hl=en&rclk=1,"20.9279361,77.3108688"
