name,main_category,address,address_ward,address_street,address_city,address_postal_code,address_state,address_country_code,link,coordinates
Jama Masjid,Mosque,"Jama Masjid, Old Delhi, Delhi, 110006","Jama Masjid, Old Delhi",,Delhi,110006,Delhi,IN,https://www.google.com/maps/place/Jama+Masjid/data=!4m7!3m6!1s0x390cfd18df89b215:0xdd57369e29bf9d96!8m2!3d28.6506792!4d77.2334421!16zL20vMDR5emo1!19sChIJFbKJ3xj9DDkRlp2_KZ42V90?authuser=0&hl=en&rclk=1,"28.6506792,77.23344209999999"
Faizan e Madina Masjid (Dawateislami India),Mosque,"Faizan e Madina Masjid (Dawateislami India), K-35, Block K, Sunder Nagri, Dilshad Garden, Delhi, 110093","Block K, Sunder Nagri, Dilshad Garden",K-35,Delhi,110093,Delhi,IN,https://www.google.com/maps/place/Faizan+e+Madina+Masjid+%28Dawateislami+India%29/data=!4m7!3m6!1s0x390cfbc4d26c0c8d:0x42a85ebacf0264da!8m2!3d28.6962491!4d77.3190571!16s%2Fg%2F11sb3rhf1s!19sChIJjQxs0sT7DDkR2mQCz7peqEI?authuser=0&hl=en&rclk=1,"28.6962491,77.3190571"
Jama Masjid,Mosque,"RQ6W+R4M Jama Masjid, Pital Nagri, Moradabad, Uttar Pradesh 244001",Pital Nagri,RQ6W+R4M,Moradabad,244001,Uttar Pradesh,IN,https://www.google.com/maps/place/Jama+Masjid/data=!4m7!3m6!1s0x390afa550d18d227:0xd83db740415f802d!8m2!3d28.8120752!4d78.7952909!16s%2Fg%2F1pyqgbzj9!19sChIJJ9IYDVX6CjkRLYBfQUC3Pdg?authuser=0&hl=en&rclk=1,"28.8120752,78.7952909"
Buland Masjid,Mosque,"Buland Masjid, D444/4 Buland Masjid Shastri Park, Shastri Park, New Delhi, Delhi 110053","Gandhi Nagar, Shastri Park, Shahdara",D444/4 Buland Masjid Shastri Park,"New Delhi, Delhi",110053,Delhi,IN,https://www.google.com/maps/place/Buland+Masjid/data=!4m7!3m6!1s0x390cfcf6ff17749d:0x546efa17c4d42c49!8m2!3d28.6640135!4d77.2534993!16s%2Fg%2F11xbw0qp6!19sChIJnXQX__b8DDkRSSzUxBf6blQ?authuser=0&hl=en&rclk=1,"28.6640135,77.2534993"
NABWI N-BLOCK MOSQUE.,Mosque,"NABWI N-BLOCK MOSQUE., AB-45, Block M, Sunder Nagri, Dilshad Garden, New Delhi, Delhi, 110093","Block M, Sunder Nagri, Dilshad Garden",AB-45,"New Delhi, Delhi",110093,Delhi,IN,https://www.google.com/maps/place/NABWI+N-BLOCK+MOSQUE./data=!4m7!3m6!1s0x390cfbb9fdbe74a9:0x5c562e840f828924!8m2!3d28.6967718!4d77.3209901!16s%2Fg%2F11cs9yvlnf!19sChIJqXS-_bn7DDkRJImCD4QuVlw?authuser=0&hl=en&rclk=1,"28.696771799999997,77.3209901"
Masjid Anjuman (Janta Flats),Mosque,"Masjid Anjuman (Janta Flats), Janta Flats, GTB Enclave, Dilshad Garden, Delhi, 110093","Janta Flats, GTB Enclave, Dilshad Garden",,Delhi,110093,Delhi,IN,https://www.google.com/maps/place/Masjid+Anjuman+%28Janta+Flats%29/data=!4m7!3m6!1s0x390cfb97e249a1b1:0xc9347d141bd25f8f!8m2!3d28.690325!4d77.3092135!16s%2Fg%2F11cn6zcm0p!19sChIJsaFJ4pf7DDkRj1_SGxR9NMk?authuser=0&hl=en&rclk=1,"28.690324999999998,77.3092135"
Noori Masjid,Mosque,"F858+P23 Noori Masjid, Rajeev Nagar, Sector 32, Faridabad, Haryana 121003","Rajeev Nagar, Sector 32",F858+P23,Faridabad,121003,Haryana,IN,https://www.google.com/maps/place/Noori+Masjid/data=!4m7!3m6!1s0x390ce7666fe98ee7:0xad8e1c427007f1f1!8m2!3d28.4592688!4d77.3150624!16s%2Fg%2F11b6hv8hmk!19sChIJ547pb2bnDDkR8fEHcEIcjq0?authuser=0&hl=en&rclk=1,"28.4592688,77.3150624"
Dargah Wali Masjid msjd drgh wly,Mosque,"F8WP+FC2 Dargah Wali Masjid msjd drgh wly, Om Nagar, Molar Band, New Delhi, Faridabad, Haryana 110044","Om Nagar, Molar Band",F8WP+FC2,"New Delhi, Faridabad",110044,Haryana,IN,https://www.google.com/maps/place/Dargah+Wali+Masjid+%D9%85%D8%B3%D8%AC%D8%AF+%D8%AF%D8%B1%DA%AF%D8%A7%DB%81+%D9%88%D8%A7%D9%84%DB%8C%E2%80%AD/data=!4m7!3m6!1s0x390ce7ab2ff90b05:0x89271fca3d07afc2!8m2!3d28.4961322!4d77.3360182!16s%2Fg%2F11c0xpm68x!19sChIJBQv5L6vnDDkRwq8HPcofJ4k?authuser=0&hl=en&rclk=1,"28.496132199999998,77.3360182"
Masjid Imam-e-Azam BRELVI MOSQUE. msjd mm `Zm,Mosque,"M8XC+53G Masjid Imam-e-Azam BRELVI MOSQUE. msjd mm `Zm, Block M, Sunder Nagri, Dilshad Garden, Delhi, 110093","Block M, Sunder Nagri, Dilshad Garden",M8XC+53G,Delhi,110093,Delhi,IN,https://www.google.com/maps/place/Masjid+Imam-e-Azam+BRELVI+MOSQUE.+%D9%85%D8%B3%D8%AC%D8%AF+%D8%A7%D9%85%D8%A7%D9%85+%D8%A7%D8%B9%D8%B8%D9%85%E2%80%AD/data=!4m7!3m6!1s0x390cfbb9e1457117:0xb795c573859c8845!8m2!3d28.6979361!4d77.3201901!16s%2Fg%2F11c31nngwn!19sChIJF3FF4bn7DDkRRYichXPFlbc?authuser=0&hl=en&rclk=1,"28.6979361,77.32019009999999"
"Jamia masjid baba nagri, msjd shryf bb ngry",Mosque,"8W5G+V5W Jamia masjid baba nagri, msjd shryf bb ngry, Baba Nagri, near Zyarat Baba Jee Sab Larvi, Kangan, Jammu and Kashmir 191202",,"8W5G+V5W, Baba Nagri, near Zyarat Baba Jee Sab Larvi",Kangan,191202,Jammu and Kashmir,IN,"https://www.google.com/maps/place/Jamia+masjid+baba+nagri,+%D9%85%D8%B3%D8%AC%D8%AF+%D8%B4%D8%B1%DB%8C%D9%81+%D8%A8%D8%A7%D8%A8%D8%A7+%D9%86%DA%AF%D8%B1%DB%8C%E2%80%AD/data=!4m7!3m6!1s0x38e17f8830ef50c5:0xa7c25ca820f35ad9!8m2!3d34.3097305!4d74.9254425!16s%2Fg%2F11p02st1lx!19sChIJxVDvMIh_4TgR2VrzIKhcwqc?authuser=0&hl=en&rclk=1","34.3097305,74.9254425"
Masjid Raza E Mustufa wa Madarsa Ghausul wara,Mosque,"Masjid Raza E Mustufa wa Madarsa Ghausul wara, C3/248, West Jyoti Nagar, Block C 3, Nand Nagri, Mandoli, Delhi, 110093","West Jyoti Nagar, Block C 3, Nand Nagri, Mandoli",C3/248,Delhi,110093,Delhi,IN,https://www.google.com/maps/place/Masjid+Raza+E+Mustufa+wa+Madarsa+Ghausul+wara/data=!4m7!3m6!1s0x390cfb47eb16dcc9:0x4d0444acc4a8f45!8m2!3d28.6905768!4d77.3040215!16s%2Fg%2F11h1ycjbhv!19sChIJydwW60f7DDkRRY9KzEpE0AQ?authuser=0&hl=en&rclk=1,"28.6905768,77.30402149999999"
Masjid Maula Bakhsh,Mosque,"Masjid Maula Bakhsh, West Jyoti Nagar, Block D, Ashok Nagar, Shahdara, Delhi, 110093","West Jyoti Nagar, Block D, Ashok Nagar, Shahdara",,Delhi,110093,Delhi,IN,https://www.google.com/maps/place/Masjid+Maula+Bakhsh/data=!4m7!3m6!1s0x390cfb92c298e73f:0x6e4650cbeacd6690!8m2!3d28.6986216!4d77.3001071!16s%2Fg%2F11hckbc4k9!19sChIJP-eYwpL7DDkRkGbN6stQRm4?authuser=0&hl=en&rclk=1,"28.6986216,77.30010709999999"
Madeena Masjid,Mosque,"Madeena Masjid, 110031, Gali Number 20, Old Seelampur, Shanti Mohalla, East Old Seelampur, Shahdara, Delhi, 110053","Old Seelampur, Shanti Mohalla, East Old Seelampur, Shahdara","110031, Gali Number 20",Delhi,110053,Delhi,IN,https://www.google.com/maps/place/Madeena+Masjid/data=!4m7!3m6!1s0x390cfc85e360824f:0xcdc2ab90be0e63bd!8m2!3d28.6687316!4d77.2757657!16s%2Fg%2F11fz8x4kd7!19sChIJT4Jg44X8DDkRvWMOvpCrws0?authuser=0&hl=en&rclk=1,"28.668731599999997,77.2757657"
Hasan Masjid,Mosque,"Hasan Masjid, Block G-4, Near Dilshad Garden, Sunder Nagari, New Delhi, Delhi 110093","Prem Nagar, Dilshad Garden","Block G-4, Near Dilshad Garden, Sunder Nagari","New Delhi, Delhi",110093,Delhi,IN,https://www.google.com/maps/place/Hasan+Masjid/data=!4m7!3m6!1s0x390cfbbccf000fb5:0xf8d0dd40b4991ea2!8m2!3d28.6932258!4d77.3173185!16s%2Fg%2F11c1nxcnly!19sChIJtQ8Az7z7DDkRoh6ZtEDd0Pg?authuser=0&hl=en&rclk=1,"28.6932258,77.3173185"
*786* Masjid Garib Nawaz *786*,Mosque,"5373+448 *786* Masjid Garib Nawaz *786*, Shilpgram Rd, Taj Nagari Phase 1, Telipara, Tajganj, Agra, Dhandhupura, Uttar Pradesh 282001","Taj Nagari Phase 1, Telipara, Tajganj","5373+448, Shilpgram Rd","Agra, Dhandhupura",282001,Uttar Pradesh,IN,https://www.google.com/maps/place/*786*+Masjid+Garib+Nawaz+*786*/data=!4m7!3m6!1s0x39747111cce85fbf:0xc7f8ebc5cad19b43!8m2!3d27.1627814!4d78.0528423!16s%2Fg%2F11b5yw2p6v!19sChIJv1_ozBFxdDkRQ5vRysXr-Mc?authuser=0&hl=en&rclk=1,"27.1627814,78.0528423"
"Noorani Masjid, (Zakir Nagar)",Mosque,"H7CH+9VG Noorani Masjid, (Zakir Nagar), Gali Number 39, Zakir Nagar, New Friends Colony, New Delhi, Delhi 110025","Zakir Nagar, New Friends Colony","H7CH+9VG, Gali Number 39",New Delhi,110025,Delhi,IN,"https://www.google.com/maps/place/Noorani+Masjid,+%28Zakir+Nagar%29/data=!4m7!3m6!1s0x390ce38f45a96e4d:0x7eeaca0dd75db25d!8m2!3d28.5709494!4d77.2796972!16s%2Fg%2F1hm5b98b0!19sChIJTW6pRY_jDDkRXbJd1w3K6n4?authuser=0&hl=en&rclk=1","28.5709494,77.2796972"
O-block Masjid Mosque,Mosque,"O-block Masjid Mosque, bus stand, Harsh Vihar, O Block Rd, near, Sunder Nagri, Delhi 110093","near, Block N, Sunder Nagri, Dilshad Garden","bus stand, Harsh Vihar, O Block Rd",Delhi,110093,Delhi,IN,https://www.google.com/maps/place/O-block+Masjid+Mosque/data=!4m7!3m6!1s0x390cfb49550b8dcd:0x3985a2b21616d950!8m2!3d28.6972241!4d77.3223517!16s%2Fg%2F11g231dqkv!19sChIJzY0LVUn7DDkRUNkWFrKihTk?authuser=0&hl=en&rclk=1,"28.6972241,77.3223517"
Rashida Masjid,Mosque,"P858+2P7 Rashida Masjid, Gali No 10, C Block, Rajiv Nagar, Mandoli, Delhi, 110093","C Block, Rajiv Nagar, Mandoli","P858+2P7, Gali No 10",Delhi,110093,Delhi,IN,https://www.google.com/maps/place/Rashida+Masjid/data=!4m7!3m6!1s0x390cfbc421d09dfd:0xef8bb4a7c28ea616!8m2!3d28.7075307!4d77.3168045!16s%2Fg%2F11cmzzfl5t!19sChIJ_Z3QIcT7DDkRFqaOwqe0i-8?authuser=0&hl=en&rclk=1,"28.7075307,77.3168045"
BILAL MASJID,Mosque,"M7CF+2R9 BILAL MASJID, Gali No. 1, Old Seelampur, North Kanti Nagar, Block C, Seelampur, Shahdara, Delhi, 110031","Old Seelampur, North Kanti Nagar, Block C, Seelampur, Shahdara","M7CF+2R9, Gali No. 1",Delhi,110031,Delhi,IN,https://www.google.com/maps/place/BILAL+MASJID/data=!4m7!3m6!1s0x390cfd5f1e7c285b:0xf2ec3f00a271ae3a!8m2!3d28.6700258!4d77.2746001!16s%2Fg%2F11h37rxgd4!19sChIJWyh8Hl_9DDkROq5xogA_7PI?authuser=0&hl=en&rclk=1,"28.670025799999998,77.2746001"
Shia Masjid & Imambada,Mosque,"M8W9+8CH Shia Masjid & Imambada, Sunder Nagri, Dilshad Garden, Delhi, 110093","Sunder Nagri, Dilshad Garden",M8W9+8CH,Delhi,,Delhi,IN,https://www.google.com/maps/place/Shia+Masjid+%26+Imambada/data=!4m7!3m6!1s0x390cfb3018a767dd:0x173391826a287e17!8m2!3d28.6958092!4d77.3186145!16s%2Fg%2F11ghdqr0q1!19sChIJ3WenGDD7DDkRF34oaoKRMxc?authuser=0&hl=en&rclk=1,"28.6958092,77.3186145"
Masjid Raza-E-Mustafa,Mosque,"Masjid Raza-E-Mustafa, D-28, New Delhi, Block D, Kabir Nagar, Shahdara, Delhi, 110094","Block D, Kabir Nagar, Shahdara","D-28, New Delhi",Delhi,110094,Delhi,IN,https://www.google.com/maps/place/Masjid+Raza-E-Mustafa/data=!4m7!3m6!1s0x390cfc743f44839f:0xcb3bcd6fcaeaf293!8m2!3d28.6939238!4d77.2825027!16s%2Fg%2F11c292vl4d!19sChIJn4NEP3T8DDkRk_Lqym_NO8s?authuser=0&hl=en&rclk=1,"28.6939238,77.2825027"
Madani Masjid,Mosque,"P886+FCR Madani Masjid, Radha Vihar, Village Mandoli, Delhi, 201102","Radha Vihar, Mandoli","P886+FCR, Radha Vihar, Village Mandoli",Delhi,201102,Uttar Pradesh,IN,https://www.google.com/maps/place/Madani+Masjid/data=!4m7!3m6!1s0x390cfbddbd142d67:0x91ffbc86707dab8!8m2!3d28.7162291!4d77.311013!16s%2Fg%2F11g8ky0m_1!19sChIJZy0Uvd37DDkRuNoHZ8j7Hwk?authuser=0&hl=en&rclk=1,"28.7162291,77.311013"
K-BLOCK MASJID,Mosque,"K-BLOCK MASJID, near, Shahi Dairy Rd, Block K, Sunder Nagri, Dilshad Garden, Delhi, 110093","Block K, Sunder Nagri, Dilshad Garden","near, Shahi Dairy Rd",Delhi,110093,Delhi,IN,https://www.google.com/maps/place/K-BLOCK+MASJID/data=!4m7!3m6!1s0x390cfb157568fb07:0x4e5b7cdc8d17103a!8m2!3d28.695333!4d77.3239419!16s%2Fg%2F11g4dbwv_5!19sChIJB_todRX7DDkROhAXjdx8W04?authuser=0&hl=en&rclk=1,"28.695332999999998,77.3239419"
Madina Masjid Hirnakheri,Mosque,"27WR+MXM Madina Masjid Hirnakheri, Hirnakhedi, Pahar Purkala Urf Maleshiya, Uttar Pradesh 246734",,27WR+MXM,"Hirnakhedi, Pahar Purkala Urf Maleshiya",246734,Uttar Pradesh,IN,https://www.google.com/maps/place/Madina+Masjid+Hirnakheri/data=!4m7!3m6!1s0x390b987f6ffb3a4f:0x939d6ce5a9db06b7!8m2!3d29.0467175!4d78.2924178!16s%2Fg%2F11f114s6zw!19sChIJTzr7b3-YCzkRtwbbqeVsnZM?authuser=0&hl=en&rclk=1,"29.0467175,78.2924178"
Faizan-e-Madina Jama Masjid,Mosque,"92WH+46V Faizan-e-Madina Jama Masjid, Khtika Mohalla, BSNL Colony, Indira Nagari, Gawri Niwas, Fazilka, Punjab 152123","Khtika Mohalla, BSNL Colony, Indira Nagari, Gawri Niwas",92WH+46V,Fazilka,152123,Punjab,IN,https://www.google.com/maps/place/Faizan-e-Madina+Jama+Masjid/data=!4m7!3m6!1s0x39179082cf12b283:0xbcceb537520226e1!8m2!3d30.3953623!4d74.0280414!16s%2Fg%2F11c6vcxnns!19sChIJg7ISz4KQFzkR4SYCUje1zrw?authuser=0&hl=en&rclk=1,"30.3953623,74.02804139999999"
Gareeb Nawaz Maszid,Mosque,"M8V9+673 Gareeb Nawaz Maszid, Prem Nagar, Dilshad Garden, Delhi, 110093","Prem Nagar, Dilshad Garden",M8V9+673,Delhi,110093,Delhi,IN,https://www.google.com/maps/place/Gareeb+Nawaz+Maszid/data=!4m7!3m6!1s0x390cfbbaffb79407:0x893d66bdd55c4288!8m2!3d28.6930199!4d77.3181768!16s%2Fg%2F11fzt3srp8!19sChIJB5S3_7r7DDkRiEJc1b1mPYk?authuser=0&hl=en&rclk=1,"28.6930199,77.3181768"
NURULLAH MASJID,Mosque,"M8XG+R67 NURULLAH MASJID, Som Bazar Rd, Tulasi Niketan, Bhopura, Ghaziabad, Uttar Pradesh 201005","Tulasi Niketan, Bhopura","M8XG+R67, Som Bazar Rd",Ghaziabad,201005,Uttar Pradesh,IN,https://www.google.com/maps/place/NURULLAH+MASJID/data=!4m7!3m6!1s0x390cfbb68a115691:0xfd2539430ae7ce83!8m2!3d28.6995355!4d77.3255597!16s%2Fg%2F11c53s6nt4!19sChIJkVYRirb7DDkRg87nCkM5Jf0?authuser=0&hl=en&rclk=1,"28.6995355,77.3255597"
Chetanalaya Seemapuri,Non-profit organization,"Chetanalaya Seemapuri, D-106,Block, Near Seema Puri, Bus Depot, Delhi, near Road Wali Masjid, Block D, New Simapuri, Seemapuri, Delhi, 110093","Block D, New Simapuri, Seemapuri","D-106,Block, Near Seema Puri, Bus Depot, Delhi, near Road Wali Masjid",Delhi,110093,Delhi,IN,https://www.google.com/maps/place/Chetanalaya+Seemapuri/data=!4m7!3m6!1s0x390cfbad005e2619:0xeb2c17fa5c3fca05!8m2!3d28.6886771!4d77.3296617!16s%2Fg%2F11bw47817d!19sChIJGSZeAK37DDkRBco_XPoXLOs?authuser=0&hl=en&rclk=1,"28.6886771,77.3296617"
Gosiya masjid  ,Mosque,"M8VC+Q2F Gosiya masjid  , Main Shani Bazar Road,, Sunder Nagri, Delhi, 110093","Sunder Nagri, Dilshad Garden","M8VC+Q2F, Main Shani Bazar Road,",Delhi,110093,Delhi,IN,https://www.google.com/maps/place/Gosiya+masjid+%EF%B8%8F+%EF%B8%8F/data=!4m7!3m6!1s0x390cfbba6dd2ca4f:0xa979fc09b0abbd1d!8m2!3d28.6944308!4d77.3200591!16s%2Fg%2F12hz241xq!19sChIJT8rSbbr7DDkRHb2rsAn8eak?authuser=0&hl=en&rclk=1,"28.6944308,77.3200591"
Masjid And Imam Bargah Imam-e-Asr,Mosque,"Masjid And Imam Bargah Imam-e-Asr, 1416/15, E2 Block, Rajiv Gandhi Nagar, New Mustafabad, Delhi, 110094","E2 Block, Rajiv Gandhi Nagar, New Mustafabad",1416/15,Delhi,110094,Delhi,IN,https://www.google.com/maps/place/Masjid+And+Imam+Bargah+Imam-e-Asr/data=!4m7!3m6!1s0x390cfc1a9a235951:0xb7304f6de7a38efc!8m2!3d28.7095544!4d77.27316!16s%2Fg%2F11f32m0p4v!19sChIJUVkjmhr8DDkR_I6j521PMLc?authuser=0&hl=en&rclk=1,"28.7095544,77.27315999999999"
Nand nagri near char minar masjid,Housing society,"Nand nagri near char minar masjid, 268, Block E 3, Nand Nagri, Mandoli, Delhi, 110093","Block E 3, Nand Nagri, Mandoli",268,Delhi,110093,Delhi,IN,https://www.google.com/maps/place/Nand+nagri+near+char+minar+masjid/data=!4m7!3m6!1s0x390cfb71b6903d8b:0x85a33dc7276ff224!8m2!3d28.6951772!4d77.312627!16s%2Fg%2F11m4622th3!19sChIJiz2QtnH7DDkRJPJvJ8c9o4U?authuser=0&hl=en&rclk=1,"28.6951772,77.31262699999999"
Masjid Faizane madina,Mosque,"Masjid Faizane madina, Taj Nagari 2, Tajganj, Agra, Tora, Uttar Pradesh 282001","Taj Nagari 2, Tajganj",,"Agra, Tora",282001,Uttar Pradesh,IN,https://www.google.com/maps/place/Masjid+Faizane+madina/data=!4m7!3m6!1s0x3974710ab06877ed:0xc247b1e73afb3737!8m2!3d27.1500086!4d78.0629672!16s%2Fg%2F11h4655tyv!19sChIJ7XdosApxdDkRNzf7OuexR8I?authuser=0&hl=en&rclk=1,"27.1500086,78.0629672"
Masjid Aksha,Mosque,"R8MQ+8WR Masjid Aksha, Rataul, Uttar Pradesh 250101",,R8MQ+8WR,Rataul,250101,Uttar Pradesh,IN,https://www.google.com/maps/place/Masjid+Aksha/data=!4m7!3m6!1s0x390c57cef24cc299:0x530e91e7d6cd727a!8m2!3d28.8333521!4d77.3397724!16s%2Fg%2F11dd_nf24j!19sChIJmcJM8s5XDDkRenLN1ueRDlM?authuser=0&hl=en&rclk=1,"28.8333521,77.3397724"
Madarsa Islmiya Subhaniya,Mosque,"Madarsa Islmiya Subhaniya, G-5, Jhuggi Sundar Nagri, Delhi, 110093","Prem Nagar, Dilshad Garden","G-5, Jhuggi Sundar Nagri",Delhi,110093,Delhi,IN,https://www.google.com/maps/place/Madarsa+Islmiya+Subhaniya/data=!4m7!3m6!1s0x390cfbbba7cef559:0xdea2c17fa44700e8!8m2!3d28.6932023!4d77.3173658!16s%2Fg%2F11dyxn8zhp!19sChIJWfXOp7v7DDkR6ABHpH_Bot4?authuser=0&hl=en&rclk=1,"28.6932023,77.31736579999999"
Masjid-e-Ayesha Ahle Hadees,Mosque,"Masjid-e-Ayesha Ahle Hadees, K-48, Block L, Sunder Nagri, Dilshad Garden, Delhi, 110093","Block L, Sunder Nagri, Dilshad Garden",K-48,Delhi,110093,Delhi,IN,https://www.google.com/maps/place/Masjid-e-Ayesha+Ahle+Hadees/data=!4m7!3m6!1s0x390cfb2950945b8f:0xe23dbac76f8d57b8!8m2!3d28.6963074!4d77.3212419!16s%2Fg%2F11j7hqh5d5!19sChIJj1uUUCn7DDkRuFeNb8e6PeI?authuser=0&hl=en&rclk=1,"28.6963074,77.32124189999999"
Jamia Masjid Now Nagri,Mosque,"Jamia Masjid Now Nagri, Now Nagri, Jammu and Kashmir 192305",,,Now Nagri,192305,Jammu and Kashmir,IN,https://www.google.com/maps/place/Jamia+Masjid+Now+Nagri/data=!4m7!3m6!1s0x38e1f603d4055bc3:0x5dafdf9bc3f1029!8m2!3d33.8391105!4d74.9643932!16s%2Fg%2F11hcqvfwsd!19sChIJw1sF1AP24TgRKRA_vPn92gU?authuser=0&hl=en&rclk=1,"33.8391105,74.9643932"
nuur msjid,Mosque,"298V+8JV nuur msjid, Tilpani, Uttar Pradesh 250606",,298V+8JV,Tilpani,250606,Uttar Pradesh,IN,https://www.google.com/maps/place/%E0%A4%A8%E0%A5%82%E0%A4%B0+%E0%A4%AE%E0%A4%B8%E0%A5%8D%E0%A4%9C%E0%A4%BF%E0%A4%A6/data=!4m7!3m6!1s0x390c4576cd3a8461:0xaf229a9ddf612d8b!8m2!3d29.0158699!4d77.3940337!16s%2Fg%2F11gjh8t4cw!19sChIJYYQ6zXZFDDkRiy1h352aIq8?authuser=0&hl=en&rclk=1,"29.0158699,77.3940337"
Jama Masjid Nand Nagri Jyoti nagar,Place of worship,"M8R3+2G6 Jama Masjid Nand Nagri Jyoti nagar, Unnamed Road, West Jyoti Nagar, Block C 3, Nand Nagri, Mandoli, Delhi, 110095","West Jyoti Nagar, Block C 3, Nand Nagri, Mandoli","M8R3+2G6, Unnamed Road",Delhi,110095,Delhi,IN,https://www.google.com/maps/place/Jama+Masjid+Nand+Nagri+Jyoti+nagar/data=!4m7!3m6!1s0x390cfb2addd4e1d7:0x2c687e7fc1e91f56!8m2!3d28.6900479!4d77.3037621!16s%2Fg%2F11hdpdqg7s!19sChIJ1-HU3Sr7DDkRVh_pwX9-aCw?authuser=0&hl=en&rclk=1,"28.6900479,77.3037621"
Noorani Masjid msjd nwrny,Mosque,"M8HG+75V Noorani Masjid msjd nwrny, Unnamed Road, Chikamberpur Village, Chikamberpur, Ghaziabad, Delhi 110095","Chikamberpur Village, Chikamberpur","M8HG+75V, Unnamed Road",Ghaziabad,110095,Delhi,IN,https://www.google.com/maps/place/Noorani+Masjid+%D9%85%D8%B3%D8%AC%D8%AF+%D9%86%D9%88%D8%B1%D8%A7%D9%86%DB%8C%E2%80%AD/data=!4m7!3m6!1s0x390cfb23c04b1d2f:0xecebbd68eb1a651f!8m2!3d28.6782369!4d77.3254282!16s%2Fg%2F11fpjwkpz2!19sChIJLx1LwCP7DDkRH2Ua62i96-w?authuser=0&hl=en&rclk=1,"28.678236899999998,77.32542819999999"
"Choti Masjid Naugawan, Aligarh (chhwtty msjd nwgwN, `ly grrh)",Mosque,"R2XM+989 Choti Masjid Naugawan, Aligarh (chhwtty msjd nwgwN, `ly grrh), Naugawan Arjun, Uttar Pradesh 202002",,R2XM+989,Naugawan Arjun,202002,Uttar Pradesh,IN,"https://www.google.com/maps/place/Choti+Masjid+Naugawan,+Aligarh+%28%DA%86%DA%BE%D9%88%D9%B9%DB%8C+%D9%85%D8%B3%D8%AC%D8%AF+%D9%86%D9%88%DA%AF%D9%88%D8%A7%DA%BA%D8%8C+%D8%B9%D9%84%DB%8C+%DA%AF%DA%91%DA%BE%29%E2%80%AD/data=!4m7!3m6!1s0x3974a3e84ef43813:0x34865f04b410f958!8m2!3d27.848411!4d78.033345!16s%2Fg%2F11g8_qvgvm!19sChIJEzj0TuijdDkRWPkQtARfhjQ?authuser=0&hl=en&rclk=1","27.848411,78.033345"
Noorani Masjid,Mosque,"M8WC+VWV Noorani Masjid, Block O, Sunder Nagri, Dilshad Garden, Delhi, 110093","Block O, Sunder Nagri, Dilshad Garden",M8WC+VWV,Delhi,110093,Delhi,IN,https://www.google.com/maps/place/Noorani+Masjid/data=!4m7!3m6!1s0x390cfbb9fdfb3b39:0xe219da9142d55232!8m2!3d28.6972362!4d77.3223014!16s%2Fg%2F11gzs0_99m!19sChIJOTv7_bn7DDkRMlLVQpHaGeI?authuser=0&hl=en&rclk=1,"28.6972362,77.3223014"
Madeena Masjid,Mosque,"Madeena Masjid, D105, Sunder Nagri, Dilshad Garden, Delhi, 110093","Sunder Nagri, Dilshad Garden",D105,Delhi,110093,Delhi,IN,https://www.google.com/maps/place/Madeena+Masjid/data=!4m7!3m6!1s0x390cfb69bea2d515:0xb519ab234b81a4a2!8m2!3d28.6954604!4d77.3254778!16s%2Fg%2F11flg16s4q!19sChIJFdWivmn7DDkRoqSBSyOrGbU?authuser=0&hl=en&rclk=1,"28.695460399999998,77.3254778"
Madina Masjid,Mosque,"Madina Masjid, Indra Nagri, Shri Shyam Vihar, Abohar, Punjab 152116","Indra Nagri, Shri Shyam Vihar",,Abohar,152116,Punjab,IN,https://www.google.com/maps/place/Madina+Masjid/data=!4m7!3m6!1s0x3917a7dc3ca29471:0xe8578936b17d933b!8m2!3d30.1397794!4d74.1873842!16s%2Fg%2F11h4y6c3wx!19sChIJcZSiPNynFzkRO5N9sTaJV-g?authuser=0&hl=en&rclk=1,"30.1397794,74.1873842"
Bittu Store,General store,"M7GF+3P7 Bittu Store, Lala Hari Kishan Jindal Marg, New Silampur Phase III, Phase 3, Block C1, Shahdara, Delhi, 110032","New Silampur Phase III, Phase 3, Block C1, Shahdara","M7GF+3P7, Lala Hari Kishan Jindal Marg",Delhi,110032,Delhi,IN,https://www.google.com/maps/place/Bittu+Store/data=!4m7!3m6!1s0x390cfc62a552df73:0xaf78ef8b70d6f74d!8m2!3d28.6751685!4d77.2743082!16s%2Fg%2F11d_w47c24!19sChIJc99SpWL8DDkRTffWcIvveK8?authuser=0&hl=en&rclk=1,"28.675168499999998,77.2743082"
Madina Masjid,Mosque,"P74W+57J Madina Masjid, Gali No. 4, Amar Colony, Block E, East Gokalpur, Gokalpur, Delhi, Uttar Pradesh 110094","Amar Colony, Block E, East Gokalpur, Gokalpur","P74W+57J, Gali No. 4",Delhi,110094,Uttar Pradesh,IN,https://www.google.com/maps/place/Madina+Masjid/data=!4m7!3m6!1s0x390cfb6dbf85a19f:0xfab09b9d0b8eef62!8m2!3d28.7054738!4d77.2956491!16s%2Fg%2F11qzzqx68p!19sChIJn6GFv237DDkRYu-OC52bsPo?authuser=0&hl=en&rclk=1,"28.7054738,77.29564909999999"
4 MINAR MASJID,Mosque,"M8W7+636 4 MINAR MASJID, Block E 2, Nand Nagri, Mandoli, Delhi, 110095","Block E 2, Nand Nagri, Mandoli",M8W7+636,Delhi,110095,Delhi,IN,https://www.google.com/maps/place/4+MINAR+MASJID/data=!4m7!3m6!1s0x390cfbdd3cb40b63:0x96515ae01002decf!8m2!3d28.6955383!4d77.3126364!16s%2Fg%2F11h92f850h!19sChIJYwu0PN37DDkRz94CEOBaUZY?authuser=0&hl=en&rclk=1,"28.6955383,77.3126364"
MASZID E MAHBOOB E ELAHI,Mosque,"no 23/12, MASZID E MAHBOOB E ELAHI, C3 gali, 2, Harsh Vihar, Delhi 93","Harsh Vihar, Delhi 93","no 23/12, C3 gali, 2",Delhi,,Delhi,IN,https://www.google.com/maps/place/MASZID+E+MAHBOOB+E+ELAHI/data=!4m7!3m6!1s0x390cfbada29ee6c3:0x566189aa09f8301e!8m2!3d28.7101355!4d77.3219795!16s%2Fg%2F11jz7mnbql!19sChIJw-aeoq37DDkRHjD4CaqJYVY?authuser=0&hl=en&rclk=1,"28.7101355,77.3219795"
Abu bakar masjid Pavi abuu bkr msjid paavii,Mosque,"Q7GM+R44 Abu bakar masjid Pavi abuu bkr msjid paavii, Om Sai City, Pavi Sadakpur, Uttar Pradesh 201102",Om Sai City,Q7GM+R44,Pavi Sadakpur,201102,Uttar Pradesh,IN,https://www.google.com/maps/place/Abu+bakar+masjid+Pavi+%E0%A4%85%E0%A4%AC%E0%A5%82+%E0%A4%AC%E0%A4%95%E0%A4%B0+%E0%A4%AE%E0%A4%B8%E0%A4%9C%E0%A4%BF%E0%A4%A6+%E0%A4%AA%E0%A4%BE%E0%A4%B5%E0%A5%80/data=!4m7!3m6!1s0x390cffd2043f4cd9:0xece3dd106d0625ea!8m2!3d28.7770135!4d77.2828263!16s%2Fg%2F11mb_zwcz3!19sChIJ2Uw_BNL_DDkR6iUGbRDd4-w?authuser=0&hl=en&rclk=1,"28.7770135,77.2828263"
"Hanuman Mandir .saboli , mandoli(chotte mrghtt vaale)",Hindu temple,"M8X3+QV8 Hanuman Mandir .saboli , mandoli(chotte mrghtt vaale), Sewa Dham Rd, Mandoli Extension, Saboli, Delhi, 110093","Mandoli Extension, Saboli","M8X3+QV8, Sewa Dham Rd",Delhi,110093,Delhi,IN,"https://www.google.com/maps/place/Hanuman+Mandir+.saboli+,+mandoli%28%E0%A4%9B%E0%A5%8B%E0%A4%9F%E0%A5%87+%E0%A4%AE%E0%A4%B0%E0%A4%98%E0%A4%9F+%E0%A4%B5%E0%A4%BE%E0%A4%B2%E0%A5%87%29/data=!4m7!3m6!1s0x390cfbbc459829ad:0x271cd41ec7e0e7b3!8m2!3d28.6994051!4d77.3047061!16s%2Fg%2F11pkfkpfw2!19sChIJrSmYRbz7DDkRs-fgxx7UHCc?authuser=0&hl=en&rclk=1","28.6994051,77.30470609999999"
rjaa msj'id,Mosque,"rjaa msj'id, Meena nagar, Kosi Kalan, Uttar Pradesh 281403",,Meena nagar,Kosi Kalan,281403,Uttar Pradesh,IN,https://www.google.com/maps/place/%E0%A4%B0%E0%A4%9C%E0%A4%BE+%E0%A4%AE%E0%A4%B8%E0%A5%8D%E0%A4%9C%E0%A4%BC%E0%A4%BF%E0%A4%A6/data=!4m7!3m6!1s0x39733d6cd74981c9:0x3b78ed189ed0e618!8m2!3d27.7873343!4d77.4487076!16s%2Fg%2F11j1121xxs!19sChIJyYFJ12w9czkRGObQnhjteDs?authuser=0&hl=en&rclk=1,"27.787334299999998,77.44870759999999"
Badi masjid,Mosque,"M86R+PMF Badi masjid, Radhanagri, Rajasthan 321022",,M86R+PMF,Radhanagri,321022,Rajasthan,IN,https://www.google.com/maps/place/Badi+masjid/data=!4m7!3m6!1s0x3973193611f446f1:0xce7fa880548ec133!8m2!3d27.6618204!4d77.3416649!16s%2Fg%2F11hzw4tsvt!19sChIJ8Ub0ETYZczkRM8GOVICof84?authuser=0&hl=en&rclk=1,"27.6618204,77.3416649"
Madarsa Quwwat-ul-Islam,Mosque,"RQ8V+QH9 Madarsa Quwwat-ul-Islam, Pital Nagri, Moradabad, Uttar Pradesh 244001",Pital Nagri,RQ8V+QH9,Moradabad,244001,Uttar Pradesh,IN,https://www.google.com/maps/place/Madarsa+Quwwat-ul-Islam/data=!4m7!3m6!1s0x390afb59c3ef5929:0x8df3b1e1cfb380c7!8m2!3d28.816917!4d78.7939949!16s%2Fg%2F11h5qntkx5!19sChIJKVnvw1n7CjkRx4Czz-Gx840?authuser=0&hl=en&rclk=1,"28.816917,78.7939949"
Masjid taqwa usmanabad lower nagri doda,Mosque,"4HR3+RR4 Masjid taqwa usmanabad lower nagri doda, Thalanga, Doda, 182202",Thalanga,4HR3+RR4,Doda,182202,,IN,https://www.google.com/maps/place/Masjid+taqwa+usmanabad+lower+nagri+doda/data=!4m7!3m6!1s0x391da57530d9f6c5:0x2f230b64820ae42a!8m2!3d33.1420049!4d75.5545834!16s%2Fg%2F11nsrhm2jw!19sChIJxfbZMHWlHTkRKuQKgmQLIy8?authuser=0&hl=en&rclk=1,"33.142004899999996,75.5545834"
Chaar minar masjid,Mosque,"M8W6+CVX Chaar minar masjid, Block E 2, Nand Nagri, Mandoli, Delhi, 110093","Block E 2, Nand Nagri, Mandoli",M8W6+CVX,Delhi,110093,Delhi,IN,https://www.google.com/maps/place/Chaar+minar+masjid/data=!4m7!3m6!1s0x390cfb0361ef62b1:0xa2b2e4655c55e71a!8m2!3d28.6961057!4d77.3122471!16s%2Fg%2F11h_wyqy3k!19sChIJsWLvYQP7DDkRGudVXGXksqI?authuser=0&hl=en&rclk=1,"28.6961057,77.3122471"
Madina Masjid,Mosque,"59M3+VPQ Madina Masjid, Jalalpur Deepa, Uttar Pradesh 246734",,59M3+VPQ,Jalalpur Deepa,246734,Uttar Pradesh,IN,https://www.google.com/maps/place/Madina+Masjid/data=!4m7!3m6!1s0x390bbdd1f0e6eefb:0x7c0054823440b07f!8m2!3d29.1848634!4d78.3547828!16s%2Fg%2F11r_lqwhm_!19sChIJ--7m8NG9CzkRf7BANIJUAHw?authuser=0&hl=en&rclk=1,"29.184863399999998,78.3547828"
Masjid Gulzar-e-Madina (Nagri),Mosque,"Masjid Gulzar-e-Madina (Nagri), Chinji-Bhilomar Rd, Chakwal, Punjab, Pakistan",,Chinji-Bhilomar Rd,,,"Chakwal, Punjab",PK,https://www.google.com/maps/place/Masjid+Gulzar-e-Madina+%28Nagri%29/data=!4m7!3m6!1s0x3920efae3cec3b57:0x8d8664cb1fa6dcff!8m2!3d32.7627202!4d72.484091!16s%2Fg%2F1q62cgj1m!19sChIJVzvsPK7vIDkR_9ymH8tkho0?authuser=0&hl=en&rclk=1,"32.7627202,72.48409099999999"
Rashidiya masjid bade wali,Mosque,"P9GF+287 Rashidiya masjid bade wali, Asalatpur Farakh Nagar, Farukh Nagar, Uttar Pradesh 201003",,P9GF+287,"Asalatpur Farakh Nagar, Farukh Nagar",,Uttar Pradesh,IN,https://www.google.com/maps/place/Rashidiya+masjid+bade+wali/data=!4m7!3m6!1s0x390cfba184982569:0xa59f493720299b2d!8m2!3d28.7250423!4d77.3732848!16s%2Fg%2F11j3vz1s_r!19sChIJaSWYhKH7DDkRLZspIDdJn6U?authuser=0&hl=en&rclk=1,"28.7250423,77.3732848"
Chhoti Masjid,Mosque,"M2WR+J64 Chhoti Masjid, Khandewla, Rajasthan 321204",,M2WR+J64,Khandewla,321204,Rajasthan,IN,https://www.google.com/maps/place/Chhoti+Masjid/data=!4m7!3m6!1s0x3972dd65c0ad702d:0x9c4fa14eb075b63a!8m2!3d27.696513!4d77.0405732!16s%2Fg%2F11gf2n8frj!19sChIJLXCtwGXdcjkROrZ1sE6hT5w?authuser=0&hl=en&rclk=1,"27.696513,77.0405732"
Noori masjid nagari,Mosque,"8FX3+F53 Noori masjid nagari, Nagri, Bihar 802223",,8FX3+F53,Nagri,802223,Bihar,IN,https://www.google.com/maps/place/Noori+masjid+nagari/data=!4m7!3m6!1s0x398d6f83f920f9d1:0x5b2b26ccb10b07c4!8m2!3d25.3486483!4d84.4529141!16s%2Fg%2F11srh6vx__!19sChIJ0fkg-YNvjTkRxAcLscwmK1s?authuser=0&hl=en&rclk=1,"25.348648299999997,84.4529141"
Madarsa & masjid AHL-E-SUNNAT faizan -e-ghause aazam,Mosque,"46Block, Madarsa & masjid AHL-E-SUNNAT faizan -e-ghause aazam, E-1/47, E 2, Nand Nagri, SimapuriNew, Delhi, 110093","Block E 1, Nand Nagri, SimapuriNew","46Block, E-1/47, E 2",Delhi,110093,Delhi,IN,https://www.google.com/maps/place/Madarsa+%26+masjid+AHL-E-SUNNAT+faizan+-e-ghause+aazam/data=!4m7!3m6!1s0x390cfb835495b1f5:0x389f5e1837eb5c25!8m2!3d28.6946915!4d77.3129031!16s%2Fg%2F11rzqyrb_8!19sChIJ9bGVVIP7DDkRJVzrNxhenzg?authuser=0&hl=en&rclk=1,"28.694691499999998,77.3129031"
Madani Masjid L Block,Mosque,"Madani Masjid L Block, C12, Sunder Nagri, Dilshad Garden, New Delhi, Delhi, 110093","Sunder Nagri, Dilshad Garden",C12,"New Delhi, Delhi",110093,Delhi,IN,https://www.google.com/maps/place/Madani+Masjid+L+Block/data=!4m7!3m6!1s0x390cfb78b682dae5:0xedc36a982eaaa496!8m2!3d28.694369!4d77.3236375!16s%2Fg%2F11rxtr5hbp!19sChIJ5dqCtnj7DDkRlqSqLphqw-0?authuser=0&hl=en&rclk=1,"28.694369,77.32363749999999"
Muhammadi Masjid,Mosque,"B 21, Muhammadi Masjid, opposite, New Seemapuri Rd, Block D, New Simapuri, Dilshad Garden, Delhi, 110095","Block D, New Simapuri, Dilshad Garden","B 21, opposite, New Seemapuri Rd",Delhi,110095,Delhi,IN,https://www.google.com/maps/place/Muhammadi+Masjid/data=!4m7!3m6!1s0x390cfb70fb06d485:0x7f5da2c893aa7606!8m2!3d28.6877187!4d77.3288529!16s%2Fg%2F11gmdy594j!19sChIJhdQG-3D7DDkRBnaqk8iiXX8?authuser=0&hl=en&rclk=1,"28.687718699999998,77.3288529"
Benjamin Yunas,Parsi temple,"Benjamin Yunas, 2234, c/54 Near play ground Ludhiyana, 141008, Issa Nagri, Mohar Singh Nagar, Ludhiana, Punjab","Meena Bazaar, Issa Nagri, Mohar Singh Nagar","2234, c/54 Near play ground Ludhiyana, 141008","Ludhiana, Delhi",,Punjab,IN,https://www.google.com/maps/place/Benjamin+Yunas/data=!4m7!3m6!1s0x390cfd1eeac0b4d7:0xf31b265254e53829!8m2!3d28.6523291!4d77.2363779!16s%2Fg%2F11dd_qsxyv!19sChIJ17TA6h79DDkRKTjlVFImG_M?authuser=0&hl=en&rclk=1,"28.6523291,77.2363779"
Hanuman Mandir,Hindu temple,"M8W7+MMJ Hanuman Mandir, Nandan Nagar, Nand Nagri, Mandoli, Delhi, 110093","Nandan Nagar, Nand Nagri, Mandoli",M8W7+MMJ,Delhi,110093,Delhi,IN,https://www.google.com/maps/place/Hanuman+Mandir/data=!4m7!3m6!1s0x390cfbbebeaaaaab:0x980e15133a594693!8m2!3d28.6967166!4d77.3141346!16s%2Fg%2F11hcys_g9v!19sChIJq6qqvr77DDkRk0ZZOhMVDpg?authuser=0&hl=en&rclk=1,"28.6967166,77.3141346"
Badi Masjid,Mosque,"Badi Masjid, Chowk, Rampur Rd, near Hanuman Murati, Katghar, Moradabad, Uttar Pradesh 244001",Katghar,"Chowk, Rampur Rd, near Hanuman Murati",Moradabad,244001,Uttar Pradesh,IN,https://www.google.com/maps/place/Badi+Masjid/data=!4m7!3m6!1s0x390afbe44fadd5bd:0x26ad19b3b1d7aa89!8m2!3d28.8202777!4d78.7935077!16s%2Fg%2F11t_sf3znc!19sChIJvdWtT-T7CjkRiarXsbMZrSY?authuser=0&hl=en&rclk=1,"28.8202777,78.79350769999999"
Saini Interiors,Interior designer,"Saini Interiors, C-7B, 100FEET ROAD, near Piller No. 18, Jagatpuri Ext, opp. Masjid, Delhi, 110093","Nand Nagari Extension, Block C, New Jagat Puri Extension, Dilshad Garden","C-7B, 100FEET ROAD, near Piller No. 18, Jagatpuri Ext, opp. Masjid",Delhi,110093,Delhi,IN,https://www.google.com/maps/place/Saini+Interiors/data=!4m7!3m6!1s0x390cfb90adbc3ded:0x816fa0af5ba83c3!8m2!3d28.6895877!4d77.303928!16s%2Fg%2F11c45g9__9!19sChIJ7T28rZD7DDkRw4O69Qr6Fgg?authuser=0&hl=en&rclk=1,"28.689587699999997,77.303928"
Jamia Masjid Nagri,Mosque,"Jamia Masjid Nagri, Thalanga, Doda, 182202",Thalanga,,Doda,182202,,IN,https://www.google.com/maps/place/Jamia+Masjid+Nagri/data=!4m7!3m6!1s0x391da55c01c23801:0xbef8bd10a0d00612!8m2!3d33.1445688!4d75.5512758!16s%2Fg%2F11rvk10wxy!19sChIJATjCAVylHTkREgbQoBC9-L4?authuser=0&hl=en&rclk=1,"33.1445688,75.5512758"
Badi Masjid wala Park,Mosque,"M8Q3+XJF Badi Masjid wala Park, West Jyoti Nagar, Block C 3, Nand Nagri, Mandoli, Delhi, 110093","West Jyoti Nagar, Block C 3, Nand Nagri, Mandoli",M8Q3+XJF,Delhi,110093,Delhi,IN,https://www.google.com/maps/place/Badi+Masjid+wala+Park/data=!4m7!3m6!1s0x390cfbef875c59f5:0x705a9c66e6225915!8m2!3d28.6899377!4d77.3040436!16s%2Fg%2F11t3czjlvd!19sChIJ9Vlch-_7DDkRFVki5macWnA?authuser=0&hl=en&rclk=1,"28.689937699999998,77.3040436"
Jannat,Mosque,"M8WF+9F5 Jannat, O Block Rd, Sunder Nagri, Dilshad Garden, Delhi, 110093","Sunder Nagri, Dilshad Garden","M8WF+9F5, O Block Rd",Delhi,,Delhi,IN,https://www.google.com/maps/place/Jannat/data=!4m7!3m6!1s0x390cfbd5c01d49d1:0x434be26c7b8f77fa!8m2!3d28.6958872!4d77.3237421!16s%2Fg%2F11tsygvzm4!19sChIJ0UkdwNX7DDkR-nePe2ziS0M?authuser=0&hl=en&rclk=1,"28.695887199999998,77.32374209999999"
Masjid nabbi park,Park,"M8WC+V7C Masjid nabbi park, M block park, Sunder Nagri, Dilshad Garden, Delhi, 110093","Block M, Sunder Nagri, Dilshad Garden","M8WC+V7C, M block park",Delhi,110093,Delhi,IN,https://www.google.com/maps/place/Masjid+nabbi+park/data=!4m7!3m6!1s0x390cfb243a21c8f5:0x4cb3e3aab343e24e!8m2!3d28.6971985!4d77.3206421!16s%2Fg%2F11mvq9f_20!19sChIJ9cghOiT7DDkRTuJDs6rjs0w?authuser=0&hl=en&rclk=1,"28.6971985,77.3206421"
baaniyyaari pshcim paaraa iidgaa,Mosque,"F5W7+P92 baaniyyaari pshcim paaraa iidgaa, pshcim paaraa, Sultanpur, baaniyyaari, raajbaarrii sdr, Delhi 110030","pshcim paaraa, Sultanpur",F5W7+P92,"baaniyyaari, raajbaarrii sdr",,Delhi,IN,https://www.google.com/maps/place/%E0%A6%AC%E0%A6%BE%E0%A6%A8%E0%A6%BF%E0%A7%9F%E0%A6%BE%E0%A6%B0%E0%A6%BF+%E0%A6%AA%E0%A6%B6%E0%A7%8D%E0%A6%9A%E0%A6%BF%E0%A6%AE+%E0%A6%AA%E0%A6%BE%E0%A6%B0%E0%A6%BE+%E0%A6%88%E0%A6%A6%E0%A6%97%E0%A6%BE/data=!4m7!3m6!1s0x390d1f6de110c5c9:0x1b889b709ab21c67!8m2!3d28.496751!4d77.1634006!16s%2Fg%2F11kj4l31mb!19sChIJycUQ4W0fDTkRZxyymnCbiBs?authuser=0&hl=en&rclk=1,"28.496751,77.1634006"
Masjid,Mosque,"94JP+P6V Masjid, Judji Chowk, Judgee Rd, Geeta Nagari, Bijnor, Uttar Pradesh 246701",Geeta Nagari,"94JP+P6V Judji Chowk, Judgee Rd",Bijnor,246701,Uttar Pradesh,IN,https://www.google.com/maps/place/Masjid/data=!4m7!3m6!1s0x390bef22594755f3:0x2333eadab9639cff!8m2!3d29.3818666!4d78.1355448!16s%2Fg%2F11l5c42xh3!19sChIJ81VHWSLvCzkR_5xjudrqMyM?authuser=0&hl=en&rclk=1,"29.3818666,78.13554479999999"
Bhole baba Mandir nand Nagri,Hindu temple,"Bhole baba Mandir nand Nagri, A2-336, Block A, Nand Nagri, Mandoli, Delhi, 110093","Block A, Nand Nagri, Mandoli",A2-336,Delhi,110093,Delhi,IN,https://www.google.com/maps/place/Bhole+baba+Mandir+nand+Nagri/data=!4m7!3m6!1s0x390cfbace61dc689:0xb42f9b02712b0b2f!8m2!3d28.695178!4d77.3084355!16s%2Fg%2F11k0l9dktj!19sChIJicYd5qz7DDkRLwsrcQKbL7Q?authuser=0&hl=en&rclk=1,"28.695178,77.3084355"
F2 Jama Masjid AL-hayat Healthcare,Hospital,"M8VF+W42 F2 Jama Masjid AL-hayat Healthcare, Unnamed Road, Sunder Nagri, Dilshad Garden, Delhi, 110095","Sunder Nagri, Dilshad Garden","M8VF+W42, Unnamed Road",Delhi,110095,Delhi,IN,https://www.google.com/maps/place/F2+Jama+Masjid+AL-hayat+Healthcare/data=!4m7!3m6!1s0x390cfbf18b20cdc7:0x1084b03c798aed4e!8m2!3d28.6947575!4d77.3227688!16s%2Fg%2F11fj3cwgck!19sChIJx80gi_H7DDkRTu2KeTywhBA?authuser=0&hl=en&rclk=1,"28.694757499999998,77.32276879999999"
Masjid,Mosque,"WPRG+3C9 Masjid, Budhana Rd, Police Traning Center, Lohia Nagar, Meerut, Uttar Pradesh 250002","Police Traning Center, Lohia Nagar","WPRG+3C9, Budhana Rd",Meerut,250002,Uttar Pradesh,IN,https://www.google.com/maps/place/Masjid/data=!4m7!3m6!1s0x390c63d150449533:0xd1d793f6f41435dc!8m2!3d28.9401521!4d77.7261027!16s%2Fg%2F11q8jw30fm!19sChIJM5VEUNFjDDkR3DUU9PaT19E?authuser=0&hl=en&rclk=1,"28.9401521,77.7261027"
Noorani masjid,Mosque,"M2WQ+3JR Noorani masjid, Khandewla, Rajasthan 321204",,M2WQ+3JR,Khandewla,321204,Rajasthan,IN,https://www.google.com/maps/place/Noorani+masjid/data=!4m7!3m6!1s0x3972dd0cb5ec0687:0x4231bdb70c0adec6!8m2!3d27.6952426!4d77.0390251!16s%2Fg%2F11s4t585vs!19sChIJhwbstQzdcjkRxt4KDLe9MUI?authuser=0&hl=en&rclk=1,"27.6952426,77.0390251"
Shiv Durga Medical Store,Pharmacy,"H8GW+QG9 Shiv Durga Medical Store, Shiv Mandir Masjid Wali Gali, Nithari, Nithari Village, Nagari Sector 31, Noida, Uttar Pradesh 201301","Nithari, Nithari Village, Nagari Sector 31","H8GW+QG9, Shiv Mandir Masjid Wali Gali",Noida,201301,Uttar Pradesh,IN,https://www.google.com/maps/place/Shiv+Durga+Medical+Store/data=!4m7!3m6!1s0x390ce5baddb8cb63:0xb958a24c5943e1c4!8m2!3d28.576914!4d77.346344!16s%2Fg%2F1ptv_znms!19sChIJY8u43brlDDkRxOFDWUyiWLk?authuser=0&hl=en&rclk=1,"28.576914,77.346344"
Glass Work,Tannery,"J6M9+3RX Glass Work, Charminar Masjid, Nand Nagri, Delhi, 110001","Nand Nagri, Connaught Place","J6M9+3RX, Charminar Masjid","Delhi, New Delhi",110001,Delhi,IN,https://www.google.com/maps/place/Glass+Work/data=!4m7!3m6!1s0x390cfd58814d7ad7:0xb4232d8431a07cd!8m2!3d28.6327426!4d77.2195969!16s%2Fg%2F11nc9ym05z!19sChIJ13pNgVj9DDkRzQcaQ9gyQgs?authuser=0&hl=en&rclk=1,"28.6327426,77.2195969"
"Masjid bilal, lower nagri, Doda",Mosque,"4HR2+XPR Masjid bilal, lower nagri, Doda, Unnamed Road, Thalanga, Doda, Jammu and Kashmir 182202",Thalanga,"4HR2+XPR, Unnamed Road",Doda,182202,Jammu and Kashmir,IN,"https://www.google.com/maps/place/Masjid+bilal,+lower+nagri,+Doda/data=!4m7!3m6!1s0x391da565b696949b:0xd433c1384d0ab49d!8m2!3d33.1424863!4d75.5517571!16s%2Fg%2F11qr35qrln!19sChIJm5SWtmWlHTkRnbQKTTjBM9Q?authuser=0&hl=en&rclk=1","33.1424863,75.5517571"
"Masjid Ameer Hamza , Nagri, Doda",Mosque,"4HV2+V96 Masjid Ameer Hamza , Nagri, Doda, Unnamed Road, Thalanga, Doda, Jammu and Kashmir 182202",Thalanga,"4HV2+V96, Unnamed Road",Doda,182202,Jammu and Kashmir,IN,"https://www.google.com/maps/place/Masjid+Ameer+Hamza+,+Nagri,+Doda/data=!4m7!3m6!1s0x391da51150d88f21:0xf32401f344827c7d!8m2!3d33.1446553!4d75.5508901!16s%2Fg%2F11n0g0x15s!19sChIJIY_YUBGlHTkRfXyCRPMBJPM?authuser=0&hl=en&rclk=1","33.1446553,75.55089009999999"
Navi Nagri Masjid,Mosque,"F44X+4J9 Navi Nagri Masjid, GJ SH 168, Navi Nagri, Mosali, Gujarat 394421",Navi Nagri,"F44X+4J9, GJ SH 168",Mosali,394421,Gujarat,IN,https://www.google.com/maps/place/Navi+Nagri+Masjid/data=!4m7!3m6!1s0x3be01425a8faaaab:0x10826fbf99ea7d17!8m2!3d21.4552818!4d73.1491129!16s%2Fg%2F11sscsb920!19sChIJq6r6qCUU4DsRF33qmb9vghA?authuser=0&hl=en&rclk=1,"21.455281799999998,73.14911289999999"
Maddina masjid nagari(A.A),Mosque,"64W3+F9Q Maddina masjid nagari(A.A), Nagri, Jharkhand 815316",,64W3+F9Q,Nagri,815316,Jharkhand,IN,https://www.google.com/maps/place/Maddina+masjid+nagari%28A.A%29/data=!4m7!3m6!1s0x39f3fbf27ff65af7:0xfe502113862d0c38!8m2!3d24.24606!4d86.1032385!16s%2Fg%2F11sjgsjwng!19sChIJ91r2f_L78zkROAwthhMhUP4?authuser=0&hl=en&rclk=1,"24.24606,86.10323849999999"
Aashim E Riksha Repair,Car Service Station,"M8Q3+XFH Aashim E Riksha Repair, Jama Masjid C Block, Nand Nagri Shahdra Delhi, New Delhi, Delhi 110093","West Jyoti Nagar, Block C 3, Nand Nagri, Mandoli","M8Q3+XFH, Jama Masjid C Block, Nand Nagri Shahdra Delhi","New Delhi, Delhi",110093,Delhi,IN,https://www.google.com/maps/place/Aashim+E+Riksha+Repair/data=!4m7!3m6!1s0x390cfb974ccf948d:0xe8d72c836a771025!8m2!3d28.6899401!4d77.3037423!16s%2Fg%2F11t6s97ph2!19sChIJjZTPTJf7DDkRJRB3aoMs1-g?authuser=0&hl=en&rclk=1,"28.689940099999998,77.3037423"
Well-th Shop,Health and beauty shop,"Well-th Shop, Masjid wali Gali, Near Gagan Cinema, Nand Nagri New Delhi, Delhi, 110095","Block E4, Block B, Nand Nagri, Mandoli","Masjid wali Gali, Near Gagan Cinema, Nand Nagri New Delhi",Delhi,110095,Delhi,IN,https://www.google.com/maps/place/Well-th+Shop/data=!4m7!3m6!1s0x390cfb8d907357f9:0xa2712b396fb7db67!8m2!3d28.6942563!4d77.3093383!16s%2Fg%2F11q4m9sffz!19sChIJ-VdzkI37DDkRZ9u3bzkrcaI?authuser=0&hl=en&rclk=1,"28.6942563,77.3093383"
