name,main_category,address,address_ward,address_street,address_city,address_postal_code,address_state,address_country_code,link,coordinates
Jama Masjid Shamsi jm` msjd shmsy,Mosque,"24QC+FMQ Jama Masjid Shamsi jm` msjd shmsy, Molvi Tola, Budaun, Uttar Pradesh 243601",Molvi Tola,24QC+FMQ,Budaun,243601,Uttar Pradesh,IN,https://www.google.com/maps/place/Jama+Masjid+Shamsi+%D8%AC%D8%A7%D9%85%D8%B9+%D9%85%D8%B3%D8%AC%D8%AF+%D8%B4%D9%85%D8%B3%DB%8C%E2%80%AD/data=!4m7!3m6!1s0x397545ef82cf8fa3:0x850fadc4472fa2e7!8m2!3d28.0386803!4d79.1219285!16s%2Fg%2F11bwjc_06v!19sChIJo4_Pgu9FdTkR56IvR8StD4U?authuser=0&hl=en&rclk=1,"28.0386803,79.1219285"
Zeenat-ul Masjid,Mosque,"J6WV+HXF Zeenat-ul Masjid, Daryaganj, New Delhi, Delhi, 110002",Daryaganj,J6WV+HXF,"New Delhi, Delhi",110002,Delhi,IN,https://www.google.com/maps/place/Zeenat-ul+Masjid/data=!4m7!3m6!1s0x390cfcde5e11d987:0xdf29372369063d5f!8m2!3d28.6464447!4d77.2449347!16s%2Fg%2F1vrq80b4!19sChIJh9kRXt78DDkRXz0GaSM3Kd8?authuser=0&hl=en&rclk=1,"28.6464447,77.2449347"
"Jama Masjid, Khadda Colony jm` msjd",Mosque,"Jama Masjid, Khadda Colony jm` msjd, D-202, near by Jama Masjid Gali, Jaitpur Extension Part II, Khadda Colony, Badarpur, New Delhi, Delhi 110044","Jaitpur Extension Part II, Khadda Colony, Badarpur","D-202, near by Jama Masjid Gali",New Delhi,110044,Delhi,IN,"https://www.google.com/maps/place/Jama+Masjid,+Khadda+Colony+%D8%AC%D8%A7%D9%85%D8%B9+%D9%85%D8%B3%D8%AC%D8%AF%E2%80%AD/data=!4m7!3m6!1s0x390ce65a1cc2d345:0x508d72d241ba7c2f!8m2!3d28.5094725!4d77.3384064!16s%2Fg%2F11b_23cdbd!19sChIJRdPCHFrmDDkRL3y6QdJyjVA?authuser=0&hl=en&rclk=1","28.509472499999998,77.3384064"
Masjid Hayat Madarsa Sahabia,Mosque,"F7XW+9R3 Masjid Hayat Madarsa Sahabia, Mehrauli - Badarpur Rd, Mittal Colony, Block RZ H, Pul Pehlad Pur, New Delhi, Faridabad, Delhi 110044","Mittal Colony, Block RZ H, Pul Pehlad Pur","F7XW+9R3, Mehrauli - Badarpur Rd","New Delhi, Faridabad",110044,Delhi,IN,https://www.google.com/maps/place/Masjid+Hayat+Madarsa+Sahabia/data=!4m7!3m6!1s0x390ce6d74f08cf85:0xcf35c38ec0e866ca!8m2!3d28.4983917!4d77.2970623!16s%2Fg%2F12hkbl23n!19sChIJhc8IT9fmDDkRymbowI7DNc8?authuser=0&hl=en&rclk=1,"28.4983917,77.2970623"
Masjid Umar ibn Khattab Ahle Hadees,Mosque,"G8X3+2R4 Masjid Umar ibn Khattab Ahle Hadees, Kalindi Kunj Rd, Shaheen Bagh, Jamia Nagar, Okhla, New Delhi, Delhi 110025","Shaheen Bagh, Jamia Nagar, Okhla","G8X3+2R4, Kalindi Kunj Rd",New Delhi,110025,Delhi,IN,https://www.google.com/maps/place/Masjid+Umar+ibn+Khattab+Ahle+Hadees/data=!4m7!3m6!1s0x390ce4196e33e035:0x7187e898e383e521!8m2!3d28.5475049!4d77.3045864!16s%2Fg%2F11ddwvd6j7!19sChIJNeAzbhnkDDkRIeWD45joh3E?authuser=0&hl=en&rclk=1,"28.5475049,77.30458639999999"
MASJID KHASTA GUL,Mosque,"MASJID KHASTA GUL, T16353, Goutampuri, Shahdara, Delhi, 110053","Goutampuri, Shahdara",T16353,Delhi,110053,Delhi,IN,https://www.google.com/maps/place/MASJID+KHASTA+GUL/data=!4m7!3m6!1s0x390cfc674ffe69a9:0xf03028dcb171102a!8m2!3d28.6802209!4d77.2642006!16s%2Fg%2F11g8ngh1ss!19sChIJqWn-T2f8DDkRKhBxsdwoMPA?authuser=0&hl=en&rclk=1,"28.6802209,77.2642006"
Jama Masjid Bihari (Budaun),Mosque,"V6MQ+PX5 Jama Masjid Bihari (Budaun), Bilhari, Uttar Pradesh 243637",,V6MQ+PX5,Bilhari,243637,Uttar Pradesh,IN,https://www.google.com/maps/place/Jama+Masjid+Bihari+%28Budaun%29/data=!4m7!3m6!1s0x39755d9897578bb5:0x9a2f112b70dc7242!8m2!3d27.8842579!4d79.2399772!16s%2Fg%2F11g03zghh4!19sChIJtYtXl5hddTkRQnLccCsRL5o?authuser=0&hl=en&rclk=1,"27.884257899999998,79.2399772"
gosiiyaa msjid,Mosque,"gosiiyaa msjid, 02, New Delhi Main Rd, D Block, Madanpur Khadar, New Delhi, Delhi 110076, New Delhi Main Rd, D Block, Madanpur Khadar, New Delhi, Delhi 110076","D Block, Madanpur Khadar","02, New Delhi Main Rd, D Block, Madanpur Khadar, New Delhi, Delhi 110076, New Delhi Main Rd",New Delhi,110076,Delhi,IN,https://www.google.com/maps/place/%E0%A4%97%E0%A5%8B%E0%A4%B8%E0%A5%80%E0%A4%AF%E0%A4%BE+%E0%A4%AE%E0%A4%B8%E0%A5%8D%E0%A4%9C%E0%A4%BF%E0%A4%A6/data=!4m7!3m6!1s0x390ce69a677df04b:0x404fbe46be663e7f!8m2!3d28.5310436!4d77.317571!16s%2Fg%2F11g6rfnfc8!19sChIJS_B9Z5rmDDkRfz5mvka-T0A?authuser=0&hl=en&rclk=1,"28.5310436,77.317571"
Madina Masjid,Mosque,"Ward no. 23, Madina Masjid, Uroliya, Kakrala, Uraulia, Uttar Pradesh 243637",Uroliya,Ward no. 23,"Kakrala, Uraulia",243637,Uttar Pradesh,IN,https://www.google.com/maps/place/Madina+Masjid/data=!4m7!3m6!1s0x39755d4c95681991:0xb07b71b2eca04bdb!8m2!3d27.8902493!4d79.2014537!16s%2Fg%2F11b_3gp6jg!19sChIJkRlolUxddTkR20ug7LJxe7A?authuser=0&hl=en&rclk=1,"27.890249299999997,79.2014537"
Baag Wali Masjid,Mosque,"V6M3+XC6 Baag Wali Masjid, Uraulia, Uttar Pradesh 243637",,V6M3+XC6,Uraulia,243637,Uttar Pradesh,IN,https://www.google.com/maps/place/Baag+Wali+Masjid/data=!4m7!3m6!1s0x39755d5265f88d9d:0x5f5cbae3048756be!8m2!3d27.8849245!4d79.2035306!16s%2Fg%2F12qf5gjzx!19sChIJnY34ZVJddTkRvlaHBOO6XF8?authuser=0&hl=en&rclk=1,"27.8849245,79.2035306"
Jama Masjid,Mosque,"X64G+4CF Jama Masjid, SH 43, Sakhanu, Uttar Pradesh 243601",,"X64G+4CF, SH 43",Sakhanu,243601,Uttar Pradesh,IN,https://www.google.com/maps/place/Jama+Masjid/data=!4m7!3m6!1s0x39755c970ec182d5:0xbc19ddf2a2aec516!8m2!3d27.9553126!4d79.2260432!16s%2Fg%2F124s_lwhg!19sChIJ1YLBDpdcdTkRFsWuovLdGbw?authuser=0&hl=en&rclk=1,"27.9553126,79.22604319999999"
Taad Waali Masjid,Mosque,"Taad Waali Masjid, Ward no. 3, Kakrala Rd, Kakrala West, Kakrala, Uttar Pradesh 243637",Kakrala West,"Ward no. 3, Kakrala Rd",Kakrala,243637,Uttar Pradesh,IN,https://www.google.com/maps/place/Taad+Waali+Masjid/data=!4m7!3m6!1s0x397542b475aeec37:0x734e6dea2cec7688!8m2!3d27.891255!4d79.1958865!16s%2Fg%2F11dzdc6vry!19sChIJN-yudbRCdTkRiHbsLOptTnM?authuser=0&hl=en&rclk=1,"27.891254999999997,79.1958865"
JAMA MASJID UMAR BIN KHATTAB,Mosque,"G8W3+XWV JAMA MASJID UMAR BIN KHATTAB, Kalindi Kunj Rd, Block H, Jamia Nagar, Okhla, New Delhi, Delhi 110025","Block H, Jamia Nagar, Okhla","G8W3+XWV, Kalindi Kunj Rd",New Delhi,110025,Delhi,IN,https://www.google.com/maps/place/JAMA+MASJID+UMAR+BIN+KHATTAB/data=!4m7!3m6!1s0x390ce51eb7ea0bfd:0xe968824c610cc265!8m2!3d28.5474867!4d77.3047909!16s%2Fg%2F11h7p6jtqd!19sChIJ_Qvqtx7lDDkRZcIMYUyCaOk?authuser=0&hl=en&rclk=1,"28.5474867,77.3047909"
Qasmi Masjid,Mosque,"Qasmi Masjid, Kakrala, Uttar Pradesh 243637",,,Kakrala,243637,Uttar Pradesh,IN,https://www.google.com/maps/place/Qasmi+Masjid/data=!4m7!3m6!1s0x397542b3b825d189:0xfd9399e3c29550e6!8m2!3d27.8889926!4d79.1960581!16s%2Fg%2F11cp91362h!19sChIJidEluLNCdTkR5lCVwuOZk_0?authuser=0&hl=en&rclk=1,"27.888992599999998,79.1960581"
"Jama Masjid, Mindholi",Mosque,"W4H6+6HR Jama Masjid, Mindholi, Unnamed Road,, Uttar Pradesh 243601",,"W4H6+6HR, Unnamed Road,",Medholi,243601,Uttar Pradesh,IN,"https://www.google.com/maps/place/Jama+Masjid,+Mindholi/data=!4m7!3m6!1s0x397543d8f43bea1b:0x151eed4b0e14129d!8m2!3d27.9281075!4d79.1113928!16s%2Fg%2F11c2nk644s!19sChIJG-o79NhDdTkRnRIUDkvtHhU?authuser=0&hl=en&rclk=1","27.9281075,79.11139279999999"
Masjid (Mosque),Mosque,"95FQ+82P Masjid (Mosque), Home, Hisavati, Uttar Pradesh 203390",,"95FQ+82P, Home",Hisavati,,Uttar Pradesh,IN,https://www.google.com/maps/place/Masjid+%28Mosque%29/data=!4m7!3m6!1s0x390b45c4547b6f7f:0x42e22913e5fdee6!8m2!3d28.373339!4d78.1875815!16s%2Fg%2F11hbnvrf22!19sChIJf297VMRFCzkR5t5fPpEiLgQ?authuser=0&hl=en&rclk=1,"28.373338999999998,78.1875815"
Madina Masjid,Mosque,"W556+2PQ Madina Masjid, Behta Dambarnagar, Uttar Pradesh 243637",,W556+2PQ,Behta Dambarnagar,243637,Uttar Pradesh,IN,https://www.google.com/maps/place/Madina+Masjid/data=!4m7!3m6!1s0x397542fa40ab31fb:0x95a65f0f99045385!8m2!3d27.9075933!4d79.161863!16s%2Fg%2F11gc8msz3k!19sChIJ-zGrQPpCdTkRhVMEmQ9fppU?authuser=0&hl=en&rclk=1,"27.9075933,79.161863"
SHAHI JAMA MASJID jm` msjd shhy,Mosque,"SHAHI JAMA MASJID jm` msjd shhy, 22, foot road, Shram Vihar, Pocket N, Madanpur Khadar, New Delhi, Delhi 110025","Shram Vihar, Pocket N, Madanpur Khadar","22, foot road",New Delhi,110025,Delhi,IN,https://www.google.com/maps/place/SHAHI+JAMA+MASJID+%D8%AC%D8%A7%D9%85%D8%B9+%D9%85%D8%B3%D8%AC%D8%AF+%D8%B4%D8%A7%DA%BE%DB%8C%E2%80%AD/data=!4m7!3m6!1s0x390ce5a36ba3a95d:0x7cb7c1435cda3fd2!8m2!3d28.5405938!4d77.3038368!16s%2Fg%2F11n733rllr!19sChIJXamja6PlDDkR0j_aXEPBt3w?authuser=0&hl=en&rclk=1,"28.5405938,77.3038368"
Masjid,Mosque,"Masjid, C-78/6, Ghazipur Dairy Farm, Ghazipur, New Delhi, Delhi, 110091","Ghazipur Dairy Farm, Ghazipur",C-78/6,"New Delhi, Delhi",110091,Delhi,IN,https://www.google.com/maps/place/Masjid/data=!4m7!3m6!1s0x390ce59d2385649b:0xb67be5c3e3ed3d8!8m2!3d28.621932!4d77.3237081!16s%2Fg%2F11r6dvzgp5!19sChIJm2SFI53lDDkR2NM-Ply-Zws?authuser=0&hl=en&rclk=1,"28.621931999999997,77.32370809999999"
Khere Wali Masjid,Mosque,"V6Q5+56J Khere Wali Masjid, Uraulia, Uttar Pradesh 243637",,V6Q5+56J,Uraulia,243637,Uttar Pradesh,IN,https://www.google.com/maps/place/Khere+Wali+Masjid/data=!4m7!3m6!1s0x39755d4e49b3dc6d:0xd02df38fbec8cd89!8m2!3d27.8879576!4d79.2080006!16s%2Fg%2F11hbw59mqw!19sChIJbdyzSU5ddTkRic3Ivo_zLdA?authuser=0&hl=en&rclk=1,"27.8879576,79.20800059999999"
Qadri Masjid,Mosque,"W48V+662 Qadri Masjid, Kundeli Badullaganj, PS, Dist, Kadar Chowk, Uttar Pradesh 243637",Dist,"W48V+662, Kundeli Badullaganj, PS","Kadar Chowk, Kundeli Badullaganj",243637,Uttar Pradesh,IN,https://www.google.com/maps/place/Qadri+Masjid/data=!4m7!3m6!1s0x3975435cff146d6b:0xc0ca302aeafa906e!8m2!3d27.9155111!4d79.1430132!16s%2Fg%2F11jvdpxc72!19sChIJa20U_1xDdTkRbpD66iowysA?authuser=0&hl=en&rclk=1,"27.9155111,79.1430132"
kabristan wali masjid,Mosque,"kabristan wali masjid, Bankhiria, Uttar Pradesh 243631",,,Bankhiria,,Uttar Pradesh,IN,https://www.google.com/maps/place/kabristan+wali+masjid/data=!4m7!3m6!1s0x39755da9f7c55e2b:0x103079f9acc72d82!8m2!3d27.9182567!4d79.2459639!16s%2Fg%2F124swn1r1!19sChIJK17F96lddTkRgi3HrPl5MBA?authuser=0&hl=en&rclk=1,"27.918256699999997,79.24596389999999"
Noorani Masjid,Mosque,"V5PV+R7F Noorani Masjid, Link Rd, Kakrala, Uttar Pradesh 243637",,"V5PV+R7F, Link Rd",Kakrala,243637,Uttar Pradesh,IN,https://www.google.com/maps/place/Noorani+Masjid/data=!4m7!3m6!1s0x397542b1913ae103:0x7a802697481cea87!8m2!3d27.8870717!4d79.193166!16s%2Fg%2F11gf62lqlm!19sChIJA-E6kbFCdTkRh-ocSJcmgHo?authuser=0&hl=en&rclk=1,"27.8870717,79.19316599999999"
Mosque msjd,Mosque,"J76X+W9R Mosque msjd, New, Kotla Village, Mayur Vihar, New Delhi, Delhi 110091","Kotla Village, Mayur Vihar","J76X+W9R, New","New Delhi, Delhi",110091,Delhi,IN,https://www.google.com/maps/place/Mosque+%D9%85%D8%B3%D8%AC%D8%AF%E2%80%AD/data=!4m7!3m6!1s0x390ce4bcc9c6272b:0x172c875eb9dd78e2!8m2!3d28.612373!4d77.2984052!16s%2Fg%2F11c3182y_w!19sChIJKyfGybzkDDkR4njduV6HLBc?authuser=0&hl=en&rclk=1,"28.612372999999998,77.29840519999999"
Ishaq Masjid,Mosque,"Ishaq Masjid, Ishaq Masjid Wali Gali, Block C, Sarai Kale Khan, New Delhi, Delhi 110013","Block C, Sarai Kale Khan",Ishaq Masjid Wali Gali,New Delhi,110013,Delhi,IN,https://www.google.com/maps/place/Ishaq+Masjid/data=!4m7!3m6!1s0x390ce376f8a80f59:0x43d242dbd3376818!8m2!3d28.5849571!4d77.2565889!16s%2Fg%2F11q2tx_6x1!19sChIJWQ-o-HbjDDkRGGg309tC0kM?authuser=0&hl=en&rclk=1,"28.5849571,77.2565889"
Masjid,Mosque,"H77Q+868 Masjid, Okhla Village, Okhla, New Delhi, Delhi 110025","Okhla Village, Okhla",H77Q+868,New Delhi,110025,Delhi,IN,https://www.google.com/maps/place/Masjid/data=!4m7!3m6!1s0x390ce47512f7aa2b:0x544337a9b9e5d7a2!8m2!3d28.5632814!4d77.2880932!16s%2Fg%2F11gbtpj5td!19sChIJK6r3EnXkDDkRotfluak3Q1Q?authuser=0&hl=en&rclk=1,"28.563281399999997,77.28809319999999"
Noori Masjid,Mosque,"V6Q3+M22 Noori Masjid, Uroliya, Uraulia, Uttar Pradesh 243637",Uroliya,V6Q3+M22,Uraulia,243637,Uttar Pradesh,IN,https://www.google.com/maps/place/Noori+Masjid/data=!4m7!3m6!1s0x39755d4cfee2bb5d:0xeb249d90125ce608!8m2!3d27.8891273!4d79.2025264!16s%2Fg%2F12qf7dybb!19sChIJXbvi_kxddTkRCOZcEpCdJOs?authuser=0&hl=en&rclk=1,"27.8891273,79.2025264"
jama masjid jagat,Mosque,"X67Q+J5F jama masjid jagat, Jagat, Uttar Pradesh 243601",,X67Q+J5F,Jagat,243601,Uttar Pradesh,IN,https://www.google.com/maps/place/jama+masjid+jagat/data=!4m7!3m6!1s0x39755c838afefef7:0xc73888c88038a6bf!8m2!3d27.9640668!4d79.2379319!16s%2Fg%2F124t5bzb2!19sChIJ9_7-ioNcdTkRv6Y4gMiIOMc?authuser=0&hl=en&rclk=1,"27.964066799999998,79.23793189999999"
Matka Masjid,Mosque,"V5VW+7FV Matka Masjid, Kakrala-Ushait Rd, Main market, Kakrala, Uttar Pradesh 243637",Main market,"V5VW+7FV, Kakrala-Ushait Rd",Kakrala,243637,Uttar Pradesh,IN,https://www.google.com/maps/place/Matka+Masjid/data=!4m7!3m6!1s0x397542b445b48f67:0x6a45e29a63b60457!8m2!3d27.8932446!4d79.196164!16s%2Fg%2F11h9r2fkx8!19sChIJZ4-0RbRCdTkRVwS2Y5riRWo?authuser=0&hl=en&rclk=1,"27.8932446,79.196164"
Mr.SAHEEM MALIK,Mosque,"Mr.SAHEEM MALIK, Gali no. 3 - Tirpal Factory Mustafabad, near Ayisha masjid, 25 Futa Rd, near by Aisha Masjid, chowk, Delhi 110094","Shakti Vihar, Old Mustafabad, chowk","Gali no. 3 - Tirpal Factory Mustafabad, near Ayisha masjid, 25 Futa Rd, near by Aisha Masjid",Delhi,110094,Delhi,IN,https://www.google.com/maps/place/Mr.SAHEEM+MALIK/data=!4m7!3m6!1s0x390cfd9a44cd4997:0xffdc8860c53e3f2b!8m2!3d28.7159667!4d77.272238!16s%2Fg%2F11h3cwgc8y!19sChIJl0nNRJr9DDkRKz8-xWCI3P8?authuser=0&hl=en&rclk=1,"28.7159667,77.272238"
Maniharo Wali Masjid,Mosque,"X64H+G3V Maniharo Wali Masjid, Sakhanu, Uttar Pradesh 243601",,X64H+G3V,Sakhanu,243601,Uttar Pradesh,IN,https://www.google.com/maps/place/Maniharo+Wali+Masjid/data=!4m7!3m6!1s0x39755c974f1de569:0x83e44a15225064da!8m2!3d27.9563521!4d79.2276656!16s%2Fg%2F11hb45vbbd!19sChIJaeUdT5dcdTkR2mRQIhVK5IM?authuser=0&hl=en&rclk=1,"27.9563521,79.2276656"
Madina Masjid,Mosque,"V6PR+G3H Madina Masjid, nagra mohalla, Bilhari, Azamnagar, Uttar Pradesh 243637",nagra mohalla,V6PR+G3H,"Bilhari, Azamnagar",,Uttar Pradesh,IN,https://www.google.com/maps/place/Madina+Masjid/data=!4m7!3m6!1s0x39755d94ee3e5483:0x8e16a60096e765d0!8m2!3d27.8863075!4d79.2402404!16s%2Fg%2F11h6crgmjt!19sChIJg1Q-7pRddTkR0GXnlgCmFo4?authuser=0&hl=en&rclk=1,"27.886307499999997,79.24024039999999"
Masjid Shekhon Wali,Mosque,"V5VX+62R Masjid Shekhon Wali, Kakrala West, Kakrala, Uttar Pradesh 243637",Kakrala West,V5VX+62R,Kakrala,243637,Uttar Pradesh,IN,https://www.google.com/maps/place/Masjid+Shekhon+Wali/data=!4m7!3m6!1s0x397542b4f6abcd63:0xee588463207b6b10!8m2!3d27.8931125!4d79.1975075!16s%2Fg%2F11g02x98h5!19sChIJY82r9rRCdTkREGt7IGOEWO4?authuser=0&hl=en&rclk=1,"27.893112499999997,79.1975075"
"sunni ,masjid",Mosque,"V7MJ+RHP sunni ,masjid, SH 43, Miaun, Uttar Pradesh 243631",,"V7MJ+RHP, SH 43",Miaun,243631,Uttar Pradesh,IN,"https://www.google.com/maps/place/sunni+,masjid/data=!4m7!3m6!1s0x39755df9a13bbf9f:0x6477ac557e3ce025!8m2!3d27.8845832!4d79.2814686!16s%2Fg%2F124syvrtd!19sChIJn787oflddTkRJeA8flWsd2Q?authuser=0&hl=en&rclk=1","27.884583199999998,79.2814686"
Norani masjid,Mosque,"W557+FF4 Norani masjid, Behta Dambarnagar, Uttar Pradesh 243601",,W557+FF4,Behta Dambarnagar,243601,Uttar Pradesh,IN,https://www.google.com/maps/place/Norani+masjid/data=!4m7!3m6!1s0x397543a9d84564d3:0xc8032c8b42158f7a!8m2!3d27.9086315!4d79.1637035!16s%2Fg%2F11rcbj6rws!19sChIJ02RF2KlDdTkReo8VQossA8g?authuser=0&hl=en&rclk=1,"27.9086315,79.1637035"
Rehman Masjid,Mosque,"V5PR+MC5 Rehman Masjid, Kakrala, Uttar Pradesh 243637",,V5PR+MC5,Kakrala,243637,Uttar Pradesh,IN,https://www.google.com/maps/place/Rehman+Masjid/data=!4m7!3m6!1s0x397542b04979c7dd:0x767b1da1d3cd76ad!8m2!3d27.886643!4d79.1911188!16s%2Fg%2F11gf68hr58!19sChIJ3cd5SbBCdTkRrXbN06Ede3Y?authuser=0&hl=en&rclk=1,"27.886643,79.1911188"
Maryam Masjid,Mosque,"ward no 03 Ward no, Maryam Masjid, 03, Kakrala West, Kakrala, Uttar Pradesh 243637",Kakrala West,"ward no 03 Ward no, 03",Kakrala,243637,Uttar Pradesh,IN,https://www.google.com/maps/place/Maryam+Masjid/data=!4m7!3m6!1s0x3975432b4a6379d1:0xb94d4fac51416d4f!8m2!3d27.8910436!4d79.193095!16s%2Fg%2F11rp0537hg!19sChIJ0XljSitDdTkRT21BUaxPTbk?authuser=0&hl=en&rclk=1,"27.8910436,79.193095"
Masjid Kale Khan,Mosque,"V5VV+6VP Masjid Kale Khan, Shah Saqlain Rd, Kakrala West, ghas bajar, Kakrala, Uttar Pradesh 243637","Kakrala West, ghas bajar","V5VV+6VP, Shah Saqlain Rd",Kakrala,243637,Uttar Pradesh,IN,https://www.google.com/maps/place/Masjid+Kale+Khan/data=!4m7!3m6!1s0x397542b425d6354f:0x79927c25904dd56!8m2!3d27.8930947!4d79.1947113!16s%2Fg%2F11gdkkj6dn!19sChIJTzXWJbRCdTkRVt0EWcInmQc?authuser=0&hl=en&rclk=1,"27.8930947,79.1947113"
HADHRAT UMAR MASJID ALMAROOF CHOTI MASJID,Mosque,"HADHRAT UMAR MASJID ALMAROOF CHOTI MASJID, Chotti Masjid, Street number 9, Mulla Colony, Gharoli Extension, Gharoli, Delhi, 110096","Mulla Colony, Gharoli Extension, Gharoli","Chotti Masjid, Street number 9",Delhi,110096,Delhi,IN,https://www.google.com/maps/place/HADHRAT+UMAR+MASJID+ALMAROOF+CHOTI+MASJID/data=!4m7!3m6!1s0x390ce5c6cf830b2f:0x6bb8084dadf0d513!8m2!3d28.6213398!4d77.3314246!16s%2Fg%2F11sy4vfb7s!19sChIJLwuDz8blDDkRE9XwrU0IuGs?authuser=0&hl=en&rclk=1,"28.621339799999998,77.33142459999999"
Masjid,Mosque,"Masjid, 42C, Central Auto Market, Block B, Sector 16, Noida, Uttar Pradesh 201301","Central Auto Market, Block B, Sector 16",42C,Noida,201301,Uttar Pradesh,IN,https://www.google.com/maps/place/Masjid/data=!4m7!3m6!1s0x390ce45b6e8b8d05:0x1c6debc04866e60!8m2!3d28.577362!4d77.31624!16s%2Fg%2F11c6rj0f0y!19sChIJBY2LblvkDDkRYG6GBLzexgE?authuser=0&hl=en&rclk=1,"28.577361999999997,77.31624"
Masjid,Mosque,"P9HF+33Q Masjid, Farukh Nagar, Uttar Pradesh 201003",,P9HF+33Q,Farukh Nagar,201003,Uttar Pradesh,IN,https://www.google.com/maps/place/Masjid/data=!4m7!3m6!1s0x390cfa018875b495:0xeea7b0caec7e470d!8m2!3d28.7277145!4d77.3727433!16s%2Fg%2F11f0krqvls!19sChIJlbR1iAH6DDkRDUd-7Mqwp-4?authuser=0&hl=en&rclk=1,"28.727714499999998,77.3727433"
Jama Masjid,Mosque,"W556+8MJ Jama Masjid, Behta Dambarnagar, Uttar Pradesh 243601",,W556+8MJ,Behta Dambarnagar,,Uttar Pradesh,IN,https://www.google.com/maps/place/Jama+Masjid/data=!4m7!3m6!1s0x397543763995c57b:0x91b37773b8eeafd!8m2!3d27.9083276!4d79.1616276!16s%2Fg%2F11j0q149qc!19sChIJe8WVOXZDdTkR_eqOO3c3Gwk?authuser=0&hl=en&rclk=1,"27.9083276,79.1616276"
Darsgah Islamiya Urauliya,Mosque,"V6Q5+2V5 Darsgah Islamiya Urauliya, Uraulia, Uttar Pradesh 243637",,V6Q5+2V5,Uraulia,243637,Uttar Pradesh,IN,https://www.google.com/maps/place/Darsgah+Islamiya+Urauliya/data=!4m7!3m6!1s0x39755dae74a614b1:0x7f3ca80298f31c40!8m2!3d27.8875205!4d79.2097472!16s%2Fg%2F11ghs29_yn!19sChIJsRSmdK5ddTkRQBzzmAKoPH8?authuser=0&hl=en&rclk=1,"27.887520499999997,79.2097472"
BADI JAMA MASJID,Mosque,"W5MJ+4GF BADI JAMA MASJID, Gabhiyae, Mohanpura, Uttar Pradesh 243601",,W5MJ+4GF,"Gabhiyae, Mohanpura",,Uttar Pradesh,IN,https://www.google.com/maps/place/BADI+JAMA+MASJID/data=!4m7!3m6!1s0x3975439f493e53c9:0xc5fc2215ecd38b9f!8m2!3d27.9328162!4d79.1812824!16s%2Fg%2F11ls3j2xrz!19sChIJyVM-SZ9DdTkRn4vT7BUi_MU?authuser=0&hl=en&rclk=1,"27.932816199999998,79.1812824"
Qadri masjid mubarikpur,Lodging,"Q6MH+42J Qadri masjid mubarikpur, Unnamed Road, Prithi Nagla, Uttar Pradesh 243641",,"Q6MH+42J, Unnamed Road",Prithi Nagla,243641,Uttar Pradesh,IN,https://www.google.com/maps/place/Qadri+masjid+mubarikpur/data=!4m7!3m6!1s0x397565bc2e4400fb:0xcad5091ea7add9b2!8m2!3d27.782835!4d79.2275258!16s%2Fg%2F11hr8lvpgt!19sChIJ-wBELrxldTkRstmtpx4J1co?authuser=0&hl=en&rclk=1,"27.782835,79.2275258"
Masjid musalla,Mosque,"Masjid musalla, A-89, A Block, Sector 10, Noida, Uttar Pradesh 201301","A Block, Sector 10",A-89,Noida,201301,Uttar Pradesh,IN,https://www.google.com/maps/place/Masjid+musalla/data=!4m7!3m6!1s0x390ce5901959d42b:0x7fb1c9f04066b8b5!8m2!3d28.5883346!4d77.3290123!16s%2Fg%2F11kbpj87y4!19sChIJK9RZGZDlDDkRtbhmQPDJsX8?authuser=0&hl=en&rclk=1,"28.5883346,77.3290123"
Beechwali Masjid,School,"ward No 11, Beechwali Masjid, Usahait, Uttar Pradesh 243641",,ward No 11,Usahait,,Uttar Pradesh,IN,https://www.google.com/maps/place/Beechwali+Masjid/data=!4m7!3m6!1s0x3975672b3476c475:0xa3ee6dca5e5ce8da!8m2!3d27.7972149!4d79.2376536!16s%2Fg%2F11gms_pcpc!19sChIJdcR2NCtndTkR2uhcXspt7qM?authuser=0&hl=en&rclk=1,"27.7972149,79.2376536"
New masjid,Mosque,"V6P5+JCG New masjid, Unnamed Road, Kakrala, Uraulia, Uttar Pradesh 243637",,"V6P5+JCG, Unnamed Road","Kakrala, Uraulia",243637,Uttar Pradesh,IN,https://www.google.com/maps/place/New+masjid/data=!4m7!3m6!1s0x39755d82b3440dbf:0xfaccd22dacbd458f!8m2!3d27.8865724!4d79.2085692!16s%2Fg%2F11lgs05shv!19sChIJvw1Es4JddTkRj0W9rC3SzPo?authuser=0&hl=en&rclk=1,"27.8865724,79.2085692"
Syed Ibrahim Masjid,Mosque,"V5VQ+34J Syed Ibrahim Masjid, Mohallah Gadda, Kakrala, Uttar Pradesh 243637",Mohallah Gadda,V5VQ+34J,Kakrala,243637,Uttar Pradesh,IN,https://www.google.com/maps/place/Syed+Ibrahim+Masjid/data=!4m7!3m6!1s0x397542b9cf63d5c5:0xf258ee6e9ef97fe3!8m2!3d27.8927059!4d79.1877643!16s%2Fg%2F11hbg89rpg!19sChIJxdVjz7lCdTkR43_5nm7uWPI?authuser=0&hl=en&rclk=1,"27.8927059,79.1877643"
wahabiya masjid,Mosque,"X67Q+RFR wahabiya masjid, Jagat, Uttar Pradesh 243601",,X67Q+RFR,Jagat,243601,Uttar Pradesh,IN,https://www.google.com/maps/place/wahabiya+masjid/data=!4m7!3m6!1s0x39755c83f047afe7:0xf23a143329a6876b!8m2!3d27.9646027!4d79.238629!16s%2Fg%2F124sxdq6w!19sChIJ569H8INcdTkRa4emKTMUOvI?authuser=0&hl=en&rclk=1,"27.9646027,79.238629"
Badi masjid Maiboochan,Mosque,"X528+J2R Badi masjid Maiboochan, Upraira, Uttar Pradesh 243601",,X528+J2R,Upraira,243601,Uttar Pradesh,IN,https://www.google.com/maps/place/Badi+masjid+Maiboochan/data=!4m7!3m6!1s0x397543701203a405:0x7f6c06613ee0e882!8m2!3d27.9516182!4d79.1650132!16s%2Fg%2F11f3vdx9nd!19sChIJBaQDEnBDdTkRgujgPmEGbH8?authuser=0&hl=en&rclk=1,"27.9516182,79.16501319999999"
Jama masjid,Mosque,"W4W7+RQ7 Jama masjid, Bhadsia Bhamuiya, Uttar Pradesh 243601",,W4W7+RQ7,Bhadsia Bhamuiya,243601,Uttar Pradesh,IN,https://www.google.com/maps/place/Jama+masjid/data=!4m7!3m6!1s0x39754327b7c1cbad:0x539819d2a5485c3!8m2!3d27.9470298!4d79.1144099!16s%2Fg%2F11sxvwc76m!19sChIJrcvBtydDdTkRw4VUKp2BOQU?authuser=0&hl=en&rclk=1,"27.9470298,79.1144099"
Banjaron wali masjid sakhanu,Mosque,"X63G+7RQ Banjaron wali masjid sakhanu, Sakhanu, Uttar Pradesh 243601",,X63G+7RQ,Sakhanu,243601,Uttar Pradesh,IN,https://www.google.com/maps/place/Banjaron+wali+masjid+sakhanu/data=!4m7!3m6!1s0x39755d9d3d5369d5:0x556abb4f4b4da2a7!8m2!3d27.9522698!4d79.2272948!16s%2Fg%2F11pcnz3nwy!19sChIJ1WlTPZ1ddTkRp6JNS0-7alU?authuser=0&hl=en&rclk=1,"27.9522698,79.2272948"
Masjid E Ahlehadith,Mosque,"62RJ+6VC Masjid E Ahlehadith, Raharia, Uttar Pradesh 243725",,62RJ+6VC,Raharia,,Uttar Pradesh,IN,https://www.google.com/maps/place/Masjid+E+Ahlehadith/data=!4m7!3m6!1s0x390ab5844499c495:0xd13d404ff9a29dc1!8m2!3d28.2405733!4d79.0321342!16s%2Fg%2F11hdvwcn0j!19sChIJlcSZRIS1CjkRwZ2i-U9APdE?authuser=0&hl=en&rclk=1,"28.240573299999998,79.0321342"
Masjid,Mosque,"Masjid, Gali No 19, Gali Number 1, Mustafabad Extn, New Mustafabad, Delhi, 110094","E2 Block, Mustafabad Extn, New Mustafabad","Gali No 19, Gali Number 1",Delhi,110094,Delhi,IN,https://www.google.com/maps/place/Masjid/data=!4m7!3m6!1s0x390cfc1b020b0e91:0xb48a3c3233e41cbd!8m2!3d28.711773!4d77.272563!16s%2Fg%2F12hpqnhjr!19sChIJkQ4LAhv8DDkRvRzkMzI8irQ?authuser=0&hl=en&rclk=1,"28.711772999999997,77.27256299999999"
Gousiya Masjid Aspur,Mosque,"W66C+QFJ Gousiya Masjid Aspur, Aspur, Uttar Pradesh 243631",,W66C+QFJ,Aspur,,Uttar Pradesh,IN,https://www.google.com/maps/place/Gousiya+Masjid+Aspur/data=!4m7!3m6!1s0x39755d424ec24a1b:0x3cd95893cce856a9!8m2!3d27.9119638!4d79.2211476!16s%2Fg%2F11h3p0_7n6!19sChIJG0rCTkJddTkRqVbozJNY2Tw?authuser=0&hl=en&rclk=1,"27.9119638,79.2211476"
Masjid Abu Bakr,Mosque,"V5QV+F9V Masjid Abu Bakr, Kakrala, Uttar Pradesh 243637",,V5QV+F9V,Kakrala,243637,Uttar Pradesh,IN,https://www.google.com/maps/place/Masjid+Abu+Bakr/data=!4m7!3m6!1s0x397542b171c59adb:0xcd066ab9950d628c!8m2!3d27.888741!4d79.1934248!16s%2Fg%2F11f3sb8yzg!19sChIJ25rFcbFCdTkRjGINlblqBs0?authuser=0&hl=en&rclk=1,"27.888741,79.1934248"
Garib Nawaz masjid,Mosque,"X63G+CRG Garib Nawaz masjid, Sakhanu, Uttar Pradesh 243601",,X63G+CRG,Sakhanu,243601,Uttar Pradesh,IN,https://www.google.com/maps/place/Garib+Nawaz+masjid/data=!4m7!3m6!1s0x39755d394a576c43:0x806dde819ab7576b!8m2!3d27.9535178!4d79.2270078!16s%2Fg%2F11pcnyflb_!19sChIJQ2xXSjlddTkRa1e3moHebYA?authuser=0&hl=en&rclk=1,"27.9535178,79.2270078"
Chhoti Masjid,Mosque,"X528+RGR Chhoti Masjid, Upraira, Uttar Pradesh 243601",,X528+RGR,Upraira,243601,Uttar Pradesh,IN,https://www.google.com/maps/place/Chhoti+Masjid/data=!4m7!3m6!1s0x397543148f7ee593:0x45eadb0bbb8691aa!8m2!3d27.9521123!4d79.1662638!16s%2Fg%2F11fktht6gb!19sChIJk-V-jxRDdTkRqpGGuwvb6kU?authuser=0&hl=en&rclk=1,"27.9521123,79.1662638"
Qadri Masjid ikri,Mosque,"W6P2+J22 Qadri Masjid ikri, Ekri, Uttar Pradesh 243601",,W6P2+J22,Ekri,243601,Uttar Pradesh,IN,https://www.google.com/maps/place/Qadri+Masjid+ikri/data=!4m7!3m6!1s0x39754364f8a9ef85:0x10ac67d7f53cdb45!8m2!3d27.9364778!4d79.1986957!16s%2Fg%2F11q497_d4x!19sChIJhe-p-GRDdTkRRds89ddnrBA?authuser=0&hl=en&rclk=1,"27.9364778,79.1986957"
Khajoor Wali Masjid,Mosque,"W4X7+MF8 Khajoor Wali Masjid, Budaun, Bhadsia Bhamuiya, Uttar Pradesh 243601",,W4X7+MF8,"Budaun, Bhadsia Bhamuiya",,Uttar Pradesh,IN,https://www.google.com/maps/place/Khajoor+Wali+Masjid/data=!4m7!3m6!1s0x39754369b908f1ef:0x5528835c78616090!8m2!3d27.9491714!4d79.1137096!16s%2Fg%2F11t6yyjdyy!19sChIJ7_EIuWlDdTkRkGBheFyDKFU?authuser=0&hl=en&rclk=1,"27.949171399999997,79.11370959999999"
Chand Masjid Sisoura,Mosque,"V79G+CQC Chand Masjid Sisoura, Rijola, Uttar Pradesh 243631",,V79G+CQC,Rijola,,Uttar Pradesh,IN,https://www.google.com/maps/place/Chand+Masjid+Sisoura/data=!4m7!3m6!1s0x39756774490a1001:0x7cd63ef6feae66e6!8m2!3d27.8685506!4d79.2768935!16s%2Fg%2F11q2p96mhw!19sChIJARAKSXRndTkR5mau_vY-1nw?authuser=0&hl=en&rclk=1,"27.8685506,79.2768935"
Eidgha Masjid gali,Housing society,"R7X5+QRQ Eidgha Masjid gali, Mirzapur Atiraj, Uttar Pradesh 243631",,R7X5+QRQ,Mirzapur Atiraj,243631,Uttar Pradesh,IN,https://www.google.com/maps/place/Eidgha+Masjid+gali/data=!4m7!3m6!1s0x3975676d4f01bbad:0xd9095bbe4fe27458!8m2!3d27.8488927!4d79.258688!16s%2Fg%2F11sf4bjsb5!19sChIJrbsBT21ndTkRWHTiT75bCdk?authuser=0&hl=en&rclk=1,"27.8488927,79.25868799999999"
Shaqura Baad Masjid,Mosque,"V5VW+R26 Shaqura Baad Masjid, Ward Number 14, Kakrala, Uttar Pradesh 243637",Ward Number 14,V5VW+R26,Kakrala,243637,Uttar Pradesh,IN,https://www.google.com/maps/place/Shaqura+Baad+Masjid/data=!4m7!3m6!1s0x397543fcb4c2fcff:0x5d24e6346333f6db!8m2!3d27.8945442!4d79.1950261!16s%2Fg%2F11hzk_0mf7!19sChIJ__zCtPxDdTkR2_YzYzTmJF0?authuser=0&hl=en&rclk=1,"27.8945442,79.19502609999999"
Rithia jama masjid,Mosque,"V9GH+P4M Rithia jama masjid, Rithia, Uttar Pradesh 243631",,V9GH+P4M,Rithia,,Uttar Pradesh,IN,https://www.google.com/maps/place/Rithia+jama+masjid/data=!4m7!3m6!1s0x397561601fc82cd7:0x92d1500159f71e3c!8m2!3d27.8768475!4d79.3778066!16s%2Fg%2F11kj6qlvq2!19sChIJ1yzIH2BhdTkRPB73WQFQ0ZI?authuser=0&hl=en&rclk=1,"27.8768475,79.3778066"
Irfan idreesi auliya masjid,Mosque,"G7C5+C8J Irfan idreesi auliya masjid, Churriua Mohalla, Tughlakabad Extension, Tughlakabad, Vishunpur, New Delhi, Uttar Pradesh 110019","Churriua Mohalla, Tughlakabad Extension, Tughlakabad",G7C5+C8J,"Vishunpur, New Delhi",,Uttar Pradesh,IN,https://www.google.com/maps/place/Irfan+idreesi+auliya+masjid/data=!4m7!3m6!1s0x390ce1e062243d01:0xb063225687d5ec8f!8m2!3d28.521097!4d77.2582615!16s%2Fg%2F11sryn86gh!19sChIJAT0kYuDhDDkRj-zVh1YiY7A?authuser=0&hl=en&rclk=1,"28.521096999999997,77.2582615"
Jama Masjid Masoodpura,Mosque,"V62V+G4 Jama Masjid Masoodpura, Masoodpura, Uttar Pradesh 243641",,V62V+G4,Masoodpura,,Uttar Pradesh,IN,https://www.google.com/maps/place/Jama+Masjid+Masoodpura/data=!4m7!3m6!1s0x397567724bea33ff:0x7cbbbc06f2bbf4be!8m2!3d27.8512141!4d79.2428482!16s%2Fg%2F11l1ml5s5b!19sChIJ_zPqS3JndTkRvvS78ga8u3w?authuser=0&hl=en&rclk=1,"27.8512141,79.2428482"
Chishti masjid,Mosque,"V89G+7H3 Chishti masjid, Gauntara, Uttar Pradesh 243631",,V89G+7H3,Gauntara,243631,Uttar Pradesh,IN,https://www.google.com/maps/place/Chishti+masjid/data=!4m7!3m6!1s0x39756177e7697769:0xa8cc9554b50582fb!8m2!3d27.8687317!4d79.3263591!16s%2Fg%2F11s4t6j60y!19sChIJaXdp53dhdTkR-4IFtVSVzKg?authuser=0&hl=en&rclk=1,"27.868731699999998,79.32635909999999"
Masjid Noor_e_Mohmmadi,Mosque,"W66V+8FV Masjid Noor_e_Mohmmadi, Allapur, Uttar Pradesh 243631",,W66V+8FV,Allapur,243631,Uttar Pradesh,IN,https://www.google.com/maps/place/Masjid+Noor_e_Mohmmadi/data=!4m7!3m6!1s0x39755d2bc8f43b67:0x5db3d3b73606bf9!8m2!3d27.9108605!4d79.2436636!16s%2Fg%2F11vbt859tp!19sChIJZzv0yCtddTkR-Wtgczs92wU?authuser=0&hl=en&rclk=1,"27.9108605,79.24366359999999"
Jama masjid guramay,Mosque,"V6CC+XV6 Jama masjid guramay, Gauramai, Uttar Pradesh 243637",,V6CC+XV6,Gauramai,243637,Uttar Pradesh,IN,https://www.google.com/maps/place/Jama+masjid+guramay/data=!4m7!3m6!1s0x397567f2bdfa81ff:0xf74837cd19ca977!8m2!3d27.8725248!4d79.2222167!16s%2Fg%2F11srvb8c7j!19sChIJ_4H6vfJndTkRd6mc0XyDdA8?authuser=0&hl=en&rclk=1,"27.872524799999997,79.22221669999999"
Masjid hikmat ali khan,Mosque,"V5XW+C84 Masjid hikmat ali khan, Link Road, Kakrala West, Kakrala, Uttar Pradesh 243637",Kakrala West,"V5XW+C84, Link Road",Kakrala,243637,Uttar Pradesh,IN,https://www.google.com/maps/place/Masjid+hikmat+ali+khan/data=!4m7!3m6!1s0x3975439e594ee58b:0xbc210daeab63c503!8m2!3d27.8985131!4d79.1958385!16s%2Fg%2F11lrgzsbs2!19sChIJi-VOWZ5DdTkRA8Vjq64NIbw?authuser=0&hl=en&rclk=1,"27.8985131,79.1958385"
Badi masjid,Mosque,"W5CP+V9J Badi masjid, Gabhiyae, Uttar Pradesh 243601",,W5CP+V9J,Gabhiyae,,Uttar Pradesh,IN,https://www.google.com/maps/place/Badi+masjid/data=!4m7!3m6!1s0x3975435c37147851:0xbab72f33e085c9de!8m2!3d27.9222022!4d79.1858904!16s%2Fg%2F11v19h6ld9!19sChIJUXgUN1xDdTkR3smF4DMvt7o?authuser=0&hl=en&rclk=1,"27.922202199999997,79.18589039999999"
Qadri Masjid Lohather,Mosque,"W4HM+MVR Qadri Masjid Lohather, Budaun, Uttar Pradesh 243601",,W4HM+MVR,Budaun,243601,Uttar Pradesh,IN,https://www.google.com/maps/place/Qadri+Masjid+Lohather/data=!4m7!3m6!1s0x397543ee0e65a327:0x544189dc030f65fa!8m2!3d27.9292491!4d79.1346325!16s%2Fg%2F11s556crfq!19sChIJJ6NlDu5DdTkR-mUPA9yJQVQ?authuser=0&hl=en&rclk=1,"27.9292491,79.1346325"
Masjid syed sahab wali,Mosque,"X62G+4V Masjid syed sahab wali, Sakhanu, Uttar Pradesh 243601",,X62G+4V,Sakhanu,,Uttar Pradesh,IN,https://www.google.com/maps/place/Masjid+syed+sahab+wali/data=!4m7!3m6!1s0x39755d015234a743:0xcf641a31fa2cc4db!8m2!3d27.9503345!4d79.227164!16s%2Fg%2F11jt4rywgx!19sChIJQ6c0UgFddTkR28Qs-jEaZM8?authuser=0&hl=en&rclk=1,"27.9503345,79.227164"
kabristan wali masjid,Mosque,"V7JM+VCX kabristan wali masjid, SH 43, Miaun, Uttar Pradesh 243631",,"V7JM+VCX, SH 43",Miaun,243631,Uttar Pradesh,IN,https://www.google.com/maps/place/kabristan+wali+masjid/data=!4m7!3m6!1s0x39755df8c71e687b:0xf250147d90097499!8m2!3d27.882227!4d79.2836025!16s%2Fg%2F124t01wv3!19sChIJe2gex_hddTkRmXQJkH0UUPI?authuser=0&hl=en&rclk=1,"27.882227,79.2836025"
Zama masjid .mohammad ganj,Mosque,"W538+FPM Zama masjid .mohammad ganj, West, Kakrala, Behta Dambarnagar, Uttar Pradesh 243637",,"W538+FPM, West","Kakrala, Behta Dambarnagar",243637,Uttar Pradesh,IN,https://www.google.com/maps/place/Zama+masjid+.mohammad+ganj/data=!4m7!3m6!1s0x397543057c5e0325:0x10a9aea3aabe591!8m2!3d27.9036236!4d79.1667797!16s%2Fg%2F11rzc57drf!19sChIJJQNefAVDdTkRkeWrOuqaCgE?authuser=0&hl=en&rclk=1,"27.9036236,79.16677969999999"
Masjid Gedan Khan (Kira Bali Masjid),Mosque,"Masjid Gedan Khan (Kira Bali Masjid), Kirah, Kakrala, Uttar Pradesh 243637",Kirah,,Kakrala,243637,Uttar Pradesh,IN,https://www.google.com/maps/place/Masjid+Gedan+Khan+%28Kira+Bali+Masjid%29/data=!4m7!3m6!1s0x3975430e1e7edb3f:0x3e7041d1bb06cc98!8m2!3d27.8976431!4d79.1935244!16s%2Fg%2F11ghshnsh4!19sChIJP9t-Hg5DdTkRmMwGu9FBcD4?authuser=0&hl=en&rclk=1,"27.8976431,79.1935244"
Takia wali masjid,Mosque,"W66V+8FV Takia wali masjid, Allapur, Uttar Pradesh 243631",,W66V+8FV,Allapur,243631,Uttar Pradesh,IN,https://www.google.com/maps/place/Takia+wali+masjid/data=!4m7!3m6!1s0x39755d0029e2b77b:0xf2209a82add37c67!8m2!3d27.9108448!4d79.2437053!16s%2Fg%2F11y22l__rc!19sChIJe7fiKQBddTkRZ3zTrYKaIPI?authuser=0&hl=en&rclk=1,"27.9108605,79.24366359999999"
Miyan ji waali masjid allapur,Mosque,"W67V+J6G Miyan ji waali masjid allapur, Allapur, Uttar Pradesh 243631",,W67V+J6G,Allapur,243631,Uttar Pradesh,IN,https://www.google.com/maps/place/Miyan+ji+waali+masjid+allapur/data=!4m7!3m6!1s0x39755da9f63acef3:0xa78c6acaea581b25!8m2!3d27.9140668!4d79.2430876!16s%2Fg%2F11ptv6p2nb!19sChIJ88469qlddTkRJRtY6spqjKc?authuser=0&hl=en&rclk=1,"27.9140668,79.2430876"
Takiye wali masjid,Mosque,"W5JH+PX2 Takiye wali masjid, Kakrala - Budaun Rd, Gabhiyae, Mohanpura, Uttar Pradesh 243601",,"W5JH+PX2, Kakrala - Budaun Rd","Gabhiyae, Mohanpura",243601,Uttar Pradesh,IN,https://www.google.com/maps/place/Takiye+wali+masjid/data=!4m7!3m6!1s0x39754388a2deb649:0x4f15893c4516b894!8m2!3d27.9317678!4d79.1799048!16s%2Fg%2F11rcxkfzdh!19sChIJSbbeoohDdTkRlLgWRTyJFU8?authuser=0&hl=en&rclk=1,"27.9317678,79.1799048"
Jama masjid,Mosque,"V5P9+Q95 Jama masjid, Mohammad Ganj, Uttar Pradesh 243637",,V5P9+Q95,Mohammad Ganj,,Uttar Pradesh,IN,https://www.google.com/maps/place/Jama+masjid/data=!4m7!3m6!1s0x397543cab7534989:0x668a6b6834e3327c!8m2!3d27.8868996!4d79.1684702!16s%2Fg%2F11rzc6vjnt!19sChIJiUlTt8pDdTkRfDLjNGhrimY?authuser=0&hl=en&rclk=1,"27.8868996,79.1684702"
Nagre wali masjid,Mosque,"W66R+5PV Nagre wali masjid, Kakrala Rd, Allapur, Uttar Pradesh 243631",,"W66R+5PV, Kakrala Rd",Allapur,243631,Uttar Pradesh,IN,https://www.google.com/maps/place/Nagre+wali+masjid/data=!4m7!3m6!1s0x39755d98bd2b185b:0x66a7ca662b6acc12!8m2!3d27.9104869!4d79.2417862!16s%2Fg%2F11nmn4wrfd!19sChIJWxgrvZhddTkREsxqK2bKp2Y?authuser=0&hl=en&rclk=1,"27.9104869,79.24178619999999"
Islamiya masjid /madrasa,Mosque,"V5RX+C44 Islamiya masjid /madrasa, Kakrala West, Kakrala, Uttar Pradesh 243637",Kakrala West,V5RX+C44,Kakrala,243637,Uttar Pradesh,IN,https://www.google.com/maps/place/Islamiya+masjid+%2Fmadrasa/data=!4m7!3m6!1s0x397543ae53207647:0x113752988cf3de34!8m2!3d27.8910041!4d79.197838!16s%2Fg%2F11h886j88r!19sChIJR3YgU65DdTkRNN7zjJhSNxE?authuser=0&hl=en&rclk=1,"27.8910041,79.19783799999999"
Jama Masjid Kakrala,Mosque,"Jama Masjid Kakrala, Kakrala West, Kakrala, Uttar Pradesh 243637",Kakrala West,,Kakrala,243637,Uttar Pradesh,IN,https://www.google.com/maps/place/Jama+Masjid+Kakrala/data=!4m7!3m6!1s0x397542b6ee2eaaab:0x941b150060cb9fe3!8m2!3d27.8930396!4d79.1924361!16s%2Fg%2F11sscs4kkk!19sChIJq6ou7rZCdTkR45_LYAAVG5Q?authuser=0&hl=en&rclk=1,"27.893039599999998,79.1924361"
Chand Khan Masjid Kakrala,Mosque,"V5RR+JX8 Chand Khan Masjid Kakrala, Hussain Gali, Kakrala West, Kakrala, Uttar Pradesh 243637",Kakrala West,"V5RR+JX8, Hussain Gali",Kakrala,243637,Uttar Pradesh,IN,https://www.google.com/maps/place/Chand+Khan+Masjid+Kakrala/data=!4m7!3m6!1s0x3975439e14d6a959:0x2f0c34af5c72bdc3!8m2!3d27.891525!4d79.1924565!16s%2Fg%2F11kpljktrw!19sChIJWanWFJ5DdTkRw71yXK80DC8?authuser=0&hl=en&rclk=1,"27.891524999999998,79.19245649999999"
Saqlaini Masjid,Mosque,"V5VQ+PHM Saqlaini Masjid, Mohallah Gadda, Kakrala, Uttar Pradesh 243637",Mohallah Gadda,V5VQ+PHM,Kakrala,243637,Uttar Pradesh,IN,https://www.google.com/maps/place/Saqlaini+Masjid/data=!4m7!3m6!1s0x397542b788f15555:0x6055d9b079183354!8m2!3d27.8943437!4d79.1889099!16s%2Fg%2F11txmzm7c2!19sChIJVVXxiLdCdTkRVDMYebDZVWA?authuser=0&hl=en&rclk=1,"27.8943437,79.1889099"
