name,main_category,address,address_ward,address_street,address_city,address_postal_code,address_state,address_country_code,link,coordinates
Al Masjidur Rahmaniya,Religious destination,"Al Masjidur Rahmaniya, 3rd Main Rd, Subramaniapuram, Madurai, Tamil Nadu 625011",Subramaniapuram,3rd Main Rd,Madurai,625011,Tamil Nadu,IN,https://www.google.com/maps/place/Al+Masjidur+Rahmaniya/data=!4m7!3m6!1s0x3b00c57e72b47317:0xa37723f88d47b7f6!8m2!3d9.907889!4d78.1123259!16s%2Fg%2F11bt_gxwdd!19sChIJF3O0cn7FADsR9rdHjfgjd6M?authuser=0&hl=en&rclk=1,"9.907888999999999,78.1123259"
TNTJ MADURAI OFFICE (NOOR PALLIVASAL),Mosque,"W4FG+R7W TNTJ MADURAI OFFICE (NOOR PALLIVASAL), Karimsha Pallivasal Street, Ismailpuram, Lakshmipuram, Madurai, Tamil Nadu 625001",Ismailpuram,"W4FG+R7W, Karimsha Pallivasal Street","Lakshmipuram, Madurai",625001,Tamil Nadu,IN,https://www.google.com/maps/place/TNTJ+MADURAI+OFFICE+%28NOOR+PALLIVASAL%29/data=!4m7!3m6!1s0x3b00c5d87c1188dd:0xde8d9d67d40a8a20!8m2!3d9.9246045!4d78.1257152!16s%2Fg%2F11gtzpvhg_!19sChIJ3YgRfNjFADsRIIoK1Gedjd4?authuser=0&hl=en&rclk=1,"9.9246045,78.1257152"
Masjidul Aksa,Mosque,"Masjidul Aksa, 1/198, Thirumalai Nagar 1st St, Velnagar, Tiruppalai, Madurai, Tamil Nadu 625014","Velnagar, Tiruppalai","1/198, Thirumalai Nagar 1st St",Madurai,625014,Tamil Nadu,IN,https://www.google.com/maps/place/Masjidul+Aksa/data=!4m7!3m6!1s0x3b00c66bff521bbf:0xa2aff65ff290e93a!8m2!3d9.9740771!4d78.1390162!16s%2Fg%2F11f37pt61d!19sChIJvxtS_2vGADsROumQ8l_2r6I?authuser=0&hl=en&rclk=1,"9.974077099999999,78.1390162"
NOOR PALLIVASAL TNTJ HEAD MADURAI,Mosque,"NOOR PALLIVASAL TNTJ HEAD MADURAI, 28A/1 QAIDHE MILLATH NAGAR, 4th St, Madurai, 625001",Sellur,"28A/1 QAIDHE MILLATH NAGAR, 4th St",Madurai,625001,Tamil Nadu,IN,https://www.google.com/maps/place/NOOR+PALLIVASAL+TNTJ+HEAD+MADURAI/data=!4m7!3m6!1s0x3b00c55a614d0c91:0xc9337446a419f646!8m2!3d9.9318493!4d78.1252981!16s%2Fg%2F11h12x149g!19sChIJkQxNYVrFADsRRvYZpEZ0M8k?authuser=0&hl=en&rclk=1,"9.9318493,78.1252981"
Kazimar Big Mosque,Mosque,"Kazimar Big Mosque, Kazimar St, Periyar, Madurai Main, Madurai, Tamil Nadu 625001","Periyar, Madurai Main",Kazimar St,Madurai,625001,Tamil Nadu,IN,https://www.google.com/maps/place/Kazimar+Big+Mosque/data=!4m7!3m6!1s0x3b00c581d7d0773b:0x9bf62d7981443494!8m2!3d9.9128155!4d78.1142288!16s%2Fm%2F0gjd4k1!19sChIJO3fQ14HFADsRlDREgXkt9ps?authuser=0&hl=en&rclk=1,"9.912815499999999,78.11422879999999"
Melamasi Vethi Mosque,Mosque,"W497+QXG Melamasi Vethi Mosque, W Masi St, Madurai Main, Madurai, Tamil Nadu 625001",Madurai Main,"W497+QXG, W Masi St",Madurai,625001,Tamil Nadu,IN,https://www.google.com/maps/place/Melamasi+Vethi+Mosque/data=!4m7!3m6!1s0x3b00c586c0c1be61:0xaf79bbe623e4ba97!8m2!3d9.9194417!4d78.1149534!16s%2Fg%2F11b807gdss!19sChIJYb7BwIbFADsRl7rkI-a7ea8?authuser=0&hl=en&rclk=1,"9.9194417,78.11495339999999"
Masjid Sulaiman K.K.Nagar Mosque culaimaannn pllllivaacl,Mosque,"W4JV+P8C Masjid Sulaiman K.K.Nagar Mosque culaimaannn pllllivaacl, KK Nagar Main Rd, Managiri, Rajakoor, Madurai, Tamil Nadu 625020","Managiri, Rajakoor","W4JV+P8C, KK Nagar Main Rd",Madurai,625020,Tamil Nadu,IN,https://www.google.com/maps/place/Masjid+Sulaiman+K.K.Nagar+Mosque+%E0%AE%9A%E0%AF%81%E0%AE%B2%E0%AF%88%E0%AE%AE%E0%AE%BE%E0%AE%A9%E0%AF%8D+%E0%AE%AA%E0%AE%B3%E0%AF%8D%E0%AE%B3%E0%AE%BF%E0%AE%B5%E0%AE%BE%E0%AE%9A%E0%AE%B2%E0%AF%8D/data=!4m7!3m6!1s0x3b00c5b9bddb42fd:0x830265b7a36c02bf!8m2!3d9.9318107!4d78.1432741!16s%2Fg%2F1w0p41dk!19sChIJ_ULbvbnFADsRvwJso7dlAoM?authuser=0&hl=en&rclk=1,"9.9318107,78.1432741"
Masjid Mohaideen Dargah Southgate Mosque!,Mosque,"Masjid Mohaideen Dargah Southgate Mosque!, 3, Chinna Kadai St, Periyar, Madurai Main, Madurai, Tamil Nadu 625001","Periyar, Madurai Main","3, Chinna Kadai St",Madurai,625001,Tamil Nadu,IN,https://www.google.com/maps/place/Masjid+Mohaideen+Dargah+Southgate+Mosque!/data=!4m7!3m6!1s0x3b00c5787cbcd06b:0x25f3a1fffffa6883!8m2!3d9.9123226!4d78.1199541!16s%2Fg%2F1x5qr6jg!19sChIJa9C8fHjFADsRg2j6__-h8yU?authuser=0&hl=en&rclk=1,"9.9123226,78.1199541"
Masjid Mahaboobpalayam Mosque,Mosque,"W4C3+7H8 Masjid Mahaboobpalayam Mosque, Ansari Nagar, Mahaboopalayam, Madurai, Tamil Nadu 625010","Ansari Nagar, Mahaboopalayam",W4C3+7H8,Madurai,625010,Tamil Nadu,IN,https://www.google.com/maps/place/Masjid+Mahaboobpalayam+Mosque/data=!4m7!3m6!1s0x3b00cf7b758c8781:0x889d2ac0a327ff7d!8m2!3d9.9206659!4d78.103955!16s%2Fg%2F11b7xtxb8f!19sChIJgYeMdXvPADsRff8no8AqnYg?authuser=0&hl=en&rclk=1,"9.9206659,78.103955"
Mosque Sungam Pallivasal Masjid,Mosque,"Mosque Sungam Pallivasal Masjid, 273, E Veli St, Nelpettai, Madurai Main, Madurai, Tamil Nadu 625001","Nelpettai, Madurai Main","273, E Veli St",Madurai,625001,Tamil Nadu,IN,https://www.google.com/maps/place/Mosque+Sungam+Pallivasal+Masjid/data=!4m7!3m6!1s0x3b00c59a84684a4f:0x9d47aeda0d88e2b8!8m2!3d9.9239239!4d78.1247362!16s%2Fg%2F11byzcf07n!19sChIJT0pohJrFADsRuOKIDdquR50?authuser=0&hl=en&rclk=1,"9.9239239,78.1247362"
Masjid AL Bilal SS Colony Mosque,Mosque,"W3CW+3QJ Masjid AL Bilal SS Colony Mosque, S S Colony, Madurai, Tamil Nadu 625016",,W3CW+3QJ,"S S Colony, Madurai",625016,Tamil Nadu,IN,https://www.google.com/maps/place/Masjid+AL+Bilal+SS+Colony+Mosque/data=!4m7!3m6!1s0x3b00cf70f92d6571:0x901376b1ec852396!8m2!3d9.9202148!4d78.0968933!16s%2Fg%2F11dz56589s!19sChIJcWUt-XDPADsRliOF7LF2E5A?authuser=0&hl=en&rclk=1,"9.9202148,78.09689329999999"
JAQH - Masjid Thowheed,Mosque,"W4FP+8J2 JAQH - Masjid Thowheed, Mathichiyam, Shenoy Nagar, Madurai, Tamil Nadu 625020","Mathichiyam, Shenoy Nagar",W4FP+8J2,Madurai,625020,Tamil Nadu,IN,https://www.google.com/maps/place/JAQH+-+Masjid+Thowheed/data=!4m7!3m6!1s0x3b00c5a3201b2549:0xc7bce9682a4551b9!8m2!3d9.9232592!4d78.1365119!16s%2Fg%2F1hc2_8m5l!19sChIJSSUbIKPFADsRuVFFKmjpvMc?authuser=0&hl=en&rclk=1,"9.9232592,78.1365119"
Masjid Townhall Road Mosque,Mosque,"W496+9PX Masjid Townhall Road Mosque, Town Hall Rd, PKS Colony, Madurai Main, Madurai, Tamil Nadu 625001","PKS Colony, Madurai Main","W496+9PX, Town Hall Rd",Madurai,625001,Tamil Nadu,IN,https://www.google.com/maps/place/Masjid+Townhall+Road+Mosque/data=!4m7!3m6!1s0x3b00c5874ca1542d:0xd8c54ed4cc1ce288!8m2!3d9.9184996!4d78.1118617!16s%2Fg%2F1tcwpkx0!19sChIJLVShTIfFADsRiOIczNROxdg?authuser=0&hl=en&rclk=1,"9.918499599999999,78.11186169999999"
Masjide ILahi [Mosque Near Aravind Eye Hospital],Mosque,"Masjide ILahi [Mosque Near Aravind Eye Hospital], 8, Jawahar St, behind Sha Theatre, Gandhi Nagar, Ranan Nagar, Madurai, Tamil Nadu 625020","Gandhi Nagar, Ranan Nagar","8, Jawahar St, behind Sha Theatre",Madurai,625020,Tamil Nadu,IN,https://www.google.com/maps/place/Masjide+ILahi+%5BMosque+Near+Aravind+Eye+Hospital%5D/data=!4m7!3m6!1s0x3b00c5a311513fe7:0xc415a144a27f281d!8m2!3d9.9229211!4d78.1374877!16s%2Fg%2F11c58h24st!19sChIJ5z9REaPFADsRHSh_okShFcQ?authuser=0&hl=en&rclk=1,"9.9229211,78.1374877"
Jamia Aar Masjid - Vilangudi,Mosque,"Jamia Aar Masjid - Vilangudi, 8-15 Madurai - Dhindukkal, Road, Vilangudi, Madurai, Tamil Nadu 625018",Vilangudi,"8-15 Madurai - Dhindukkal, Road",Madurai,625018,Tamil Nadu,IN,https://www.google.com/maps/place/Jamia+Aar+Masjid+-+Vilangudi/data=!4m7!3m6!1s0x3b00cf356780ede5:0xe87e9d11e9b20e55!8m2!3d9.954418!4d78.087438!16s%2Fg%2F11dxd17p02!19sChIJ5e2AZzXPADsRVQ6y6RGdfug?authuser=0&hl=en&rclk=1,"9.954418,78.08743799999999"
Masjid E Janattul Firdous Mosque,Mosque,"Masjid E Janattul Firdous Mosque, Amudha Vanam, plot no.9, Karuvoorar Street,Komathi puram 8th street,, Madurai - 625020, Gomathipuram, Madurai, Tamil Nadu 625020",,"Amudha Vanam, plot no.9, Karuvoorar Street,Komathi puram 8th street,, Madurai - 625020, Gomathipuram",Madurai,625020,Tamil Nadu,IN,https://www.google.com/maps/place/Masjid+E+Janattul+Firdous+Mosque/data=!4m7!3m6!1s0x3b00c44dadaeb927:0x565823a059cf153d!8m2!3d9.928027!4d78.1594835!16s%2Fg%2F1tczyyvs!19sChIJJ7murU3EADsRPRXPWaAjWFY?authuser=0&hl=en&rclk=1,"9.928027,78.1594835"
Masjid Rahmaniya,Mosque,"Masjid Rahmaniya, 3572, Villapuram Rd, Thenral Nagar, TNHB Colony, Madurai, Tamil Nadu 625011","Thenral Nagar, TNHB Colony","3572, Villapuram Rd",Madurai,625011,Tamil Nadu,IN,https://www.google.com/maps/place/Masjid+Rahmaniya/data=!4m7!3m6!1s0x3b00c57b39279435:0x716a0e7b94919d1f!8m2!3d9.8994137!4d78.1161592!16s%2Fg%2F11b746v5q4!19sChIJNZQnOXvFADsRH52RlHsOanE?authuser=0&hl=en&rclk=1,"9.8994137,78.1161592"
Sandhaipetta old masjid,Mosque,"W48Q+P7H Sandhaipetta old masjid, Kamarajar Salai, Madurai, Tamil Nadu 625009",,W48Q+P7H,"Kamarajar Salai, Madurai",625009,Tamil Nadu,IN,https://www.google.com/maps/place/Sandhaipetta+old+masjid/data=!4m7!3m6!1s0x3b00c5a12417013d:0xb254d12e11bd6e65!8m2!3d9.916809!4d78.1382223!16s%2Fg%2F11b77wh8_z!19sChIJPQEXJKHFADsRZW69ES7RVLI?authuser=0&hl=en&rclk=1,"9.916808999999999,78.1382223"
Masjid Sammattipuram Maruthanayagam Old Mosque,Mosque,"W3JV+36J Masjid Sammattipuram Maruthanayagam Old Mosque, Tirumalai Colony Main Rd, Chokkalinga Nagar, Sammatipuram, Madurai, Tamil Nadu 625016","Chokkalinga Nagar, Sammatipuram","W3JV+36J, Tirumalai Colony Main Rd",Madurai,625016,Tamil Nadu,IN,https://www.google.com/maps/place/Masjid+Sammattipuram+Maruthanayagam+Old+Mosque/data=!4m7!3m6!1s0x3b00cf6bdb556c57:0x6da46f54c784593c!8m2!3d9.9302014!4d78.0930117!16s%2Fg%2F11b6wgwc10!19sChIJV2xV22vPADsRPFmEx1RvpG0?authuser=0&hl=en&rclk=1,"9.9302014,78.09301169999999"
Masjid DRO Colony Mosque,Mosque,"W4XQ+VHP Masjid DRO Colony Mosque, DRO Colony Main Road, DRO Colony, Madurai, Tamil Nadu 625007",Ramaond Reserve Line,"W4XQ+VHP, DRO Colony Main Road, DRO Colony",Madurai,625007,Tamil Nadu,IN,https://www.google.com/maps/place/Masjid+DRO+Colony+Mosque/data=!4m7!3m6!1s0x3b00c5dc7bfab155:0x7cbdcd55e18c3dcd!8m2!3d9.949724!4d78.138964!16s%2Fg%2F11b7y7nzm6!19sChIJVbH6e9zFADsRzT2M4VXNvXw?authuser=0&hl=en&rclk=1,"9.949724,78.138964"
Masjid Thasildar Jumma Mosque taaciltaar jumaa pllllivaacl,Mosque,"W4CC+WW2 Masjid Thasildar Jumma Mosque taaciltaar jumaa pllllivaacl, Thasildar Pallivasal St, Madurai Main, Madurai, Tamil Nadu 625001",Madurai Main,"W4CC+WW2, Thasildar Pallivasal St",Madurai,625001,Tamil Nadu,IN,https://www.google.com/maps/place/Masjid+Thasildar+Jumma+Mosque+%E0%AE%A4%E0%AE%BE%E0%AE%9A%E0%AE%BF%E0%AE%B2%E0%AF%8D%E0%AE%A4%E0%AE%BE%E0%AE%B0%E0%AF%8D+%E0%AE%9C%E0%AF%81%E0%AE%AE%E0%AE%BE+%E0%AE%AA%E0%AE%B3%E0%AF%8D%E0%AE%B3%E0%AE%BF%E0%AE%B5%E0%AE%BE%E0%AE%9A%E0%AE%B2%E0%AF%8D/data=!4m7!3m6!1s0x3b00c59accd128a1:0x97fb07d1213b1dd0!8m2!3d9.9222739!4d78.1222585!16s%2Fg%2F1tl1lwtk!19sChIJoSjRzJrFADsR0B07IdEH-5c?authuser=0&hl=en&rclk=1,"9.9222739,78.1222585"
K. Pudur Muslim Jamath Masjid,Mosque,"K. Pudur Muslim Jamath Masjid, 35 Shankar Nagar, 4th St, Ramavarma Nagar, K.Pudur, Tamil Nadu 625007",Ramavarma Nagar,"35 Shankar Nagar, 4th St","K.Pudur, Madurai",625007,Tamil Nadu,IN,https://www.google.com/maps/place/K.+Pudur+Muslim+Jamath+Masjid/data=!4m7!3m6!1s0x3b00c5ce53c636c7:0x592c0439b9bb79f8!8m2!3d9.9446429!4d78.148172!16s%2Fg%2F11btwr_gkt!19sChIJxzbGU87FADsR-Hm7uTkELFk?authuser=0&hl=en&rclk=1,"9.9446429,78.148172"
Jannathul Firdous Jumma Masjid,Mosque,"V4X9+J75 Jannathul Firdous Jumma Masjid, Vallalar Street, Villapuram, Tamil Nadu 625012",,"V4X9+J75, Vallalar Street",Villapuram,625012,Tamil Nadu,IN,https://www.google.com/maps/place/Jannathul+Firdous+Jumma+Masjid/data=!4m7!3m6!1s0x3b00c564592417ed:0x8ef26668a9234e14!8m2!3d9.8990155!4d78.1182195!16s%2Fg%2F1thcl5__!19sChIJ7RckWWTFADsRFE4jqWhm8o4?authuser=0&hl=en&rclk=1,"9.899015499999999,78.1182195"
Masjid Abdul Rahman Mosque,Mosque,"W4JG+JX3 Masjid Abdul Rahman Mosque, Abdul Rehman Masjid, Zamburopuram, Goripalayam, Tamil Nadu 625002",,"W4JG+JX3, Abdul Rehman Masjid, Zamburopuram","Goripalayam, Madurai",625002,Tamil Nadu,IN,https://www.google.com/maps/place/Masjid+Abdul+Rahman+Mosque/data=!4m7!3m6!1s0x3b00c5938e89a42d:0x75685b9292aeaf56!8m2!3d9.9315145!4d78.1274177!16s%2Fg%2F11c602wm5r!19sChIJLaSJjpPFADsRVq-ukpJbaHU?authuser=0&hl=en&rclk=1,"9.931514499999999,78.1274177"
Masjid Tamilan Street Mosque,Mosque,"W45R+Q78 Masjid Tamilan Street Mosque, Meenakshi Nagar, Tamil Nadu 625009",,W45R+Q78,Meenakshi Nagar,625009,Tamil Nadu,IN,https://www.google.com/maps/place/Masjid+Tamilan+Street+Mosque/data=!4m7!3m6!1s0x3b00c50940842d6f:0x333b12d95db9e066!8m2!3d9.9094202!4d78.140696!16s%2Fg%2F11b77kbhq3!19sChIJby2EQAnFADsRZuC5XdkSOzM?authuser=0&hl=en&rclk=1,"9.9094202,78.14069599999999"
Masjid Alfirdousiya Sammattipuram New Mosque,Mosque,"W3JQ+Q6M Masjid Alfirdousiya Sammattipuram New Mosque, Puthu Pallivaasal, Sunnath Valjamat, Sammattipuram Main Rd, Pudupalli Makdoom Nagar, Sammattipuram, Madurai, Tamil Nadu 625016","Pudupalli Makdoom Nagar, Sammattipuram","W3JQ+Q6M, Puthu Pallivaasal, Sunnath Valjamat, Sammattipuram Main Rd",Madurai,625016,Tamil Nadu,IN,https://www.google.com/maps/place/Masjid+Alfirdousiya+Sammattipuram+New+Mosque/data=!4m7!3m6!1s0x3b00cf6accc9424b:0xff793f512fbc4d3b!8m2!3d9.931974!4d78.088039!16s%2Fg%2F11btx5wm9l!19sChIJS0LJzGrPADsRO028L1E_ef8?authuser=0&hl=en&rclk=1,"9.931974,78.088039"
Masjid ur Rahman Main gate Pallivasal,Mosque,"W498+6RG Masjid ur Rahman Main gate Pallivasal, W Avani Moola St, Madurai Main, Madurai, Tamil Nadu 625001",Madurai Main,"W498+6RG, W Avani Moola St",Madurai,625001,Tamil Nadu,IN,https://www.google.com/maps/place/Masjid+ur+Rahman+Main+gate+Pallivasal/data=!4m7!3m6!1s0x3b00c583f906fa5f:0x683513e999eac00a!8m2!3d9.9180531!4d78.1170929!16s%2Fg%2F11bt_gq7z2!19sChIJX_oG-YPFADsRCsDqmekTNWg?authuser=0&hl=en&rclk=1,"9.9180531,78.1170929"
Masjid Lake Area Mosque,Mosque,"Masjid Lake Area Mosque, 4/139A, Lake Area, TTC Nagar, [no name, Lake Area Main Rd, TTC Nagar, [no name], Uthangudi, Madurai, Tamil Nadu 625020","TTC Nagar, [no name]","4/139A, Lake Area, TTC Nagar, [no name, Lake Area Main Rd","Uthangudi, Madurai",625020,Tamil Nadu,IN,https://www.google.com/maps/place/Masjid+Lake+Area+Mosque/data=!4m7!3m6!1s0x3b00c4324a3c186d:0xd0fa0ce315e8e2a5!8m2!3d9.9449003!4d78.1606126!16s%2Fg%2F11dxdmr990!19sChIJbRg8SjLEADsRpeLoFeMM-tA?authuser=0&hl=en&rclk=1,"9.944900299999999,78.1606126"
Masjid Mina Noordeen Jumma Mosque,Mosque,"W468+HP9 Masjid Mina Noordeen Jumma Mosque, S Veli St, South Gate, Periyar, Madurai Main, Madurai, Tamil Nadu 625001","South Gate, Periyar, Madurai Main","W468+HP9, S Veli St",Madurai,625001,Tamil Nadu,IN,https://www.google.com/maps/place/Masjid+Mina+Noordeen+Jumma+Mosque/data=!4m7!3m6!1s0x3b00c578ccc50933:0xe8822bf136d62894!8m2!3d9.9114158!4d78.1168697!16s%2Fg%2F1pv6zc48t!19sChIJMwnFzHjFADsRlCjWNvErgug?authuser=0&hl=en&rclk=1,"9.9114158,78.1168697"
Karimedu New Masjid (Sunnath Wal Jamath),Mosque,"Karimedu New Masjid (Sunnath Wal Jamath), 20, Rajendra 2nd St, Melaponnagaram, Ponnagaram Colony, Arappalayam, Madurai, Tamil Nadu 625016","Melaponnagaram, Arappalayam","20, Rajendra 2nd St, Melaponnagaram, Ponnagaram Colony, Arappalayam",Madurai,625016,Tamil Nadu,IN,https://www.google.com/maps/place/Karimedu+New+Masjid+%28Sunnath+Wal+Jamath%29/data=!4m7!3m6!1s0x3b00cf63e12adde9:0xa50ae886ba5ec973!8m2!3d9.9286218!4d78.1063627!16s%2Fg%2F11g8lhp9sw!19sChIJ6d0q4WPPADsRc8leuoboCqU?authuser=0&hl=en&rclk=1,"9.9286218,78.10636269999999"
Masjid Salman Faarsi Ra,Mosque,"Masjid Salman Faarsi Ra, Plot No. 4 Ramaiah Nagar, 4th St, Park Town, Extension, Madurai, Tamil Nadu 625017","Park Town, Extension","Plot No. 4 Ramaiah Nagar, 4th St",Madurai,625017,Tamil Nadu,IN,https://www.google.com/maps/place/Masjid+Salman+Faarsi+Ra/data=!4m7!3m6!1s0x3b00c61ad08446a1:0xb93e1dedbb3698e6!8m2!3d9.9685541!4d78.1199004!16s%2Fg%2F11cssxlxgs!19sChIJoUaE0BrGADsR5pg2u-0dPrk?authuser=0&hl=en&rclk=1,"9.9685541,78.11990039999999"
Masjid Jeeva Nagar Jumma Mosque,Mosque,"W424+PG4 Masjid Jeeva Nagar Jumma Mosque, Sundarajapuram, Rathinapuram, Jaihindpuram, Madurai, Tamil Nadu 625011","Sundarajapuram, Rathinapuram",W424+PG4,"Jaihindpuram, Madurai",625011,Tamil Nadu,IN,https://www.google.com/maps/place/Masjid+Jeeva+Nagar+Jumma+Mosque/data=!4m7!3m6!1s0x3b00cf861ee8576d:0x8ced78cc52c11df7!8m2!3d9.901771!4d78.106319!16s%2Fg%2F11bt_h9v1w!19sChIJbVfoHobPADsR9x3BUsx47Yw?authuser=0&hl=en&rclk=1,"9.901771,78.106319"
Masjid Al Ansar Markaz Mosque,Mosque,"W483+G78 Masjid Al Ansar Markaz Mosque, 70 Feet Rd, Ellis Nagar, Madurai, Tamil Nadu 625016",Ellis Nagar,"W483+G78, 70 Feet Rd",Madurai,625016,Tamil Nadu,IN,https://www.google.com/maps/place/Masjid+Al+Ansar+Markaz+Mosque/data=!4m7!3m6!1s0x3b00cf796b76290d:0xa519149d29739c49!8m2!3d9.9162952!4d78.1032127!16s%2Fg%2F11bztcrhcf!19sChIJDSl2a3nPADsRSZxzKZ0UGaU?authuser=0&hl=en&rclk=1,"9.9162952,78.1032127"
Ameena Masjid Mosque,Mosque,"V4R9+HX8 Ameena Masjid Mosque, MGM Nagar, Memon Colony, Avaniyapuram, Madurai, Tamil Nadu 625012","MGM Nagar, Memon Colony",V4R9+HX8,"Avaniyapuram, Madurai",,Tamil Nadu,IN,https://www.google.com/maps/place/Ameena+Masjid+Mosque/data=!4m7!3m6!1s0x3b00c5678459d7f5:0xdf9c8d23bf295199!8m2!3d9.8914175!4d78.119945!16s%2Fg%2F11b77hgzfm!19sChIJ9ddZhGfFADsRmVEpvyONnN8?authuser=0&hl=en&rclk=1,"9.8914175,78.119945"
Masjid G.R.Nagar Mosque,Mosque,"Masjid G.R.Nagar Mosque, 625014, Parusuraman Patti, GR Nagar, Madurai, Tamil Nadu 625014","Parusuraman Patti, GR Nagar",625014,Madurai,625014,Tamil Nadu,IN,https://www.google.com/maps/place/Masjid+G.R.Nagar+Mosque/data=!4m7!3m6!1s0x3b00c6775d519113:0xe8057104b90fa392!8m2!3d9.961915!4d78.1443645!16s%2Fg%2F11c1qxd1n4!19sChIJE5FRXXfGADsRkqMPuQRxBeg?authuser=0&hl=en&rclk=1,"9.961915,78.1443645"
Masjid Takwa Kamatchipuram Mosque,Mosque,"W47Q+HPR Masjid Takwa Kamatchipuram Mosque, Kamarajar Salai, Madurai, Tamil Nadu 625009",,W47Q+HPR,"Kamarajar Salai, Madurai",625009,Tamil Nadu,IN,https://www.google.com/maps/place/Masjid+Takwa+Kamatchipuram+Mosque/data=!4m7!3m6!1s0x3b00c5a0ab5e15d3:0x79cf78e6a0105b2e!8m2!3d9.9139974!4d78.139255!16s%2Fg%2F11b6q7wtkd!19sChIJ0xVeq6DFADsRLlsQoOZ4z3k?authuser=0&hl=en&rclk=1,"9.9139974,78.13925499999999"
Jumma Masjid Mosque,Mosque,"V4W7+RCP Jumma Masjid Mosque, Double lane, Anna Main Rd, Easternside, TNHB Colony, Madurai, Tamil Nadu 625011","Easternside, TNHB Colony","V4W7+RCP, Double lane, Anna Main Rd",Madurai,625011,Tamil Nadu,IN,https://www.google.com/maps/place/Jumma+Masjid+Mosque/data=!4m7!3m6!1s0x3b00c5622b91f2c3:0x443e9cd2cdb8d01e!8m2!3d9.8970964!4d78.1135728!16s%2Fg%2F11b77sg9rb!19sChIJw_KRK2LFADsRHtC4zdKcPkQ?authuser=0&hl=en&rclk=1,"9.897096399999999,78.1135728"
Masjid E Umar Kalai Nagar Mosque,Mosque,"X459+MWX Masjid E Umar Kalai Nagar Mosque, Kalai Nagar Extension, Kalai Nagar, Virivakkam, Madurai, Tamil Nadu 625017","Kali Nagar, Pasupathi Nagar","X459+MWX, Kalai Nagar Extension, Kalai Nagar, Virivakkam",Madurai,625017,Tamil Nadu,IN,https://www.google.com/maps/place/Masjid+E+Umar+Kalai+Nagar+Mosque/data=!4m7!3m6!1s0x3b00c607ae975435:0x6f74b103b99716e0!8m2!3d9.9592449!4d78.119849!16s%2Fg%2F11bv38dxvb!19sChIJNVSXrgfGADsR4BaXuQOxdG8?authuser=0&hl=en&rclk=1,"9.9592449,78.119849"
Al Masjidul Huda Mattuthavani Mosque,Mosque,"Al Masjidul Huda Mattuthavani Mosque, No:8,9 Masjid Complex, Main Road, Mattuthavani, Opposite Omni Bus Stand, Mellur, Industrial Estate, Tamil Nadu 625007","Mellur, Industrial Estate","No:8,9 Masjid Complex, Main Road, Mattuthavani, Opposite Omni Bus Stand",Madurai,625007,Tamil Nadu,IN,https://www.google.com/maps/place/Al+Masjidul+Huda+Mattuthavani+Mosque/data=!4m7!3m6!1s0x3b00c432b66b4f65:0xc694ab9eb8d18e71!8m2!3d9.9464352!4d78.1567198!16s%2Fg%2F11d_yvp5nh!19sChIJZU9rtjLEADsRcY7RuJ6rlMY?authuser=0&hl=en&rclk=1,"9.9464352,78.15671979999999"
Masjid Abbubakar Siddiq Rali Bharathi Nagar Mosque,Mosque,"X42F+MRH Masjid Abbubakar Siddiq Rali Bharathi Nagar Mosque, Bharati Nagar, MG Nagar, Madurai, Tamil Nadu 625014","Bharati Nagar, MG Nagar",X42F+MRH,Madurai,625014,Tamil Nadu,IN,https://www.google.com/maps/place/Masjid+Abbubakar+Siddiq+Rali+Bharathi+Nagar+Mosque/data=!4m7!3m6!1s0x3b00c5e37db917c1:0x739573ce8a58a23c!8m2!3d9.9516884!4d78.1246243!16s%2Fg%2F11b7t38yfh!19sChIJwRe5fePFADsRPKJYis5zlXM?authuser=0&hl=en&rclk=1,"9.9516884,78.1246243"
Masjid Noortheen (Munichalai) Mosque,Mosque,"Masjid Noortheen (Munichalai) Mosque, 57-B/2-1, Noortheen Pallivasal Complex Munichalai Rd, Meenakshipuram, Madurai, Tamil Nadu 625009",Meenakshipuram,"57-B/2-1, Noortheen Pallivasal Complex Munichalai Rd",Madurai,625009,Tamil Nadu,IN,https://www.google.com/maps/place/Masjid+Noortheen+%28Munichalai%29+Mosque/data=!4m7!3m6!1s0x3b00c5996c4e48fd:0x3302d80d3fa6bd61!8m2!3d9.9208157!4d78.1290953!16s%2Fg%2F11f10f6bqz!19sChIJ_UhObJnFADsRYb2mPw3YAjM?authuser=0&hl=en&rclk=1,"9.9208157,78.1290953"
Jumma Mosque,Mosque,"X543+FJG Jumma Mosque, 120 Feet Rd, Surveyor Colony, Moondrumavadi, K.Pudur, Madurai, Tamil Nadu 625007","Surveyor Colony, Moondrumavadi","X543+FJG, 120 Feet Rd","K.Pudur, Madurai",625007,Tamil Nadu,IN,https://www.google.com/maps/place/Jumma+Mosque/data=!4m7!3m6!1s0x3b00c5d50f487fab:0x3b4fbeeabb1ad986!8m2!3d9.9561784!4d78.1540919!16s%2Fg%2F11btwsbp0k!19sChIJq39ID9XFADsRhtkau-q-Tzs?authuser=0&hl=en&rclk=1,"9.956178399999999,78.1540919"
Masjid PALAGANATHAM Mosque,Mosque,"W33W+9PW Masjid PALAGANATHAM Mosque, Palangantham, Madurai, Tamil Nadu 625003",,W33W+9PW,"Palangantham, Madurai",625003,Tamil Nadu,IN,https://www.google.com/maps/place/Masjid+PALAGANATHAM+Mosque/data=!4m7!3m6!1s0x3b00cf9afbd844c3:0xe5946a7cbf0696ff!8m2!3d9.9034928!4d78.0968378!16s%2Fg%2F11b77y9zk8!19sChIJw0TY-5rPADsR_5YGv3xqlOU?authuser=0&hl=en&rclk=1,"9.9034928,78.0968378"
tntj masjith,Mosque,"tntj masjith, 164C, Goripalayam, Madurai, Tamil Nadu 625014",,164C,"Goripalayam, Madurai",625014,Tamil Nadu,IN,https://www.google.com/maps/place/tntj+masjith/data=!4m7!3m6!1s0x3b00c5943f437703:0xe923c31cf58a079b!8m2!3d9.9310973!4d78.1296358!16s%2Fg%2F11fy5crwy1!19sChIJA3dDP5TFADsRmweK9RzDI-k?authuser=0&hl=en&rclk=1,"9.9310973,78.1296358"
Masjithe Ibrahim Alaihi,Mosque,"Masjithe Ibrahim Alaihi, 44A, 5th St, K.Pudur, Madurai, Tamil Nadu 625007",,"44A, 5th St","K.Pudur, Madurai",625007,Tamil Nadu,IN,https://www.google.com/maps/place/Masjithe+Ibrahim+Alaihi/data=!4m7!3m6!1s0x3b00c5d77d65023f:0x91a7b4dc54de002e!8m2!3d9.9544777!4d78.145075!16s%2Fg%2F11bwh5nbdj!19sChIJPwJlfdfFADsRLgDeVNy0p5E?authuser=0&hl=en&rclk=1,"9.9544777,78.14507499999999"
Masjidhur Rahman - TNTJ,Mosque,"W483+F25 Masjidhur Rahman - TNTJ, Ellis Nagar, Madurai, Tamil Nadu 625016",Ellis Nagar,W483+F25,Madurai,625016,Tamil Nadu,IN,https://www.google.com/maps/place/Masjidhur+Rahman+-+TNTJ/data=!4m7!3m6!1s0x3b00cf94fdbe42a3:0x7a31b4b95c45f162!8m2!3d9.9161346!4d78.1026217!16s%2Fg%2F11g1s9xz6b!19sChIJo0K-_ZTPADsRYvFFXLm0MXo?authuser=0&hl=en&rclk=1,"9.9161346,78.1026217"
Masjid Hazrat Umar-Ali Bethaniapuram Mosque,Mosque,"No. 1, Masjid Hazrat Umar-Ali Bethaniapuram Mosque, Samuvel street, Nagu Nagar, Bethaniapuram, Madurai, Tamil Nadu 625016",Nagu Nagar,"No. 1, Samuvel street","Bethaniapuram, Madurai",625016,Tamil Nadu,IN,https://www.google.com/maps/place/Masjid+Hazrat+Umar-Ali+Bethaniapuram+Mosque/data=!4m7!3m6!1s0x3b00cf4235746dad:0x47985a06dd50c76d!8m2!3d9.9366165!4d78.0950663!16s%2Fg%2F11b7y9dtx2!19sChIJrW10NULPADsRbcdQ3QZamEc?authuser=0&hl=en&rclk=1,"9.9366165,78.0950663"
Masjid Wakf,Mosque,"W4JH+29M Masjid Wakf, Pallivasal St, Goripalayam, Madurai, Tamil Nadu 625002",,"W4JH+29M, Pallivasal St","Goripalayam, Madurai",625002,Tamil Nadu,IN,https://www.google.com/maps/place/Masjid+Wakf/data=!4m7!3m6!1s0x3b00c59403912f6f:0xee8130f9f62b40bb!8m2!3d9.9300853!4d78.1284172!16s%2Fg%2F11c3kqr65_!19sChIJby-RA5TFADsRu0Ar9vkwge4?authuser=0&hl=en&rclk=1,"9.9300853,78.1284172"
M.K Puram Masjid,Mosque,"M.K Puram Masjid, 32/35, Kaja St, Solaialagu Puram, Madurai, Tamil Nadu 625011",Solaialagu Puram,"32/35, Kaja St",Madurai,625011,Tamil Nadu,IN,https://www.google.com/maps/place/M.K+Puram+Masjid/data=!4m7!3m6!1s0x3b00c5ec2dd0448f:0x78da5fad4fe62441!8m2!3d9.9073823!4d78.1161672!16s%2Fg%2F11fcqhyf2d!19sChIJj0TQLezFADsRQSTmT61f2ng?authuser=0&hl=en&rclk=1,"9.9073823,78.11616719999999"
Masjid Arrahman Poriyalar Nagar pallivasal,Mosque,"X4HW+RJC Masjid Arrahman Poriyalar Nagar pallivasal, 8th Cross St, Poriyalar Nagar, Tiruppalai, Madurai, Tamil Nadu 625007","Poriyalar Nagar, Tiruppalai","X4HW+RJC, 8th Cross St",Madurai,625007,Tamil Nadu,IN,https://www.google.com/maps/place/Masjid+Arrahman+Poriyalar+Nagar+pallivasal/data=!4m7!3m6!1s0x3b00c6678b53c585:0x908f6109fdd1f25d!8m2!3d9.9795592!4d78.1465224!16s%2Fg%2F11c1q40myl!19sChIJhcVTi2fGADsRXfLR_Qlhj5A?authuser=0&hl=en&rclk=1,"9.979559199999999,78.1465224"
Tawheed Jamad Masjeed,Mosque,"Tawheed Jamad Masjeed, Madurai, Athikulam, Tamil Nadu 625014",,Madurai,"Athikulam, Madurai",625014,Tamil Nadu,IN,https://www.google.com/maps/place/Tawheed+Jamad+Masjeed/data=!4m7!3m6!1s0x3b00c5df490de081:0x61c20fe3233b0961!8m2!3d9.9564043!4d78.1388728!16s%2Fg%2F11c7_vdz8c!19sChIJgeANSd_FADsRYQk7I-MPwmE?authuser=0&hl=en&rclk=1,"9.956404299999999,78.1388728"
Masjid Ibrahim Valar Nagar Mosque,Mosque,"W5RG+W9G Masjid Ibrahim Valar Nagar Mosque, Valar Nagar, Ibrahim Nagar, Uthangudi, Madurai, Tamil Nadu 625107","Valar Nagar, Ibrahim Nagar, Uthangudi",W5RG+W9G,Madurai,625107,Tamil Nadu,IN,https://www.google.com/maps/place/Masjid+Ibrahim+Valar+Nagar+Mosque/data=!4m7!3m6!1s0x3b00c43e8249d3ff:0x47f09aca3fbb0e60!8m2!3d9.9423058!4d78.175961!16s%2Fg%2F11btwr8h2l!19sChIJ_9NJgj7EADsRYA67P8qa8Ec?authuser=0&hl=en&rclk=1,"9.9423058,78.175961"
Masjid Gorippalayam P.M.M Jamath Mosque,Mosque,"W4HH+WH4 Masjid Gorippalayam P.M.M Jamath Mosque, Pallivasal St, Goripalayam, Madurai, Tamil Nadu 625002",,"W4HH+WH4, Pallivasal St","Goripalayam, Madurai",625002,Tamil Nadu,IN,https://www.google.com/maps/place/Masjid+Gorippalayam+P.M.M+Jamath+Mosque/data=!4m7!3m6!1s0x3b00c59403ba462d:0xabdb6645718803c0!8m2!3d9.9297639!4d78.1289439!16s%2Fg%2F1thk7513!19sChIJLUa6A5TFADsRwAOIcUVm26s?authuser=0&hl=en&rclk=1,"9.9297639,78.1289439"
Masjid Sellur New Mosque,Mosque,"Masjid Sellur New Mosque, Puthu, Pallivasal St, Ahimsapuram, Sellur, Madurai, Tamil Nadu 625014","Ahimsapuram, Sellur","Puthu, Pallivasal St",Madurai,625014,Tamil Nadu,IN,https://www.google.com/maps/place/Masjid+Sellur+New+Mosque/data=!4m7!3m6!1s0x3b00c5f2bb3e5047:0xeba2bef4cc529619!8m2!3d9.9359625!4d78.1214531!16s%2Fg%2F1hc8ypfyn!19sChIJR1A-u_LFADsRGZZSzPS-ous?authuser=0&hl=en&rclk=1,"9.935962499999999,78.1214531"
Aksha Masjid Mosque,Mosque,"W487+84V Aksha Masjid Mosque, TPK Rd, Katrapalayam, Periyar, Madurai Main, Madurai, Tamil Nadu 625001","Katrapalayam, Periyar, Madurai Main","W487+84V, TPK Rd",Madurai,625001,Tamil Nadu,IN,https://www.google.com/maps/place/Aksha+Masjid+Mosque/data=!4m7!3m6!1s0x3b00c580f1458e7d:0x6689bdead869a5f6!8m2!3d9.9158615!4d78.1127846!16s%2Fg%2F11b77dm1m0!19sChIJfY5F8YDFADsR9qVp2Oq9iWY?authuser=0&hl=en&rclk=1,"9.9158615,78.1127846"
Masjid,Mosque,"W43M+HPP Masjid, Tamil Nadu Housing Board Colony, Anuppanadi, Madurai, Tamil Nadu 625009",Tamil Nadu Housing Board Colony,W43M+HPP,"Anuppanadi, Madurai",625009,Tamil Nadu,IN,https://www.google.com/maps/place/Masjid/data=!4m7!3m6!1s0x3b00c50d37f2e797:0xc57b80db097b8df9!8m2!3d9.903973!4d78.134315!16s%2Fg%2F11dywwk155!19sChIJl-fyNw3FADsR-Y17CduAe8U?authuser=0&hl=en&rclk=1,"9.903972999999999,78.134315"
Masjidthul Heta Jumma Pallivasal,Mosque,"X47P+783 Masjidthul Heta Jumma Pallivasal, Iyer Bungalow Rd, Vasu Nagar, Mahalakshmi Nagar, K.Pudur, Madurai, Tamil Nadu 625007","Vasu Nagar, Mahalakshmi Nagar","X47P+783, Iyer Bungalow Rd","K.Pudur, Madurai",625007,Tamil Nadu,IN,https://www.google.com/maps/place/Masjidthul+Heta+Jumma+Pallivasal/data=!4m7!3m6!1s0x3b00c6737cd396cf:0x8a23110403ed0f7b!8m2!3d9.9631449!4d78.135791!16s%2Fg%2F11btwvf8qq!19sChIJz5bTfHPGADsRew_tAwQRI4o?authuser=0&hl=en&rclk=1,"9.9631449,78.135791"
Makka Jumma Masjid,Mosque,"W4G9+4X6 Makka Jumma Masjid, Simmakkal Street, Madurai, Tamil Nadu 625001","Arajar Salai, Simmakkal, Madurai Main","W4G9+4X6, Simmakkal Street",Madurai,625001,Tamil Nadu,IN,https://www.google.com/maps/place/Makka+Jumma+Masjid/data=!4m7!3m6!1s0x3b00c58f98f2d297:0xdb6246df84a83b44!8m2!3d9.9252971!4d78.1198916!16s%2Fg%2F11b8_slpmc!19sChIJl9LymI_FADsRRDuohN9GYts?authuser=0&hl=en&rclk=1,"9.9252971,78.1198916"
Jumma Mosque,Mosque,"W3XX+9VF Jumma Mosque, Koodal Nagar Bridge, Railar Nagar, Koodal Nagar, Madurai, Tamil Nadu 625018","Railar Nagar, Koodal Nagar","W3XX+9VF, Koodal Nagar Bridge",Madurai,625018,Tamil Nadu,IN,https://www.google.com/maps/place/Jumma+Mosque/data=!4m7!3m6!1s0x3b00cf518ec3b6fb:0xccc54d27b1299f6d!8m2!3d9.9484379!4d78.0996723!16s%2Fg%2F11dxs38ws1!19sChIJ-7bDjlHPADsRbZ8psSdNxcw?authuser=0&hl=en&rclk=1,"9.9484379,78.0996723"
Masjide Zubaidha Mosque Bibikulam,Mosque,"Masjide Zubaidha Mosque Bibikulam, 100, PT Rajan Rd, Krishnapuram Colony, Madurai, Tamil Nadu 625014",,"100, PT Rajan Rd","Krishnapuram Colony, Madurai",625014,Tamil Nadu,IN,https://www.google.com/maps/place/Masjide+Zubaidha+Mosque+Bibikulam/data=!4m7!3m6!1s0x3b00c5e96a25b663:0xf63e16c977092b80!8m2!3d9.9418392!4d78.1294916!16s%2Fg%2F11csr1nf7w!19sChIJY7YlaunFADsRgCsJd8kWPvY?authuser=0&hl=en&rclk=1,"9.9418392,78.1294916"
Islamic Center Madurai,Mosque,"W423+WGX Islamic Center Madurai, Jeevanagar 2nd St, near old masque, Rathinapuram, Madurai, Tamil Nadu 625011",Rathinapuram,"W423+WGX, Jeevanagar 2nd St, near old masque",Madurai,625011,Tamil Nadu,IN,https://www.google.com/maps/place/Islamic+Center+Madurai/data=!4m7!3m6!1s0x3b00cf85ecf5077f:0xe7ab46928fe2c822!8m2!3d9.9023684!4d78.1038679!16s%2Fg%2F11dfvpn8np!19sChIJfwf17IXPADsRIsjij5JGq-c?authuser=0&hl=en&rclk=1,"9.9023684,78.1038679"
Masjid Hajrat Bilal (P & T Nagar) Mosque,Mosque,"X46H+RGP Masjid Hajrat Bilal (P & T Nagar) Mosque, Meenakshi Nagar Cross St, Thabalthandi Nagar, P and T Nagar, Madurai, Tamil Nadu 625017","Thabalthandi Nagar, P and T Nagar","X46H+RGP, Meenakshi Nagar Cross St",Madurai,625017,Tamil Nadu,IN,https://www.google.com/maps/place/Masjid+Hajrat+Bilal+%28P+%26+T+Nagar%29+Mosque/data=!4m7!3m6!1s0x3b00c60bf0355447:0xec00a634805a51ea!8m2!3d9.962097!4d78.1288259!16s%2Fg%2F11btx1d4v3!19sChIJR1Q18AvGADsR6lFagDSmAOw?authuser=0&hl=en&rclk=1,"9.962097,78.1288259"
Masjid Soondhka Sadasiva Nagar Mosque,Mosque,"Masjid Soondhka Sadasiva Nagar Mosque, 4/389, Sadasiva Nagar, Mandure, Vandiyur, Madurai, Tamil Nadu 625020","Sadasiva Nagar, Mandure, Vandiyur",4/389,Madurai,625020,Tamil Nadu,IN,https://www.google.com/maps/place/Masjid+Soondhka+Sadasiva+Nagar+Mosque/data=!4m7!3m6!1s0x3b00c568b0057741:0x17fe9b63a7ce539f!8m2!3d9.91523!4d78.1546412!16s%2Fg%2F11g22zb545!19sChIJQXcFsGjFADsRn1POp2Ob_hc?authuser=0&hl=en&rclk=1,"9.91523,78.1546412"
PWD Mosque,Mosque,"PWD Mosque, 5, Hakim Ajmal Khan Rd, Chinna Chokkikulam, Chokkikulam, Hakim Ajmal Khan Rd, Chinna Chokikulam, Madurai, Tamil Nadu 625002",,"5, Hakim Ajmal Khan Rd, Chinna Chokkikulam, Chokkikulam, Hakim Ajmal Khan Rd","Chinna Chokikulam, Madurai",625002,Tamil Nadu,IN,https://www.google.com/maps/place/PWD+Mosque/data=!4m7!3m6!1s0x3b00c59519bf6aad:0xfd020ba62c5886b3!8m2!3d9.9336432!4d78.1313933!16s%2Fg%2F11dxqdj8rm!19sChIJrWq_GZXFADsRs4ZYLKYLAv0?authuser=0&hl=en&rclk=1,"9.933643199999999,78.1313933"
Al - Masjidthul Aksa,Mosque,"W487+86V Al - Masjidthul Aksa, Netaji Rd, Katrapalayam, Periyar, Madurai Main, Madurai, Tamil Nadu 625001","Katrapalayam, Periyar, Madurai Main","W487+86V, Netaji Rd",Madurai,625001,Tamil Nadu,IN,https://www.google.com/maps/place/Al+-+Masjidthul+Aksa/data=!4m7!3m6!1s0x3b00c580fa1715f5:0x85d5bf06fcd449f8!8m2!3d9.915872!4d78.113039!16s%2Fg%2F11bt_jt4r0!19sChIJ9RUX-oDFADsR-EnU_Aa_1YU?authuser=0&hl=en&rclk=1,"9.915872,78.113039"
Masjid Aatham Alai Jamath Masjid,Mosque,"120/01, Masjid Aatham Alai Jamath Masjid, Pallivasal Ln, Solaialagu Puram, Solai Alagupuram, Madurai, Tamil Nadu 625011",Solaialagu Puram,"120/01, Pallivasal Ln","Solai Alagupuram, Madurai",625011,Tamil Nadu,IN,https://www.google.com/maps/place/Masjid+Aatham+Alai+Jamath+Masjid/data=!4m7!3m6!1s0x3b00c57c7d2eddd5:0xa64467f3ea3aeb4e!8m2!3d9.9047023!4d78.1159006!16s%2Fg%2F11bt_gtl8f!19sChIJ1d0ufXzFADsRTus66vNnRKY?authuser=0&hl=en&rclk=1,"9.9047023,78.1159006"
Mubarak Mosque,Mosque,"316, 317, 318, Mubarak Mosque, Avaniyapuram Road, Thendal Nagar, Villapuram Colony, Villapuram, Madurai, Tamil Nadu 625012","Thendal Nagar, Villapuram Colony","316, 317, 318, Avaniyapuram Road","Villapuram, Madurai",625012,Tamil Nadu,IN,https://www.google.com/maps/place/Mubarak+Mosque/data=!4m7!3m6!1s0x3b00c57a226dc741:0x535a1b22a8c7f456!8m2!3d9.907102!4d78.1205909!16s%2Fg%2F11b78q1t2j!19sChIJQcdtInrFADsRVvTHqCIbWlM?authuser=0&hl=en&rclk=1,"9.907102,78.1205909"
MADURAI THABLEEQ MARKAZ,Mosque,"MADURAI THABLEEQ MARKAZ, KARAMATH NAGAR, NEW ELLIS NAGAR, 70 FEET ROAD, MADURAI - 625010, TAMIL NADU, INDIA",Ellis Nagar,"KARAMATH NAGAR, NEW ELLIS NAGAR, 70 FEET ROAD, MADURAI - 625010, TAMIL NADU, INDIA",Madurai,,Tamil Nadu,IN,https://www.google.com/maps/place/MADURAI+THABLEEQ+MARKAZ/data=!4m7!3m6!1s0x3b00cf79116e0605:0xbb05e9b3a6ebfaba!8m2!3d9.9160945!4d78.1032113!16s%2Fg%2F11b77z7xgs!19sChIJBQZuEXnPADsRuvrrprPpBbs?authuser=0&hl=en&rclk=1,"9.9160945,78.1032113"
JAQH - Markaz -Jumma Mosque,Mosque,"W468+RM7 JAQH - Markaz -Jumma Mosque, South Marret Gate, South Gate, Madurai, Tamil Nadu 625001","South Gate, Periyar, Madurai Main","W468+RM7, South Marret Gate",Madurai,625001,Tamil Nadu,IN,https://www.google.com/maps/place/JAQH+-+Markaz+-Jumma+Mosque/data=!4m7!3m6!1s0x3b00c578b2fcb67b:0xc6959c58d28f3be8!8m2!3d9.9120413!4d78.1166716!16s%2Fg%2F1tf68h1b!19sChIJe7b8snjFADsR6DuP0liclcY?authuser=0&hl=en&rclk=1,"9.9120413,78.11667159999999"
Masjid Mosque Near MGR Mattuthavani Busstand,Mosque,"W5W4+GMH Masjid Mosque Near MGR Mattuthavani Busstand, Melur Main Rd, Industrial Estate, K.Pudur, Madurai, Tamil Nadu 625007",Industrial Estate,"W5W4+GMH, Melur Main Rd","K.Pudur, Madurai",625007,Tamil Nadu,IN,https://www.google.com/maps/place/Masjid+Mosque+Near+MGR+Mattuthavani+Busstand/data=!4m7!3m6!1s0x3b00c53c3bd8f4d1:0xb38d95b3350feaea!8m2!3d9.9463058!4d78.1567366!16s%2Fg%2F11f9bjl010!19sChIJ0fTYOzzFADsR6uoPNbOVjbM?authuser=0&hl=en&rclk=1,"9.9463058,78.1567366"
Masjid-e-Imam Ahmed Raza,Mosque,"Masjid-e-Imam Ahmed Raza, W458+2HM, Kaja St, MK Puram Main Rd, Madurai, Tamil Nadu 625011",Subramaniapuram,"W458+2HM, Kaja St, MK Puram Main Rd",Madurai,625011,Tamil Nadu,IN,https://www.google.com/maps/place/Masjid-e-Imam+Ahmed+Raza/data=!4m7!3m6!1s0x3b00c57eab170abb:0x69519ff9e04e566f!8m2!3d9.9073027!4d78.1150082!16s%2Fg%2F11dyrchbds!19sChIJuwoXq37FADsRb1ZO4PmfUWk?authuser=0&hl=en&rclk=1,"9.907302699999999,78.11500819999999"
Masjid Taqwa Tntj sammattipuram kilai,Mosque,"Masjid Taqwa Tntj sammattipuram kilai, Thouheed, Jamath, Puduvazhvu nagar, near church, HMS Colony, Madurai, Tamil Nadu 625010","HMS Colony, Ponmeni","Thouheed, Jamath, Puduvazhvu nagar, near church",Madurai,625010,Tamil Nadu,IN,https://www.google.com/maps/place/Masjid+Taqwa+Tntj+sammattipuram+kilai/data=!4m7!3m6!1s0x3b00cf134939e2c5:0xfe9c31a72206711d!8m2!3d9.930818!4d78.084433!16s%2Fg%2F11bv2pbdk4!19sChIJxeI5SRPPADsRHXEGIqcxnP4?authuser=0&hl=en&rclk=1,"9.930818,78.08443299999999"
Rawlathul Jannah Jummah masjid (sunnath jamath),Mosque,"W39Q+HJQ Rawlathul Jannah Jummah masjid (sunnath jamath), Durai Samy Nagar, Madakkulam, Madurai, Tamil Nadu 625016",Durai Samy Nagar,W39Q+HJQ,"Madakkulam, Madurai",,Tamil Nadu,IN,https://www.google.com/maps/place/Rawlathul+Jannah+Jummah+masjid+%28sunnath+jamath%29/data=!4m7!3m6!1s0x3b00cfd4fc799b07:0x34a4042d3f2e9a39!8m2!3d9.9189714!4d78.0890977!16s%2Fg%2F11h2q40w88!19sChIJB5t5_NTPADsROZouPy0EpDQ?authuser=0&hl=en&rclk=1,"9.9189714,78.0890977"
Masjid Alwarpuram Mosque,Mosque,"W4GH+3GF Masjid Alwarpuram Mosque, Ismailpuram, Lakshmipuram, Madurai, Tamil Nadu 625009",Ismailpuram,W4GH+3GF,"Lakshmipuram, Madurai",625009,Tamil Nadu,IN,https://www.google.com/maps/place/Masjid+Alwarpuram+Mosque/data=!4m7!3m6!1s0x3b00c5cf9d440eef:0xcaeeaac2b3cf79b7!8m2!3d9.925177!4d78.1287998!16s%2Fg%2F11fhk3m26h!19sChIJ7w5Enc_FADsRt3nPs8Kq7so?authuser=0&hl=en&rclk=1,"9.925177,78.1287998"
Masjid Alameen Mosque,Mosque,"X564+PJ3 Masjid Alameen Mosque, Velavan Nagar, Madurai, Tamil Nadu 625007",Velavan Nagar,X564+PJ3,Madurai,625007,Tamil Nadu,IN,https://www.google.com/maps/place/Masjid+Alameen+Mosque/data=!4m7!3m6!1s0x3b00c73ac5839ba5:0xa3c68200c98d8252!8m2!3d9.9617747!4d78.1565322!16s%2Fg%2F11g4dbm2y1!19sChIJpZuDxTrHADsRUoKNyQCCxqM?authuser=0&hl=en&rclk=1,"9.9617747,78.1565322"
Madurai South Masjid Uthangudi,Mosque,"X529+F36 Madurai South Masjid Uthangudi, Uthangudi, Tamil Nadu 625020",,X529+F36,Uthangudi,625020,Tamil Nadu,IN,https://www.google.com/maps/place/Madurai+South+Masjid+Uthangudi/data=!4m7!3m6!1s0x3b00c42f631db22d:0x579f8fc7e2c24c8f!8m2!3d9.9511612!4d78.1676559!16s%2Fg%2F11gbxgtj3r!19sChIJLbIdYy_EADsRj0zC4sePn1c?authuser=0&hl=en&rclk=1,"9.9511612,78.1676559"
YAGAPPA NAGAR MOSQUE,Mosque,"W585+PCP YAGAPPA NAGAR MOSQUE, yagappanagar yagappanagar,, 1st St, Madurai, Tamil Nadu","Angel Nagar, Vandiyur","W585+PCP, yagappanagar yagappanagar,, 1st St",Madurai,,Tamil Nadu,IN,https://www.google.com/maps/place/YAGAPPA+NAGAR+MOSQUE/data=!4m7!3m6!1s0x3b00c455034b83e5:0xca821cc4902f80c4!8m2!3d9.916826!4d78.1585932!16s%2Fg%2F11b8_r07r5!19sChIJ5YNLA1XEADsRxIAvkMQcgso?authuser=0&hl=en&rclk=1,"9.916826,78.1585932"
Masjid Baithul Muharram Jumma Mosque Melamadai,Mosque,"W593+9XG Masjid Baithul Muharram Jumma Mosque Melamadai, Mandure, Vandiyur, Madurai, Tamil Nadu 625020","Mandure, Vandiyur",W593+9XG,Madurai,625020,Tamil Nadu,IN,https://www.google.com/maps/place/Masjid+Baithul+Muharram+Jumma+Mosque+Melamadai/data=!4m7!3m6!1s0x3b00c5435f69262d:0x53bc00084dc9e8e2!8m2!3d9.9184316!4d78.1549617!16s%2Fg%2F11f781ptwf!19sChIJLSZpX0PFADsR4ujJTQgAvFM?authuser=0&hl=en&rclk=1,"9.9184316,78.1549617"
Al Masjid ul Muminin Mosque Muthupatti,Mosque,"V3VX+Q9P Al Masjid ul Muminin Mosque Muthupatti, Alagappan Nagar, Madurai, Tamil Nadu 625003",,V3VX+Q9P,"Alagappan Nagar, Madurai",625003,Tamil Nadu,IN,https://www.google.com/maps/place/Al+Masjid+ul+Muminin+Mosque+Muthupatti/data=!4m7!3m6!1s0x3b00cf92133e80cd:0x90344c7b4afeacfb!8m2!3d9.8944607!4d78.0984616!16s%2Fg%2F11f4z5lnlq!19sChIJzYA-E5LPADsR-6z-SntMNJA?authuser=0&hl=en&rclk=1,"9.8944607,78.0984616"
Masjid Silayeneri Mosque,Mosque,"X464+QJF Masjid Silayeneri Mosque, Silayaneri,Anayur, Madurai, Tamil Nadu","Sanjeevi Nagar, Koodal Nagar","X464+QJF, Silayaneri,Anayur",Madurai,,Tamil Nadu,IN,https://www.google.com/maps/place/Masjid+Silayeneri+Mosque/data=!4m7!3m6!1s0x3b00c8a9602804dd:0xe60e7813077d450e!8m2!3d9.9619387!4d78.1065614!16s%2Fg%2F11g72c965q!19sChIJ3QQoYKnIADsRDkV9BxN4DuY?authuser=0&hl=en&rclk=1,"9.9619387,78.10656139999999"
Masjid Narimedu Mosque,Mosque,"W4QG+3C6 Masjid Narimedu Mosque, Narimedu, Madurai, Tamil Nadu 625002",Narimedu,W4QG+3C6,Madurai,625002,Tamil Nadu,IN,https://www.google.com/maps/place/Masjid+Narimedu+Mosque/data=!4m7!3m6!1s0x3b00c555da0596dd:0x77de77bbf8cd1658!8m2!3d9.9376633!4d78.1260021!16s%2Fg%2F11g23tchk0!19sChIJ3ZYF2lXFADsRWBbN-Lt33nc?authuser=0&hl=en&rclk=1,"9.937663299999999,78.1260021"
Masjid Railway Colony Mosque,Mosque,"W4G4+VJR Masjid Railway Colony Mosque, Southern Railway Colony, Madurai, Tamil Nadu 625016",,W4G4+VJR,"Southern Railway Colony, Madurai",625016,Tamil Nadu,IN,https://www.google.com/maps/place/Masjid+Railway+Colony+Mosque/data=!4m7!3m6!1s0x3b00cf6396089b87:0x92e253adf690b1bf!8m2!3d9.9272357!4d78.1065045!16s%2Fg%2F1tfm9nwv!19sChIJh5sIlmPPADsRv7GQ9q1T4pI?authuser=0&hl=en&rclk=1,"9.927235699999999,78.1065045"
Masjid Aqsa,Mosque,"3, Masjid Aqsa, 467, Vallalar Cross St, Thinamani Nagar, Koodal Nagar, Madurai, Tamil Nadu 625018","Thinamani Nagar, Koodal Nagar","3, 467, Vallalar Cross St",Madurai,625018,Tamil Nadu,IN,https://www.google.com/maps/place/Masjid+Aqsa/data=!4m7!3m6!1s0x3b00c96a978b1c19:0x4bc65b209cff5480!8m2!3d9.9681355!4d78.0934953!16s%2Fg%2F11fq2vcyj8!19sChIJGRyLl2rJADsRgFT_nCBbxks?authuser=0&hl=en&rclk=1,"9.968135499999999,78.0934953"
Masjid Yousuf Thoppu Kulamangalam Mosque,Mosque,"W4VC+R53 Masjid Yousuf Thoppu Kulamangalam Mosque, Kulamangalam Road, Meenambalpuram, Madurai, Tamil Nadu 625002",Poonthamalli Nagar,"W4VC+R53, Kulamangalam Road, Meenambalpuram",Madurai,625002,Tamil Nadu,IN,https://www.google.com/maps/place/Masjid+Yousuf+Thoppu+Kulamangalam+Mosque/data=!4m7!3m6!1s0x3b00c5f041fd46c9:0x9a838949faa552cf!8m2!3d9.9445046!4d78.1204267!16s%2Fg%2F11bv384x_4!19sChIJyUb9QfDFADsRz1Kl-kmJg5o?authuser=0&hl=en&rclk=1,"9.9445046,78.1204267"
Al Muquddas Masjid,Mosque,"V4V6+4RQ Al Muquddas Masjid, Villapuram, Tamil Nadu 625012",,V4V6+4RQ,Villapuram,625012,Tamil Nadu,IN,https://www.google.com/maps/place/Al+Muquddas+Masjid/data=!4m7!3m6!1s0x3b00c55c56668eff:0xb038bed1a2004b4!8m2!3d9.89284!4d78.1120983!16s%2Fg%2F11pz0pq9db!19sChIJ_45mVlzFADsRtAQgGu2LAws?authuser=0&hl=en&rclk=1,"9.89284,78.1120983"
Tamil Nadu Thowheed Jamath Masjid,Mosque,"W5C4+6WF Tamil Nadu Thowheed Jamath Masjid, Vandiyur, Madurai, Tamil Nadu 625020",Vandiyur,W5C4+6WF,Madurai,625020,Tamil Nadu,IN,https://www.google.com/maps/place/Tamil+Nadu+Thowheed+Jamath+Masjid/data=!4m7!3m6!1s0x3b00c57300ac7bc9:0xcddea119b701634e!8m2!3d9.9205625!4d78.1572912!16s%2Fg%2F11j7hlvbfl!19sChIJyXusAHPFADsRTmMBtxmh3s0?authuser=0&hl=en&rclk=1,"9.920562499999999,78.1572912"
Masjid un Noor Jumma Mosque,Mosque,"W33W+7JJ Masjid un Noor Jumma Mosque, Tirupparankunram Rd, Palangantham, Madurai, Tamil Nadu 625003",,"W33W+7JJ, Tirupparankunram Rd","Palangantham, Madurai",625003,Tamil Nadu,IN,https://www.google.com/maps/place/Masjid+un+Noor+Jumma+Mosque/data=!4m7!3m6!1s0x3b00cf9a581b12df:0x4fd349bf1ff228f7!8m2!3d9.9032039!4d78.0965169!16s%2Fg%2F11b7yqs0p7!19sChIJ3xIbWJrPADsR9yjyH79J008?authuser=0&hl=en&rclk=1,"9.9032039,78.0965169"
Noor Mosque,Mosque,"W556+24P Noor Mosque, Vaigai River Bank Rd, Angel Nagar, Vandiyur, Madurai, Tamil Nadu 625020","Angel Nagar, Vandiyur","W556+24P, Vaigai River Bank Rd",Madurai,625020,Tamil Nadu,IN,https://www.google.com/maps/place/Noor+Mosque/data=!4m7!3m6!1s0x3b00c4fc38a0aedf:0x3699166931f5e103!8m2!3d9.907584!4d78.1603349!16s%2Fg%2F11c5svmwdb!19sChIJ366gOPzEADsRA-H1MWkWmTY?authuser=0&hl=en&rclk=1,"9.907584,78.1603349"
TNTJ MARKAZ KATRAPALAYAM BRANCH,Mosque,"W477+X47 TNTJ MARKAZ KATRAPALAYAM BRANCH, Periyar, Madurai Main, Madurai, Tamil Nadu 625001","Periyar, Madurai Main",W477+X47,Madurai,625001,Tamil Nadu,IN,https://www.google.com/maps/place/TNTJ+MARKAZ+KATRAPALAYAM+BRANCH/data=!4m7!3m6!1s0x3b00c59c97e771fd:0xd770209fd764007b!8m2!3d9.9149166!4d78.1128057!16s%2Fg%2F11j8b88vbj!19sChIJ_XHnl5zFADsRewBk158gcNc?authuser=0&hl=en&rclk=1,"9.9149166,78.1128057"
Kazimar Edgah pallivasal,Mosque,"W3HW+RM5 Kazimar Edgah pallivasal, Theni Rd, Pethaniapuram 2, Kalavasal, Madurai, Tamil Nadu 625016","Pethaniapuram 2, Kalavasal","W3HW+RM5, Theni Rd",Madurai,625016,Tamil Nadu,IN,https://www.google.com/maps/place/Kazimar+Edgah+pallivasal/data=!4m7!3m6!1s0x3b00cfd8df1cbe9d:0xe5e6e68ae88d8609!8m2!3d9.9295062!4d78.0967198!16s%2Fg%2F11qrtg4m5_!19sChIJnb4c39jPADsRCYaN6Irm5uU?authuser=0&hl=en&rclk=1,"9.929506199999999,78.0967198"
Mosque,Mosque,"W4GC+64F Mosque, Arajar Salai, Simmakkal, Madurai Main, Madurai, Tamil Nadu 625001","Arajar Salai, Simmakkal, Madurai Main",W4GC+64F,Madurai,625001,Tamil Nadu,IN,https://www.google.com/maps/place/Mosque/data=!4m7!3m6!1s0x3b00c56398bb8cd7:0x382cb29bfb65c2b1!8m2!3d9.9255704!4d78.1202988!16s%2Fg%2F11ghnccphk!19sChIJ14y7mGPFADsRscJl-5uyLDg?authuser=0&hl=en&rclk=1,"9.9255704,78.1202988"
Kaif Masjid Mosque,Mosque,"W468+HJ6 Kaif Masjid Mosque, S Veli St, South Gate, Periyar, Madurai Main, Madurai, Tamil Nadu 625001","South Gate, Periyar, Madurai Main","W468+HJ6, S Veli St",Madurai,625001,Tamil Nadu,IN,https://www.google.com/maps/place/Kaif+Masjid+Mosque/data=!4m7!3m6!1s0x3b00c57f3558b98f:0xed4692269ce71009!8m2!3d9.9114074!4d78.1165051!16s%2Fg%2F11b77d3t7d!19sChIJj7lYNX_FADsRCRDnnCaSRu0?authuser=0&hl=en&rclk=1,"9.9114074,78.1165051"
Masjid,Mosque,"W4CW+5GF Masjid, Vaigai Colony, Sathamangalam, Madurai, Tamil Nadu 625020",Vaigai Colony,W4CW+5GF,"Sathamangalam, Madurai",625020,Tamil Nadu,IN,https://www.google.com/maps/place/Masjid/data=!4m7!3m6!1s0x3b00c5af472a8f4b:0xda50d778ce899ae5!8m2!3d9.920429!4d78.1462914!16s%2Fg%2F11f2gs0mz7!19sChIJS48qR6_FADsR5ZqJznjXUNo?authuser=0&hl=en&rclk=1,"9.920429,78.1462914"
Masjid Shaafi Kajiayar Thoppu Masjid,Mosque,"Masjid Shaafi Kajiayar Thoppu Masjid, kaajiyar thoppu 2nd street, Madurai, Tamil Nadu","Periyar, Madurai Main",kaajiyar thoppu 2nd street,Madurai,,Tamil Nadu,IN,https://www.google.com/maps/place/Masjid+Shaafi+Kajiayar+Thoppu+Masjid/data=!4m7!3m6!1s0x3b00c5b5246ba1a7:0xe93c7a33024dd9e9!8m2!3d9.9102501!4d78.1150579!16s%2Fg%2F11f63281kf!19sChIJp6FrJLXFADsR6dlNAjN6POk?authuser=0&hl=en&rclk=1,"9.910250099999999,78.1150579"
Jumma mosque,Mosque,"Jumma mosque, 401, North St, Anna Nagar, Shenoy Nagar, Madurai, Tamil Nadu 625020","Anna Nagar, Shenoy Nagar","401, North St",Madurai,625020,Tamil Nadu,IN,https://www.google.com/maps/place/Jumma+mosque/data=!4m7!3m6!1s0x3b00c5a1fd36d81b:0x4e3e616fdd412fc7!8m2!3d9.9206829!4d78.1465258!16s%2Fg%2F11s2m281lr!19sChIJG9g2_aHFADsRxy9B3W9hPk4?authuser=0&hl=en&rclk=1,"9.9206829,78.14652579999999"
Noorul Hudha Masjid,Mosque,"W45R+R79 Noorul Hudha Masjid, Meenakshi Nagar, Tamil Nadu 625009",,W45R+R79,Meenakshi Nagar,625009,Tamil Nadu,IN,https://www.google.com/maps/place/Noorul+Hudha+Masjid/data=!4m7!3m6!1s0x3b00c5504cb6b473:0x651463cafc32b214!8m2!3d9.9095437!4d78.1407315!16s%2Fg%2F11g2x0nzqs!19sChIJc7S2TFDFADsRFLIy_MpjFGU?authuser=0&hl=en&rclk=1,"9.9095437,78.1407315"
Masjid Meenakshi Hospital Mosque,Mosque,"W5X7+624 Masjid Meenakshi Hospital Mosque, Madurai, Tamil Nadu 625020",,W5X7+624,Madurai,,Tamil Nadu,IN,https://www.google.com/maps/place/Masjid+Meenakshi+Hospital+Mosque/data=!4m7!3m6!1s0x3b00c579bc31f847:0xfd7813ebbbaa9e2b!8m2!3d9.9480087!4d78.1625854!16s%2Fg%2F11fj5gqymt!19sChIJR_gxvHnFADsRK56qu-sTeP0?authuser=0&hl=en&rclk=1,"9.948008699999999,78.1625854"
Al Masjide Musthafa,Mosque,"X572+H7J Al Masjide Musthafa, Al Amin Nagar, Meenakshi Amman Nagar, Madurai, Tamil Nadu 625014","Al Amin Nagar, Meenakshi Amman Nagar",X572+H7J,Madurai,,Tamil Nadu,IN,https://www.google.com/maps/place/Al+Masjide+Musthafa/data=!4m7!3m6!1s0x3b00c7bbf2a9c7fd:0xb3a745174384346c!8m2!3d9.9639696!4d78.1506332!16s%2Fg%2F11gy3jn_vk!19sChIJ_cep8rvHADsRbDSEQxdFp7M?authuser=0&hl=en&rclk=1,"9.9639696,78.1506332"
Masjid Ibrahim,Mosque,"Masjid Ibrahim, 37, North Veli Street, Madurai, Tamil Nadu 625001","Arajar Salai, Simmakkal, Madurai Main","37, North Veli Street",Madurai,625001,Tamil Nadu,IN,https://www.google.com/maps/place/Masjid+Ibrahim/data=!4m7!3m6!1s0x3b00c58fbc253b6f:0xdb7ef17952afe525!8m2!3d9.9255401!4d78.1204025!16s%2Fg%2F11ckqrnvy7!19sChIJbzslvI_FADsRJeWvUnnxfts?authuser=0&hl=en&rclk=1,"9.9255401,78.1204025"
Tntj masjidul haque( mosque),Mosque,"W429+8XX Tntj masjidul haque( mosque), Unnamed Road, Villapuram Colony, Madurai, Tamil Nadu 625012",Villapuram Colony,"W429+8XX, Unnamed Road",Madurai,625012,Tamil Nadu,IN,https://www.google.com/maps/place/Tntj+masjidul+haque%28+mosque%29/data=!4m7!3m6!1s0x3b00c52cac9c64b7:0x8c003aa439cdebf6!8m2!3d9.9008519!4d78.1199784!16s%2Fg%2F11fky_pfl2!19sChIJt2ScrCzFADsR9uvNOaQ6AIw?authuser=0&hl=en&rclk=1,"9.9008519,78.1199784"
Madina Masjid KuppuPillai Thoppu Mosque,Mosque,"W467+C3P Madina Masjid KuppuPillai Thoppu Mosque, Unnamed Road, Periyar, Madurai Main, Madurai, Tamil Nadu 625001","Periyar, Madurai Main","W467+C3P, Unnamed Road",Madurai,625001,Tamil Nadu,IN,https://www.google.com/maps/place/Madina+Masjid+KuppuPillai+Thoppu+Mosque/data=!4m7!3m6!1s0x3b00c581d482de45:0x73628b539435d90!8m2!3d9.9110796!4d78.1126924!16s%2Fg%2F11h37gl9f7!19sChIJRd6C1IHFADsRkF1DObUoNgc?authuser=0&hl=en&rclk=1,"9.911079599999999,78.1126924"
Al Masjidhul Hidayah Jumma Mosque Karumbalai,Mosque,"Al Masjidhul Hidayah Jumma Mosque Karumbalai, 338, Karumbalai East street, SM Nagar, Rajakoor, Madurai, Tamil Nadu 625020","SM Nagar, Rajakoor","338, Karumbalai East street",Madurai,625020,Tamil Nadu,IN,https://www.google.com/maps/place/Al+Masjidhul+Hidayah+Jumma+Mosque+Karumbalai/data=!4m7!3m6!1s0x3b00c5bbc5701afd:0xdab43c679fa69a63!8m2!3d9.9293956!4d78.1414299!16s%2Fg%2F11f0_gqg0z!19sChIJ_RpwxbvFADsRY5qmn2c8tNo?authuser=0&hl=en&rclk=1,"9.9293956,78.14142989999999"
Masjid un Nabawi Jumma Mosque,Mosque,"X429+X96 Masjid un Nabawi Jumma Mosque, Telephone colony, Alamelu Nagar, S Alangulam, Tamil Nadu 625017",Alamelu Nagar,"X429+X96, Telephone colony","S Alangulam, Madurai",625017,Tamil Nadu,IN,https://www.google.com/maps/place/Masjid+un+Nabawi+Jumma+Mosque/data=!4m7!3m6!1s0x3b00c56e9a6d854f:0x23bbd4ee559cbbb7!8m2!3d9.9524045!4d78.1183995!16s%2Fg%2F11gjw2__4v!19sChIJT4Vtmm7FADsRt7ucVe7UuyM?authuser=0&hl=en&rclk=1,"9.9524045,78.1183995"
Masjid e Iklas,Mosque,"W5F5+52X Masjid e Iklas, Vandiyur, Madurai, Tamil Nadu 625020",Vandiyur,W5F5+52X,Madurai,625020,Tamil Nadu,IN,https://www.google.com/maps/place/Masjid+e+Iklas/data=!4m7!3m6!1s0x3b00c452dc6aaaab:0x95246c945e1fc672!8m2!3d9.9229848!4d78.1576011!16s%2Fg%2F11txmz7_bw!19sChIJq6pq3FLEADsRcsYfXpRsJJU?authuser=0&hl=en&rclk=1,"9.9229848,78.1576011"
Jimmah masjid,Mosque,"W4GC+642 Jimmah masjid, north line, 4th St, Simmakkal, Madurai, Tamil Nadu 625001","Arajar Salai, Simmakkal, Madurai Main","W4GC+642, north line, 4th St",Madurai,625001,Tamil Nadu,IN,https://www.google.com/maps/place/Jimmah+masjid/data=!4m7!3m6!1s0x3b00c56f6b0a79b1:0x3ab54696aaf8ddc!8m2!3d9.9255031!4d78.1202804!16s%2Fg%2F11ghncttwh!19sChIJsXkKa2_FADsR3I2vamlUqwM?authuser=0&hl=en&rclk=1,"9.9255031,78.1202804"
Masjid East Madurai Mosque,Mosque,"W46M+4HF Masjid East Madurai Mosque, Chairman Muthuramaiyer Rd, Navarathinapuram, Madurai, Tamil Nadu 625009",,"W46M+4HF, Chairman Muthuramaiyer Rd","Navarathinapuram, Madurai",625009,Tamil Nadu,IN,https://www.google.com/maps/place/Masjid+East+Madurai+Mosque/data=!4m7!3m6!1s0x3b00c57b4ff97239:0x31c12ceaade17a2b!8m2!3d9.9103236!4d78.1339127!16s%2Fg%2F11f7b47hqp!19sChIJOXL5T3vFADsRK3rhreoswTE?authuser=0&hl=en&rclk=1,"9.9103236,78.1339127"
Jinnah Masjid,Mosque,"W4GC+64F Jinnah Masjid, north line, 4th St, Madurai Main, Madurai, Tamil Nadu 625001","Arajar Salai, Simmakkal, Madurai Main","W4GC+64F, north line, 4th St",Madurai,625001,Tamil Nadu,IN,https://www.google.com/maps/place/Jinnah+Masjid/data=!4m7!3m6!1s0x3b00c51476c74a29:0x6a77934ec819ff0d!8m2!3d9.9255704!4d78.1202988!16s%2Fg%2F11ghncphcc!19sChIJKUrHdhTFADsRDf8ZyE6Td2o?authuser=0&hl=en&rclk=1,"9.9255704,78.1202988"
Masjid Thiruppalai Jamath Mosque,Mosque,"X4FR+R3W Masjid Thiruppalai Jamath Mosque, Natham Rd, Iyer Bungalow, Madurai, Tamil Nadu 625014",Iyer Bungalow,"X4FR+R3W, Natham Rd",Madurai,625014,Tamil Nadu,IN,https://www.google.com/maps/place/Masjid+Thiruppalai+Jamath+Mosque/data=!4m7!3m6!1s0x3b00c6694fdf17a7:0x1000a9c984502dc5!8m2!3d9.9746197!4d78.1402015!16s%2Fg%2F1ptz38t03!19sChIJpxffT2nGADsRxS1QhMmpABA?authuser=0&hl=en&rclk=1,"9.9746197,78.1402015"
Masjid e Dheenul Islam,Mosque,"V3X9+CG9 Masjid e Dheenul Islam, Kala Malai, Pasumalai, Madurai, Tamil Nadu 625004","Kala Malai, Pasumalai",V3X9+CG9,Madurai,625004,Tamil Nadu,IN,https://www.google.com/maps/place/Masjid+e+Dheenul+Islam/data=!4m7!3m6!1s0x3b00cf724d0001f9:0x31b3ba2f701e120b!8m2!3d9.8985315!4d78.0688678!16s%2Fg%2F11h2qd3ssk!19sChIJ-QEATXLPADsRCxIecC-6szE?authuser=0&hl=en&rclk=1,"9.898531499999999,78.06886779999999"
TNTJ Pudhur Masjid,Mosque,"W4VW+VX8 TNTJ Pudhur Masjid, Industrial Estate, K.Pudur, Madurai, Tamil Nadu 625007",Industrial Estate,W4VW+VX8,"K.Pudur, Madurai",625007,Tamil Nadu,IN,https://www.google.com/maps/place/TNTJ+Pudhur+Masjid/data=!4m7!3m6!1s0x3b00c53381d06ab1:0x4a647d0c27520ded!8m2!3d9.9447759!4d78.1471404!16s%2Fg%2F11ryh05tcf!19sChIJsWrQgTPFADsR7Q1SJwx9ZEo?authuser=0&hl=en&rclk=1,"9.9447759,78.1471404"
Masjid Sambakulam 120 feet Road Mosque,Mosque,"X524+G65 Masjid Sambakulam 120 feet Road Mosque, Swami Vivekananda Nagar, Kodikulam, Madurai, Tamil Nadu 625007",Swami Vivekananda Nagar,X524+G65,"Kodikulam, Madurai",625007,Tamil Nadu,IN,https://www.google.com/maps/place/Masjid+Sambakulam+120+feet+Road+Mosque/data=!4m7!3m6!1s0x3b00c5eb53165a93:0x2a11a371ba9660e!8m2!3d9.9512511!4d78.1556032!16s%2Fg%2F11g4dfjr64!19sChIJk1oWU-vFADsRDmapGzcaoQI?authuser=0&hl=en&rclk=1,"9.9512511,78.1556032"
Muslim Masjid,Mosque,"W487+786 Muslim Masjid, Tirupparankunram Rd, Katrapalayam, Periyar, Madurai Main, Madurai, Tamil Nadu 625001","Katrapalayam, Periyar, Madurai Main","W487+786, Tirupparankunram Rd",Madurai,625001,Tamil Nadu,IN,https://www.google.com/maps/place/Muslim+Masjid/data=!4m7!3m6!1s0x3b00c56839de558f:0x95266bd9e2c39870!8m2!3d9.9156625!4d78.1132526!16s%2Fg%2F11l_b7187n!19sChIJj1XeOWjFADsRcJjD4tlrJpU?authuser=0&hl=en&rclk=1,"9.9156625,78.1132526"
Sivakasi Shaafi Muslim Jamaath Masjid,Mosque,"W468+32W Sivakasi Shaafi Muslim Jamaath Masjid, South Gate, Periyar, Madurai Main, Madurai, Tamil Nadu 625001","South Gate, Periyar, Madurai Main",W468+32W,Madurai,625001,Tamil Nadu,IN,https://www.google.com/maps/place/Sivakasi+Shaafi+Muslim+Jamaath+Masjid/data=!4m7!3m6!1s0x3b00c55fb7f2ba95:0xc8d6b58e6f76badc!8m2!3d9.9102254!4d78.1150789!16s%2Fg%2F11v12y32q_!19sChIJlbryt1_FADsR3Lp2b4611sg?authuser=0&hl=en&rclk=1,"9.9102254,78.1150789"
JUMMA MOSQUE BB KULAM,Mosque,"W4VH+3FC JUMMA MOSQUE BB KULAM, Bi Bi Kulam Rd, B B Kulam, Madurai, Tamil Nadu 625002",,"W4VH+3FC, Bi Bi Kulam Rd","B B Kulam, Madurai",625002,Tamil Nadu,IN,https://www.google.com/maps/place/JUMMA+MOSQUE+BB+KULAM/data=!4m7!3m6!1s0x3b00c514efed3c55:0x369248ced3df2be8!8m2!3d9.9425209!4d78.1286457!16s%2Fg%2F11khzbz32z!19sChIJVTzt7xTFADsR6Cvf085IkjY?authuser=0&hl=en&rclk=1,"9.9425209,78.12864569999999"
TNTJ Masjid Tawba,Mosque,"W4VC+WGR TNTJ Masjid Tawba, Poonthamalli Nagar, Madurai, Tamil Nadu 625002",Poonthamalli Nagar,W4VC+WGR,Madurai,625002,Tamil Nadu,IN,https://www.google.com/maps/place/TNTJ+Masjid+Tawba/data=!4m7!3m6!1s0x3b00c56c8c4edfcd:0xe66a9cdaeebd6e82!8m2!3d9.9448663!4d78.1212721!16s%2Fg%2F11fs9wv5rp!19sChIJzd9OjGzFADsRgm697tqcauY?authuser=0&hl=en&rclk=1,"9.9448663,78.1212721"
Markaz,Mosque,"W473+GF4 Markaz, Ellis Nagar, Madurai, Tamil Nadu 625016",Ellis Nagar,W473+GF4,Madurai,625016,Tamil Nadu,IN,https://www.google.com/maps/place/Markaz/data=!4m7!3m6!1s0x3b00cf986680a10f:0xccb86d0dbc0ce02c!8m2!3d9.9137745!4d78.1036988!16s%2Fg%2F11gy1ln12h!19sChIJD6GAZpjPADsRLOAMvA1tuMw?authuser=0&hl=en&rclk=1,"9.913774499999999,78.10369879999999"
Ar-Rahman Jamia Masjid - Sunnatul Jamath,Mosque,"X48G+W27 Ar-Rahman Jamia Masjid - Sunnatul Jamath, 1st Cross St, Park Town, Bama Nagar, Madurai, Tamil Nadu 625017","Park Town, Bama Nagar","X48G+W27, 1st Cross St",Madurai,,Tamil Nadu,IN,https://www.google.com/maps/place/Ar-Rahman+Jamia+Masjid+-+Sunnatul+Jamath/data=!4m7!3m6!1s0x3b00c7a04f14f1d1:0x28385a973cc8e972!8m2!3d9.9672801!4d78.1250385!16s%2Fg%2F11vk_7stt1!19sChIJ0fEUT6DHADsRcunIPJdaOCg?authuser=0&hl=en&rclk=1,"9.9672801,78.1250385"
Thowheed Jamath Mosque,Mosque,"W4WW+2P8 Thowheed Jamath Mosque, 6th St, Ramavarma Nagar, K.Pudur, Madurai, Tamil Nadu 625007",Ramavarma Nagar,"W4WW+2P8, 6th St","K.Pudur, Madurai",625007,Tamil Nadu,IN,https://www.google.com/maps/place/Thowheed+Jamath+Mosque/data=!4m7!3m6!1s0x3b00c5bf2cbd3033:0xb9c71bd8f77dff40!8m2!3d9.9450421!4d78.1468349!16s%2Fg%2F11m7p5fkww!19sChIJMzC9LL_FADsRQP9999gbx7k?authuser=0&hl=en&rclk=1,"9.9450421,78.1468349"
