name,main_category,address,address_ward,address_street,address_city,address_postal_code,address_state,address_country_code,link,coordinates
Shri Umiya Mataji Temple,Hindu temple,"Shri Umiya Mataji Temple, Umiya Mata Mandir Pase, Umiya Mata Chowk, Unjha, Gujarat 384170",Baharmadh,"Umiya Mata Mandir Pase, Umiya Mata Chowk, Unjha",Unjha,384170,Gujarat,IN,https://www.google.com/maps/place/Shri+Umiya+Mataji+Temple/data=!4m7!3m6!1s0x395c5e94abc3398d:0x29d3ba77f18a115e!8m2!3d23.8017109!4d72.3965811!16s%2Fg%2F1vvywgp6!19sChIJjTnDq5ReXDkRXhGK8Xe60yk?authuser=0&hl=en&rclk=1,"23.8017109,72.39658109999999"
Mira Datar Dargah Khadim Waqar Ali,Shrine,"Mira Datar Dargah Khadim Waqar Ali, Unjha, Unava, Gujarat 384160",,Unjha,Unava,384160,Gujarat,IN,https://www.google.com/maps/place/Mira+Datar+Dargah+Khadim+Waqar+Ali/data=!4m7!3m6!1s0x395c5ddb35fdc9b3:0xd85658accb42d64e!8m2!3d23.7653403!4d72.3629844!16s%2Fg%2F11bx1c7c0c!19sChIJs8n9NdtdXDkRTtZCy6xYVtg?authuser=0&hl=en&rclk=1,"23.7653403,72.3629844"
Karamat E Datar - Hazrat Saiyad Ali Miradatar Dargah Sharif (Sajjada Akram Ali),Mosque,"Karamat E Datar - Hazrat Saiyad Ali Miradatar Dargah Sharif (Sajjada Akram Ali), Saiyed Ali Miradatar, Unava, Gujarat 384160",,Saiyed Ali Miradatar,Unava,384160,Gujarat,IN,https://www.google.com/maps/place/Karamat+E+Datar+-+Hazrat+Saiyad+Ali+Miradatar+Dargah+Sharif+%28Sajjada+Akram+Ali%29/data=!4m7!3m6!1s0x395c5d1fc8cb289d:0x6791c961aef4e074!8m2!3d23.7674355!4d72.3647624!16s%2Fg%2F11h4k8ycdm!19sChIJnSjLyB9dXDkRdOD0rmHJkWc?authuser=0&hl=en&rclk=1,"23.767435499999998,72.3647624"
Shri Umiya Mataji Guest House Unjha,Guest house,"R93W+2PG Shri Umiya Mataji Guest House Unjha, Umiya Mata Temple Compound, Unjha, Gujarat 384170",Baharmadh,"R93W+2PG, Umiya Mata Temple Compound",Unjha,384170,Gujarat,IN,https://www.google.com/maps/place/Shri+Umiya+Mataji+Guest+House+Unjha/data=!4m10!3m9!1s0x395c5eeb50575de5:0x946cf95df2c7ccee!5m2!4m1!1i2!8m2!3d23.8025571!4d72.396814!16s%2Fg%2F1yh805l7g!19sChIJ5V1XUOteXDkR7szH8l35bJQ?authuser=0&hl=en&rclk=1,"23.802557099999998,72.39681399999999"
Hazrat Saiyad Ali Miradatar (R.A) Daragah Sharif - SYED KAMIL ALI,Shrine,"Q987+94W Hazrat Saiyad Ali Miradatar (R.A) Daragah Sharif - SYED KAMIL ALI, Datar Dargah, Mira, Unava, Gujarat 384160",,"Q987+94W Datar Dargah, Mira",Unava,384160,Gujarat,IN,https://www.google.com/maps/place/Hazrat+Saiyad+Ali+Miradatar+%28R.A%29+Daragah+Sharif+-+SYED+KAMIL+ALI/data=!4m7!3m6!1s0x395c5ddb2d6b6a13:0xc871021f7695311a!8m2!3d23.7659375!4d72.3628125!16s%2Fg%2F11f3zk61b2!19sChIJE2prLdtdXDkRGjGVdh8Cccg?authuser=0&hl=en&rclk=1,"23.7659375,72.36281249999999"
Hazrat Hamza Mamu Sahab Dargah,Shrine,"Hazrat Hamza Mamu Sahab Dargah, Mamu Saheb Dargah, Old S.H. 41, Unava, Gujarat 384160",,"Mamu Saheb Dargah, Old S.H. 41",Unava,384160,Gujarat,IN,https://www.google.com/maps/place/Hazrat+Hamza+Mamu+Sahab+Dargah/data=!4m7!3m6!1s0x395c5dda4357cb13:0x6f61142e8ece7324!8m2!3d23.7673425!4d72.3647265!16s%2Fg%2F11c6sn1z4x!19sChIJE8tXQ9pdXDkRJHPOji4UYW8?authuser=0&hl=en&rclk=1,"23.767342499999998,72.3647265"
Saiyed Ali Mira Datar Dargah - Shahnavaj Ali,Shrine,"Saiyed Ali Mira Datar Dargah - Shahnavaj Ali, Mira Datar Dargah, Gujarat State Highway 41, near Unjha, Station, Unava, Gujarat 384160",,"Mira Datar Dargah, Gujarat State Highway 41, near Unjha, Station",Unava,384160,Gujarat,IN,https://www.google.com/maps/place/Saiyed+Ali+Mira+Datar+Dargah+-+Shahnavaj+Ali/data=!4m7!3m6!1s0x395c5d9432224c95:0xbee4ca8a6a64dca!8m2!3d23.7674578!4d72.3646776!16s%2Fg%2F11q1wwjxnc!19sChIJlUwiMpRdXDkRyk2mpqhM7gs?authuser=0&hl=en&rclk=1,"23.7674578,72.3646776"
UMIYA,Business administration service,"Q9XQ+962 UMIYA, Visnagar Rd, Jaimin, Unjha, Gujarat 384170",Jaimin,"Q9XQ+962, Visnagar Rd",Unjha,384170,Gujarat,IN,https://www.google.com/maps/place/UMIYA/data=!4m7!3m6!1s0x395c5f5d603d400f:0x5c9a85625b9aecf!8m2!3d23.7983807!4d72.3880061!16s%2Fg%2F11f7r2w9fn!19sChIJD0A9YF1fXDkRz665JVaoyQU?authuser=0&hl=en&rclk=1,"23.7983807,72.3880061"
MASJID E GAZNAVI,Mosque,"MASJID E GAZNAVI, Dasaj, Gujarat 384170",,,Dasaj,384170,Gujarat,IN,https://www.google.com/maps/place/MASJID+E+GAZNAVI/data=!4m7!3m6!1s0x395c59dd651c1e23:0x1bbc8ec7f4e50949!8m2!3d23.8417593!4d72.4476651!16s%2Fg%2F11f6krm4_g!19sChIJIx4cZd1ZXDkRSQnl9MeOvBs?authuser=0&hl=en&rclk=1,"23.8417593,72.4476651"
Mira datar Dargah khadim saiyed rohaan ali,Mosque,"Mira datar Dargah khadim saiyed rohaan ali, Unjha, Unava, Gujarat 384160",,,"Unjha, Unava",384160,Gujarat,IN,https://www.google.com/maps/place/Mira+datar+Dargah+khadim+saiyed+rohaan+ali/data=!4m7!3m6!1s0x395c5d09eaf64b6d:0xd8f8fa9148a42663!8m2!3d23.7633016!4d72.3631554!16s%2Fg%2F11szfg63fg!19sChIJbUv26gldXDkRYyakSJH6-Ng?authuser=0&hl=en&rclk=1,"23.7633016,72.3631554"
Mira Datar Dargah - Saiyed Amirhamza,Shrine,"Mira Datar Dargah - Saiyed Amirhamza, Mira Datar Dargah, Unjha, Unava, Gujarat 384160",,"Mira Datar Dargah, Unjha",Unava,384160,Gujarat,IN,https://www.google.com/maps/place/Mira+Datar+Dargah+-+Saiyed+Amirhamza/data=!4m7!3m6!1s0x395c5de686eb3a17:0x4b02579f9c8319db!8m2!3d23.7632651!4d72.3638544!16s%2Fg%2F11sfql6b6z!19sChIJFzrrhuZdXDkR2xmDnJ9XAks?authuser=0&hl=en&rclk=1,"23.763265099999998,72.3638544"
Mira datar dargah sharif,Mosque,"Mira datar dargah sharif, mira datar dargah, Unjha, Unava, Gujarat 384160",,mira datar dargah,"Unjha, Unava",,Gujarat,IN,https://www.google.com/maps/place/Mira+datar+dargah+sharif/data=!4m7!3m6!1s0x395c5dbf3bf8cabf:0x4815479a021a64c4!8m2!3d23.7676016!4d72.3636412!16s%2Fg%2F11nnzgsnhv!19sChIJv8r4O79dXDkRxGQaAppHFUg?authuser=0&hl=en&rclk=1,"23.7676016,72.3636412"
Unjha,Train station,"Unjha, Industrial Area, Unjha, Gujarat 384170",Industrial Area,,Unjha,384170,Gujarat,IN,https://www.google.com/maps/place/Unjha/data=!4m7!3m6!1s0x395c5e8bb2166af9:0x989b908a4f6ce1e1!8m2!3d23.7966116!4d72.381508!16s%2Fg%2F11gyb10t6t!19sChIJ-WoWsoteXDkR4eFsT4qQm5g?authuser=0&hl=en&rclk=1,"23.7966116,72.381508"
Molipur Masjid ( moliipur msjid ),Mosque,"Molipur Masjid ( moliipur msjid ), 23.821364, 72.643469, Molipur, Gujarat 384335",,"23.821364, 72.643469",Molipur,384335,Gujarat,IN,https://www.google.com/maps/place/Molipur+Masjid+%28+%E0%AA%AE%E0%AB%8B%E0%AA%B2%E0%AB%80%E0%AA%AA%E0%AB%81%E0%AA%B0+%E0%AA%AE%E0%AA%B8%E0%AB%8D%E0%AA%9C%E0%AA%BF%E0%AA%A6+%29/data=!4m7!3m6!1s0x395c546dc86e9713:0x505328f07888a92c!8m2!3d23.8212955!4d72.6430795!16s%2Fg%2F11c69w96h_!19sChIJE5duyG1UXDkRLKmIePAoU1A?authuser=0&hl=en&rclk=1,"23.821295499999998,72.6430795"
Zaini Masjid,Mosque,"W98F+W2C Zaini Masjid, Islampura, Siddhpur, Gujarat 384151",Islampura,W98F+W2C,Siddhpur,384151,Gujarat,IN,https://www.google.com/maps/place/Zaini+Masjid/data=!4m7!3m6!1s0x395cf4fe83658d0f:0xcdc92b50515616bd!8m2!3d23.9173121!4d72.3725081!16s%2Fg%2F1hhm7vs9m!19sChIJD41lg_70XDkRvRZWUVAryc0?authuser=0&hl=en&rclk=1,"23.9173121,72.37250809999999"
Masjid Balisana,Mosque,"R783+CXF Masjid Balisana, Visalvasna, Balisana, Gujarat 384110",,R783+CXF,"Visalvasna, Balisana",384110,Gujarat,IN,https://www.google.com/maps/place/Masjid+Balisana/data=!4m7!3m6!1s0x395c61996f83d58f:0x7669645579efeaf0!8m2!3d23.8160505!4d72.2549075!16s%2Fg%2F11r9cq970!19sChIJj9WDb5lhXDkR8OrveVVkaXY?authuser=0&hl=en&rclk=1,"23.8160505,72.2549075"
Dawoodi Bohra Dargah Sidhpur,Place of worship,"Dawoodi Bohra Dargah Sidhpur, 384151, Govind Madhav Society, Bindu Sarovar, Siddhpur, Gujarat","Govind Madhav Society, Bindu Sarovar",384151,Siddhpur,,Gujarat,IN,https://www.google.com/maps/place/Dawoodi+Bohra+Dargah+Sidhpur/data=!4m7!3m6!1s0x395cf4fdea700001:0x898f704d225e6022!8m2!3d23.915396!4d72.3713005!16s%2Fg%2F11d_8lbmf9!19sChIJAQBw6v30XDkRImBeIk1wj4k?authuser=0&hl=en&rclk=1,"23.915395999999998,72.3713005"
Mohammedi Masjid,Mosque,"W99F+JFP Mohammedi Masjid, Zampli Pol, Ambavadi, Siddhpur, Gujarat 384151","Zampli Pol, Ambavadi",W99F+JFP,Siddhpur,384151,Gujarat,IN,https://www.google.com/maps/place/Mohammedi+Masjid/data=!4m7!3m6!1s0x395cf4feb96ff001:0x101afc626ac26124!8m2!3d23.9190895!4d72.3737079!16s%2Fg%2F11bwyl_dlm!19sChIJAfBvuf70XDkRJGHCamL8GhA?authuser=0&hl=en&rclk=1,"23.9190895,72.3737079"
Masjid Umar Fategadh,Mosque,"2C29+88W Masjid Umar Fategadh, Fategadh, Gujarat 385210",,2C29+88W,Fategadh,385210,Gujarat,IN,https://www.google.com/maps/place/Masjid+Umar+Fategadh/data=!4m7!3m6!1s0x395cf3d097b8ebc5:0x294bb9f51e84ead2!8m2!3d24.0008514!4d72.4183177!16s%2Fg%2F11g7_l7gfy!19sChIJxeu4l9DzXDkR0uqEHvW5Syk?authuser=0&hl=en&rclk=1,"24.0008514,72.4183177"
mira datar dargah,Mosque,"mira datar dargah, Sahil Hotel, Unava, Gujarat 384160",,Sahil Hotel,Unava,384160,Gujarat,IN,https://www.google.com/maps/place/mira+datar+dargah/data=!4m7!3m6!1s0x395c5db6ffb2ee81:0x2166bfca9cdd3ffa!8m2!3d23.7571448!4d72.3649652!16s%2Fg%2F11llyphfl9!19sChIJge6y_7ZdXDkR-j_dnMq_ZiE?authuser=0&hl=en&rclk=1,"23.7571448,72.3649652"
Hidayat Masjid,Mosque,"MGQV+PHC Hidayat Masjid, GJ SH 218, Adarash Nagar, Visnagar, Gujarat 384315",Adarash Nagar,"MGQV+PHC, GJ SH 218",Visnagar,384315,Gujarat,IN,https://www.google.com/maps/place/Hidayat+Masjid/data=!4m7!3m6!1s0x395c4fe9d696e19b:0xf208be36710820e8!8m2!3d23.6893108!4d72.5438833!16s%2Fg%2F12hkn5q53!19sChIJm-GW1ulPXDkR6CAIcTa-CPI?authuser=0&hl=en&rclk=1,"23.689310799999998,72.54388329999999"
MASJID E UMAR,Mosque,"258F+9CQ MASJID E UMAR, Vadani, Gujarat 384285",,258F+9CQ,Vadani,384285,Gujarat,IN,https://www.google.com/maps/place/MASJID+E+UMAR/data=!4m7!3m6!1s0x395c8fc4db6d6251:0xac6b5971e41edeb1!8m2!3d24.0159578!4d72.1736134!16s%2Fg%2F11cly8yfhc!19sChIJUWJt28SPXDkRsd4e5HFZa6w?authuser=0&hl=en&rclk=1,"24.0159578,72.1736134"
MASJID E YOUSUFI,Mosque,"MASJID E YOUSUFI, Bhankhar, Gujarat 384170",,,Bhankhar,384170,Gujarat,IN,https://www.google.com/maps/place/MASJID+E+YOUSUFI/data=!4m7!3m6!1s0x395c59fef1e6e78d:0xdde547880f084a16!8m2!3d23.8140272!4d72.4336317!16s%2Fg%2F11h55nnx63!19sChIJjefm8f5ZXDkRFkoID4hH5d0?authuser=0&hl=en&rclk=1,"23.814027199999998,72.43363169999999"
"Jama Masjid Kheralu, Kheralu",Mosque,"Jama Masjid Kheralu, Kheralu, Sindhivas, Kheralu, Gujarat 384325",,Sindhivas,Kheralu,384325,Gujarat,IN,"https://www.google.com/maps/place/Jama+Masjid+Kheralu,+Kheralu/data=!4m7!3m6!1s0x395c55fcd6411101:0xc88aec92b92de842!8m2!3d23.8857721!4d72.6184081!16s%2Fg%2F11g8_5gthh!19sChIJARFB1vxVXDkRQugtuZLsisg?authuser=0&hl=en&rclk=1","23.8857721,72.6184081"
Char Rasta Masjid,Mosque,"V9Q9+W58 Char Rasta Masjid, Patan, Gujarat 384215",,V9Q9+W58,Patan,,Gujarat,IN,https://www.google.com/maps/place/Char+Rasta+Masjid/data=!4m7!3m6!1s0x395cf572b84c7405:0x99b437f1ed410353!8m2!3d23.8897837!4d72.3679408!16s%2Fg%2F11f3zj0nn4!19sChIJBXRMuHL1XDkRUwNB7fE3tJk?authuser=0&hl=en&rclk=1,"23.8897837,72.3679408"
Muna Masjid,Mosque,"44WJ+393 Muna Masjid, Muna, Gujarat 385550",,44WJ+393,Muna,385550,Gujarat,IN,https://www.google.com/maps/place/Muna+Masjid/data=!4m7!3m6!1s0x395c99db40d7db85:0x8a86b5ff07027228!8m2!3d24.145131!4d72.130915!16s%2Fg%2F11dyxk3n10!19sChIJhdvXQNuZXDkRKHICB_-1hoo?authuser=0&hl=en&rclk=1,"24.145131,72.130915"
Jumma Masjid,Mosque,"Q976+FRX Jumma Masjid, Unava, Gujarat 384160",,Q976+FRX,Unava,384160,Gujarat,IN,https://www.google.com/maps/place/Jumma+Masjid/data=!4m7!3m6!1s0x395c5ddb4a38aff5:0xca8aa35079c3635d!8m2!3d23.7637256!4d72.3621152!16s%2Fg%2F11c5swgtqm!19sChIJ9a84SttdXDkRXWPDeVCjiso?authuser=0&hl=en&rclk=1,"23.763725599999997,72.36211519999999"
FARIDIYA JAMA MASJID LUNVA,Mosque,"VFWV+QWC FARIDIYA JAMA MASJID LUNVA, Lunva, Gujarat 384130",,VFWV+QWC,Lunva,384130,Gujarat,IN,https://www.google.com/maps/place/FARIDIYA+JAMA+MASJID+LUNVA/data=!4m7!3m6!1s0x395cf79a03fc4327:0x1b2c31f39e87d7c0!8m2!3d23.8969343!4d72.494773!16s%2Fg%2F11hmz6tj03!19sChIJJ0P8A5r3XDkRwNeHnvMxLBs?authuser=0&hl=en&rclk=1,"23.896934299999998,72.494773"
Masjid-e-aqsa Majadar,Mosque,"3C24+826 Masjid-e-aqsa Majadar, Majadar, Gujarat 385210",,3C24+826,Majadar,385210,Gujarat,IN,https://www.google.com/maps/place/Masjid-e-aqsa+Majadar/data=!4m7!3m6!1s0x395cf20b786b7349:0x7049458bad12fc7e!8m2!3d24.0507967!4d72.4050264!16s%2Fg%2F11c54c38np!19sChIJSXNreAvyXDkRfvwSrYtFSXA?authuser=0&hl=en&rclk=1,"24.0507967,72.4050264"
New Jumma Masjid,Mosque,"RMF7+5R3 New Jumma Masjid, Sarna link Road, Badarpur, Gujarat 384355",,"RMF7+5R3, Sarna link Road",Badarpur,384355,Gujarat,IN,https://www.google.com/maps/place/New+Jumma+Masjid/data=!4m7!3m6!1s0x395c555a5a08574b:0x2a1a59964473240d!8m2!3d23.822898!4d72.6645512!16s%2Fg%2F11mvvjlxwv!19sChIJS1cIWlpVXDkRDSRzRJZZGio?authuser=0&hl=en&rclk=1,"23.822898,72.66455119999999"
Mosque,Mosque,"RMC4+J2C Mosque, Badarpur, Gujarat 384355",,RMC4+J2C,Badarpur,384355,Gujarat,IN,https://www.google.com/maps/place/Mosque/data=!4m7!3m6!1s0x395c5464c75841b7:0x525f91eda8ce3595!8m2!3d23.8215687!4d72.655024!16s%2Fg%2F11c1tznypx!19sChIJt0FYx2RUXDkRlTXOqO2RX1I?authuser=0&hl=en&rclk=1,"23.8215687,72.655024"
Old Masjid Nedra,Mosque,"V8R9+H6V Old Masjid Nedra, Nedra, Gujarat 384215",,V8R9+H6V,Nedra,384215,Gujarat,IN,https://www.google.com/maps/place/Old+Masjid+Nedra/data=!4m7!3m6!1s0x395c8ac5ee0b9c3b:0x91c49a64fa06c4a4!8m2!3d23.8914925!4d72.3180385!16s%2Fg%2F11c5bhgshc!19sChIJO5wL7sWKXDkRpMQG-mSaxJE?authuser=0&hl=en&rclk=1,"23.8914925,72.3180385"
Masjid-e-Umar farooq,Mosque,"4JGR+M95 Masjid-e-Umar farooq, Hatawada, Gujarat 385120",,4JGR+M95,Hatawada,385120,Gujarat,IN,https://www.google.com/maps/place/Masjid-e-Umar+farooq/data=!4m7!3m6!1s0x395ce30b02cadaf1:0xf15a4a62ff2fd83a!8m2!3d24.126633!4d72.6409813!16s%2Fg%2F11d_1n15ch!19sChIJ8drKAgvjXDkROtgv_2JKWvE?authuser=0&hl=en&rclk=1,"24.126632999999998,72.64098129999999"
Masjid Khali,Mosque,"V9V7+MFP Masjid Khali, Khali, Gujarat 384215",,V9V7+MFP,Khali,384215,Gujarat,IN,https://www.google.com/maps/place/Masjid+Khali/data=!4m7!3m6!1s0x395cf5124b1a4ad1:0xc99eb6facf979271!8m2!3d23.8942045!4d72.3637152!16s%2Fg%2F11ggb9p4hx!19sChIJ0UoaSxL1XDkRcZKXz_q2nsk?authuser=0&hl=en&rclk=1,"23.894204499999997,72.3637152"
Masjid E Gausiya,Mosque,"Masjid E Gausiya, nagori vas, Basu, Gujarat 385520",,nagori vas,Basu,,Gujarat,IN,https://www.google.com/maps/place/Masjid+E+Gausiya/data=!4m7!3m6!1s0x395c93982af40b47:0x2456c6c9d3053e88!8m2!3d24.0583968!4d72.3302417!16s%2Fg%2F11ff5l2t5z!19sChIJRwv0KpiTXDkRiD4F08nGViQ?authuser=0&hl=en&rclk=1,"24.0583968,72.3302417"
Rahimpura Masjid Navavas Sidhpur,Mosque,"Rahimpura Masjid Navavas Sidhpur, 384151, Navavas, Maruvas, Siddhpur, Gujarat 384151","Navavas, Maruvas",384151,Siddhpur,384151,Gujarat,IN,https://www.google.com/maps/place/Rahimpura+Masjid+Navavas+Sidhpur/data=!4m7!3m6!1s0x395cf501e086642d:0x542161819a3ef8d1!8m2!3d23.9141228!4d72.3739919!16s%2Fg%2F11c6vvp6bn!19sChIJLWSG4AH1XDkR0fg-moFhIVQ?authuser=0&hl=en&rclk=1,"23.914122799999998,72.3739919"
Masjid kakosi highway sidhpur,Mosque,"W9J6+M8M Masjid kakosi highway sidhpur, Saraswati Nagar, Siddhpur, Gujarat 384151",Saraswati Nagar,W9J6+M8M,Siddhpur,384151,Gujarat,IN,https://www.google.com/maps/place/Masjid+kakosi+highway+sidhpur/data=!4m7!3m6!1s0x395cf5f8c01ba9a1:0x660921d4eab6b9c2!8m2!3d23.9317135!4d72.3607954!16s%2Fg%2F11h5vmwylb!19sChIJoakbwPj1XDkRwrm26tQhCWY?authuser=0&hl=en&rclk=1,"23.931713499999997,72.3607954"
Markaz Masjid,Mosque,"W9CC+59J Markaz Masjid, Islampura, Siddhpur, Gujarat 384151",Islampura,W9CC+59J,Siddhpur,384151,Gujarat,IN,https://www.google.com/maps/place/Markaz+Masjid/data=!4m7!3m6!1s0x395cf5193d475735:0xeb4bd2f2d8b2069d!8m2!3d23.9204503!4d72.3708983!16s%2Fg%2F11gj60_6w9!19sChIJNVdHPRn1XDkRnQay2PLSS-s?authuser=0&hl=en&rclk=1,"23.9204503,72.3708983"
sunni hanfi masjid,Mosque,"WCP9+XFW sunni hanfi masjid, mominwas, Mudana, Gujarat 384151",mominwas,WCP9+XFW,Mudana,384151,Gujarat,IN,https://www.google.com/maps/place/sunni+hanfi+masjid/data=!4m7!3m6!1s0x395cf423f211f8bf:0x3781502ac429d3fd!8m2!3d23.9374989!4d72.418718!16s%2Fg%2F11c6chnfkd!19sChIJv_gR8iP0XDkR_dMpxCpQgTc?authuser=0&hl=en&rclk=1,"23.937498899999998,72.418718"
New Masjid Nedra,Mosque,"V8Q8+JMX New Masjid Nedra, Nedra, Gujarat 384215",,V8Q8+JMX,Nedra,384215,Gujarat,IN,https://www.google.com/maps/place/New+Masjid+Nedra/data=!4m7!3m6!1s0x395c8ac666d02ee5:0x4725be4603669fca!8m2!3d23.8891117!4d72.3167197!16s%2Fg%2F11c5_51gr7!19sChIJ5S7QZsaKXDkRyp9mA0a-JUc?authuser=0&hl=en&rclk=1,"23.889111699999997,72.3167197"
Nuraani Masjid,Mosque,"4P8W+466 Nuraani Masjid, Jaswantgadh Bhemal, Gujarat 385120",,4P8W+466,Jaswantgadh Bhemal,385120,Gujarat,IN,https://www.google.com/maps/place/Nuraani+Masjid/data=!4m7!3m6!1s0x395d1d232dda2651:0x2e2c864fb1e1ad2a!8m2!3d24.1152764!4d72.7455131!16s%2Fg%2F11c1qc1lx7!19sChIJUSbaLSMdXTkRKq3hsU-GLC4?authuser=0&hl=en&rclk=1,"24.1152764,72.7455131"
Datar,Mosque,"R94M+GQC Datar, mira datar dargah post.unava stations, Unjha, Gujarat",,"R94M+GQC, mira datar dargah post.unava stations",Unjha,,Gujarat,IN,https://www.google.com/maps/place/Datar/data=!4m7!3m6!1s0x395c5f9fa963049b:0x3d8b24f25dc074ad!8m2!3d23.8063155!4d72.3843866!16s%2Fg%2F11gs9mxbgv!19sChIJmwRjqZ9fXDkRrXTAXfIkiz0?authuser=0&hl=en&rclk=1,"23.8063155,72.3843866"
Maherwada Sunni Masjid,Mosque,"VF46+QPC Maherwada Sunni Masjid, Maherwada, Gujarat 384170",,VF46+QPC,Maherwada,384170,Gujarat,IN,https://www.google.com/maps/place/Maherwada+Sunni+Masjid/data=!4m7!3m6!1s0x395c59c642b441fb:0x1b4b517011ceb98!8m2!3d23.8569475!4d72.4617578!16s%2Fg%2F11f6l8m977!19sChIJ-0G0QsZZXDkRmOscARe1tAE?authuser=0&hl=en&rclk=1,"23.8569475,72.4617578"
"Mughal Datar Masjid, Siddhpur",Mosque,"W99C+WXC Mughal Datar Masjid, Siddhpur, Zampli Pol, Ambavadi, Siddhpur, Gujarat 384151","Zampli Pol, Ambavadi",W99C+WXC,Siddhpur,384151,Gujarat,IN,"https://www.google.com/maps/place/Mughal+Datar+Masjid,+Siddhpur/data=!4m7!3m6!1s0x395cf5660555196f:0xcd7fe4b5649edba7!8m2!3d23.9198106!4d72.3723846!16s%2Fg%2F11gk8ygn02!19sChIJbxlVBWb1XDkRp9ueZLXkf80?authuser=0&hl=en&rclk=1","23.919810599999998,72.3723846"
Masjid E Umar,Mosque,"3C43+HPV Masjid E Umar, Majadar, Gujarat 385210",,3C43+HPV,Majadar,385210,Gujarat,IN,https://www.google.com/maps/place/Masjid+E+Umar/data=!4m7!3m6!1s0x395ced94bceb4d99:0xe5ff856fce03c9fe!8m2!3d24.0564848!4d72.4042976!16s%2Fg%2F11stxd34sp!19sChIJmU3rvJTtXDkR_skDzm-F_-U?authuser=0&hl=en&rclk=1,"24.0564848,72.40429759999999"
Noorani Masjid Nedra,Mosque,"V8Q8+JPF Noorani Masjid Nedra, Nedra, Gujarat 384215",,V8Q8+JPF,Nedra,384215,Gujarat,IN,https://www.google.com/maps/place/Noorani+Masjid+Nedra/data=!4m7!3m6!1s0x395c8ac66713626b:0xb2d23f0d012b0923!8m2!3d23.8890518!4d72.3167947!16s%2Fg%2F11dfj9_4z2!19sChIJa2ITZ8aKXDkRIwkrAQ0_0rI?authuser=0&hl=en&rclk=1,"23.889051799999997,72.3167947"
Saifee Masjid,Mosque,"W99C+CXR Saifee Masjid, Zampli Pol, Ambavadi, Siddhpur, Gujarat 384151","Zampli Pol, Ambavadi",W99C+CXR,Siddhpur,384151,Gujarat,IN,https://www.google.com/maps/place/Saifee+Masjid/data=!4m7!3m6!1s0x395cf4fc1e56bb89:0x7371452673e2ea91!8m2!3d23.918624!4d72.3723816!16s%2Fg%2F11ckvkrbxm!19sChIJibtWHvz0XDkRkericyZFcXM?authuser=0&hl=en&rclk=1,"23.918623999999998,72.3723816"
JAMA MASJID 2,Mosque,"X8MF+MQR JAMA MASJID 2, Khadiyasana, Gujarat 384290",,X8MF+MQR,Khadiyasana,384290,Gujarat,IN,https://www.google.com/maps/place/JAMA+MASJID+2/data=!4m7!3m6!1s0x395c8d072bfb0e5b:0xfa71333201a1eb05!8m2!3d23.9842489!4d72.3243837!16s%2Fg%2F11j50v5j38!19sChIJWw77KweNXDkRBeuhATIzcfo?authuser=0&hl=en&rclk=1,"23.984248899999997,72.3243837"
Masjid -E-Umar,Mosque,"2C2C+Q5C Masjid -E-Umar, Fategadh, Gujarat 385210",,2C2C+Q5C,Fategadh,385210,Gujarat,IN,https://www.google.com/maps/place/Masjid+-E-Umar/data=!4m7!3m6!1s0x395cf30d9d9655c1:0xfe0e58868e62616f!8m2!3d24.0019335!4d72.4203968!16s%2Fg%2F11hzb_6kcv!19sChIJwVWWnQ3zXDkRb2FijoZYDv4?authuser=0&hl=en&rclk=1,"24.0019335,72.42039679999999"
Najmi Masjid,Mosque,"W99F+3J3 Najmi Masjid, Ambavadi, Siddhpur, Gujarat 384151",Ambavadi,W99F+3J3,Siddhpur,384151,Gujarat,IN,https://www.google.com/maps/place/Najmi+Masjid/data=!4m7!3m6!1s0x395cf4fef34ed0eb:0x8e9fd10d697dedd4!8m2!3d23.9176272!4d72.3740616!16s%2Fg%2F11bvt5c_2h!19sChIJ69BO8_70XDkR1O19aQ3Rn44?authuser=0&hl=en&rclk=1,"23.9176272,72.37406159999999"
Gulista Park Masjid,Mosque,"Gulista Park Masjid, Gulista Park, Market Yard, Siddhpur, Gujarat 384151",Market Yard,Gulista Park,Siddhpur,,Gujarat,IN,https://www.google.com/maps/place/Gulista+Park+Masjid/data=!4m7!3m6!1s0x395cf5d6d3818493:0xe19e1d67ee2bc25!8m2!3d23.925135!4d72.3631702!16s%2Fg%2F11t5syxg0g!19sChIJk4SB09b1XDkRJbziftbhGQ4?authuser=0&hl=en&rclk=1,"23.925134999999997,72.3631702"
Masjid abu bakr,Mosque,"Masjid abu bakr, 100, GJ SH 41, Modheshwari Society, Gurukripa Society, Siddhpur, Gujarat 384151","Modheshwari Society, Gurukripa Society","100, GJ SH 41",Siddhpur,384151,Gujarat,IN,https://www.google.com/maps/place/Masjid+abu+bakr/data=!4m7!3m6!1s0x395cf56a2438c661:0xe52a4691de459b01!8m2!3d23.9224345!4d72.3619573!16s%2Fg%2F11fsml9kjb!19sChIJYcY4JGr1XDkRAZtF3pFGKuU?authuser=0&hl=en&rclk=1,"23.922434499999998,72.3619573"
Samoda Masjid,Mosque,"WC8H+CFR Samoda Masjid, Shamoda Rd, Samoda, Gujarat 384130",,"WC8H+CFR, Shamoda Rd",Samoda,384130,Gujarat,IN,https://www.google.com/maps/place/Samoda+Masjid/data=!4m7!3m6!1s0x395cf7f2b0602069:0xf55856af21a6eaee!8m2!3d23.9161181!4d72.4286556!16s%2Fg%2F11j8svyfq7!19sChIJaSBgsPL3XDkR7uqmIa9WWPU?authuser=0&hl=en&rclk=1,"23.9161181,72.4286556"
Shia Juma Masjid,Mosque,"39QV+7F3 Shia Juma Masjid, New Masjid Rd, Kanodar, Gujarat 385520",,"39QV+7F3, New Masjid Rd",Kanodar,385520,Gujarat,IN,https://www.google.com/maps/place/Shia+Juma+Masjid/data=!4m7!3m6!1s0x395cedcabe09a203:0x91f087b0b12523b0!8m2!3d24.0881465!4d72.3936758!16s%2Fg%2F11ry9wpnn8!19sChIJA6IJvsrtXDkRsCMlsbCH8JE?authuser=0&hl=en&rclk=1,"24.0881465,72.3936758"
Masjid Bilal Sidhpur,Education center,"Masjid Bilal Sidhpur, Rajpur Road, Dharnat Mohalla, Rajpur, Siddhpur, Gujarat 384151","Dharnat Mohalla, Rajpur",Rajpur Road,Siddhpur,384151,Gujarat,IN,https://www.google.com/maps/place/Masjid+Bilal+Sidhpur/data=!4m7!3m6!1s0x395cf50742d54fc9:0x95a1394cf79f6cec!8m2!3d23.9227004!4d72.3720121!16s%2Fg%2F11mvmv5738!19sChIJyU_VQgf1XDkR7Gyf90w5oZU?authuser=0&hl=en&rclk=1,"23.9227004,72.37201209999999"
Varvada Sunni masjid,Mosque,"V982+4QX Varvada Sunni masjid, Unnamed Road, Varvada, Gujarat 384215",,"V982+4QX, Unnamed Road",Varvada,384215,Gujarat,IN,https://www.google.com/maps/place/Varvada+Sunni+masjid/data=!4m7!3m6!1s0x395c5f9e9c49e603:0x9509a39039df6a95!8m2!3d23.8653702!4d72.3519984!16s%2Fg%2F11lkvhgd3p!19sChIJA-ZJnJ5fXDkRlWrfOZCjCZU?authuser=0&hl=en&rclk=1,"23.865370199999997,72.3519984"
Idgah Masjid,Mosque,"W9C8+7VX Idgah Masjid, Green Park Society, Siddhpur, Gujarat 384151",Green Park Society,W9C8+7VX,Siddhpur,384151,Gujarat,IN,https://www.google.com/maps/place/Idgah+Masjid/data=!4m7!3m6!1s0x395cf54d5d904c53:0xe7d7803e1b8bcd1c!8m2!3d23.9207494!4d72.3672314!16s%2Fg%2F11ghrlpdwd!19sChIJU0yQXU31XDkRHM2LGz6A1-c?authuser=0&hl=en&rclk=1,"23.9207494,72.3672314"
Unjha,Housing society,"Unjha, 30,Marutinandan Bunglow's, Ahmedabad - Patan Highway Rd, Unjha",Bharat Nagar,"30,Marutinandan Bunglow's, Ahmedabad - Patan Highway Rd",Unjha,,Gujarat,IN,https://www.google.com/maps/place/Unjha/data=!4m7!3m6!1s0x395c5f22edd9854d:0x34018611e8d10fd7!8m2!3d23.8042428!4d72.3718984!16s%2Fg%2F11t8p077s9!19sChIJTYXZ7SJfXDkR1w_R6BGGATQ?authuser=0&hl=en&rclk=1,"23.804242799999997,72.37189839999999"
Markaz Masjid,Mosque,"257C+F9P Markaz Masjid, Unnamed Road, Kaleda, Vadani, Gujarat 384285",,"257C+F9P, Unnamed Road","Kaleda, Vadani",384285,Gujarat,IN,https://www.google.com/maps/place/Markaz+Masjid/data=!4m7!3m6!1s0x395c8fa0ed3d93f7:0xf9748d973b6969d6!8m2!3d24.0137118!4d72.1709654!16s%2Fg%2F11mx74p__z!19sChIJ95M97aCPXDkR1mlpO5eNdPk?authuser=0&hl=en&rclk=1,"24.0137118,72.1709654"
masjid,Mosque,"RJG7+2M4 masjid, Kesimpa, Gujarat 384335",,RJG7+2M4,Kesimpa,384335,Gujarat,IN,https://www.google.com/maps/place/masjid/data=!4m7!3m6!1s0x395c56a0651ea71f:0xd3c4337df71b1de!8m2!3d23.8250244!4d72.6141899!16s%2Fg%2F11f15gskpj!19sChIJH6ceZaBWXDkR3rFx3zdDPA0?authuser=0&hl=en&rclk=1,"23.8250244,72.6141899"
Husenpura Masjid,Mosque,"4F82+P2Q Husenpura Masjid, Vagda, Gujarat 385410",,4F82+P2Q,Vagda,385410,Gujarat,IN,https://www.google.com/maps/place/Husenpura+Masjid/data=!4m7!3m6!1s0x395ceef2cf3f1f1b:0xbddaaa29ecde48d6!8m2!3d24.1168447!4d72.4501187!16s%2Fg%2F11g6qfd1rt!19sChIJGx8_z_LuXDkR1kje7Cmq2r0?authuser=0&hl=en&rclk=1,"24.116844699999998,72.45011869999999"
Aljipura Masjid,Mosque,"4GVH+QG2 Aljipura Masjid, Gola, Gujarat 385410",,4GVH+QG2,Gola,385410,Gujarat,IN,https://www.google.com/maps/place/Aljipura+Masjid/data=!4m7!3m6!1s0x395ce5fcd47a1685:0xd5dc257c6fe4ff1f!8m2!3d24.1443831!4d72.5287719!16s%2Fg%2F11gy4w3zc3!19sChIJhRZ61PzlXDkRH__kb3wl3NU?authuser=0&hl=en&rclk=1,"24.1443831,72.5287719"
Jama Masjid Umta,Mosque,"QHM3+8W Jama Masjid Umta, Umta, Gujarat 384320",,QHM3+8W,Umta,384320,Gujarat,IN,https://www.google.com/maps/place/Jama+Masjid+Umta/data=!4m7!3m6!1s0x395c512172d111bd:0x7e6f342d65ad676f!8m2!3d23.7827839!4d72.555278!16s%2Fg%2F11k9lk08b3!19sChIJvRHRciFRXDkRb2etZS00b34?authuser=0&hl=en&rclk=1,"23.7827839,72.555278"
"Hussaini Sunni Masjid, Ganwada",Mosque,"WF57+X2W Hussaini Sunni Masjid, Ganwada, Ganvada, Gujarat 384130",,WF57+X2W,Ganvada,384130,Gujarat,IN,"https://www.google.com/maps/place/Hussaini+Sunni+Masjid,+Ganwada/data=!4m7!3m6!1s0x395cf79cc990c4e5:0xd9544fbd32c1fabf!8m2!3d23.9099916!4d72.4625819!16s%2Fg%2F11h4qbz_5h!19sChIJ5cSQyZz3XDkRv_rBMr1PVNk?authuser=0&hl=en&rclk=1","23.909991599999998,72.4625819"
Makki Masjid,Mosque,"WC83+4HH Makki Masjid, Chatawada, Gujarat 384130",,WC83+4HH,Chatawada,384130,Gujarat,IN,https://www.google.com/maps/place/Makki+Masjid/data=!4m7!3m6!1s0x395cf535acb721b3:0xe370eb5eae1a4d66!8m2!3d23.915644!4d72.4032963!16s%2Fg%2F11s3wh9l5_!19sChIJsyG3rDX1XDkRZk0arl7rcOM?authuser=0&hl=en&rclk=1,"23.915644,72.4032963"
Aisha Masjid,Mosque,"X842+CMG Aisha Masjid, Kunvara - Vadhana Rd, Kunvara, Vadhana, Gujarat 384290",,"X842+CMG, Kunvara - Vadhana Rd","Kunvara, Vadhana",384290,Gujarat,IN,https://www.google.com/maps/place/Aisha+Masjid/data=!4m7!3m6!1s0x395c8d4cc1ecc7c9:0xc9c10e317d6924ab!8m2!3d23.9560631!4d72.3016906!16s%2Fg%2F11ft6sq4l5!19sChIJycfswUyNXDkRqyRpfTEOwck?authuser=0&hl=en&rclk=1,"23.956063099999998,72.3016906"
Mahedipura Masjid,Mosque,"5P4R+V9V Mahedipura Masjid, Punjpur, Gujarat 385120",,5P4R+V9V,Punjpur,385120,Gujarat,IN,https://www.google.com/maps/place/Mahedipura+Masjid/data=!4m7!3m6!1s0x395d1d8543c40749:0xfb36813d9b3f8f82!8m2!3d24.1572322!4d72.7409332!16s%2Fg%2F11j48kvmbz!19sChIJSQfEQ4UdXTkRgo8_mz2BNvs?authuser=0&hl=en&rclk=1,"24.1572322,72.7409332"
Masjid Abu bakr,Mosque,"V9R8+HFF Masjid Abu bakr, GJ SH 10, Gujarat 384215",,"V9R8+HFF, GJ SH 10",,384215,Gujarat,IN,https://www.google.com/maps/place/Masjid+Abu+bakr/data=!4m7!3m6!1s0x395cf5040c55c17d:0x4d40f6d57c33023!8m2!3d23.8914369!4d72.3661803!16s%2Fg%2F11fsml4yz_!19sChIJfcFVDAT1XDkRIzDDV20P1AQ?authuser=0&hl=en&rclk=1,"23.8914369,72.3661803"
Zama Masjid,Mosque,"Zama Masjid, Ambavadi, Siddhpur, Gujarat 384151",Ambavadi,Zama Masjid,Siddhpur,,Gujarat,IN,https://www.google.com/maps/place/Zama+Masjid/data=!4m7!3m6!1s0x395cf50ab228132b:0xd8968abc69a407a1!8m2!3d23.9192991!4d72.3790163!16s%2Fg%2F11sp6kxqkz!19sChIJKxMosgr1XDkRoQekabyKltg?authuser=0&hl=en&rclk=1,"23.9192991,72.3790163"
Juni Jumma Masjid - Sidhpur,Mosque,"W99H+PJG Juni Jumma Masjid - Sidhpur, near Rang fali, Ambavadi, Siddhpur, Gujarat 384151",Ambavadi,"W99H+PJG, near Rang fali",Siddhpur,384151,Gujarat,IN,https://www.google.com/maps/place/Juni+Jumma+Masjid+-+Sidhpur/data=!4m7!3m6!1s0x395cf5c8a783f221:0xc5e2d257234ae4ce!8m2!3d23.9193186!4d72.3790643!16s%2Fg%2F11v0bqff9d!19sChIJIfKDp8j1XDkRzuRKI1fS4sU?authuser=0&hl=en&rclk=1,"23.9193186,72.3790643"
Badri Masjid,Mosque,"W99H+7QV Badri Masjid, Ambavadi, Siddhpur, Gujarat 384151",Ambavadi,W99H+7QV,Siddhpur,384151,Gujarat,IN,https://www.google.com/maps/place/Badri+Masjid/data=!4m7!3m6!1s0x395cf5a7acecb8a3:0xddbd462110b0b50c!8m2!3d23.9182396!4d72.3794346!16s%2Fg%2F11pqzklmmv!19sChIJo7jsrKf1XDkRDLWwECFGvd0?authuser=0&hl=en&rclk=1,"23.9182396,72.3794346"
MASJID-E-ABUBAKAR R.D.,Mosque,"MASJID-E-ABUBAKAR R.D., Patel Estate, Green Park Society, Siddhpur, Gujarat 384151",Green Park Society,Patel Estate,Siddhpur,384151,Gujarat,IN,https://www.google.com/maps/place/MASJID-E-ABUBAKAR+R.D./data=!4m7!3m6!1s0x395cf54d51029cf7:0x53b0dcdc4f0f0b00!8m2!3d23.9222067!4d72.3632127!16s%2Fg%2F11l6qgv9gn!19sChIJ95wCUU31XDkRAAsPT9zcsFM?authuser=0&hl=en&rclk=1,"23.9222067,72.36321269999999"
Bargahe sahe vilayat imamvada,Mosque,"Bargahe sahe vilayat imamvada, samarth complex, g37, Market Yard, Siddhpur, Gujarat 384151",Market Yard,"samarth complex, g37",Siddhpur,384151,Gujarat,IN,https://www.google.com/maps/place/Bargahe+sahe+vilayat+imamvada/data=!4m7!3m6!1s0x395cf560c50a766f:0xd463dfd86153f6d!8m2!3d23.9248639!4d72.36411!16s%2Fg%2F11rxyb1nmd!19sChIJb3YKxWD1XDkRbT8Vhv09Rg0?authuser=0&hl=en&rclk=1,"23.9248639,72.36411"
Jumma Masjid Umta,Mosque,"PG2V+X23 Jumma Masjid Umta, Jumma Masjid ,Umta,Ta-Visnagar, Dist, Mehsana",Vijay Para,"PG2V+X23, Jumma Masjid ,Umta,Ta-Visnagar, Dist","Mehsana, Visnagar",,Gujarat,IN,https://www.google.com/maps/place/Jumma+Masjid+Umta/data=!4m7!3m6!1s0x395c4fa434e27f27:0xb1a5d312890a5f68!8m2!3d23.7023775!4d72.5425606!16s%2Fg%2F11thl3hxv3!19sChIJJ3_iNKRPXDkRaF8KiRLTpbE?authuser=0&hl=en&rclk=1,"23.702377499999997,72.5425606"
Kahoda mosque,Mosque,"VCQR+42V Kahoda mosque, Khadiya, Kahoda, Gujarat 384130",Khadiya,VCQR+42V,Kahoda,384130,Gujarat,IN,https://www.google.com/maps/place/Kahoda+mosque/data=!4m7!3m6!1s0x395cf72d4d77caf9:0x57bdb23e2e26300c!8m2!3d23.8878687!4d72.4400486!16s%2Fg%2F11s1pzj__6!19sChIJ-cp3TS33XDkRDDAmLj6yvVc?authuser=0&hl=en&rclk=1,"23.8878687,72.4400486"
Jum'aa Masjid,Mosque,"RMC5+WRQ Jum'aa Masjid, Badarpur, Gujarat 384335",,RMC5+WRQ,Badarpur,384335,Gujarat,IN,https://www.google.com/maps/place/Jum%27aa+Masjid/data=!4m7!3m6!1s0x395c55e10cd4dbd5:0x10ff2111c0ac4944!8m2!3d23.8223471!4d72.6595992!16s%2Fg%2F11h0h4y12f!19sChIJ1dvUDOFVXDkRREmswBEh_xA?authuser=0&hl=en&rclk=1,"23.822347099999998,72.6595992"
Adam Masjid,Mosque,"M75H+VG7 Adam Masjid, Dhinoj, Gujarat 384225",,M75H+VG7,Dhinoj,384225,Gujarat,IN,https://www.google.com/maps/place/Adam+Masjid/data=!4m7!3m6!1s0x395c6888c502d1bd:0x3feb91190c3bcbb7!8m2!3d23.6596723!4d72.2787919!16s%2Fg%2F11g6rkzm6t!19sChIJvdECxYhoXDkRt8s7DBmR6z8?authuser=0&hl=en&rclk=1,"23.6596723,72.2787919"
Isakpura masjid,Mosque,"XPP3+JQ8 Isakpura masjid, Isakpura, Vaghar, Gujarat 384325",,XPP3+JQ8,"Isakpura, Vaghar",384325,Gujarat,IN,https://www.google.com/maps/place/Isakpura+masjid/data=!4m7!3m6!1s0x395cff2fdbf71e53:0x682db7971e6a76e5!8m2!3d23.9865336!4d72.704449!16s%2Fg%2F11s5tnfxwf!19sChIJUx732y__XDkR5XZqHpe3LWg?authuser=0&hl=en&rclk=1,"23.986533599999998,72.704449"
Unjha,Home help,"R92W+M25 Unjha, Baharmadh, Unjha, Gujarat 384170",Baharmadh,R92W+M25,Unjha,384170,Gujarat,IN,https://www.google.com/maps/place/Unjha/data=!4m7!3m6!1s0x395c5f29e1ac673b:0x86cad2342758f8e7!8m2!3d23.8016479!4d72.3950996!16s%2Fg%2F11rd8q31c7!19sChIJO2es4SlfXDkR5_hYJzTSyoY?authuser=0&hl=en&rclk=1,"23.8016479,72.3950996"
MAJATPUR MASJID mjaatpur msjiid,Mosque,"MAJATPUR MASJID mjaatpur msjiid, Majatpur, Gujarat 385410",,,Majatpur,385410,Gujarat,IN,https://www.google.com/maps/place/MAJATPUR+MASJID+%E0%AA%AE%E0%AA%9C%E0%AA%BE%E0%AA%A4%E0%AA%AA%E0%AB%81%E0%AA%B0+%E0%AA%AE%E0%AA%B8%E0%AB%8D%E0%AA%9C%E0%AB%80%E0%AA%A6/data=!4m7!3m6!1s0x395ce5e68e91d5bd:0xa1ea3301db38c2f6!8m2!3d24.1286653!4d72.5375329!16s%2Fg%2F11srm9j8yb!19sChIJvdWRjublXDkR9sI42wEz6qE?authuser=0&hl=en&rclk=1,"24.128665299999998,72.5375329"
Jumma Masjid,Mosque,"6593+JG7 Jumma Masjid, Juna Deesa, Gujarat 385540",,6593+JG7,Juna Deesa,385540,Gujarat,IN,https://www.google.com/maps/place/Jumma+Masjid/data=!4m7!3m6!1s0x395cbd5a83500001:0xed12c1c2a9cecf09!8m2!3d24.2190491!4d72.1537846!16s%2Fg%2F11sscs8k7m!19sChIJAQBQg1q9XDkRCc_OqcLBEu0?authuser=0&hl=en&rclk=1,"24.2190491,72.1537846"
Unjha,,"Unjha, Gujarat 384170",,,Unjha,,Gujarat,IN,https://www.google.com/maps/place/Unjha/data=!4m7!3m6!1s0x395c5e92a90bc923:0x8c46edde038af419!8m2!3d23.8035004!4d72.3902277!16zL20vMGY2a2N5!19sChIJI8kLqZJeXDkRGfSKA97tRow?authuser=0&hl=en&rclk=1,"23.803500399999997,72.3902277"
Hajipura masjid,Mosque,"4PJW+QXQ Hajipura masjid, Aderan, Gujarat 385120",,4PJW+QXQ,Aderan,385120,Gujarat,IN,https://www.google.com/maps/place/Hajipura+masjid/data=!4m7!3m6!1s0x395d1d73db22cec5:0x586ea4d3341da4f5!8m2!3d24.1319688!4d72.7474881!16s%2Fg%2F11ty7fgjdd!19sChIJxc4i23MdXTkR9aQdNNOkblg?authuser=0&hl=en&rclk=1,"24.1319688,72.7474881"
Unjha,,"Unjha, Gujarat",,,,,Gujarat,IN,https://www.google.com/maps/place/Unjha/data=!4m7!3m6!1s0x395c5ebf302d8a49:0xf50fc8177a692e0e!8m2!3d23.8040302!4d72.3840364!16s%2Fg%2F11rq2cm2p5!19sChIJSYotML9eXDkRDi5pehfID_U?authuser=0&hl=en&rclk=1,"23.8040302,72.3840364"
Shia Jafary Masjid,Mosque,"282P+Q2V Shia Jafary Masjid, Balapir, Chawk, Kakoshi, Sahesa, Gujarat 384290","Balapir, Chawk",282P+Q2V,"Kakoshi, Sahesa",384290,Gujarat,IN,https://www.google.com/maps/place/Shia+Jafary+Masjid/data=!4m7!3m6!1s0x395cf316bb74e8a3:0xafaf2ff769b800b6!8m2!3d24.0019905!4d72.3350559!16s%2Fg%2F11fj47jp1b!19sChIJo-h0uxbzXDkRtgC4afcvr68?authuser=0&hl=en&rclk=1,"24.001990499999998,72.3350559"
UNJA,Bus depot,"R93R+C35 UNJA, Navomath, Unjha, Gujarat 384170",Navomath,R93R+C35,Unjha,,Gujarat,IN,https://www.google.com/maps/place/UNJA/data=!4m7!3m6!1s0x395c5f1e1d8b4051:0x79529a4644a22b2b!8m2!3d23.8035004!4d72.3902277!16s%2Fg%2F11q9hc4l9h!19sChIJUUCLHR5fXDkRKyuiREaaUnk?authuser=0&hl=en&rclk=1,"23.803500399999997,72.3902277"
huseni sunni masjid,Mosque,"3QPP+X9P huseni sunni masjid, Kadadra, Gujarat 382305",,3QPP+X9P,Kadadra,382305,Gujarat,IN,https://www.google.com/maps/place/huseni+sunni+masjid/data=!4m7!3m6!1s0x395e7f1acd2a8a6b:0x60e605aaa063c423!8m2!3d23.0874335!4d72.7859773!16s%2Fg%2F11svts656l!19sChIJa4oqzRp_XjkRI8RjoKoF5mA?authuser=0&hl=en&rclk=1,"23.0874335,72.7859773"
shrii umiyaaa maataajii mNdir gokh,Corporate office,"shrii umiyaaa maataajii mNdir gokh, 99, Market Yard, Unjha, Gujarat 384170",Baharmadh,"99, Market Yard",Unjha,384170,Gujarat,IN,https://www.google.com/maps/place/%E0%AA%B6%E0%AB%8D%E0%AA%B0%E0%AB%80+%E0%AA%89%E0%AA%AE%E0%AA%BF%E0%AA%AF%E0%AA%BE+%E0%AA%AE%E0%AA%BE%E0%AA%A4%E0%AA%BE%E0%AA%9C%E0%AB%80+%E0%AA%AE%E0%AA%82%E0%AA%A6%E0%AA%BF%E0%AA%B0+%E0%AA%97%E0%AB%8B%E0%AA%96/data=!4m7!3m6!1s0x395c5f04119b7bb3:0xe9e74a4dfada5df1!8m2!3d23.8063445!4d72.3958232!16s%2Fg%2F11j0wy0zqv!19sChIJs3ubEQRfXDkR8V3a-k1K5-k?authuser=0&hl=en&rclk=1,"23.806344499999998,72.3958232"
