name,main_category,address,address_ward,address_street,address_city,address_postal_code,address_state,address_country_code,link,coordinates
Jamia Masjid Markaz (jm`h msjd mrkhz),Mosque,"Jamia Masjid Markaz (jm`h msjd mrkhz), Saraf Bazar Rd, Hanuman Gardi, Gadag-Betageri, Gadag-Betigeri, Karnataka 582101",Hanuman Gardi,Saraf Bazar Rd,"Gadag-Betageri, Gadag-Betigeri",582101,Karnataka,IN,https://www.google.com/maps/place/Jamia+Masjid+Markaz+%28%D8%AC%D9%85%D8%B9%DB%81+%D9%85%D8%B3%D8%AC%D8%AF+%D9%85%D8%B1%DA%A9%D8%B2%29%E2%80%AD/data=!4m7!3m6!1s0x3bb8f9674c4283b1:0xd8ec90fc986b92ea!8m2!3d15.4269397!4d75.6268932!16s%2Fg%2F11b7gsnl56!19sChIJsYNCTGf5uDsR6pJrmPyQ7Ng?authuser=0&hl=en&rclk=1,"15.4269397,75.6268932"
Zakir Hussain Masjid dhkhr Hsyn msjd,Mosque,"CJC9+5WM Zakir Hussain Masjid dhkhr Hsyn msjd, Ganesh Colony, Zakir Hussain Colony, Hudco Colony, Gadag-Betageri, Gadag-Betigeri, Karnataka 582103","Ganesh Colony, Zakir Hussain Colony, Hudco Colony",CJC9+5WM,"Gadag-Betageri, Gadag-Betigeri",582103,Karnataka,IN,https://www.google.com/maps/place/Zakir+Hussain+Masjid+%D8%B0%D8%A7%DA%A9%D8%B1+%D8%AD%D8%B3%DB%8C%D9%86+%D9%85%D8%B3%D8%AC%D8%AF%E2%80%AD/data=!4m7!3m6!1s0x3bb8fbe1f5f5a865:0x75b4449ac4abfa43!8m2!3d15.4204699!4d75.6197987!16s%2Fg%2F11gd39yl6d!19sChIJZaj19eH7uDsRQ_qrxJpEtHU?authuser=0&hl=en&rclk=1,"15.420469899999999,75.61979869999999"
Masjid e Tawheed. Ahle Hadees,Mosque,"CJJJ+PH2 Masjid e Tawheed. Ahle Hadees, Mahendrakar Circle, javal galli, Station Rd, Gadag-Betageri, Karnataka 582101",Ganga Pur,"CJJJ+PH2, Mahendrakar Circle, javal galli, Station Rd","Gadag-Betageri, Gadag-Betigeri",582101,Karnataka,IN,https://www.google.com/maps/place/Masjid+e+Tawheed.+Ahle+Hadees/data=!4m7!3m6!1s0x3bb8f96609b6adf1:0xb7f92685bfd8bfc6!8m2!3d15.4317536!4d75.6313981!16s%2Fg%2F12cnvfz4f!19sChIJ8a22CWb5uDsRxr_Yv4Um-bc?authuser=0&hl=en&rclk=1,"15.431753599999999,75.6313981"
Hazrat Bilal Masjid,Mosque,"CJPG+FX3 Hazrat Bilal Masjid, HOBAL ROAD, Gadag-Betageri, Karnataka 582101",Gangapurpet,"CJPG+FX3, HOBAL ROAD","Gadag-Betageri, Gadag-Betigeri",582101,Karnataka,IN,https://www.google.com/maps/place/Hazrat+Bilal+Masjid/data=!4m7!3m6!1s0x3bb8f964bcd47187:0xc145fd0ac7ca56ae!8m2!3d15.4361327!4d75.6274236!16s%2Fg%2F12hp6_4jq!19sChIJh3HUvGT5uDsRrlbKxwr9RcE?authuser=0&hl=en&rclk=1,"15.4361327,75.6274236"
Madani Masjid,Mosque,"CJFG+5W4 Madani Masjid, Tanga Koot, Gadag-Betigeri, Karnataka 582103",Tanga Koot,CJFG+5W4,Gadag-Betigeri,582103,Karnataka,IN,https://www.google.com/maps/place/Madani+Masjid/data=!4m7!3m6!1s0x3bb8f95c328bace7:0xf32194eb7218330a!8m2!3d15.4228924!4d75.6273391!16s%2Fg%2F11df0gyv2g!19sChIJ56yLMlz5uDsRCjMYcuuUIfM?authuser=0&hl=en&rclk=1,"15.422892399999999,75.6273391"
Masjid -E- Taj & Hira Islamic center msjdi tj,Mosque,"CJF8+H45 Masjid -E- Taj & Hira Islamic center msjdi tj, Vijay Nagara, Gadag-Betageri, Gadag-Betigeri, Karnataka 582101",Vijay Nagara,CJF8+H45,"Gadag-Betageri, Gadag-Betigeri",582101,Karnataka,IN,https://www.google.com/maps/place/Masjid+-E-+Taj+%26+Hira+Islamic+center+%D9%85%D8%B3%D8%AC%D8%AF%D9%90+%D8%AA%D8%A7%D8%AC%E2%80%AD/data=!4m7!3m6!1s0x3bb8fbe0b67e7959:0x89acb9341729963c!8m2!3d15.4238768!4d75.6153744!16s%2Fg%2F11gfj46x1g!19sChIJWXl-tuD7uDsRPJYpFzS5rIk?authuser=0&hl=en&rclk=1,"15.423876799999999,75.6153744"
Javal masjid,Mosque,"CJMJ+7HX Javal masjid, DC Mill Rd, Gangapurpet, Gadag-Betageri, Gadag-Betigeri, Karnataka 582101",Gangapurpet,"CJMJ+7HX, DC Mill Rd","Gadag-Betageri, Gadag-Betigeri",582101,Karnataka,IN,https://www.google.com/maps/place/Javal+masjid/data=!4m7!3m6!1s0x3bb8f965eca62949:0xc302693d7a6a7a0c!8m2!3d15.4332286!4d75.6314892!16s%2Fg%2F11csqwzrw1!19sChIJSSmm7GX5uDsRDHpqej1pAsM?authuser=0&hl=en&rclk=1,"15.4332286,75.63148919999999"
Madina masjid,Mosque,"CJHR+C52 Madina masjid, APMC Rd, Panchal Nagar, Kalasapur, Gadag-Betageri, Gadag-Betigeri, Karnataka 582101","Panchal Nagar, Kalasapur","CJHR+C52, APMC Rd","Gadag-Betageri, Gadag-Betigeri",582101,Karnataka,IN,https://www.google.com/maps/place/Madina+masjid/data=!4m7!3m6!1s0x3bb8f924bace930f:0x3483ade33ae7c33f!8m2!3d15.4285126!4d75.6403817!16s%2Fg%2F11h6r17x88!19sChIJD5POuiT5uDsRP8PnOuOtgzQ?authuser=0&hl=en&rclk=1,"15.4285126,75.64038169999999"
Juma Masjid Settalment Gandhi Nagar Betageri Gadag jm`h msjd,Mosque,"CJRQ+3FH Juma Masjid Settalment Gandhi Nagar Betageri Gadag jm`h msjd, Gandhinagar, Hirehandilog, Gadag-Betageri, Gadag-Betigeri, Karnataka 582101","Gandhinagar, Hirehandilog",CJRQ+3FH,"Gadag-Betageri, Gadag-Betigeri",582101,Karnataka,IN,https://www.google.com/maps/place/Juma+Masjid+Settalment+Gandhi+Nagar+Betageri+Gadag+%D8%AC%D9%85%D8%B9%DB%81+%D9%85%D8%B3%D8%AC%D8%AF%E2%80%AD/data=!4m7!3m6!1s0x3bb8f9722596a88b:0x4dd0cde1a3f6ce55!8m2!3d15.440179!4d75.6387438!16s%2Fg%2F11hbw2flhv!19sChIJi6iWJXL5uDsRVc72o-HN0E0?authuser=0&hl=en&rclk=1,"15.440178999999999,75.6387438"
Jamath Masjid,Mosque,"CJHH+P73 Jamath Masjid, Albur Galli, Gadag-Betageri, Karnataka",Ganga Pur,"CJHH+P73, Albur Galli","Gadag-Betageri, Gadag-Betigeri",,Karnataka,IN,https://www.google.com/maps/place/Jamath+Masjid/data=!4m7!3m6!1s0x3bb8f966e741335b:0x304d2e740bd59921!8m2!3d15.4292593!4d75.6281582!16s%2Fg%2F11c7wc44ht!19sChIJWzNB52b5uDsRIZnVC3QuTTA?authuser=0&hl=en&rclk=1,"15.4292593,75.6281582"
MAKKAH MASJID mkhh msjd,Mosque,"CJPV+68V MAKKAH MASJID mkhh msjd, Near Aman English Medium Primary School, Vidya Nagar, Kalasapur, Gadag-Betigeri, Karnataka 582101","Vidya Nagar, Kalasapur","CJPV+68V, Near Aman English Medium Primary School",Gadag-Betigeri,582101,Karnataka,IN,https://www.google.com/maps/place/MAKKAH+MASJID+%D9%85%DA%A9%DB%81+%D9%85%D8%B3%D8%AC%D8%AF%E2%80%AD/data=!4m7!3m6!1s0x3bb8f96d278f09f3:0x6e385ee17286ed1e!8m2!3d15.4356075!4d75.6433114!16s%2Fg%2F11dylx7g06!19sChIJ8wmPJ235uDsRHu2GcuFeOG4?authuser=0&hl=en&rclk=1,"15.4356075,75.6433114"
Mubarak Masjid mbrkh msjd,Mosque,"CMW5+J2W Mubarak Masjid mbrkh msjd, Sharanabasaveshwar Nagar, Gadag-Betageri, Gadag-Betigeri, Karnataka 582102",Sharanabasaveshwar Nagar,CMW5+J2W,"Gadag-Betageri, Gadag-Betigeri",582102,Karnataka,IN,https://www.google.com/maps/place/Mubarak+Masjid+%D9%85%D8%A8%D8%A7%D8%B1%DA%A9+%D9%85%D8%B3%D8%AC%D8%AF%E2%80%AD/data=!4m7!3m6!1s0x3bb8f9c7e6db5c39:0x41c6fecffd8169d9!8m2!3d15.4466216!4d75.6575646!16s%2Fg%2F11h245lzdk!19sChIJOVzb5sf5uDsR2WmB_c_-xkE?authuser=0&hl=en&rclk=1,"15.446621599999999,75.6575646"
Masjid e qassim,Mosque,"CMM5+2RW Masjid e qassim, Vidya Nagar, Kalasapur, Gadag-Betageri, Gadag-Betigeri, Karnataka 582102","Vidya Nagar, Kalasapur",CMM5+2RW,"Gadag-Betageri, Gadag-Betigeri",582102,Karnataka,IN,https://www.google.com/maps/place/Masjid+e+qassim/data=!4m7!3m6!1s0x3bb8f982e5f66c11:0x26e32fd8a1c85eb7!8m2!3d15.4326104!4d75.6595893!16s%2Fg%2F11h4dgjknx!19sChIJEWz25YL5uDsRt17Iodgv4yY?authuser=0&hl=en&rclk=1,"15.4326104,75.6595893"
MASJID E ZUBAIR msjdi zbyr,Mosque,"CJ6C+M59 MASJID E ZUBAIR msjdi zbyr, Bellary - Hubli Rd, Hudco Colony, Gadag-Betageri, Gadag-Betigeri, Karnataka 582103",Hudco Colony,"CJ6C+M59, Bellary - Hubli Rd","Gadag-Betageri, Gadag-Betigeri",582103,Karnataka,IN,https://www.google.com/maps/place/MASJID+E+ZUBAIR+%D9%85%D8%B3%D8%AC%D8%AF%D9%90+%D8%B2%D8%A8%D9%8A%D8%B1%E2%80%AD/data=!4m7!3m6!1s0x3bb8fb4c2beec6e5:0xc48826cc87d97ac5!8m2!3d15.4116725!4d75.6204988!16s%2Fg%2F11j2zhlkc6!19sChIJ5cbuK0z7uDsRxXrZh8wmiMQ?authuser=0&hl=en&rclk=1,"15.4116725,75.6204988"
Munovvar masjid betageri,Mosque,"FM29+886 Munovvar masjid betageri, Ashray Colony, Gadag-Betageri, Gadag-Betigeri, Karnataka 582102",Ashray Colony,FM29+886,"Gadag-Betageri, Gadag-Betigeri",582102,Karnataka,IN,https://www.google.com/maps/place/Munovvar+masjid+betageri/data=!4m7!3m6!1s0x3bb8f96ef1f5da19:0xf12bab8d6bcc7f44!8m2!3d15.4507792!4d75.6682649!16s%2Fg%2F11fkf07r4q!19sChIJGdr18W75uDsRRH_Ma42rK_E?authuser=0&hl=en&rclk=1,"15.4507792,75.6682649"
TAJULWARA MASJID GADAG,Mosque,"CJC9+M42 TAJULWARA MASJID GADAG, Udaya Nagar, Zakir Hussain Colony, Gangimadi Nagar, Gadag-Betageri, Gadag-Betigeri, Karnataka 582103","Udaya Nagar, Zakir Hussain Colony, Gangimadi Nagar",CJC9+M42,"Gadag-Betageri, Gadag-Betigeri",582103,Karnataka,IN,https://www.google.com/maps/place/TAJULWARA+MASJID+GADAG/data=!4m7!3m6!1s0x3bb8fb8afdbd8329:0x218a783c51ed1c30!8m2!3d15.4216282!4d75.6177635!16s%2Fg%2F11rgfq9psq!19sChIJKYO9_Yr7uDsRMBztUTx4iiE?authuser=0&hl=en&rclk=1,"15.421628199999999,75.6177635"
Masjid msjd,Mosque,"CJ8Q+VG5 Masjid msjd, Panchal Nagar, Puttaraj Nagar, Gadag-Betageri, Gadag-Betigeri, Karnataka 582101","Panchal Nagar, Puttaraj Nagar",CJ8Q+VG5,"Gadag-Betageri, Gadag-Betigeri",582101,Karnataka,IN,https://www.google.com/maps/place/Masjid+%D9%85%D8%B3%D8%AC%D8%AF%E2%80%AD/data=!4m7!3m6!1s0x3bb8f9af52392f79:0x6e7c5e37e5f567fd!8m2!3d15.4171316!4d75.6388438!16s%2Fg%2F11h2h76y7h!19sChIJeS85Uq_5uDsR_Wf15TdefG4?authuser=0&hl=en&rclk=1,"15.4171316,75.6388438"
Aqsa Masjid,Mosque,"Yeligar Plot Shop No 15, Aqsa Masjid, Janta Colony, Gadag-Betigeri, Karnataka 582101",Janta Colony,Yeligar Plot Shop No 15,Gadag-Betigeri,582101,Karnataka,IN,https://www.google.com/maps/place/Aqsa+Masjid/data=!4m7!3m6!1s0x3bb8f9da520b41f5:0xca8fb77548f0c7a0!8m2!3d15.4294423!4d75.622374!16s%2Fg%2F11tggq9m_4!19sChIJ9UELUtr5uDsRoMfwSHW3j8o?authuser=0&hl=en&rclk=1,"15.4294423,75.622374"
Maktum Masjid Gadag mkhtwm msjd gdg,Mosque,"CJJQ+X6J Maktum Masjid Gadag mkhtwm msjd gdg, vakkalgeri,oni, Vidya Nagar, Kalasapur, Gadag-Betageri, Gadag-Betigeri, Karnataka 582101","Vidya Nagar, Kalasapur","CJJQ+X6J, vakkalgeri,oni","Gadag-Betageri, Gadag-Betigeri",,Karnataka,IN,https://www.google.com/maps/place/Maktum+Masjid+Gadag+%D9%85%DA%A9%D8%AA%D9%88%D9%85+%D9%85%D8%B3%D8%AC%D8%AF+%DA%AF%D8%AF%DA%AF%E2%80%AD/data=!4m7!3m6!1s0x3bb8f9786aa47641:0x7f8f824f3eec7b0e!8m2!3d15.4324651!4d75.6380187!16s%2Fg%2F11fhvdcyj8!19sChIJQXakanj5uDsRDnvsPk-Cj38?authuser=0&hl=en&rclk=1,"15.4324651,75.6380187"
Huda Masjid,Mosque,"CMP4+595 Huda Masjid, Vidya Nagar, Kalasapur, Gadag-Betageri, Gadag-Betigeri, Karnataka 582102","Vidya Nagar, Kalasapur",CMP4+595,"Gadag-Betageri, Gadag-Betigeri",582102,Karnataka,IN,https://www.google.com/maps/place/Huda+Masjid/data=!4m7!3m6!1s0x3bb8f91a76955555:0xcd0323282b40b6a8!8m2!3d15.4353963!4d75.6559933!16s%2Fg%2F11tgg7jrlx!19sChIJVVWVdhr5uDsRqLZAKygjA80?authuser=0&hl=en&rclk=1,"15.435396299999999,75.65599329999999"
