name,main_category,address,address_ward,address_street,address_city,address_postal_code,address_state,address_country_code,link,coordinates
Dargah & Masjid Hazrat Khwaja Bandah Ali Shah Chisti Rh,Religious destination,"Dargah & Masjid Hazrat Khwaja Bandah Ali Shah Chisti Rh, P and T Colony Rd, near SBI Bank, New Gaddiannaram Colony, Kanchi Residency, Sahithi Nagar, Dilsukhnagar, Hyderabad, Telangana 500060","New Gaddiannaram Colony, Kanchi Residency, Sahithi Nagar, Dilsukhnagar","P and T Colony Rd, near SBI Bank",Hyderabad,500060,Telangana,IN,https://www.google.com/maps/place/Dargah+%26+Masjid+Hazrat+Khwaja+Bandah+Ali+Shah+Chisti+Rh/data=!4m7!3m6!1s0x3bcb98f50c8962a1:0xe040764936f8d33d!8m2!3d17.3628458!4d78.5222147!16s%2Fg%2F1vxw6qtd!19sChIJoWKJDPWYyzsRPdP4Nkl2QOA?authuser=0&hl=en&rclk=1,"17.3628458,78.52221469999999"
Qutub Shahi Masjid quTub shahiy masjid,Mosque,"9HR3+QW2 Qutub Shahi Masjid quTub shahiy masjid, Ramanthapur, Laxmi Narayan Nagar Colony, Gaddi annaram, Hyderabad, Telangana 500039","Ramanthapur, Laxmi Narayan Nagar Colony, Gaddi annaram",9HR3+QW2,Hyderabad,500039,Telangana,IN,https://www.google.com/maps/place/Qutub+Shahi+Masjid+%D9%82%D9%8F%D8%B7%D9%8F%D8%A8+%D8%B4%D9%8E%D8%A7%DB%81%D9%90%DB%8C+%D9%85%D9%8E%D8%B3%D9%92%D8%AC%D9%90%D8%AF%E2%80%AD/data=!4m7!3m6!1s0x3bcb992f56ef7303:0x931988ac89e0a0cf!8m2!3d17.3918846!4d78.5547507!16s%2Fg%2F1hhw4f3tq!19sChIJA3PvVi-ZyzsRz6DgiayIGZM?authuser=0&hl=en&rclk=1,"17.3918846,78.5547507"
Masjid E Madeena,Mosque,"VMCH+WC2 Masjid E Madeena, Suryapet - Hyderabad Highway, Dwarka Nagar, NTR Nagar, Bahadurguda, Dirsenacherla, Telangana",,"VMCH+WC2, Suryapet - Hyderabad Highway, Dwarka Nagar, NTR Nagar, Bahadurguda",Dirsenacherla,,Telangana,IN,https://www.google.com/maps/place/Masjid+E+Madeena/data=!4m7!3m6!1s0x3a35239f4f01fa01:0x4cccc3baa6fec316!8m2!3d16.8722515!4d79.6785011!16s%2Fg%2F11s7q104c8!19sChIJAfoBT58jNToRFsP-prrDzEw?authuser=0&hl=en&rclk=1,"16.8722515,79.67850109999999"
"Dr.Yashwanth - Best Urologist | Uteral Stones, Kidney Stones Specialist - TX Hospitals Uppal",Urologist,"Dr.Yashwanth - Best Urologist | Uteral Stones, Kidney Stones Specialist - TX Hospitals Uppal, 2-6-71, near Masjid, Bharat Nagar Colony, Beerappagadda, Uppal, Hyderabad, Telangana 500039","Bharat Nagar Colony, Beerappagadda, Uppal","2-6-71, near Masjid",Hyderabad,500039,Telangana,IN,"https://www.google.com/maps/place/Dr.Yashwanth+-+Best+Urologist+%7C+Uteral+Stones,+Kidney+Stones+Specialist+-+TX+Hospitals+Uppal/data=!4m7!3m6!1s0x3bcb9fd86757ded7:0x18858bf47e1fe924!8m2!3d17.4023694!4d78.5669934!16s%2Fg%2F11vlscmkgc!19sChIJ195XZ9ifyzsRJOkffvSLhRg?authuser=0&hl=en&rclk=1","17.402369399999998,78.5669934"
Masjid-e-Qutub Shahi,Mosque,"CH28+PCG Masjid-e-Qutub Shahi, Masjid-e-Qutub Shahi St, Prashanth Nagar, Uppal, Hyderabad, Telangana 500039","Prashanth Nagar, Uppal","CH28+PCG, Masjid-e-Qutub Shahi St",Hyderabad,500039,Telangana,IN,https://www.google.com/maps/place/Masjid-e-Qutub+Shahi/data=!4m7!3m6!1s0x3bcb9ecccb28b02f:0x91744215100ba7a4!8m2!3d17.4018172!4d78.5660747!16s%2Fg%2F1tvq2l29!19sChIJL7Aoy8yeyzsRpKcLEBVCdJE?authuser=0&hl=en&rclk=1,"17.4018172,78.5660747"
Masjid-e-Gulzar-friday jamat 1:30 pm,Mosque,"Masjid-e-Gulzar-friday jamat 1:30 pm, New Malakpet, Chanchalguda, Hyderabad, Telangana 500024","Kala Dera, Malakpet","New Malakpet, Chanchalguda",Hyderabad,500024,Telangana,IN,https://www.google.com/maps/place/Masjid-e-Gulzar-friday+jamat+1:30+pm/data=!4m7!3m6!1s0x3bcb983773328347:0x710f3c503e42d52a!8m2!3d17.371482!4d78.4945954!16s%2Fg%2F1tczcbv0!19sChIJR4MyczeYyzsRKtVCPlA8D3E?authuser=0&hl=en&rclk=1,"17.371482,78.4945954"
Madina Masjid,Mosque,"Madina Masjid, Banu Nagar, Madannapet, 17-1-181/m/114, Standard Tutorials Rd, Darab Jung Colony, Saidabad, Hyderabad, Telangana 500059","Darab Jung Colony, Saidabad","Banu Nagar, Madannapet, 17-1-181/m/114, Standard Tutorials Rd",Hyderabad,500059,Telangana,IN,https://www.google.com/maps/place/Madina+Masjid/data=!4m7!3m6!1s0x3bcb986c6a18ac69:0xa652ef9f40363d71!8m2!3d17.3518493!4d78.5019038!16s%2Fg%2F1v3kfz64!19sChIJaawYamyYyzsRcT02QJ_vUqY?authuser=0&hl=en&rclk=1,"17.351849299999998,78.5019038"
Ek Khana Masjid E Omer Gaddiannaram Dilsukhnagar,Mosque,"9GCF+2V5 Ek Khana Masjid E Omer Gaddiannaram Dilsukhnagar, Santhoshi Maatha Temple Rd, beside Santoshi Mata Temple, Hanumannagar, Krishna Nagar, Dilsukhnagar, Hyderabad, Telangana 500060","Hanumannagar, Krishna Nagar, Dilsukhnagar","9GCF+2V5, Santhoshi Maatha Temple Rd, beside Santoshi Mata Temple",Hyderabad,500060,Telangana,IN,https://www.google.com/maps/place/Ek+Khana+Masjid+E+Omer+Gaddiannaram+Dilsukhnagar/data=!4m7!3m6!1s0x3bcb98f716fa5865:0xbc21113bfc85b3c5!8m2!3d17.370019!4d78.52472!16s%2Fg%2F1hm316qqw!19sChIJZVj6FveYyzsRxbOF_DsRIbw?authuser=0&hl=en&rclk=1,"17.370019,78.52472"
Masjid e Taqiuddin Rh,Mosque,"9G84+559 Masjid e Taqiuddin Rh, Akbarbagh, New Malakpet, Hyderabad, Telangana 500036","Akbarbagh, New Malakpet",9G84+559,Hyderabad,500036,Telangana,IN,https://www.google.com/maps/place/Masjid+e+Taqiuddin+Rh/data=!4m7!3m6!1s0x3bcb984476f496bf:0x142b3d957c98d08a!8m2!3d17.3654178!4d78.5054724!16s%2Fg%2F11gfngz9q1!19sChIJv5b0dkSYyzsRitCYfJU9KxQ?authuser=0&hl=en&rclk=1,"17.3654178,78.5054724"
Masjid-e-Mohammadia,Mosque,"9G8C+4G9 Masjid-e-Mohammadia, Gaddiannaram Rd, Revenue Board Colony, Dilsukhnagar, Hyderabad, Telangana 500060","Revenue Board Colony, Dilsukhnagar","9G8C+4G9, Gaddiannaram Rd",Hyderabad,500060,Telangana,IN,https://www.google.com/maps/place/Masjid-e-Mohammadia/data=!4m7!3m6!1s0x3bcb98f5fab27447:0xe9fa78e8bb2db830!8m2!3d17.3652983!4d78.5213444!16s%2Fg%2F119w_66k8!19sChIJR3Sy-vWYyzsRMLgtu-h4-uk?authuser=0&hl=en&rclk=1,"17.3652983,78.52134439999999"
Madina Masjid mdynh msjd,Mosque,"8FFV+X5P Madina Masjid mdynh msjd, Chandrayangutta, MM Ln, Near bismillah hotel, Omer Colony, Hafiz Baba Nagar South, Hafiz Baba Nagar, Hyderabad, Telangana 500058","Omer Colony, Hafiz Baba Nagar South, Hafiz Baba Nagar","8FFV+X5P, Chandrayangutta, MM Ln, Near bismillah hotel",Hyderabad,500058,Telangana,IN,https://www.google.com/maps/place/Madina+Masjid+%D9%85%D8%AF%DB%8C%D9%86%D9%87+%D9%85%D8%B3%D8%AC%D8%AF%E2%80%AD/data=!4m7!3m6!1s0x3bcba2a342b41249:0x740cd4d6a9ba6c72!8m2!3d17.3249603!4d78.4929616!16s%2Fg%2F11b5qt1784!19sChIJSRK0QqOiyzsRcmy6qdbUDHQ?authuser=0&hl=en&rclk=1,"17.3249603,78.4929616"
Masjid E Ghaffaria Akash Nagar,Mosque,"9GRC+CWF Masjid E Ghaffaria Akash Nagar, Poornodhaya Colony, Police Quarters, Akash Nagar, Amberpet, Hyderabad, Telangana 500013","Poornodhaya Colony, Police Quarters, Akash Nagar, Amberpet",9GRC+CWF,Hyderabad,500013,Telangana,IN,https://www.google.com/maps/place/Masjid+E+Ghaffaria+Akash+Nagar/data=!4m7!3m6!1s0x3bcb9972468711b7:0x398312dab4efc27!8m2!3d17.3910683!4d78.5222869!16s%2Fg%2F11h2k2gv_4!19sChIJtxGHRnKZyzsRJ_xOqy0xmAM?authuser=0&hl=en&rclk=1,"17.3910683,78.5222869"
Masjid-e-Mohiuddin Unnisa Begum,Mosque,"Masjid-e-Mohiuddin Unnisa Begum, Vijayawada - Hyderabad Hwy Ashraf Nagar Malakpet haidraabaad Telangana 500024 Republic of","Ashraf Nagar, Malakpet",Vijayawada - Hyderabad Hwy Ashraf Nagar Malakpet haidraabaad Telangana 500024 Republic of,Hyderabad,,Telangana,IN,https://www.google.com/maps/place/Masjid-e-Mohiuddin+Unnisa+Begum/data=!4m7!3m6!1s0x3bcb98367403e6e1:0xa717da84b014b05e!8m2!3d17.3758683!4d78.496193!16s%2Fg%2F1v2yx9_z!19sChIJ4eYDdDaYyzsRXrAUsITaF6c?authuser=0&hl=en&rclk=1,"17.3758683,78.49619299999999"
Masjid-e-Hanafiya,Mosque,"Masjid-e-Hanafiya, 17/1/462/2, Saidabad Rd, Sai Ganga Colony, Habeeb Nagar, Saroor Nagar East, Saidabad, Saroornagar, Hyderabad, Telangana 500035","Sai Ganga Colony, Habeeb Nagar, Saroor Nagar East, Saidabad","17/1/462/2, Saidabad Rd","Saroornagar, Hyderabad",500035,Telangana,IN,https://www.google.com/maps/place/Masjid-e-Hanafiya/data=!4m7!3m6!1s0x3bcb988b253a5583:0x8c99b1bdc212a271!8m2!3d17.3594525!4d78.5240728!16s%2Fg%2F11bxc5vb_1!19sChIJg1U6JYuYyzsRcaISwr2xmYw?authuser=0&hl=en&rclk=1,"17.3594525,78.5240728"
Masjid-E-Elaahi,Mosque,"Masjid-E-Elaahi, Metro Station Dilsukhnagar, KonarkType Institute Rd, Near Bus Stop, AP State Housing Board, Durga Nagar, Dilsukhnagar, Hyderabad, Telangana 500060","AP State Housing Board, Durga Nagar, Dilsukhnagar","Metro Station Dilsukhnagar, KonarkType Institute Rd, Near Bus Stop",Hyderabad,500060,Telangana,IN,https://www.google.com/maps/place/Masjid-E-Elaahi/data=!4m7!3m6!1s0x3bcb98f6dbf4df09:0x70fec3b66ccdf2a4!8m2!3d17.368669!4d78.525277!16s%2Fg%2F1yglqbs53!19sChIJCd_02_aYyzsRpPLNbLbD_nA?authuser=0&hl=en&rclk=1,"17.368669,78.525277"
Masjid-e-Ilahi,Mosque,"9FHQ+8QR Masjid-e-Ilahi, Gowliguda North, Chaderghat, Hyderabad, Telangana 500024","Gowliguda North, Chaderghat",9FHQ+8QR,Hyderabad,500024,Telangana,IN,https://www.google.com/maps/place/Masjid-e-Ilahi/data=!4m7!3m6!1s0x3bcb983254b1841b:0xbe2cc5392af2d9f4!8m2!3d17.3783625!4d78.4893906!16s%2Fg%2F1tdr1rsq!19sChIJG4SxVDKYyzsR9NnyKjnFLL4?authuser=0&hl=en&rclk=1,"17.378362499999998,78.4893906"
Masjid Sardarunnisa,Mosque,"Masjid Sardarunnisa, 27, Khalifa Masjid Rd, Moin Bagh, Hasnabad, Edi Bazaar, Hyderabad, Telangana 500059","Moin Bagh, Hasnabad, Edi Bazaar","27, Khalifa Masjid Rd",Hyderabad,500059,Telangana,IN,https://www.google.com/maps/place/Masjid+Sardarunnisa/data=!4m7!3m6!1s0x3bcb980cdc1dceb7:0xdc96571a01489eb5!8m2!3d17.3438056!4d78.4967953!16s%2Fg%2F1pp2vkq60!19sChIJt84d3AyYyzsRtZ5IARpXltw?authuser=0&hl=en&rclk=1,"17.3438056,78.4967953"
Masjid-E-Qadariya,Mosque,"8HH7+P63 Masjid-E-Qadariya, Methodist Rd, Christian Colony, Hastinapuram, Hyderabad, Telangana 500070","Christian Colony, Hastinapuram","8HH7+P63, Methodist Rd",Hyderabad,500070,Telangana,IN,https://www.google.com/maps/place/Masjid-E-Qadariya/data=!4m7!3m6!1s0x3bcba2031f07f00f:0x9ce4f55122de9fbd!8m2!3d17.3292547!4d78.5630393!16s%2Fg%2F1tg6h_v7!19sChIJD_AHHwOiyzsRvZ_eIlH15Jw?authuser=0&hl=en&rclk=1,"17.3292547,78.5630393"
Masjid Hadiya Amreen,Mosque,"9FJX+QH9 Masjid Hadiya Amreen, Shankar Nagar Colony, Old Malakpet, Hyderabad, Telangana 500036","Shankar Nagar Colony, Old Malakpet",9FJX+QH9,Hyderabad,500036,Telangana,IN,https://www.google.com/maps/place/Masjid+Hadiya+Amreen/data=!4m7!3m6!1s0x3bcb984ab38b629d:0xbb0cad80d35e560a!8m2!3d17.381901!4d78.498982!16s%2Fg%2F11ckr8flmb!19sChIJnWKLs0qYyzsRClZe04CtDLs?authuser=0&hl=en&rclk=1,"17.381901,78.498982"
Masjid e Al-Hasanat,Mosque,"Masjid e Al-Hasanat, 500036, Afzal Nagar, Malakpet Extension, Old Malakpet, Hyderabad, Telangana 500036","Afzal Nagar, Malakpet Extension, Old Malakpet",500036,Hyderabad,500036,Telangana,IN,https://www.google.com/maps/place/Masjid+e+Al-Hasanat/data=!4m7!3m6!1s0x3bcb99ad3cd4de5b:0x41666f041f9e3fa7!8m2!3d17.38416!4d78.5114697!16s%2Fg%2F11c5sxrgjy!19sChIJW97UPK2ZyzsRpz-eHwRvZkE?authuser=0&hl=en&rclk=1,"17.384159999999998,78.51146969999999"
Munnawara Mosque,Mosque,"CH46+JCC Munnawara Mosque, Hyderabad, Beerappagadda, Uppal, Secunderabad, Telangana 500039","Sri Nagar Colony, Beerappagadda, Uppal","CH46+JCC, Hyderabad","Secunderabad, Hyderabad",500039,Telangana,IN,https://www.google.com/maps/place/Munnawara+Mosque/data=!4m7!3m6!1s0x3bcb9935d194c6b9:0x78e155d2089f22e2!8m2!3d17.4065697!4d78.561024!16s%2Fg%2F11d_vs42hk!19sChIJucaU0TWZyzsR4iKfCNJV4Xg?authuser=0&hl=en&rclk=1,"17.4065697,78.561024"
Masjid E Dastagir,Mosque,"9G34+CJ4 Masjid E Dastagir, IS Sadan Rd, Santosh Nagar, Vani Nagar Colony, Saroor Nagar West, Saidabad, Hyderabad, Telangana 500059","Santosh Nagar, Vani Nagar Colony, Saroor Nagar West, Saidabad","9G34+CJ4, IS Sadan Rd",Hyderabad,500059,Telangana,IN,https://www.google.com/maps/place/Masjid+E+Dastagir/data=!4m7!3m6!1s0x3bcb9868d52e2a79:0xbaa2b14203371026!8m2!3d17.3535125!4d78.5065805!16s%2Fg%2F11g9q9qkpz!19sChIJeSou1WiYyzsRJhA3A0Kxoro?authuser=0&hl=en&rclk=1,"17.3535125,78.5065805"
Mandi masjid,Mosque,"Mandi masjid, 9/1, New Nagole Main Rd, Laxmi Nagar Colony, Kothapet, Hyderabad, Telangana 500035","Laxmi Nagar Colony, Kothapet","9/1, New Nagole Main Rd",Hyderabad,500035,Telangana,IN,https://www.google.com/maps/place/Mandi+masjid/data=!4m7!3m6!1s0x3bcb98e92d16d799:0x1cce1e3b105936a4!8m2!3d17.3692158!4d78.5377794!16s%2Fg%2F11dzt64ndk!19sChIJmdcWLemYyzsRpDZZEDsezhw?authuser=0&hl=en&rclk=1,"17.3692158,78.53777939999999"
Qutub Shahi Masjid And EID GAH,Mosque,"9H27+M7G Qutub Shahi Masjid And EID GAH, Erukula Nancharamma Nagar, Mansoorabad, Hyderabad, Telangana 500068",Erukula Nancharamma Nagar,9H27+M7G,"Mansoorabad, Hyderabad",500068,Telangana,IN,https://www.google.com/maps/place/Qutub+Shahi+Masjid+And+EID+GAH/data=!4m7!3m6!1s0x3bcb98b262b1f2e9:0x7592942cfe9c7a7a!8m2!3d17.3516778!4d78.5631965!16s%2Fg%2F11bzzp9270!19sChIJ6fKxYrKYyzsRenqc_iyUknU?authuser=0&hl=en&rclk=1,"17.3516778,78.56319649999999"
Masjid-e-Madina masjidWi madiynah,Mosque,"Masjid-e-Madina masjidWi madiynah, 16-11-23/9, Moosarambagh Rd, Teegala Guda, East Prasanth Nagar, Moosarambagh, Hyderabad, Telangana 500036","Teegala Guda, East Prasanth Nagar, Moosarambagh","16-11-23/9, Moosarambagh Rd",Hyderabad,500036,Telangana,IN,https://www.google.com/maps/place/Masjid-e-Madina+%D9%85%D9%8E%D8%B3%D9%92%D8%AC%D9%90%D8%AF%D9%91%D9%90+%D9%85%D9%8E%D8%AF%D9%90%DB%8C%D9%92%D9%86%D9%8E%D9%87%E2%80%AD/data=!4m7!3m6!1s0x3bcb9857257b90d9:0x2c07bba003a4ec5b!8m2!3d17.3738019!4d78.5156783!16s%2Fg%2F11c2y89s7q!19sChIJ2ZB7JVeYyzsRW-ykA6C7Byw?authuser=0&hl=en&rclk=1,"17.3738019,78.51567829999999"
Masjid-e-Madani shah,Mosque,"9G98+34Q Masjid-e-Madani shah, Asmangarh, Bank Colony, New Malakpet, Hyderabad, Telangana 500036","Asmangarh, Bank Colony, New Malakpet",9G98+34Q,Hyderabad,500036,Telangana,IN,https://www.google.com/maps/place/Masjid-e-Madani+shah/data=!4m7!3m6!1s0x3bcb9859636a9e77:0x523ac7b6ef0b5dd6!8m2!3d17.3677193!4d78.5153553!16s%2Fg%2F1261myft_!19sChIJd55qY1mYyzsR1l0L77bHOlI?authuser=0&hl=en&rclk=1,"17.3677193,78.5153553"
Masjid-E-Ghousia,Mosque,"2-1-568, Masjid-E-Ghousia, 14/15, Osmania University Rd, Vidya Nagar, Adikmet, Hyderabad, Telangana 500044","Vidya Nagar, Adikmet","2-1-568, 14/15, Osmania University Rd",Hyderabad,500044,Telangana,IN,https://www.google.com/maps/place/Masjid-E-Ghousia/data=!4m7!3m6!1s0x3bcb99a265c76def:0xb4f19b2936e62145!8m2!3d17.4052164!4d78.5126419!16s%2Fg%2F11clyctzfm!19sChIJ723HZaKZyzsRRSHmNimb8bQ?authuser=0&hl=en&rclk=1,"17.4052164,78.51264189999999"
Madina Masjid,Mosque,"Madina Masjid, 17-3-274, Quraishi Ln, Imlibun, AL Saboor Colony, Yakhutpura, Hyderabad, Telangana 500023","Imlibun, AL Saboor Colony, Yakhutpura","17-3-274, Quraishi Ln",Hyderabad,500023,Telangana,IN,https://www.google.com/maps/place/Madina+Masjid/data=!4m7!3m6!1s0x3bcb9822b1a51f2f:0x7f21f8061de1e130!8m2!3d17.3614014!4d78.4870611!16s%2Fg%2F11g9n0tt4r!19sChIJLx-lsSKYyzsRMOHhHQb4IX8?authuser=0&hl=en&rclk=1,"17.3614014,78.48706109999999"
Jaama Masjid,Mosque,"8FJ4+7QP Jaama Masjid, Mustafa Nagar, Nawab Saheb Kunta, Hyderabad, Telangana 500053","Mustafa Nagar, Nawab Saheb Kunta","8FJ4+7QP, Mustafa Nagar, Nawab Saheb Kunta",Hyderabad,500053,Telangana,IN,https://www.google.com/maps/place/Jaama+Masjid/data=!4m7!3m6!1s0x3bcbbd5f475c6f15:0x1577e30d35c605e9!8m2!3d17.3307188!4d78.4569674!16s%2Fg%2F11f3zp0nx7!19sChIJFW9cR1-9yzsR6QXGNQ3jdxU?authuser=0&hl=en&rclk=1,"17.3307188,78.4569674"
Jama Masjid (Safa Masjid),Mosque,"Jama Masjid (Safa Masjid), 500008, 9-10-440, Fort Rd, Reti Galli, Golconda Fort, Hyderabad, Telangana 500008","Nav Mahal Colony, Reti Galli, Golconda Fort","500008, 9-10-440, Fort Rd",Hyderabad,500008,Telangana,IN,https://www.google.com/maps/place/Jama+Masjid+%28Safa+Masjid%29/data=!4m7!3m6!1s0x3bcb968c5ca5e9bd:0xd44d1d0fcac441a2!8m2!3d17.3837901!4d78.4037368!16s%2Fg%2F11lkzdnh1z!19sChIJvemlXIyWyzsRokHEyg8dTdQ?authuser=0&hl=en&rclk=1,"17.3837901,78.40373679999999"
Masjid,Mosque,"Masjid, 8-3-132/93, Road Number 6, Janardhan Reddy Nagar, Midhani Colony, Ambedkar Nagar, Jillelaguda, Hyderabad, Telangana 500097, Rd Number 6, Janardhan Reddy Nagar, Midhani Colony, Ambedkar Nagar, Jillalguda, Hyderabad, Telangana 500097","Janardhan Reddy Nagar, Midhani Colony, Ambedkar Nagar","8-3-132/93, Road Number 6, Janardhan Reddy Nagar, Midhani Colony, Ambedkar Nagar, Jillelaguda, Hyderabad, Telangana 500097, Rd Number 6","Jillalguda, Hyderabad",500097,Telangana,IN,https://www.google.com/maps/place/Masjid/data=!4m7!3m6!1s0x3bcba276be102a4f:0xb665c065e10e5ebf!8m2!3d17.3333109!4d78.5365574!16s%2Fg%2F11g6vh2j2h!19sChIJTyoQvnaiyzsRv14O4WXAZbY?authuser=0&hl=en&rclk=1,"17.3333109,78.53655739999999"
Masjid-e-Niyazi,Mosque,"Masjid-e-Niyazi, 10-3-120 Sai Nagar Colony, Lingojiguda, Trimurti Colony, Hyderabad, Telangana 500035","Trimurti Colony, Brindavan Colony","10-3-120 Sai Nagar Colony, Lingojiguda",Hyderabad,500035,Telangana,IN,https://www.google.com/maps/place/Masjid-e-Niyazi/data=!4m7!3m6!1s0x3bcb989a68dfc63d:0x549f357b816866d6!8m2!3d17.3484922!4d78.5348596!16s%2Fg%2F1ygltgby0!19sChIJPcbfaJqYyzsR1mZogXs1n1Q?authuser=0&hl=en&rclk=1,"17.3484922,78.53485959999999"
Masjid-e-Jamal-e-Mohammadi,Mosque,"9G43+2WW Masjid-e-Jamal-e-Mohammadi, Santosh Nagar - Sayeedabad Rd, Bin Trif Nagar, Raziya Complex, Saroor Nagar West, Madannapet Colony, Hyderabad, Telangana 500059","Bin Trif Nagar, Raziya Complex, Saroor Nagar West, Madannapet Colony","9G43+2WW, Santosh Nagar - Sayeedabad Rd",Hyderabad,500059,Telangana,IN,https://www.google.com/maps/place/Masjid-e-Jamal-e-Mohammadi/data=!4m7!3m6!1s0x3bcb98696ba26369:0x9b53fd9617ec13c4!8m2!3d17.3551026!4d78.5048173!16s%2Fg%2F11c5_h6tfp!19sChIJaWOia2mYyzsRxBPsF5b9U5s?authuser=0&hl=en&rclk=1,"17.3551026,78.5048173"
Madina Masjid,Mosque,"Madina Masjid, Mustaidpura, Laxmi Nagar, Karwan, Hyderabad, Telangana 500006","Mustaidpura, Laxmi Nagar, Karwan",Madina Masjid,Hyderabad,500006,Telangana,IN,https://www.google.com/maps/place/Madina+Masjid/data=!4m7!3m6!1s0x3bcb974f1e2230b5:0x9c84f68678735547!8m2!3d17.3734419!4d78.4508214!16s%2Fg%2F11ghrg83z5!19sChIJtTAiHk-XyzsRR1VzeIb2hJw?authuser=0&hl=en&rclk=1,"17.3734419,78.4508214"
Masjid-e-Taj,Mosque,"CG6P+8VM Masjid-e-Taj, Rahat Nagar, Amberpet, Hyderabad, Telangana 500007","Rahat Nagar, Amberpet",CG6P+8VM,Hyderabad,500007,Telangana,IN,https://www.google.com/maps/place/Masjid-e-Taj/data=!4m7!3m6!1s0x3bcb996c7dc63765:0x5452497e2fa139d3!8m2!3d17.4108322!4d78.5371842!16s%2Fg%2F11c6dhcb5x!19sChIJZTfGfWyZyzsR0zmhL35JUlQ?authuser=0&hl=en&rclk=1,"17.410832199999998,78.5371842"
Masjid-e-Salarjung,Mosque,"9G3P+342 Masjid-e-Salarjung, Post Office, Opposite Bus Stand, Lingojiguda, Telangana 500035",Brindavan Colony,"9G3P+342, Post Office, Opposite Bus Stand","Lingojiguda, Hyderabad",500035,Telangana,IN,https://www.google.com/maps/place/Masjid-e-Salarjung/data=!4m7!3m6!1s0x3bcb9891040d9651:0x2752ea823efbad5d!8m2!3d17.3526311!4d78.5352797!16s%2Fg%2F1yglqbtp7!19sChIJUZYNBJGYyzsRXa37PoLqUic?authuser=0&hl=en&rclk=1,"17.3526311,78.53527969999999"
Masjid-e-Khudanumai,Mosque,"Masjid-e-Khudanumai, 13-7-1080/3, Ziaguda, Hyderabad, Telangana 500006",Ziaguda,13-7-1080/3,Hyderabad,500006,Telangana,IN,https://www.google.com/maps/place/Masjid-e-Khudanumai/data=!4m7!3m6!1s0x3bcb97a333578541:0x570d160f6bf1a79c!8m2!3d17.3676194!4d78.4485617!16s%2Fg%2F11g8wj512b!19sChIJQYVXM6OXyzsRnKfxaw8WDVc?authuser=0&hl=en&rclk=1,"17.3676194,78.4485617"
Masjid E Maindargi,Mosque,"9FCW+57J Masjid E Maindargi, Officers Colony, Chanchalguda, Hyderabad, Telangana 500024","Officers Colony, Chanchalguda",9FCW+57J,Hyderabad,500024,Telangana,IN,https://www.google.com/maps/place/Masjid+E+Maindargi/data=!4m7!3m6!1s0x3bcb983787b9d70b:0xe7195bdd4bb1c352!8m2!3d17.370464!4d78.4956418!16s%2Fg%2F11b6bhw0gz!19sChIJC9e5hzeYyzsRUsOxS91bGec?authuser=0&hl=en&rclk=1,"17.370464,78.4956418"
Masjid-e-Osman-e-Ghani,Mosque,"8F97+R53 Masjid-e-Osman-e-Ghani, Mahamood Nagar, Hosnabad Colony, Vattepally, Hyderabad, Telangana 500005","Mahamood Nagar, Hosnabad Colony, Vattepally",8F97+R53,Hyderabad,500005,Telangana,IN,https://www.google.com/maps/place/Masjid-e-Osman-e-Ghani/data=!4m7!3m6!1s0x3bcbbd457264b2c9:0x69c4f4a5c2579073!8m2!3d17.319524!4d78.4629232!16s%2Fg%2F11hbgckgx0!19sChIJybJkckW9yzsRc5BXwqX0xGk?authuser=0&hl=en&rclk=1,"17.319523999999998,78.46292319999999"
Masjid,Mosque,"8GQQ+8J7 Masjid, Defence Scientists Co-Operative Housing Society, Bairamalguda, Telangana 500079",Defence Scientists Co-Operative Housing Society,8GQQ+8J7,Bairamalguda,500079,Telangana,IN,https://www.google.com/maps/place/Masjid/data=!4m7!3m6!1s0x3bcb997589bc3469:0x676f2e8f2bd7af6e!8m2!3d17.3382887!4d78.5390506!16s%2Fg%2F11ghsgszf0!19sChIJaTS8iXWZyzsRbq_XK48ub2c?authuser=0&hl=en&rclk=1,"17.3382887,78.5390506"
Masjid e Gafooriya,Mosque,"9GVX+GJ4 Masjid e Gafooriya, Laxmi Narayan Nagar Colony, Ramanthapur, Hyderabad, Telangana 500039","Laxmi Narayan Nagar Colony, Ramanthapur",9GVX+GJ4,Hyderabad,500039,Telangana,IN,https://www.google.com/maps/place/Masjid+e+Gafooriya/data=!4m7!3m6!1s0x3bcb9923800113ed:0xac63b5351982e325!8m2!3d17.3937734!4d78.549077!16s%2Fg%2F11ggs2j5xk!19sChIJ7RMBgCOZyzsRJeOCGTW1Y6w?authuser=0&hl=en&rclk=1,"17.3937734,78.549077"
Masjid Shehnaz Amjad Mohammadi,Mosque,"9G39+V6J Masjid Shehnaz Amjad Mohammadi, Unnamed Road, Krishnanagar, Saraswathi Nagar, Saroor Nagar West, Saroornagar, Telangana 500035","Krishnanagar, Saraswathi Nagar, Saroor Nagar West, Saidabad","9G39+V6J, Unnamed Road","Saroornagar, Hyderabad",500035,Telangana,IN,https://www.google.com/maps/place/Masjid+Shehnaz+Amjad+Mohammadi/data=!4m7!3m6!1s0x3bcb9920d954d6f7:0xd6d58a50c7cc65dc!8m2!3d17.3547208!4d78.5180124!16s%2Fg%2F11gjp3vj_h!19sChIJ99ZU2SCZyzsR3GXMx1CK1dY?authuser=0&hl=en&rclk=1,"17.3547208,78.5180124"
Masjid-e-Mannat,Mosque,"8F26+FJ7 Masjid-e-Mannat, Ghousenagar Rd, Chandrayangutta, Hyderabad, Telangana 500005",Chandrayangutta,"8F26+FJ7, Ghousenagar Rd",Hyderabad,500005,Telangana,IN,https://www.google.com/maps/place/Masjid-e-Mannat/data=!4m7!3m6!1s0x3bcbbd27388b1989:0x2d0b2d16ecc84106!8m2!3d17.3011601!4d78.4615396!16s%2Fg%2F11gnp431g4!19sChIJiRmLOCe9yzsRBkHI7BYtCy0?authuser=0&hl=en&rclk=1,"17.3011601,78.4615396"
Masjid Faqeermohammedia,Mosque,"Masjid Faqeermohammedia, 11-17-22, Sri Venkateshwara Colony, Saroornagar, Hyderabad, Telangana 500035",Sri Venkateshwara Colony,11-17-22,"Saroornagar, Hyderabad",500035,Telangana,IN,https://www.google.com/maps/place/Masjid+Faqeermohammedia/data=!4m7!3m6!1s0x3bcb989697159aad:0x48976a51c2d1b0f9!8m2!3d17.3545308!4d78.5393896!16s%2Fg%2F11fy4qnz4z!19sChIJrZoVl5aYyzsR-bDRwlFql0g?authuser=0&hl=en&rclk=1,"17.3545308,78.53938959999999"
Masjid e Taha,Mosque,"9HR3+MWH Masjid e Taha, Ramanthapur, Gaddi annaram, Hyderabad, Telangana 500039","Ramanthapur, Gaddi annaram",9HR3+MWH,Hyderabad,500039,Telangana,IN,https://www.google.com/maps/place/Masjid+e+Taha/data=!4m7!3m6!1s0x3bcb992f57a58841:0xe15e06421358d58f!8m2!3d17.3916913!4d78.5548742!16s%2Fg%2F1yh802896!19sChIJQYilVy-ZyzsRj9VYE0IGXuE?authuser=0&hl=en&rclk=1,"17.391691299999998,78.5548742"
"masjid-e-syedamiya,new road chanchalguda",Mosque,"masjid-e-syedamiya,new road chanchalguda, 16-4-684, Malakpet Rd, Kala Dera, Malakpet, Hyderabad, Telangana 500024","Kala Dera, Malakpet","16-4-684, Malakpet Rd",Hyderabad,500024,Telangana,IN,"https://www.google.com/maps/place/masjid-e-syedamiya,new+road+chanchalguda/data=!4m7!3m6!1s0x3bcb9830a64f3c5d:0xab901902b94ae499!8m2!3d17.3702891!4d78.4914168!16s%2Fg%2F11df2jym01!19sChIJXTxPpjCYyzsRmeRKuQIZkKs?authuser=0&hl=en&rclk=1","17.3702891,78.4914168"
Masjid-e-Quddus,Mosque,"8F7V+5G8 Masjid-e-Quddus, Green City Farm Lands, Balapur, Hyderabad, Telangana 500005",Green City Farm Lands,8F7V+5G8,"Balapur, Hyderabad",500005,Telangana,IN,https://www.google.com/maps/place/Masjid-e-Quddus/data=!4m7!3m6!1s0x3bcba2bf691d1517:0xc6029d571e14316b!8m2!3d17.312912!4d78.4938334!16s%2Fg%2F11csqftgxx!19sChIJFxUdab-iyzsRazEUHledAsY?authuser=0&hl=en&rclk=1,"17.312912,78.4938334"
Masjid Ek khana,Mosque,"9F7X+489 Masjid Ek khana, Chowni Nadi Ali Baig, Kurmaguda, Hyderabad, Telangana 500023","Chowni Nadi Ali Baig, Kurmaguda",9F7X+489,Hyderabad,500023,Telangana,IN,https://www.google.com/maps/place/Masjid+Ek+khana/data=!4m7!3m6!1s0x3bcb99b8135baa2d:0xd2b5294ac4325b4d!8m2!3d17.3627955!4d78.4983689!16s%2Fg%2F11h09btt5g!19sChIJLapbE7iZyzsRTVsyxEoptdI?authuser=0&hl=en&rclk=1,"17.3627955,78.4983689"
Masjid Al Bugdad,Mosque,"Masjid Al Bugdad, 17-6-405, Dabeerpura Road, Dabeerpura North, Malakpet, Hyderabad, Telangana 500024","Dabeerpura North, Malakpet","17-6-405, Dabeerpura Road",Hyderabad,500024,Telangana,IN,https://www.google.com/maps/place/Masjid+Al+Bugdad/data=!4m7!3m6!1s0x3bcb983ae33a0bed:0xffdf172f0d9f2905!8m2!3d17.3671586!4d78.4890275!16s%2Fg%2F1thw0mbf!19sChIJ7Qs64zqYyzsRBSmfDS8X3_8?authuser=0&hl=en&rclk=1,"17.3671586,78.48902749999999"
Jamia Masjid Mandi Mir Alam,Mosque,"9F8H+469 Jamia Masjid Mandi Mir Alam, Mir Alam Mandi Rd, Mir Alam Mandi, Pathar Gatti, Hyderabad, Telangana 500002","Mir Alam Mandi, Pathar Gatti","9F8H+469, Mir Alam Mandi Rd",Hyderabad,500002,Telangana,IN,https://www.google.com/maps/place/Jamia+Masjid+Mandi+Mir+Alam/data=!4m7!3m6!1s0x3bcb9826e21e12f3:0xd46f664e13072b01!8m2!3d17.3652774!4d78.4781034!16s%2Fg%2F1hd_l0hrv!19sChIJ8xIe4iaYyzsRASsHE05mb9Q?authuser=0&hl=en&rclk=1,"17.3652774,78.4781034"
Madina Masjid,Mosque,"Madina Masjid, MALAKPET RAILWAY STATION, Rasoolpura, Hyderabad, Telangana 500024","Musi Nagar, Old Malakpet","MALAKPET RAILWAY STATION, Rasoolpura",Hyderabad,500024,Telangana,IN,https://www.google.com/maps/place/Madina+Masjid/data=!4m7!3m6!1s0x3bcb983456d9b1ab:0x5a4e25c40ae491d5!8m2!3d17.3786767!4d78.494552!16s%2Fg%2F11gcqx2mhh!19sChIJq7HZVjSYyzsR1ZHkCsQlTlo?authuser=0&hl=en&rclk=1,"17.3786767,78.494552"
Mudhiraj Sangam Function Hall,Wedding venue,"Mudhiraj Sangam Function Hall, Ville Castle Resort, Beerappagadda, Uppal, Hyderabad, Telangana 500039","Beerappagadda, Uppal",Ville Castle Resort,Hyderabad,,Telangana,IN,https://www.google.com/maps/place/Mudhiraj+Sangam+Function+Hall/data=!4m7!3m6!1s0x3bcb9ecccf33c7a9:0xaa258bbc35f4f96c!8m2!3d17.4017065!4d78.5666764!16s%2Fg%2F11fxzlsqbt!19sChIJqcczz8yeyzsRbPn0NbyLJao?authuser=0&hl=en&rclk=1,"17.4017065,78.56667639999999"
Masjid,Mosque,"Masjid, 17-3-513, Yakutpura Station Rd, Pathar Kaman Colony, AL Saboor Colony, Yakhutpura, Hyderabad, Telangana 500023","Pathar Kaman Colony, AL Saboor Colony, Yakhutpura","17-3-513, Yakutpura Station Rd",Hyderabad,500023,Telangana,IN,https://www.google.com/maps/place/Masjid/data=!4m7!3m6!1s0x3bcb98233cb7fcfd:0x3ff8077970f3fab4!8m2!3d17.3618723!4d78.4853676!16s%2Fg%2F1yglt6pzb!19sChIJ_fy3PCOYyzsRtPrzcHkH-D8?authuser=0&hl=en&rclk=1,"17.361872299999998,78.48536759999999"
Mustafa Masjid (eidgha),Mosque,"9GF7+J83 Mustafa Masjid (eidgha), Saleem Nagar Colony, Malakpet Extension, Old Malakpet, Hyderabad, Telangana 500036","Saleem Nagar Colony, Malakpet Extension, Old Malakpet",9GF7+J83,Hyderabad,500036,Telangana,IN,https://www.google.com/maps/place/Mustafa+Masjid+%28eidgha%29/data=!4m7!3m6!1s0x3bcb985101a672a5:0x2fae6d118704ca52!8m2!3d17.3740225!4d78.5132993!16s%2Fg%2F124sws5ny!19sChIJpXKmAVGYyzsRUsoEhxFtri8?authuser=0&hl=en&rclk=1,"17.3740225,78.5132993"
Muhammadi Masjid,Mosque,"9FPP+2JP Muhammadi Masjid, Hashmath Gunj, Goutam Nagar, Badi Chowdi, Kachiguda, Hyderabad, Telangana 500095","Hashmath Gunj, Goutam Nagar, Badi Chowdi, Kachiguda",9FPP+2JP,Hyderabad,500095,Telangana,IN,https://www.google.com/maps/place/Muhammadi+Masjid/data=!4m7!3m6!1s0x394c70e045ed434d:0x9f582c9dd0942a18!8m2!3d17.3850872!4d78.4865817!16s%2Fg%2F11b7dv71lb!19sChIJTUPtReBwTDkRGCqU0J0sWJ8?authuser=0&hl=en&rclk=1,"17.3850872,78.4865817"
Masjid e Qutubshahi,Mosque,"37Q5+V9G Masjid e Qutubshahi, DRB Area, Nalgonda, Telangana 508001",DRB Area,37Q5+V9G,Nalgonda,508001,Telangana,IN,https://www.google.com/maps/place/Masjid+e+Qutubshahi/data=!4m7!3m6!1s0x3bcb2931b2782a33:0x86d913dabb2a82b9!8m2!3d17.0896875!4d79.2584531!16s%2Fg%2F11bwysgzwg!19sChIJMyp4sjEpyzsRuYIqu9oT2YY?authuser=0&hl=en&rclk=1,"17.0896875,79.2584531"
JAMA MASJID ANNARAM,Mosque,"CF25+FFG JAMA MASJID ANNARAM, annaram, Machareddy, Arepally, Telangana",Machareddy,"CF25+FFG, annaram","Arepally, Annaram",,Telangana,IN,https://www.google.com/maps/place/JAMA+MASJID+ANNARAM/data=!4m7!3m6!1s0x3bcc4dd4051879bd:0x6091175b75c66fc8!8m2!3d18.4011877!4d78.4586982!16s%2Fg%2F11h03gcth6!19sChIJvXkYBdRNzDsRyG_GdVsXkWA?authuser=0&hl=en&rclk=1,"18.401187699999998,78.4586982"
Jama Masjid Raushan Ud Dowla And Eid Gah,Mosque,"8F7X+QQX Jama Masjid Raushan Ud Dowla And Eid Gah, Raghavendra Kirana & General Stores,, Yelmati Nagar, Balapur, Telangana 500005","Yelmati Nagar, Kanchan Bagh","8F7X+QQX, Raghavendra Kirana & General Stores,","Balapur, Hyderabad",500005,Telangana,IN,https://www.google.com/maps/place/Jama+Masjid+Raushan+Ud+Dowla+And+Eid+Gah/data=!4m7!3m6!1s0x3bcba2955ae6b52f:0xc298a7956a91a254!8m2!3d17.3144974!4d78.4994838!16s%2Fg%2F11c5pfff05!19sChIJL7XmWpWiyzsRVKKRapWnmMI?authuser=0&hl=en&rclk=1,"17.3144974,78.4994838"
Behind Masjid E Mohammadia,Hostel,"Behind Masjid E Mohammadia, 16-2-760, Gaddiannaram Rd, Revenue Board Colony, New Malakpet, Hyderabad, Telangana 500036","Revenue Board Colony, New Malakpet","16-2-760, Gaddiannaram Rd",Hyderabad,500036,Telangana,IN,https://www.google.com/maps/place/Behind+Masjid+E+Mohammadia/data=!4m7!3m6!1s0x3bcb98f5f96c1007:0x3a7e4f62013b6c05!8m2!3d17.3654755!4d78.5209357!16s%2Fg%2F11c1ws69y0!19sChIJBxBs-fWYyzsRBWw7AWJPfjo?authuser=0&hl=en&rclk=1,"17.3654755,78.5209357"
Madina Masjid,Mosque,"Madina Masjid, 19-4-281/480/5, Ansari Rd, Gulzar Nagar, Nawab Saheb Kunta, Hyderabad, Telangana 500053","Gulzar Nagar, Nawab Saheb Kunta","19-4-281/480/5, Ansari Rd",Hyderabad,500053,Telangana,IN,https://www.google.com/maps/place/Madina+Masjid/data=!4m7!3m6!1s0x3bcb97e1cae5b8a5:0x3ca12d8209d2fa10!8m2!3d17.3343573!4d78.455418!16s%2Fg%2F11c2p54hbs!19sChIJpbjlyuGXyzsREPrSCYItoTw?authuser=0&hl=en&rclk=1,"17.3343573,78.455418"
Masjid,Mosque,"9GWH+335 Masjid, Unnamed Road, Kamshetty Enclave, Akash Nagar, Amberpet, Hyderabad, Telangana 500013","Kamshetty Enclave, Akash Nagar, Amberpet","9GWH+335, Unnamed Road",Hyderabad,500013,Telangana,IN,https://www.google.com/maps/place/Masjid/data=!4m7!3m6!1s0x3bcb99d4cfc697bb:0xbfdd23dde9af00d4!8m2!3d17.3951395!4d78.527722!16s%2Fg%2F11g0mj5nsx!19sChIJu5fGz9SZyzsR1ACv6d0j3b8?authuser=0&hl=en&rclk=1,"17.3951395,78.527722"
Mosque,Mosque,"9F6Q+WGF Mosque, Nagar Bowli, Charminar, Dabeerpura, Hyderabad, Telangana 500023","Nagar Bowli, Charminar, Dabeerpura",9F6Q+WGF,Hyderabad,500023,Telangana,IN,https://www.google.com/maps/place/Mosque/data=!4m7!3m6!1s0x3bcb9838d9aadbc9:0xfcfb320398c0610a!8m2!3d17.3623095!4d78.4888046!16s%2Fg%2F1wfvl3f1!19sChIJyduq2TiYyzsRCmHAmAMy-_w?authuser=0&hl=en&rclk=1,"17.3623095,78.4888046"
Madina Masjid,Mosque,"Madina Masjid, 87, Osmanpura Rd, Dabeerpura North, Malakpet, Hyderabad, Telangana 500001","Dabeerpura North, Malakpet","87, Osmanpura Rd",Hyderabad,500001,Telangana,IN,https://www.google.com/maps/place/Madina+Masjid/data=!4m7!3m6!1s0x3bcb98254c52ab53:0x6aea3d47668003f5!8m2!3d17.3688688!4d78.4863333!16s%2Fg%2F1ptyw387y!19sChIJU6tSTCWYyzsR9QOAZkc96mo?authuser=0&hl=en&rclk=1,"17.368868799999998,78.4863333"
Masjid Mohammadia,Mosque,"Masjid Mohammadia, Santhapur, Telangana 509408",,,Santhapur,,Telangana,IN,https://www.google.com/maps/place/Masjid+Mohammadia/data=!4m7!3m6!1s0x3bcbb49c6431ec11:0xe2a7015d3649c05e!8m2!3d16.9878633!4d78.3795521!16s%2Fg%2F1pt_vc5yj!19sChIJEewxZJy0yzsRXsBJNl0Bp-I?authuser=0&hl=en&rclk=1,"16.9878633,78.3795521"
Masjid-e-shehzadi,Mosque,"8J77+6JF Masjid-e-shehzadi, Unnamed Road, Hyderabad, Telangana 501505",,"8J77+6JF, Unnamed Road",Hyderabad,501505,Telangana,IN,https://www.google.com/maps/place/Masjid-e-shehzadi/data=!4m7!3m6!1s0x3bcba114ce330f8f:0xd6af9a95376b9d32!8m2!3d17.3130664!4d78.6140497!16s%2Fg%2F11h18zcwr8!19sChIJjw8zzhShyzsRMp1rN5War9Y?authuser=0&hl=en&rclk=1,"17.3130664,78.6140497"
Masjid-E-Zaki Shameem,Mosque,"9GMQ+J7H Masjid-E-Zaki Shameem, Unnamed Road, Ramanthapur, Hyderabad, Telangana 500013",Ramanthapur,"9GMQ+J7H, Unnamed Road",Hyderabad,500013,Telangana,IN,https://www.google.com/maps/place/Masjid-E-Zaki+Shameem/data=!4m7!3m6!1s0x3bcb9961756055c7:0x6a45c6ccf61e9bd1!8m2!3d17.384065!4d78.5382215!16s%2Fg%2F11r8f6zrnb!19sChIJx1VgdWGZyzsR0Zse9szGRWo?authuser=0&hl=en&rclk=1,"17.384065,78.53822149999999"
Masjid e Gazi Miyan (Mahdavia),Mosque,"H.No, Masjid e Gazi Miyan (Mahdavia), 18-12-419/c/244, Hafiz Baba Nagar South, Hafiz Baba Nagar, Hyderabad, Telangana 500058","Hafiz Baba Nagar South, Hafiz Baba Nagar","H.No, 18-12-419/c/244",Hyderabad,500058,Telangana,IN,https://www.google.com/maps/place/Masjid+e+Gazi+Miyan+%28Mahdavia%29/data=!4m7!3m6!1s0x3bcba2bb5fa014f9:0xb10ead4b2d1f6bac!8m2!3d17.3246704!4d78.4955567!16s%2Fg%2F11gfp098mr!19sChIJ-RSgX7uiyzsRrGsfLUutDrE?authuser=0&hl=en&rclk=1,"17.3246704,78.4955567"
MASJID,Mosque,"CHCJ+HFH MASJID, Bayanna Nagar, Boduppal, Hyderabad, Telangana 500098","Bayanna Nagar, Boduppal",CHCJ+HFH,Hyderabad,500098,Telangana,IN,https://www.google.com/maps/place/MASJID/data=!4m7!3m6!1s0x3bcb9f4e0b8cfeef:0x6e8cf089be137214!8m2!3d17.4214333!4d78.5812391!16s%2Fg%2F11rr2pjg_3!19sChIJ7_6MC06fyzsRFHITvonwjG4?authuser=0&hl=en&rclk=1,"17.4214333,78.58123909999999"
MASJID-E-ABUBAKR,Mosque,"9GRP+5CP MASJID-E-ABUBAKR, Sri Niwaspuram, Ramanthapur, Hyderabad, Telangana 500013","Sri Niwaspuram, Ramanthapur",9GRP+5CP,Hyderabad,500013,Telangana,IN,https://www.google.com/maps/place/MASJID-E-ABUBAKR/data=!4m7!3m6!1s0x3bcb99c689a2e29f:0x273d4d809a452305!8m2!3d17.3904674!4d78.5360701!16s%2Fg%2F11h01wwcy8!19sChIJn-KiicaZyzsRBSNFmoBNPSc?authuser=0&hl=en&rclk=1,"17.3904674,78.5360701"
Mosque,Mosque,"9G4J+Q26 Mosque, VV Nagar, P & T Colony, Dilsukhnagar, Hyderabad, Telangana 500060","VV Nagar, P & T Colony, Dilsukhnagar",9G4J+Q26,Hyderabad,500060,Telangana,IN,https://www.google.com/maps/place/Mosque/data=!4m7!3m6!1s0x3bcb99b71da4366b:0xbaa27ee85d1c5870!8m2!3d17.356916!4d78.530005!16s%2Fg%2F11g0_d0qyq!19sChIJazakHbeZyzsRcFgcXeh-oro?authuser=0&hl=en&rclk=1,"17.356916,78.530005"
MASJID E FAQRUL ISLAM,Mosque,"9F6P+VX9 MASJID E FAQRUL ISLAM, MIRSHIKARI GALI, Pathar Kaman Colony, Dabeerpura South, Dabeerpura, Hyderabad, Telangana 500023","Pathar Kaman Colony, Dabeerpura South, Dabeerpura","9F6P+VX9, MIRSHIKARI GALI",Hyderabad,500023,Telangana,IN,https://www.google.com/maps/place/MASJID+E+FAQRUL+ISLAM/data=!4m7!3m6!1s0x3bcb983cc3637ebf:0xb4afd04254a2f17b!8m2!3d17.3621811!4d78.4874419!16s%2Fg%2F11gdrxlb90!19sChIJv35jwzyYyzsRe_GiVELQr7Q?authuser=0&hl=en&rclk=1,"17.3621811,78.4874419"
Ashoor Khana e Shahzade Qasim A.s,Mosque,"CH37+QV3 Ashoor Khana e Shahzade Qasim A.s, Bharat Nagar Colony, Balaji Enclave, Beerappagadda, Uppal, Hyderabad, Telangana 500039","Bharat Nagar Colony, Balaji Enclave, Beerappagadda, Uppal",CH37+QV3,Hyderabad,500039,Telangana,IN,https://www.google.com/maps/place/Ashoor+Khana+e+Shahzade+Qasim+A.s/data=!4m7!3m6!1s0x3bcb9912b30eba23:0xa877326a6ce1f5c1!8m2!3d17.404388!4d78.5646745!16s%2Fg%2F11g4jqfsw3!19sChIJI7oOsxKZyzsRwfXhbGoyd6g?authuser=0&hl=en&rclk=1,"17.404388,78.5646745"
Munnawaraya Masjid,Mosque,"9F9V+2CC Munnawaraya Masjid, Fateh Khan Bazar, Officers Colony, Chanchalguda, Hyderabad, Telangana 500024","Fateh Khan Bazar, Officers Colony, Chanchalguda",9F9V+2CC,Hyderabad,500024,Telangana,IN,https://www.google.com/maps/place/Munnawaraya+Masjid/data=!4m7!3m6!1s0x3bcb98399f3ef1e3:0x45299e52388b2ea5!8m2!3d17.3675515!4d78.4935064!16s%2Fg%2F11b6212fb3!19sChIJ4_E-nzmYyzsRpS6LOFKeKUU?authuser=0&hl=en&rclk=1,"17.367551499999998,78.4935064"
Darga,Mosque,"9HV5+8G3 Darga, Centre For Dna Fingerprinting And Diagnostics 2, Survey Colony, Industrial Development Area, Uppal, Secunderabad, Hyderabad, Telangana 500039","Survey Colony, Industrial Development Area, Uppal",9HV5+8G3 Centre For Dna Fingerprinting And Diagnostics 2,"Secunderabad, Hyderabad",500039,Telangana,IN,https://www.google.com/maps/place/Darga/data=!4m7!3m6!1s0x3bcb992b6f208829:0x70652bd6f9743533!8m2!3d17.3937976!4d78.5586843!16s%2Fg%2F11tg62tjt0!19sChIJKYggbyuZyzsRMzV0-dYrZXA?authuser=0&hl=en&rclk=1,"17.3937976,78.5586843"
Masjid Yadullahi,Mosque,"Masjid Yadullahi, Officers Colony, Chanchalguda, Hyderabad, Telangana 500024","Officers Colony, Chanchalguda",,Hyderabad,500024,Telangana,IN,https://www.google.com/maps/place/Masjid+Yadullahi/data=!4m7!3m6!1s0x3bcb996ddfef6489:0xc1c859921a4b2969!8m2!3d17.3688105!4d78.497349!16s%2Fg%2F11s477vgwd!19sChIJiWTv322ZyzsRaSlLGpJZyME?authuser=0&hl=en&rclk=1,"17.3688105,78.497349"
Darul aman,Mosque,"A Block, Darul aman, Sri Shakti Homes, 16 11 577 1 A, near Redcross hospital, New Gaddiannaram Colony, Kanchi Residency, Sahithi Nagar, Dilsukhnagar, Hyderabad, Telangana 500060","New Gaddiannaram Colony, Kanchi Residency, Sahithi Nagar, Dilsukhnagar","A Block, Sri Shakti Homes, 16 11 577 1 A, near Redcross hospital",Hyderabad,500060,Telangana,IN,https://www.google.com/maps/place/Darul+aman/data=!4m7!3m6!1s0x3bcb99b38607d107:0x7299d01e23146d4a!8m2!3d17.3627992!4d78.5221103!16s%2Fg%2F11sf7gn0f6!19sChIJB9EHhrOZyzsRSm0UIx7QmXI?authuser=0&hl=en&rclk=1,"17.362799199999998,78.5221103"
Oppodite Bada Masjid,Hospital,"Oppodite Bada Masjid, 3-9-1/A/2, NH163, Sarada Nagar, Ramanthapur, Hyderabad, Telangana 500013","Sarada Nagar, Ramanthapur","3-9-1/A/2, NH163",Hyderabad,500013,Telangana,IN,https://www.google.com/maps/place/Oppodite+Bada+Masjid/data=!4m7!3m6!1s0x3bcb99757050f5fd:0xb3790b726853785!8m2!3d17.3985059!4d78.5360972!16s%2Fg%2F11ghsg_mtp!19sChIJ_fVQcHWZyzsRhTeFJreQNws?authuser=0&hl=en&rclk=1,"17.3985059,78.5360972"
Jama Masjid Wali Qutub Shshi,Corporate office,"Jama Masjid Wali Qutub Shshi, near, metro junction, Uppal, Hyderabad, Telangana 500039","Laxmi Narayan Nagar Colony, Uppal","near, metro junction",Hyderabad,500039,Telangana,IN,https://www.google.com/maps/place/Jama+Masjid+Wali+Qutub+Shshi/data=!4m7!3m6!1s0x3bcb992973e75ed7:0x2b7b8ffd2ed11be6!8m2!3d17.3919227!4d78.5548102!16s%2Fg%2F11j0w7hmwp!19sChIJ117ncymZyzsR5hvRLv2Peys?authuser=0&hl=en&rclk=1,"17.3919227,78.55481019999999"
Masjid e mohammadia (Jamia masjid),Mosque,"9GF9+X2Q Masjid e mohammadia (Jamia masjid), Teegala Guda, East Prasanth Nagar, Dilsukhnagar, Hyderabad, Telangana 500036","Teegala Guda, East Prasanth Nagar, Dilsukhnagar",9GF9+X2Q,Hyderabad,500036,Telangana,IN,https://www.google.com/maps/place/Masjid+e+mohammadia+%28Jamia+masjid%29/data=!4m7!3m6!1s0x3bcb99bff1d11f03:0x49e3bf894f3412b2!8m2!3d17.3749669!4d78.5175963!16s%2Fg%2F11vcm1xbh9!19sChIJAx_R8b-ZyzsRshI0T4m_40k?authuser=0&hl=en&rclk=1,"17.3749669,78.5175963"
Ghose-e-Pak ka chilla,Mosque,"CH37+WQ4 Ghose-e-Pak ka chilla, Balaji Enclave, Beerappagadda, Uppal, Secunderabad, Hyderabad, Telangana 500039","Balaji Enclave, Beerappagadda, Uppal",CH37+WQ4,"Secunderabad, Hyderabad",500039,Telangana,IN,https://www.google.com/maps/place/Ghose-e-Pak+ka+chilla/data=!4m7!3m6!1s0x3bcb990d7f8f40ad:0x3880ef5373b60a2b!8m2!3d17.4047635!4d78.564442!16s%2Fg%2F11fp8b01gd!19sChIJrUCPfw2ZyzsRKwq2c1PvgDg?authuser=0&hl=en&rclk=1,"17.404763499999998,78.564442"
Masjid E Wahed Unnisa,Mosque,"9F7P+46R Masjid E Wahed Unnisa, Pathar Kaman Colony, Dabeerpura South, Yakhutpura, Hyderabad, Telangana 500023","Pathar Kaman Colony, Dabeerpura South, Yakhutpura",9F7P+46R,Hyderabad,500023,Telangana,IN,https://www.google.com/maps/place/Masjid+E+Wahed+Unnisa/data=!4m7!3m6!1s0x3bcb99d1731272df:0x2341cb50ba76dd87!8m2!3d17.3628664!4d78.4855285!16s%2Fg%2F11fth2ns7_!19sChIJ33ISc9GZyzsRh912ulDLQSM?authuser=0&hl=en&rclk=1,"17.362866399999998,78.4855285"
Dargah -e-Shareef,Mosque,"CH26+GG9 Dargah -e-Shareef, Venkateswara Colony, Vijayapuri Colony, Uppal, Secunderabad, Hyderabad, Telangana 500039","Venkateswara Colony, Vijayapuri Colony, Uppal",CH26+GG9,"Secunderabad, Hyderabad",500039,Telangana,IN,https://www.google.com/maps/place/Dargah+-e-Shareef/data=!4m7!3m6!1s0x3bcb99838485b0bd:0x97506f6681fe9f9!8m2!3d17.4012772!4d78.5613731!16s%2Fg%2F11h84gq9x1!19sChIJvbCFhIOZyzsR-ekfaPYGdQk?authuser=0&hl=en&rclk=1,"17.4012772,78.5613731"
Masjid E Haramain,Mosque,"Masjid E Haramain, 1/3, 17-2-780/C, Madannapet Colony, Hyderabad, Telangana 500059",Madannapet Colony,"1/3, 17-2-780/C",Hyderabad,,Telangana,IN,https://www.google.com/maps/place/Masjid+E+Haramain/data=!4m7!3m6!1s0x3bcb9937e83eee7f:0x8e7cc3905ab42c!8m2!3d17.358786!4d78.5007307!16s%2Fg%2F11ssqfz8zq!19sChIJf-4-6DeZyzsRLLRakMN8jgA?authuser=0&hl=en&rclk=1,"17.358786,78.50073069999999"
Masjid Amena,Mosque,"8FJR+HFP Masjid Amena, Hafiz Baba Nagar North, Hafiz Baba Nagar, Hyderabad, Telangana 500058","Hafiz Baba Nagar North, Hafiz Baba Nagar",8FJR+HFP,Hyderabad,500058,Telangana,IN,https://www.google.com/maps/place/Masjid+Amena/data=!4m7!3m6!1s0x3bcba3b9bcd89d27:0xfe107b8eafeba55b!8m2!3d17.3314534!4d78.4912185!16s%2Fg%2F11ghrfl0qv!19sChIJJ53YvLmjyzsRW6Xrr457EP4?authuser=0&hl=en&rclk=1,"17.3314534,78.4912185"
Grave yard (Khabarastaan),Mosque,"CH26+PCG Grave yard (Khabarastaan), P & T Colony, Uppal, Secunderabad, Hyderabad, Telangana 500039","P & T Colony, Uppal",CH26+PCG,"Secunderabad, Hyderabad",500039,Telangana,IN,https://www.google.com/maps/place/Grave+yard+%28Khabarastaan%29/data=!4m7!3m6!1s0x3bcb9953fe05999f:0x3c2b2501c307a879!8m2!3d17.4018189!4d78.5610827!16s%2Fg%2F11fp85rk1l!19sChIJn5kF_lOZyzsReagHwwElKzw?authuser=0&hl=en&rclk=1,"17.4018189,78.5610827"
Grave yard old,Mosque,"Grave yard old, 10-71, NH163, Balaji Enclave, Beerappagadda, Uppal, Hyderabad, Telangana 500039","Balaji Enclave, Beerappagadda, Uppal","10-71, NH163",Hyderabad,500039,Telangana,IN,https://www.google.com/maps/place/Grave+yard+old/data=!4m7!3m6!1s0x3bcb991aa9b9a743:0xa965b569f62edf2a!8m2!3d17.4016211!4d78.5632479!16s%2Fg%2F11h92rhskm!19sChIJQ6e5qRqZyzsRKt8u9mm1Zak?authuser=0&hl=en&rclk=1,"17.4016211,78.5632479"
ASHOOR KHANA E SHAHZADE QASIM (A. S),Religious organization,"SHOP. 2 11-77, ASHOOR KHANA E SHAHZADE QASIM (A. S), opp. :ANWAR KIRANA, Bharat Nagar Colony, Beerappagadda, Uppal, Hyderabad, Telangana 500039","Bharat Nagar Colony, Beerappagadda, Uppal","SHOP. 2 11-77, opp. :ANWAR KIRANA",Hyderabad,500039,Telangana,IN,https://www.google.com/maps/place/ASHOOR+KHANA+E+SHAHZADE+QASIM+%28A.+S%29/data=!4m7!3m6!1s0x3bcb9f2e5fbbebf1:0xc4ae48bbd771a9d0!8m2!3d17.4038508!4d78.5663089!16s%2Fg%2F11h0bd0r15!19sChIJ8eu7Xy6fyzsR0Klx17tIrsQ?authuser=0&hl=en&rclk=1,"17.4038508,78.5663089"
Muslim khabarastan,Mosque,"CH28+J9W Muslim khabarastan, Hyderabad - Warangal Hwy, Beerappagadda, Uppal, Hyderabad, Telangana 500039","Beerappagadda, Uppal","CH28+J9W, Hyderabad - Warangal Hwy",Hyderabad,500039,Telangana,IN,https://www.google.com/maps/place/Muslim+khabarastan/data=!4m7!3m6!1s0x3bcb9969378350c7:0x5295bd6ce614bec3!8m2!3d17.4016124!4d78.5659646!16s%2Fg%2F11nxp2wgxb!19sChIJx1CDN2mZyzsRw74U5my9lVI?authuser=0&hl=en&rclk=1,"17.401612399999998,78.5659646"
Masjid-E-Zaheeda,Mosque,"Masjid-E-Zaheeda, E Block-18, TELANGANA STATE HOUSING BOARD LIMITED, Kurmalguda, Telangana 500005",,"E Block-18, TELANGANA STATE HOUSING BOARD LIMITED",Kurmalguda,500005,Telangana,IN,https://www.google.com/maps/place/Masjid-E-Zaheeda/data=!4m7!3m6!1s0x3bcba319ba2673a5:0xf200694fc47c675e!8m2!3d17.2711041!4d78.5049058!16s%2Fg%2F11rvb91pjp!19sChIJpXMmuhmjyzsRXmd8xE9pAPI?authuser=0&hl=en&rclk=1,"17.2711041,78.5049058"
Masjid,Mosque,"8FXH+C4J Masjid, Lal Darwaza South, Lal Darwaza, Hyderabad, Telangana 500065","Lal Darwaza South, Lal Darwaza",8FXH+C4J,Hyderabad,500065,Telangana,IN,https://www.google.com/maps/place/Masjid/data=!4m7!3m6!1s0x3bcb99ed35263ee3:0x28dc142ad7691db0!8m2!3d17.3486792!4d78.4778148!16s%2Fg%2F11tmktn3l6!19sChIJ4z4mNe2ZyzsRsB1p1yoU3Cg?authuser=0&hl=en&rclk=1,"17.3486792,78.47781479999999"
Masjid-e-hazaa,Mosque,"7FGR+CR5 Masjid-e-hazaa, Kurmalguda, Telangana 500005",,7FGR+CR5,Kurmalguda,500005,Telangana,IN,https://www.google.com/maps/place/Masjid-e-hazaa/data=!4m7!3m6!1s0x3bcba38400c9bda9:0xcb6dd0f729639e56!8m2!3d17.2760141!4d78.4920702!16s%2Fg%2F11kj7z_58j!19sChIJqb3JAISjyzsRVp5jKffQbcs?authuser=0&hl=en&rclk=1,"17.276014099999998,78.4920702"
Masjid e Mahdavia (Daira Hasteda),Mosque,"9F8W+2HR Masjid e Mahdavia (Daira Hasteda), Chavni, Dabeerpura, Hyderabad, Telangana 500023","Chavni, Dabeerpura",9F8W+2HR,Hyderabad,500023,Telangana,IN,https://www.google.com/maps/place/Masjid+e+Mahdavia+%28Daira+Hasteda%29/data=!4m7!3m6!1s0x3bcb992337c1757d:0xc829a82cd90e0020!8m2!3d17.3651211!4d78.4964058!16s%2Fg%2F11fvhcjqhk!19sChIJfXXBNyOZyzsRIAAO2SyoKcg?authuser=0&hl=en&rclk=1,"17.3651211,78.49640579999999"
Masjid,Mosque,"Masjid, 17-2-181/60/1, Al Jabri Colony, Uppari Basthi, Madannapet Colony, Hyderabad, Telangana 500023","Al Jabri Colony, Uppari Basthi, Madannapet Colony",17-2-181/60/1,Hyderabad,500023,Telangana,IN,https://www.google.com/maps/place/Masjid/data=!4m7!3m6!1s0x3bcb9957a3f2850b:0xbbf70c2ec8a4c7fd!8m2!3d17.3596455!4d78.4962635!16s%2Fg%2F11q868ds0l!19sChIJC4Xyo1eZyzsR_cekyC4M97s?authuser=0&hl=en&rclk=1,"17.3596455,78.4962635"
Gaddi annaram,,"Gaddi annaram, Hyderabad, Telangana",Gaddi annaram,,Hyderabad,,Telangana,IN,https://www.google.com/maps/place/Gaddi+annaram/data=!4m7!3m6!1s0x3bcb9926ad469673:0x442e1c1bb113b886!8m2!3d17.3904504!4d78.547154!16s%2Fm%2F02q_z18!19sChIJc5ZGrSaZyzsRhrgTsRscLkQ?authuser=0&hl=en&rclk=1,"17.3904504,78.54715399999999"
Masjid e tauheed,Mosque,"Masjid e tauheed, BLOCK-29, TELANGANA STATE HOUSING BOARD LIMITED, B, Kurmalguda, Telangana 500005",B,"BLOCK-29, TELANGANA STATE HOUSING BOARD LIMITED",Kurmalguda,500005,Telangana,IN,https://www.google.com/maps/place/Masjid+e+tauheed/data=!4m7!3m6!1s0x3bcba31ce2124a95:0x981e333143a165b7!8m2!3d17.2737992!4d78.5064115!16s%2Fg%2F11sh72lnvc!19sChIJlUoS4hyjyzsRt2WhQzEzHpg?authuser=0&hl=en&rclk=1,"17.2737992,78.5064115"
Masjid,Mosque,"Masjid, 19-104, Doctors Colony, JB Colony, Saroornagar, Hyderabad, Telangana 500035","Doctors Colony, JB Colony",19-104,"Saroornagar, Hyderabad",500035,Telangana,IN,https://www.google.com/maps/place/Masjid/data=!4m7!3m6!1s0x3bcb99bf18d191f5:0x5cdb7269ea2a9dd2!8m2!3d17.3596338!4d78.5372637!16s%2Fg%2F11p6dk9b3c!19sChIJ9ZHRGL-ZyzsR0p0q6mly21w?authuser=0&hl=en&rclk=1,"17.359633799999997,78.5372637"
Jami masjid,Museum,"9FJ7+876 Jami masjid, Muraripalli, Sitarampet, Mangalhat, Hyderabad, Telangana 500006","Muraripalli, Sitarampet, Mangalhat",9FJ7+876,Hyderabad,500006,Telangana,IN,https://www.google.com/maps/place/Jami+masjid/data=!4m7!3m6!1s0x3bcb977e5a193217:0x6d210fbbdfa7d842!8m2!3d17.3807963!4d78.46314!16s%2Fg%2F11hdsfpyn2!19sChIJFzIZWn6XyzsRQtin37sPIW0?authuser=0&hl=en&rclk=1,"17.3807963,78.46314"
