name,main_category,address,address_ward,address_street,address_city,address_postal_code,address_state,address_country_code,link,coordinates
Badi Masjid,Mosque,"Badi Masjid, Ghalla Mandi Mirzaganj, Malihabad, Uttar Pradesh 226102",,Ghalla Mandi Mirzaganj,Malihabad,226102,Uttar Pradesh,IN,https://www.google.com/maps/place/Badi+Masjid/data=!4m7!3m6!1s0x399ea971aec4f1cd:0x8360b51114bf8412!8m2!3d26.922788!4d80.7079475!16s%2Fg%2F11clfv7c51!19sChIJzfHErnGpnjkREoS_FBG1YIM?authuser=0&hl=en&rclk=1,"26.922787999999997,80.7079475"
Khanjar Wali Takia Masjid,Mosque,"435/85, Khanjar Wali Takia Masjid, 435/85, Malihabad Rd, Karim Ganj, Lucknow, Uttar Pradesh 226003",Karim Ganj,"435/85, 435/85, Malihabad Rd",Lucknow,226003,Uttar Pradesh,IN,https://www.google.com/maps/place/Khanjar+Wali+Takia+Masjid/data=!4m7!3m6!1s0x399bfe1bb945fe8b:0x3a78daeaa2542b68!8m2!3d26.8710615!4d80.8835276!16s%2Fg%2F11dxkzbsrz!19sChIJi_5FuRv-mzkRaCtUouraeDo?authuser=0&hl=en&rclk=1,"26.8710615,80.8835276"
Masjid dularmau,Mosque,"VMXX+8GR Masjid dularmau, Dular Mau, Uttar Pradesh 226102",,VMXX+8GR,Dular Mau,226102,Uttar Pradesh,IN,https://www.google.com/maps/place/Masjid+dularmau/data=!4m7!3m6!1s0x399ea947feb739f9:0x933d275a8280cb3e!8m2!3d26.8983651!4d80.6987714!16s%2Fg%2F11fj5gp18j!19sChIJ-Tm3_kepnjkRPsuAglonPZM?authuser=0&hl=en&rclk=1,"26.8983651,80.6987714"
Badi Masjid (jm` msjd),Mosque,"WQMC+QXV Badi Masjid (jm` msjd), Kasmandikala, Uttar Pradesh 226102",,WQMC+QXV,Kasmandikala,226102,Uttar Pradesh,IN,https://www.google.com/maps/place/Badi+Masjid+%28%D8%AC%D8%A7%D9%85%D8%B9+%D9%85%D8%B3%D8%AC%D8%AF%29%E2%80%AD/data=!4m7!3m6!1s0x399eab28089a8149:0x59650d7149366d24!8m2!3d26.9344983!4d80.7724242!16s%2Fg%2F11f64hjl08!19sChIJSYGaCCirnjkRJG02SXENZVk?authuser=0&hl=en&rclk=1,"26.934498299999998,80.7724242"
MASJID E MEHFOOZ,Mosque,"WPVP+8CP MASJID E MEHFOOZ, Hamira Pur, Uttar Pradesh 226102",,WPVP+8CP,Hamira Pur,226102,Uttar Pradesh,IN,https://www.google.com/maps/place/MASJID+E+MEHFOOZ/data=!4m7!3m6!1s0x399eabb9292a8bff:0x917a6ad45acac5!8m2!3d26.9433315!4d80.7360886!16s%2Fg%2F11gyln2hjt!19sChIJ_4sqKbmrnjkRxcpa1Gp6kQA?authuser=0&hl=en&rclk=1,"26.9433315,80.7360886"
Jama Masjid,Mosque,"Jama Masjid, Chaudhrana, Malihabad, Uttar Pradesh 226102",Chaudhrana,,Malihabad,226102,Uttar Pradesh,IN,https://www.google.com/maps/place/Jama+Masjid/data=!4m7!3m6!1s0x399ea977a541d987:0x21e6080c5c9995fd!8m2!3d26.9162234!4d80.7083278!16s%2Fg%2F11df7jvk4v!19sChIJh9lBpXepnjkR_ZWZXAwI5iE?authuser=0&hl=en&rclk=1,"26.9162234,80.70832779999999"
Mahboob Masjid,Mosque,"XP56+W6M Mahboob Masjid, Tiraha - Sandi Road, Malihabad, Kasmandi Khurd, Uttar Pradesh 226102",,"XP56+W6M, Tiraha - Sandi Road, Malihabad",Kasmandi Khurd,226102,Uttar Pradesh,IN,https://www.google.com/maps/place/Mahboob+Masjid/data=!4m7!3m6!1s0x399ea952a655562d:0x8395afd92ddd7bd6!8m2!3d26.9598457!4d80.7105586!16s%2Fg%2F11c2j_ps2z!19sChIJLVZVplKpnjkR1nvdLdmvlYM?authuser=0&hl=en&rclk=1,"26.9598457,80.7105586"
Qadyani Masjid,Mosque,"WP5H+2QG Qadyani Masjid, Bari, Barhi Garhi, Uttar Pradesh 226102",,WP5H+2QG,"Bari, Barhi Garhi",,Uttar Pradesh,IN,https://www.google.com/maps/place/Qadyani+Masjid/data=!4m7!3m6!1s0x399eab2a89fd533d:0x1eb531df18b267b2!8m2!3d26.9075743!4d80.7294568!16s%2Fg%2F11fhtl618z!19sChIJPVP9iSqrnjkRsmeyGN8xtR4?authuser=0&hl=en&rclk=1,"26.9075743,80.7294568"
masjid Huzaifa,Mosque,"WP33+7MM masjid Huzaifa, Kewalhar, Malihabad Rd, Bakhtiyar Nagar, Uttar Pradesh 226102",,"WP33+7MM, Kewalhar, Malihabad Rd",Bakhtiyar Nagar,226102,Uttar Pradesh,IN,https://www.google.com/maps/place/masjid+Huzaifa/data=!4m7!3m6!1s0x399ea9691414c663:0xbfedf2b378b86e49!8m2!3d26.9032204!4d80.704167!16s%2Fg%2F11g_zmy_md!19sChIJY8YUFGmpnjkRSW64eLPy7b8?authuser=0&hl=en&rclk=1,"26.9032204,80.704167"
Sahilmau Masjid,Mosque,"WQ32+MM7 Sahilmau Masjid, Sahilamau, Uttar Pradesh 226102",,WQ32+MM7,Sahilamau,226102,Uttar Pradesh,IN,https://www.google.com/maps/place/Sahilmau+Masjid/data=!4m7!3m6!1s0x399eabbd2b3bebcd:0xc2c37b793c53ba36!8m2!3d26.9041648!4d80.7516639!16s%2Fg%2F11ghs47p20!19sChIJzes7K72rnjkRNrpTPHl7w8I?authuser=0&hl=en&rclk=1,"26.9041648,80.7516639"
Jama mosque,Mosque,"WPWP+5R6 Jama mosque, Hamira Pur, Uttar Pradesh 226102",,WPWP+5R6,Hamira Pur,226102,Uttar Pradesh,IN,https://www.google.com/maps/place/Jama+mosque/data=!4m7!3m6!1s0x399eab74cd78a333:0x256ddcd8bfc6247!8m2!3d26.9454147!4d80.7370304!16s%2Fg%2F11qh897d67!19sChIJM6N4zXSrnjkRR2L8i83dVgI?authuser=0&hl=en&rclk=1,"26.945414699999997,80.7370304"
Masjid Nawab Sahab,Mosque,"WPC6+Q7P Masjid Nawab Sahab, Unnamed Road, Malihabad, Uttar Pradesh 226102",,"WPC6+Q7P, Unnamed Road",Malihabad,226102,Uttar Pradesh,IN,https://www.google.com/maps/place/Masjid+Nawab+Sahab/data=!4m7!3m6!1s0x399ea97c486dc779:0x19d18b41ffe7cbaf!8m2!3d26.9219659!4d80.7106904!16s%2Fg%2F11h7rz05bw!19sChIJecdtSHypnjkRr8vn_0GL0Rk?authuser=0&hl=en&rclk=1,"26.9219659,80.71069039999999"
Masjid lalQabar,Mosque,"WP64+F9Q Masjid lalQabar, Malihabad, Uttar Pradesh 226102",,WP64+F9Q,Malihabad,226102,Uttar Pradesh,IN,https://www.google.com/maps/place/Masjid+lalQabar/data=!4m7!3m6!1s0x399ea962b24c41c5:0x85cce818fce96196!8m2!3d26.9112092!4d80.7059825!16s%2Fg%2F11h3cd358c!19sChIJxUFMsmKpnjkRlmHp_BjozIU?authuser=0&hl=en&rclk=1,"26.9112092,80.70598249999999"
Masjid jugyana,Mosque,"WP56+V3P Masjid jugyana, Malihabad, Uttar Pradesh 226102",,WP56+V3P,Malihabad,226102,Uttar Pradesh,IN,https://www.google.com/maps/place/Masjid+jugyana/data=!4m7!3m6!1s0x399ea949e9134e35:0x5a64e2d4a0dd55f1!8m2!3d26.9097202!4d80.710207!16s%2Fg%2F11g_x7_83l!19sChIJNU4T6UmpnjkR8VXdoNTiZFo?authuser=0&hl=en&rclk=1,"26.9097202,80.710207"
masjid bazariya,Mosque,"WP64+CWP masjid bazariya, bazariya, Chaudhrana Rd, Malihabad, Uttar Pradesh 226102",,"WP64+CWP, bazariya, Chaudhrana Rd",Malihabad,226102,Uttar Pradesh,IN,https://www.google.com/maps/place/masjid+bazariya/data=!4m7!3m6!1s0x399ea92e71d2522d:0xa63ae97c758d605e!8m2!3d26.9110955!4d80.7073404!16s%2Fg%2F11h2ckmp8d!19sChIJLVLScS6pnjkRXmCNdXzpOqY?authuser=0&hl=en&rclk=1,"26.9110955,80.70734039999999"
Madina Masjid,Mosque,"WP84+RXF Madina Masjid, Chaudhrana, Dilawar Nagar, Malihabad, Uttar Pradesh 226102","Chaudhrana, Dilawar Nagar",WP84+RXF,Malihabad,226102,Uttar Pradesh,IN,https://www.google.com/maps/place/Madina+Masjid/data=!4m7!3m6!1s0x399ea976fe5c6c6f:0x3769fe8e70d36889!8m2!3d26.9170666!4d80.7074224!16s%2Fg%2F11dfkp8n6q!19sChIJb2xc_napnjkRiWjTcI7-aTc?authuser=0&hl=en&rclk=1,"26.9170666,80.7074224"
Masjid garhi,Mosque,"WP73+P33 Masjid garhi, Malihabad, Uttar Pradesh 226102",,WP73+P33,Malihabad,226102,Uttar Pradesh,IN,https://www.google.com/maps/place/Masjid+garhi/data=!4m7!3m6!1s0x399ea9de7e6825f5:0x8d33d3da8c1ebc30!8m2!3d26.9142563!4d80.702674!16s%2Fg%2F11j7j081mf!19sChIJ9SVoft6pnjkRMLwejNrTM40?authuser=0&hl=en&rclk=1,"26.914256299999998,80.702674"
Ek minar masjid,Mosque,"WP75+H2J Ek minar masjid, Malihabad, Uttar Pradesh 226102",,WP75+H2J,Malihabad,226102,Uttar Pradesh,IN,https://www.google.com/maps/place/Ek+minar+masjid/data=!4m7!3m6!1s0x399ea9d7125015bd:0xe260b4d10268134e!8m2!3d26.9139672!4d80.7075167!16s%2Fg%2F11frrv6dn_!19sChIJvRVQEtepnjkRThNoAtG0YOI?authuser=0&hl=en&rclk=1,"26.9139672,80.7075167"
masjid khabab,Mosque,"masjid khabab, KEWALHAR, Malihabad, Bakhtiyar Nagar, Uttar Pradesh 226102",,KEWALHAR,"Malihabad, Bakhtiyar Nagar",226102,Uttar Pradesh,IN,https://www.google.com/maps/place/masjid+khabab/data=!4m7!3m6!1s0x399ea90fb4769513:0xd9c0a63d303e42f9!8m2!3d26.9008168!4d80.702844!16s%2Fg%2F11h22jf47j!19sChIJE5V2tA-pnjkR-UI-MD2mwNk?authuser=0&hl=en&rclk=1,"26.900816799999998,80.702844"
Eid gha-e-aam,Mosque,"WM7W+JJR Eid gha-e-aam, Unnamed Road, Uttar Pradesh 226102",,"WM7W+JJR, Unnamed Road",Bhausa,226102,Uttar Pradesh,IN,https://www.google.com/maps/place/Eid+gha-e-aam/data=!4m7!3m6!1s0x399ea952f77be725:0x65214b8c32988b25!8m2!3d26.9141089!4d80.696521!16s%2Fg%2F11h7xxhpdf!19sChIJJed791KpnjkRJYuYMoxLIWU?authuser=0&hl=en&rclk=1,"26.9141089,80.69652099999999"
Markaz Masjid Malihabad,Mosque,"WPF6+8M8 Markaz Masjid Malihabad, Malihabad, Uttar Pradesh 226102",,WPF6+8M8,Malihabad,226102,Uttar Pradesh,IN,https://www.google.com/maps/place/Markaz+Masjid+Malihabad/data=!4m7!3m6!1s0x399ea97a8b56fb11:0x135f9c82901e5820!8m2!3d26.9232761!4d80.7117087!16s%2Fg%2F11gblfnqvr!19sChIJEftWi3qpnjkRIFgekIKcXxM?authuser=0&hl=en&rclk=1,"26.9232761,80.7117087"
Nav Shaheed Masjid,Mosque,"WP84+3RM Nav Shaheed Masjid, Chaudhrana Rd, near Pani ki Tanki, Malihabad, Uttar Pradesh 226102",,"WP84+3RM, Chaudhrana Rd, near Pani ki Tanki",Malihabad,226102,Uttar Pradesh,IN,https://www.google.com/maps/place/Nav+Shaheed+Masjid/data=!4m7!3m6!1s0x399ea9f778b4d40b:0x19dcb5161b7f3aba!8m2!3d26.9152204!4d80.7070524!16s%2Fg%2F11tbw2p3hp!19sChIJC9S0ePepnjkRujp_Gxa13Bk?authuser=0&hl=en&rclk=1,"26.9152204,80.7070524"
Masjid saudagar,Mosque,"WP72+Q3X Masjid saudagar, Unnamed Road, Malihabad, Uttar Pradesh 226102",,"WP72+Q3X, Unnamed Road",Malihabad,226102,Uttar Pradesh,IN,https://www.google.com/maps/place/Masjid+saudagar/data=!4m7!3m6!1s0x399ea9cd84d6999b:0xa56f880a7726e57e!8m2!3d26.9144943!4d80.7002241!16s%2Fg%2F11fnz1chjg!19sChIJm5nWhM2pnjkRfuUmdwqIb6U?authuser=0&hl=en&rclk=1,"26.914494299999998,80.7002241"
Masjid Kumedaan sahab,Mosque,"WPC6+PM7 Masjid Kumedaan sahab, Unnamed Road, Malihabad, Uttar Pradesh 226102",,"WPC6+PM7, Unnamed Road",Malihabad,226102,Uttar Pradesh,IN,https://www.google.com/maps/place/Masjid+Kumedaan+sahab/data=!4m7!3m6!1s0x399ea970e949803f:0x228dea6066d1139!8m2!3d26.9217982!4d80.711674!16s%2Fg%2F11j00jc3j5!19sChIJP4BJ6XCpnjkRORFtBqbeKAI?authuser=0&hl=en&rclk=1,"26.921798199999998,80.711674"
new masjid,Mosque,"new masjid, KEWALHAR, Malihabad, Uttar Pradesh 226102",,KEWALHAR,Malihabad,226102,Uttar Pradesh,IN,https://www.google.com/maps/place/new+masjid/data=!4m7!3m6!1s0x399ea914b58a0dd9:0x22bae0ca0c514053!8m2!3d26.902789!4d80.7020853!16s%2Fg%2F11fhzfs_tf!19sChIJ2Q2KtRSpnjkRU0BRDMrguiI?authuser=0&hl=en&rclk=1,"26.902789,80.7020853"
Masjid mujasa,Mosque,"WPCF+8XF Masjid mujasa, Mujasa, Malihabad, Bhujasa, Uttar Pradesh 226102",Mujasa,WPCF+8XF,"Malihabad, Bhujasa",,Uttar Pradesh,IN,https://www.google.com/maps/place/Masjid+mujasa/data=!4m7!3m6!1s0x399eab785d21633d:0x5f53cfc3d6b44f67!8m2!3d26.920806!4d80.7249112!16s%2Fg%2F11s5p743ld!19sChIJPWMhXXirnjkRZ0-01sPPU18?authuser=0&hl=en&rclk=1,"26.920806,80.7249112"
Masjid Ameer Hamza,Mosque,"Masjid Ameer Hamza, WP5M+M7G, Mahmoodnagar,Malihabad, Uttar Pradesh 226102",,"WP5M+M7G, Mahmoodnagar,Malihabad",Barhi Garhi,226102,Uttar Pradesh,IN,https://www.google.com/maps/place/Masjid+Ameer+Hamza/data=!4m7!3m6!1s0x399eaba08d6974af:0x690cea6ed5a18f8a!8m2!3d26.9091875!4d80.7332031!16s%2Fg%2F11ptnk83gy!19sChIJr3RpjaCrnjkRio-h1W7qDGk?authuser=0&hl=en&rclk=1,"26.909187499999998,80.7332031"
Masjid-e-ayesha,Mosque,"WQ33+X83 Masjid-e-ayesha, Sahilamau, Uttar Pradesh 226102",,WQ33+X83,Sahilamau,226102,Uttar Pradesh,IN,https://www.google.com/maps/place/Masjid-e-ayesha/data=!4m7!3m6!1s0x399eab5839f06e69:0x41c927106d8f2431!8m2!3d26.9048828!4d80.753303!16s%2Fg%2F11h53yffwx!19sChIJaW7wOVirnjkRMSSPbRAnyUE?authuser=0&hl=en&rclk=1,"26.9048828,80.753303"
Masjid Pachchu Qalighar,Mosque,"WPC5+9VJ Masjid Pachchu Qalighar, Malihabad, Uttar Pradesh 226102",,WPC5+9VJ,Malihabad,226102,Uttar Pradesh,IN,https://www.google.com/maps/place/Masjid+Pachchu+Qalighar/data=!4m7!3m6!1s0x399ea942ef92ebc7:0xfe1999ff4b3c5461!8m2!3d26.9210389!4d80.7097352!16s%2Fg%2F11rq8n8lsl!19sChIJx-uS70KpnjkRYVQ8S_-ZGf4?authuser=0&hl=en&rclk=1,"26.9210389,80.7097352"
masjid mithu shah,Mosque,"WP65+VQH masjid mithu shah, Malihabad, Uttar Pradesh 226102",,WP65+VQH,Malihabad,226102,Uttar Pradesh,IN,https://www.google.com/maps/place/masjid+mithu+shah/data=!4m7!3m6!1s0x399ea9d20ca059db:0x288d2e156044d804!8m2!3d26.912184!4d80.7094841!16s%2Fg%2F11fktz6hkj!19sChIJ21mgDNKpnjkRBNhEYBUujSg?authuser=0&hl=en&rclk=1,"26.912184,80.7094841"
Khinni Wali Masjid,Mosque,"WP75+PPR Khinni Wali Masjid, Chaudhrana, Malihabad, Uttar Pradesh 226102",Chaudhrana,WP75+PPR,Malihabad,226102,Uttar Pradesh,IN,https://www.google.com/maps/place/Khinni+Wali+Masjid/data=!4m7!3m6!1s0x399ea92e9929c84f:0xf09052e603f93f88!8m2!3d26.9143502!4d80.7092579!16s%2Fg%2F11tbw2ktlj!19sChIJT8gpmS6pnjkRiD_5A-ZSkPA?authuser=0&hl=en&rclk=1,"26.914350199999998,80.7092579"
Masjid Zainab Bagh,Mosque,"Masjid Zainab Bagh, jainab bagh market, nai sadakRoad, Malihabad, Uttar Pradesh 226102",,"jainab bagh market, nai sadakRoad",Malihabad,226102,Uttar Pradesh,IN,https://www.google.com/maps/place/Masjid+Zainab+Bagh/data=!4m7!3m6!1s0x399ea9ba4755fc3b:0x2230d0fce3b4683!8m2!3d26.9260025!4d80.7113704!16s%2Fg%2F11nfvgxb6p!19sChIJO_xVR7qpnjkRg0Y7zg8NIwI?authuser=0&hl=en&rclk=1,"26.9260025,80.71137039999999"
Mohammadi masjid,Housing society,"WP65+MV3 Mohammadi masjid, Malihabad, Uttar Pradesh 226102",,WP65+MV3,Malihabad,226102,Uttar Pradesh,IN,https://www.google.com/maps/place/Mohammadi+masjid/data=!4m7!3m6!1s0x399ea9405bf2315f:0x5539e751cbeb0330!8m2!3d26.9120838!4d80.7105863!16s%2Fg%2F11l1p309nb!19sChIJXzHyW0CpnjkRMAPry1HnOVU?authuser=0&hl=en&rclk=1,"26.912083799999998,80.7105863"
Eidgah Masjid,Mosque,"WM7W+QC3 Eidgah Masjid, Unnamed Road, Malihabad, Garhi Sajar Khan, Uttar Pradesh 226102",,"WM7W+QC3, Unnamed Road","Malihabad, Garhi Sajar Khan",226102,Uttar Pradesh,IN,https://www.google.com/maps/place/Eidgah+Masjid/data=!4m7!3m6!1s0x399ea94ef675a825:0x92b98eae654ee0ac!8m2!3d26.9143917!4d80.6960613!16s%2Fg%2F11j03w1m__!19sChIJJah19k6pnjkRrOBOZa6OuZI?authuser=0&hl=en&rclk=1,"26.9143917,80.6960613"
Masjid,Mosque,"VPW6+J4G Masjid, Malihabad, Bakhtiyar Nagar, Uttar Pradesh 226102",,VPW6+J4G,"Malihabad, Bakhtiyar Nagar",226102,Uttar Pradesh,IN,https://www.google.com/maps/place/Masjid/data=!4m7!3m6!1s0x399ea93df0035947:0x1f3906e575b45a1a!8m2!3d26.8965578!4d80.71033!16s%2Fg%2F11tgd4n9n3!19sChIJR1kD8D2pnjkRGlq0deUGOR8?authuser=0&hl=en&rclk=1,"26.8965578,80.71033"
Usmaniya (masjid),Religious destination,"WQJF+5V3 Usmaniya (masjid), Kasmandi kalan, Malihabad, Uttar Pradesh 226002",Kasmandi kalan,WQJF+5V3,Malihabad,226002,Uttar Pradesh,IN,https://www.google.com/maps/place/Usmaniya+%28masjid%29/data=!4m7!3m6!1s0x399eab6cc8a4c899:0x4edbb5b61dd0e22e!8m2!3d26.9303983!4d80.7746828!16s%2Fg%2F11t5b1rmb4!19sChIJmcikyGyrnjkRLuLQHba1204?authuser=0&hl=en&rclk=1,"26.9303983,80.7746828"
Chaudhrana Qabristan,Religious destination,"WP95+668 Chaudhrana Qabristan, Khwaja Wali Masjid Rd, Malihabad, Uttar Pradesh 226102",,"WP95+668, Khwaja Wali Masjid Rd",Malihabad,226102,Uttar Pradesh,IN,https://www.google.com/maps/place/Chaudhrana+Qabristan/data=!4m7!3m6!1s0x399ea96b46aa0373:0x3853ff887deb974!8m2!3d26.9180279!4d80.7080783!16s%2Fg%2F11tbw27sn5!19sChIJcwOqRmupnjkRdLneh_g_hQM?authuser=0&hl=en&rclk=1,"26.9180279,80.7080783"
MASJID-E-AQSA,Mosque,"XH2R+JX5 MASJID-E-AQSA, daulatpur, Malihabad",,"XH2R+JX5, daulatpur","Malihabad, Daulatpur",,Uttar Pradesh,IN,https://www.google.com/maps/place/MASJID-E-AQSA/data=!4m7!3m6!1s0x399ea70594d31875:0x3e29bc6b2994579b!8m2!3d26.9515031!4d80.5924718!16s%2Fg%2F11h91c8k5g!19sChIJdRjTlAWnnjkRm1eUKWu8KT4?authuser=0&hl=en&rclk=1,"26.9515031,80.5924718"
Masjid e salauddin,Mosque,"WPM3+8FM Masjid e salauddin, Tondan Marg, opp. dank banglow, sandila, Sarava, Uttar Pradesh 226102",,"WPM3+8FM, Tondan Marg, opp. dank banglow","sandila, Sarava",,Uttar Pradesh,IN,https://www.google.com/maps/place/Masjid+e+salauddin/data=!4m7!3m6!1s0x399ea95237694ab3:0x981d41113d64fd78!8m2!3d26.9333376!4d80.7036597!16s%2Fg%2F11ryhn2wgx!19sChIJs0ppN1KpnjkReP1kPRFBHZg?authuser=0&hl=en&rclk=1,"26.933337599999998,80.7036597"
Raja mobile repayaring center ek minaara masjid,Mobile caterer,"Raja mobile repayaring center ek minaara masjid, rod 9044113382, Ek minaara masjid, Mohan - Malihabad Rd",Dilawar Nagar,"rod 9044113382, Ek minaara masjid, Mohan - Malihabad Rd",Malihabad,,Uttar Pradesh,IN,https://www.google.com/maps/place/Raja+mobile+repayaring+center+ek+minaara+masjid/data=!4m7!3m6!1s0x399ea9d0abe8eb25:0xf1f9895e6467b51b!8m2!3d26.916818!4d80.7075809!16s%2Fg%2F11h_z7my59!19sChIJJevoq9CpnjkRG7VnZF6J-fE?authuser=0&hl=en&rclk=1,"26.916818,80.7075809"
