name,main_category,address,address_ward,address_street,address_city,address_postal_code,address_state,address_country_code,link,coordinates
Illippuram Badar Juma Masjid,Mosque,"X82H+7WV Illippuram Badar Juma Masjid, Irinave - Pappinisseri Bypass Rd, Irinave, Pappinisseri, Kerala 670301",Irinave,"X82H+7WV, Irinave - Pappinisseri Bypass Rd",Pappinisseri,670301,Kerala,IN,https://www.google.com/maps/place/Illippuram+Badar+Juma+Masjid/data=!4m7!3m6!1s0x3ba41606033c230b:0xea9087aece4c40d0!8m2!3d11.9507253!4d75.3298053!16s%2Fg%2F11bx54qxmk!19sChIJCyM8AwYWpDsR0EBMzq6HkOo?authuser=0&hl=en&rclk=1,"11.9507253,75.32980529999999"
PAPPINISSERY WEST JUMA_MASJID,Mosque,"PAPPINISSERY WEST JUMA_MASJID, West bus stop, Ellipuram, Pappinisseri, Kerala 670301",Ellipuram,West bus stop,Pappinisseri,,Kerala,IN,https://www.google.com/maps/place/PAPPINISSERY+WEST+JUMA_MASJID/data=!4m7!3m6!1s0x3ba416035ffbce63:0xfdb1d382278a4b96!8m2!3d11.9468961!4d75.3346752!16s%2Fg%2F11bx2gghbt!19sChIJY877XwMWpDsRlkuKJ4LTsf0?authuser=0&hl=en&rclk=1,"11.9468961,75.33467519999999"
Masjid ul Imaan,Mosque,"W9R2+H8P Masjid ul Imaan, Chungam, Pappinisseri, Kerala 670561",Chungam,W9R2+H8P,Pappinisseri,670561,Kerala,IN,https://www.google.com/maps/place/Masjid+ul+Imaan/data=!4m7!3m6!1s0x3ba43df197e5465d:0xf5c2cb3b45213275!8m2!3d11.941474!4d75.3508288!16s%2Fg%2F1thp_4bt!19sChIJXUbll_E9pDsRdTIhRTvLwvU?authuser=0&hl=en&rclk=1,"11.941474,75.3508288"
K.K palli,Mosque,"W9Q2+WHX K.K palli, Chungam, Pappinisseri, Kerala 670561",Chungam,W9Q2+WHX,Pappinisseri,670561,Kerala,IN,https://www.google.com/maps/place/K.K+palli/data=!4m7!3m6!1s0x3ba43df21f46c591:0x810be69b24449e8f!8m2!3d11.9398536!4d75.3514963!16s%2Fg%2F12606m7kk!19sChIJkcVGH_I9pDsRj55EJJvmC4E?authuser=0&hl=en&rclk=1,"11.9398536,75.3514963"
Pazhanchira Badar Masjid,Mosque,"W8XW+QVC Pazhanchira Badar Masjid, Pazhanchira Road, Velapuram Palam, Pappinisseri, Kerala 670561",Velapuram Palam,"W8XW+QVC, Pazhanchira Road",Pappinisseri,670561,Kerala,IN,https://www.google.com/maps/place/Pazhanchira+Badar+Masjid/data=!4m7!3m6!1s0x3ba43df9646c0ce1:0x1c93f652bdad147!8m2!3d11.9494461!4d75.3471408!16s%2Fg%2F1261bssl0!19sChIJ4QxsZPk9pDsRR9HaK2U_yQE?authuser=0&hl=en&rclk=1,"11.9494461,75.34714079999999"
Haddhad Juma Masjid,Mosque,"W9V3+C9Q Haddhad Juma Masjid, NH17, Chungam, Pappinisseri, Kerala 670561",Chungam,"W9V3+C9Q, NH17",Pappinisseri,670561,Kerala,IN,https://www.google.com/maps/place/Haddhad+Juma+Masjid/data=!4m7!3m6!1s0x3ba43defd0467f0f:0x176eefa974fd6583!8m2!3d11.9435969!4d75.3534932!16s%2Fg%2F11bvvznlgt!19sChIJD39G0O89pDsRg2X9dKnvbhc?authuser=0&hl=en&rclk=1,"11.9435969,75.3534932"
Rifaiyaa Masjid,Mosque,"Rifaiyaa Masjid, Pappinisseri, Kerala 670301",,,Pappinisseri,,Kerala,IN,https://www.google.com/maps/place/Rifaiyaa+Masjid/data=!4m7!3m6!1s0x3ba43df7f135cf7b:0x872aa85c0a801f95!8m2!3d11.9449369!4d75.3423182!16s%2Fg%2F1w663vhx!19sChIJe8818fc9pDsRlR-AClyoKoc?authuser=0&hl=en&rclk=1,"11.9449369,75.3423182"
Arathil Juma Masjid,Mosque,"W8PW+W9X Arathil Juma Masjid, Pappinisseri, Kerala 670301",,W8PW+W9X,Pappinisseri,670301,Kerala,IN,https://www.google.com/maps/place/Arathil+Juma+Masjid/data=!4m7!3m6!1s0x3ba43df463e47df3:0x44b9a7602588f02e!8m2!3d11.9373616!4d75.3459794!16s%2Fg%2F11ck3_1xmn!19sChIJ833kY_Q9pDsRLvCIJWCnuUQ?authuser=0&hl=en&rclk=1,"11.9373616,75.34597939999999"
Rifayi Masjid,Mosque,"W8VQ+567 Rifayi Masjid, Ellipuram, Pappinisseri, Kerala 670301",Ellipuram,W8VQ+567,Pappinisseri,670301,Kerala,IN,https://www.google.com/maps/place/Rifayi+Masjid/data=!4m7!3m6!1s0x3ba4161ce33521e7:0x3519463458b12f2!8m2!3d11.942917!4d75.3380625!16s%2Fg%2F11b6hrywwb!19sChIJ5yE14xwWpDsR8hKLRWOUUQM?authuser=0&hl=en&rclk=1,"11.942917,75.33806249999999"
Pappinisseri Masjid,Mosque,"W8RV+8W7 Pappinisseri Masjid, Pazhayangadi Rd, Pappinisseri, Kerala 670301",,"W8RV+8W7, Pazhayangadi Rd",Pappinisseri,670301,Kerala,IN,https://www.google.com/maps/place/Pappinisseri+Masjid/data=!4m7!3m6!1s0x3ba43df6a62686c1:0xe9b3ea9c82df89f1!8m2!3d11.9407783!4d75.3448024!16s%2Fg%2F124ygrgnf!19sChIJwYYmpvY9pDsR8Ynfgpzqs-k?authuser=0&hl=en&rclk=1,"11.9407783,75.34480239999999"
Noor Masjid Pappinisseri,Mosque,"W8RV+CGG Noor Masjid Pappinisseri, Pappinisseri, Kerala 670301",,W8RV+CGG,Pappinisseri,,Kerala,IN,https://www.google.com/maps/place/Noor+Masjid+Pappinisseri/data=!4m7!3m6!1s0x3ba43df657954a29:0xd05ceaca81dc2d53!8m2!3d11.9410705!4d75.3438274!16s%2Fg%2F11gfg5d2_y!19sChIJKUqVV_Y9pDsRUy3cgcrqXNA?authuser=0&hl=en&rclk=1,"11.941070499999999,75.3438274"
Haiderose Juma masjid,Mosque,"W8QX+X48 Haiderose Juma masjid, Chungam, Pappinisseri, Kerala 670561",Chungam,W8QX+X48,Pappinisseri,670561,Kerala,IN,https://www.google.com/maps/place/Haiderose+Juma+masjid/data=!4m7!3m6!1s0x3ba43df3e2af605b:0x66f8e09559ad9841!8m2!3d11.9399166!4d75.3478217!16s%2Fg%2F126496msg!19sChIJW2Cv4vM9pDsRQZitWZXg-GY?authuser=0&hl=en&rclk=1,"11.9399166,75.3478217"
Bilal Juma Masjid,Mosque,"W8PX+XM8 Bilal Juma Masjid, Chungam, Pappinisseri, Kerala 670561",Chungam,W8PX+XM8,Pappinisseri,670561,Kerala,IN,https://www.google.com/maps/place/Bilal+Juma+Masjid/data=!4m7!3m6!1s0x3ba43df3a7dbdbf1:0x8f66bc872d938cd5!8m2!3d11.9374162!4d75.3491929!16s%2Fg%2F11c0pj5qbj!19sChIJ8dvbp_M9pDsR1YyTLYe8Zo8?authuser=0&hl=en&rclk=1,"11.9374162,75.34919289999999"
Hilar masjid,Mosque,"Hilar masjid, Bus Stop, Khilar Manna, Kovvappuram - Irinavu Bypass Rd, Pappinisseri, Kerala 670301",,"Bus Stop, Khilar Manna, Kovvappuram - Irinavu Bypass Rd",Pappinisseri,670301,Kerala,IN,https://www.google.com/maps/place/Hilar+masjid/data=!4m7!3m6!1s0x3ba41785849bdc9d:0x26ddf54e24f15993!8m2!3d11.9474308!4d75.3318642!16s%2Fg%2F11kyyrlbty!19sChIJndybhIUXpDsRk1nxJE713SY?authuser=0&hl=en&rclk=1,"11.9474308,75.3318642"
Masjid,Mosque,"W8VX+8QG Masjid, Chungam - Lijima, Road, Pappinisseri, Kerala",Chungam,"W8VX+8QG, Chungam - Lijima, Road",Pappinisseri,,Kerala,IN,https://www.google.com/maps/place/Masjid/data=!4m7!3m6!1s0x3ba43dc389195649:0x541882f13e331d71!8m2!3d11.9433049!4d75.3494501!16s%2Fg%2F11s20xr0_m!19sChIJSVYZicM9pDsRcR0zPvGCGFQ?authuser=0&hl=en&rclk=1,"11.9433049,75.3494501"
Masjid,Mosque,"W9V3+C96 Masjid, Chungam, Pappinisseri, Kerala 670561",Chungam,W9V3+C96,Pappinisseri,670561,Kerala,IN,https://www.google.com/maps/place/Masjid/data=!4m7!3m6!1s0x3ba43dba85ba308d:0x5ed0ba520b254945!8m2!3d11.9435424!4d75.3534026!16s%2Fg%2F11vbr5fwln!19sChIJjTC6hbo9pDsRRUklC1K60F4?authuser=0&hl=en&rclk=1,"11.9435424,75.3534026"
Masjid Entrance,Mosque,"W8PX+XP3 Masjid Entrance, Pilathara-Pappinisseri Rd, Chungam, Pappinisseri, Kerala 670561",Chungam,"W8PX+XP3, Pilathara-Pappinisseri Rd",Pappinisseri,670561,Kerala,IN,https://www.google.com/maps/place/Masjid+Entrance/data=!4m7!3m6!1s0x3ba43dc43658bad5:0xe46656fae068e77!8m2!3d11.9373098!4d75.3492861!16s%2Fg%2F11vf42k97_!19sChIJ1bpYNsQ9pDsRd44Grm9lRg4?authuser=0&hl=en&rclk=1,"11.9373098,75.3492861"
Muhyadheen Juma masjid,Mosque,"W8WP+W3H Muhyadheen Juma masjid, Ellipuram, Pappinisseri, Kerala 670301",Ellipuram,W8WP+W3H,Pappinisseri,670301,Kerala,IN,https://www.google.com/maps/place/Muhyadheen+Juma+masjid/data=!4m7!3m6!1s0x3ba4170998b12ac5:0xf2310a63159767b!8m2!3d11.9473202!4d75.3352245!16s%2Fg%2F11vj3gzv7t!19sChIJxSqxmAkXpDsRe3ZZMaYQIw8?authuser=0&hl=en&rclk=1,"11.9473202,75.3352245"
K K PALLI,Mosque,"W9P2+394 K K PALLI, Pappinisseri, Kerala 670561",,W9P2+394,Pappinisseri,670561,Kerala,IN,https://www.google.com/maps/place/K+K+PALLI/data=!4m7!3m6!1s0x3ba43d393e9b3297:0x79c70b511c0d020f!8m2!3d11.9351392!4d75.3509422!16s%2Fg%2F11qrw009sc!19sChIJlzKbPjk9pDsRDwINHFELx3k?authuser=0&hl=en&rclk=1,"11.9351392,75.35094219999999"
