name,main_category,address,address_ward,address_street,address_city,address_postal_code,address_state,address_country_code,link,coordinates
MEHDAVIA KHURSHEED MASJID,Mosque,"MEHDAVIA KHURSHEED MASJID, MEHDAVIA KHURSHID MASJID ROAD, Lashkar Mohalla, Mysuru, Karnataka 570001","Lashkar Mohalla, Mandi Mohalla",MEHDAVIA KHURSHID MASJID ROAD,Mysuru,570001,Karnataka,IN,https://www.google.com/maps/place/MEHDAVIA+KHURSHEED+MASJID/data=!4m7!3m6!1s0x3baf706ee4010c59:0x3b32f34f73a4a043!8m2!3d12.32181!4d76.6568029!16s%2Fg%2F11b66hy05p!19sChIJWQwB5G5wrzsRQ6Ckc0_zMjs?authuser=0&hl=en&rclk=1,"12.32181,76.6568029"
Masjid-E-Azam,Mosque,"Masjid-E-Azam, Ashoka Rd, Menna Bazzar, Mandi Mohalla, Mysuru, Karnataka 570001","Menna Bazzar, Mandi Mohalla",Ashoka Rd,Mysuru,570001,Karnataka,IN,https://www.google.com/maps/place/Masjid-E-Azam/data=!4m7!3m6!1s0x3baf706c1f8811bf:0xccd7b66b72759d1f!8m2!3d12.3194176!4d76.6574197!16s%2Fg%2F1ptyt748f!19sChIJvxGIH2xwrzsRH511cmu218w?authuser=0&hl=en&rclk=1,"12.3194176,76.65741969999999"
Masjid-E-Nimrah,Mosque,"8MJM+WH5 Masjid-E-Nimrah, 1st Stage, Rajiv Nagar, Mysuru, Karnataka 570019","1st Stage, Rajiv Nagar",8MJM+WH5,Mysuru,570019,Karnataka,IN,https://www.google.com/maps/place/Masjid-E-Nimrah/data=!4m7!3m6!1s0x3baf705479969d27:0x5a0e94e70eec75fd!8m2!3d12.3322526!4d76.6839775!16s%2Fg%2F1tm8cfhw!19sChIJJ52WeVRwrzsR_XXsDueUDlo?authuser=0&hl=en&rclk=1,"12.332252599999999,76.6839775"
Masjid E Bilaal (msjdi bll),Mosque,"Masjid E Bilaal (msjdi bll), M G, Ghousia Nagar Main Rd, Udayagir, Udayagiri, Mysuru, Karnataka 570019","Udayagir, Udayagiri","M G, Ghousia Nagar Main Rd",Mysuru,570019,Karnataka,IN,https://www.google.com/maps/place/Masjid+E+Bilaal+%28%D9%85%D8%B3%D8%AC%D8%AF%D9%90+%D8%A8%D9%84%D8%A7%D9%84%29%E2%80%AD/data=!4m7!3m6!1s0x3baf704524506d41:0xf98f8a5c8d8cdf1!8m2!3d12.3249238!4d76.6735373!16s%2Fg%2F1tl4bgwp!19sChIJQW1QJEVwrzsR8c3YyKX4mA8?authuser=0&hl=en&rclk=1,"12.324923799999999,76.67353729999999"
Quba masjid,Mosque,"Quba masjid, 986, Syed Abdul Rahman Rd, Azeez Sait Nagar, Udayagiri, Mysuru, Karnataka 570028","Azeez Sait Nagar, Udayagiri","986, Syed Abdul Rahman Rd",Mysuru,570028,Karnataka,IN,https://www.google.com/maps/place/Quba+masjid/data=!4m7!3m6!1s0x3baf705a786e6e2f:0xe3b40eed8a8c2fb3!8m2!3d12.329258!4d76.6758515!16s%2Fg%2F1tpc6dr5!19sChIJL25ueFpwrzsRsy-Miu0OtOM?authuser=0&hl=en&rclk=1,"12.329258,76.6758515"
Masjid-e-Tippu,Mosque,"8MR2+8VQ Masjid-e-Tippu, HUDCO Main Road, HUDCO 2nd Stage, Bannimantap A Layout, Bannimantap, Mysuru, Karnataka 570015","HUDCO 2nd Stage, Bannimantap A Layout, Bannimantap","8MR2+8VQ, HUDCO Main Road",Mysuru,570015,Karnataka,IN,https://www.google.com/maps/place/Masjid-e-Tippu/data=!4m7!3m6!1s0x3baf70861af38c77:0x2e9d6a8dc9ebd2!8m2!3d12.3408333!4d76.6522222!16s%2Fg%2F1tggrzkk!19sChIJd4zzGoZwrzsR0uvJjWqdLgA?authuser=0&hl=en&rclk=1,"12.3408333,76.6522222"
Masjid - E - Khakhi Shah msjd,Mosque,"8M54+QJM Masjid - E - Khakhi Shah msjd, Albert Victor Road, Sri Harsha Road, Main City, Ashoka Rd, Lashkar Mohalla, Mandi Mohalla, Mysuru, Karnataka 570024","Lashkar Mohalla, Mandi Mohalla","8M54+QJM, Albert Victor Road, Sri Harsha Road, Main City, Ashoka Rd",Mysuru,570024,Karnataka,IN,https://www.google.com/maps/place/Masjid+-+E+-+Khakhi+Shah+%D9%85%D8%B3%D8%AC%D8%AF%E2%80%AD/data=!4m7!3m6!1s0x3baf7013c7b786e9:0x635577fa8fe24e35!8m2!3d12.3094532!4d76.6565318!16s%2Fg%2F1ptwrp1j5!19sChIJ6Ya3xxNwrzsRNU7ij_p3VWM?authuser=0&hl=en&rclk=1,"12.3094532,76.6565318"
Masjid Ya Allah,Mosque,"8M96+JMF Masjid Ya Allah, Bangalore Mysore Road, Sawday Rd, Earangere, Mandi Mohalla, Mysuru, Karnataka 570024","Earangere, Mandi Mohalla","8M96+JMF, Bangalore Mysore Road, Sawday Rd",Mysuru,570024,Karnataka,IN,https://www.google.com/maps/place/Masjid+Ya+Allah/data=!4m7!3m6!1s0x3baf706a2d087823:0xf76502013fad86ca!8m2!3d12.3190718!4d76.6616572!16s%2Fg%2F1ptwdvcxh!19sChIJI3gILWpwrzsRyoatPwECZfc?authuser=0&hl=en&rclk=1,"12.3190718,76.6616572"
MASJID - E - YASEEN (msjdi ysyn),Mosque,"MASJID - E - YASEEN (msjdi ysyn), YASEEN BLOCK, 3rd Stage, 2nd Stage, Rajiv Nagar, Mysuru, Karnataka 570019","3rd Stage, 2nd Stage, Rajiv Nagar",YASEEN BLOCK,Mysuru,570019,Karnataka,IN,https://www.google.com/maps/place/MASJID+-+E+-+YASEEN+%28%D9%85%D8%B3%D8%AC%D8%AF%D9%90+%DB%8C%D8%A7%D8%B3%DB%8C%D9%86%29%E2%80%AD/data=!4m7!3m6!1s0x3baf70fa09b87667:0xcd93bd255f621202!8m2!3d12.343809!4d76.6760238!16s%2Fg%2F11bx8hbdxv!19sChIJZ3a4CfpwrzsRAhJiXyW9k80?authuser=0&hl=en&rclk=1,"12.343809,76.6760238"
Masjid-e-Kaif,Mosque,"8MPP+7HM Masjid-e-Kaif, 2nd Phase, 2nd Stage, Rajiv Nagar, Mysuru, Karnataka 570019","2nd Phase, 2nd Stage, Rajiv Nagar",8MPP+7HM,Mysuru,570019,Karnataka,IN,https://www.google.com/maps/place/Masjid-e-Kaif/data=!4m7!3m6!1s0x3baf70553b7af84b:0x3a512a18d681f806!8m2!3d12.3357126!4d76.6864238!16s%2Fg%2F11b6y8qvn5!19sChIJS_h6O1VwrzsRBviB1hgqUTo?authuser=0&hl=en&rclk=1,"12.335712599999999,76.6864238"
Masjid e Al Fattah,Mosque,"9H2V+PFF Masjid e Al Fattah, Sasco Masjid Rd, Hebbal Industrial Estate, Hebbal, Ilavala Hobli, Mysuru, Karnataka 570027","Hebbal Industrial Estate, Hebbal","9H2V+PFF, Sasco Masjid Rd","Ilavala Hobli, Mysuru",570027,Karnataka,IN,https://www.google.com/maps/place/Masjid+e+Al+Fattah/data=!4m7!3m6!1s0x3baf7bb52360e7cd:0x97737c92bcea793e!8m2!3d12.3518109!4d76.5936769!16s%2Fg%2F1pycwvsyx!19sChIJzedgI7V7rzsRPnnqvJJ8c5c?authuser=0&hl=en&rclk=1,"12.3518109,76.59367689999999"
Madeena Masjid (mdyn@ msjd ),Mosque,"8MHC+HVV Madeena Masjid (mdyn@ msjd ), Udayagiri Main Rd, Udayagir, Udayagiri, Mysuru, Karnataka 570019","Udayagir, Udayagiri","8MHC+HVV, Udayagiri Main Rd",Mysuru,570019,Karnataka,IN,https://www.google.com/maps/place/Madeena+Masjid+%28%D9%85%D8%AF%D9%8A%D9%86%D8%A9+%D9%85%D8%B3%D8%AC%D8%AF+%29%E2%80%AD/data=!4m7!3m6!1s0x3baf705ba5dc7a49:0x89f8e1e5bb1ea627!8m2!3d12.3289802!4d76.6721815!16s%2Fg%2F1pp2txmrr!19sChIJSXrcpVtwrzsRJ6Yeu-Xh-Ik?authuser=0&hl=en&rclk=1,"12.3289802,76.6721815"
Mosque,Mosque,"8J8M+4CF Mosque, Hunsur Rd, Devaraja Mohalla, CFTRI Campus, Kajjihundi, Mysuru, Karnataka 570020","Devaraja Mohalla, CFTRI Campus, Kajjihundi","8J8M+4CF, Hunsur Rd",Mysuru,570020,Karnataka,IN,https://www.google.com/maps/place/Mosque/data=!4m7!3m6!1s0x3baf7a98e24b253d:0xd466801da9a436b!8m2!3d12.315319!4d76.6335547!16s%2Fg%2F1tj5p56l!19sChIJPSVL4ph6rzsRa0Oa2gFoRg0?authuser=0&hl=en&rclk=1,"12.315318999999999,76.63355469999999"
Jamiya Masjid(jm`h msjd),Mosque,"8M74+J57 Jamiya Masjid(jm`h msjd), Lashkar Mohalla, Mandi Mohalla, Mysuru, Karnataka 570001","Lashkar Mohalla, Mandi Mohalla",8M74+J57,Mysuru,570001,Karnataka,IN,https://www.google.com/maps/place/Jamiya+Masjid%28%D8%AC%D8%A7%D9%85%D8%B9%DB%81+%D9%85%D8%B3%D8%AC%D8%AF%29%E2%80%AD/data=!4m7!3m6!1s0x3baf706d2bf3ff8b:0x8c8298ac8f09ffe4!8m2!3d12.3140291!4d76.6554147!16s%2Fg%2F1pp2tjx9l!19sChIJi__zK21wrzsR5P8Jj6yYgow?authuser=0&hl=en&rclk=1,"12.314029099999999,76.6554147"
"Salafi Masjid, Bannimantap",Mosque,"Salafi Masjid, Bannimantap, opp. Salafi masjid, Bannimantap A Layout, Bannimantap, Mysuru, Karnataka 570015","Bannimantap A Layout, Bannimantap",opp. Salafi masjid,Mysuru,570015,Karnataka,IN,"https://www.google.com/maps/place/Salafi+Masjid,+Bannimantap/data=!4m7!3m6!1s0x3baf7087a5aa4f81:0x9c41c555c58e1ef3!8m2!3d12.3397863!4d76.6492008!16s%2Fg%2F1td63rnr!19sChIJgU-qpYdwrzsR8x6OxVXFQZw?authuser=0&hl=en&rclk=1","12.3397863,76.6492008"
Farooqia Mosque msjd,Mosque,"8MQ6+7MH Farooqia Mosque msjd, 2nd Stage, Rajendra Nagar, Mysuru, Karnataka 570007","2nd Stage, Rajendra Nagar",8MQ6+7MH,Mysuru,570007,Karnataka,IN,https://www.google.com/maps/place/Farooqia+Mosque+%D9%85%D8%B3%D8%AC%D8%AF%E2%80%AD/data=!4m7!3m6!1s0x3baf708af4587e39:0x1e26541e24901b83!8m2!3d12.3381991!4d76.6617393!16s%2Fg%2F1tgvc1pq!19sChIJOX5Y9IpwrzsRgxuQJB5UJh4?authuser=0&hl=en&rclk=1,"12.338199099999999,76.6617393"
Masjid E Riyazul Jannah (msjd ryD ljn@)msjid i riyaajhul jnnaah,Mosque,"8MCQ+736 Masjid E Riyazul Jannah (msjd ryD ljn@)msjid i riyaajhul jnnaah, Door no:483, Aswath Rd, Kalyanagiri, Mysuru, Karnataka 570019",Kalyanagiri,"8MCQ+736, Door no:483, Aswath Rd",Mysuru,570019,Karnataka,IN,https://www.google.com/maps/place/Masjid+E+Riyazul+Jannah+%28%D9%85%D8%B3%D8%AC%D8%AF+%D8%B1%DB%8C%D8%A7%D8%B6+%D8%A7%D9%84%D8%AC%D9%86%DB%83%29%E0%B2%AE%E0%B2%B8%E0%B3%8D%E0%B2%9C%E0%B2%BF%E0%B2%A6%E0%B3%8D+%E0%B2%87+%E0%B2%B0%E0%B2%BF%E0%B2%AF%E0%B2%BE%E0%B2%9D%E0%B3%81%E0%B2%B2%E0%B3%8D+%E0%B2%9C%E0%B2%A8%E0%B3%8D%E0%B2%A8%E0%B2%BE%E0%B2%B9%E0%B3%8D%E2%80%AD/data=!4m7!3m6!1s0x3baf704b4ad3e959:0xeb887f45763f9af2!8m2!3d12.3196631!4d76.6874517!16s%2Fg%2F11bw1wh4ch!19sChIJWenTSktwrzsR8po_dkV_iOs?authuser=0&hl=en&rclk=1,"12.3196631,76.6874517"
Masjid-E-Dargahi (msjdi drghy),Mosque,"8M93+XHF Masjid-E-Dargahi (msjdi drghy), Mina Bazaar Main Road, Sawday Rd, Kailasapuram, Mandi Mohalla, Mysuru, Karnataka 570024","Kailasapuram, Mandi Mohalla","8M93+XHF, Mina Bazaar Main Road, Sawday Rd",Mysuru,570024,Karnataka,IN,https://www.google.com/maps/place/Masjid-E-Dargahi+%28%D9%85%D8%B3%D8%AC%D8%AF%D9%90+%D8%AF%D8%B1%DA%AF%D8%A7%DB%81%DB%8C%29%E2%80%AD/data=!4m7!3m6!1s0x3baf706e121ef981:0x4f112ef02231b3f3!8m2!3d12.319945!4d76.653924!16s%2Fg%2F113fsr24g!19sChIJgfkeEm5wrzsR87MxIvAuEU8?authuser=0&hl=en&rclk=1,"12.319944999999999,76.653924"
Masjid-e-Kausar,Mosque,"8MR3+5QQ Masjid-e-Kausar, Bannimantap Road, Bangalore - Mysore Rd, Bannimantap, Mysuru, Karnataka 570024","HUDCO 2nd Stage, Bannimantap","8MR3+5QQ, Bannimantap Road, Bangalore - Mysore Rd",Mysuru,570024,Karnataka,IN,https://www.google.com/maps/place/Masjid-e-Kausar/data=!4m7!3m6!1s0x3baf7088c11b37a1:0x9894d544b78cbdc0!8m2!3d12.3404593!4d76.6544739!16s%2Fg%2F1tdj_0p0!19sChIJoTcbwYhwrzsRwL2Mt0TVlJg?authuser=0&hl=en&rclk=1,"12.3404593,76.6544739"
Masjid-e-Amina,Mosque,"7JX6+RRV Masjid-e-Amina, TK Layout, Mysuru, Karnataka 570009",TK Layout,7JX6+RRV,Mysuru,570009,Karnataka,IN,https://www.google.com/maps/place/Masjid-e-Amina/data=!4m7!3m6!1s0x3baf7acf4d90346f:0x3dc981c7a00c4c32!8m2!3d12.2996228!4d76.6120575!16s%2Fg%2F11c5b7d6yj!19sChIJbzSQTc96rzsRMkwMoMeByT0?authuser=0&hl=en&rclk=1,"12.2996228,76.61205749999999"
Apna Ghar Masjid-E-Rifah,Mosque,"Apna Ghar Masjid-E-Rifah, Plot no 1012, 5th Cross Road, Near Huda Public School, Shivarathreeshwara Nagar, Bannimantap, Mysuru, Karnataka 570015","Shivarathreeshwara Nagar, Bannimantap","Plot no 1012, 5th Cross Road, Near Huda Public School",Mysuru,570015,Karnataka,IN,https://www.google.com/maps/place/Apna+Ghar+Masjid-E-Rifah/data=!4m7!3m6!1s0x3baf7085236724b3:0xc24ca537a4146620!8m2!3d12.3460328!4d76.6506325!16s%2Fg%2F1tdg1nr4!19sChIJsyRnI4VwrzsRIGYUpDelTMI?authuser=0&hl=en&rclk=1,"12.3460328,76.6506325"
Masjid E Firdos (msjdi frdws),Mosque,"8MP4+Q3J Masjid E Firdos (msjdi frdws), Bannimantap Road, Bangalore - Mysore Rd, Bannimantap, Mysuru, Karnataka 570024","HUDCO 2nd Stage, Bannimantap","8MP4+Q3J, Bannimantap Road, Bangalore - Mysore Rd",Mysuru,570024,Karnataka,IN,https://www.google.com/maps/place/Masjid+E+Firdos+%28%D9%85%D8%B3%D8%AC%D8%AF%D9%90+%D9%81%D8%B1%D8%AF%D9%88%D8%B3%29%E2%80%AD/data=!4m7!3m6!1s0x3baf708837fd4145:0xb1362bcfcdad5556!8m2!3d12.3369513!4d76.6551394!16s%2Fg%2F1thtn0_h!19sChIJRUH9N4hwrzsRVlWtzc8rNrE?authuser=0&hl=en&rclk=1,"12.336951299999999,76.6551394"
"EIDGAH MASJID, M.H. ROAD MYSORE",Mosque,"8MC2+V75 EIDGAH MASJID, M.H. ROAD MYSORE, Mission Hospital Rd, Mandi Mohalla, Mysuru, Karnataka 570001",Mandi Mohalla,"8MC2+V75, Mission Hospital Rd",Mysuru,570001,Karnataka,IN,"https://www.google.com/maps/place/EIDGAH+MASJID,+M.H.+ROAD+MYSORE/data=!4m7!3m6!1s0x3baf7071adfa6681:0x90ccf7dddd84f365!8m2!3d12.3221435!4d76.6507263!16s%2Fg%2F12hkcny5n!19sChIJgWb6rXFwrzsRZfOE3d33zJA?authuser=0&hl=en&rclk=1","12.3221435,76.6507263"
Masjid E Rabani,Mosque,"8MG7+4R3 Masjid E Rabani, Maruthi Complex, N R Mohalla, Rajendra Nagar, Mysuru, Karnataka 570024","N R Mohalla, Rajendra Nagar","8MG7+4R3, Maruthi Complex",Mysuru,570024,Karnataka,IN,https://www.google.com/maps/place/Masjid+E+Rabani/data=!4m7!3m6!1s0x3baf7042aae3c111:0x349e0d0267c33593!8m2!3d12.3252714!4d76.6645372!16s%2Fg%2F1ptxb52tv!19sChIJEcHjqkJwrzsRkzXDZwINnjQ?authuser=0&hl=en&rclk=1,"12.3252714,76.6645372"
Sadiq-ul-Ameen Masjid (msjdi Sdq lmyn),Mosque,"8MGH+HQ4 Sadiq-ul-Ameen Masjid (msjdi Sdq lmyn), Azeez Sait Main Rd, SBM Colony, Udayagiri, Mysuru, Karnataka 570019","SBM Colony, Udayagiri","8MGH+HQ4, Azeez Sait Main Rd",Mysuru,570019,Karnataka,IN,https://www.google.com/maps/place/Sadiq-ul-Ameen+Masjid+%28%D9%85%D8%B3%D8%AC%D8%AF%D9%90+%D8%B5%D8%A7%D8%AF%D9%82+%D8%A7%D9%84%D8%A7%D9%85%D9%8A%D9%86%29%E2%80%AD/data=!4m7!3m6!1s0x3baf7051d3cbaf27:0xebc377701ed7e0f6!8m2!3d12.3263793!4d76.6794536!16s%2Fg%2F12hl8h4tn!19sChIJJ6_L01FwrzsR9uDXHnB3w-s?authuser=0&hl=en&rclk=1,"12.3263793,76.6794536"
Masjid e Ahle Hadees - Abubakr Masjid,Mosque,"Masjid e Ahle Hadees - Abubakr Masjid, Tippu Circle, Bangalore - Mysore Rd, N R Mohalla, Rajendra Nagar, Mysuru, Karnataka 570007","N R Mohalla, Rajendra Nagar","Tippu Circle, Bangalore - Mysore Rd",Mysuru,570007,Karnataka,IN,https://www.google.com/maps/place/Masjid+e+Ahle+Hadees+-+Abubakr+Masjid/data=!4m7!3m6!1s0x3baf7066acdc9fbd:0x1f273c920dfd6c6e!8m2!3d12.3306969!4d76.6588772!16s%2Fg%2F1ptw3dw84!19sChIJvZ_crGZwrzsRbmz9DZI8Jx8?authuser=0&hl=en&rclk=1,"12.3306969,76.65887719999999"
Masjid of Al-Ansar Hosp.,Mosque,"8M97+QFM Masjid of Al-Ansar Hosp., Earangere, Mandi Mohalla, Mysuru, Karnataka 570007","Earangere, Mandi Mohalla",8M97+QFM,Mysuru,570007,Karnataka,IN,https://www.google.com/maps/place/Masjid+of+Al-Ansar+Hosp./data=!4m7!3m6!1s0x3baf706a03496a91:0x4363a6b53e70eda2!8m2!3d12.3194623!4d76.6636786!16s%2Fg%2F11fx8rz7n3!19sChIJkWpJA2pwrzsRou1wPrWmY0M?authuser=0&hl=en&rclk=1,"12.3194623,76.6636786"
Jamia Masjid,Mosque,"7MWH+FCV Jamia Masjid, Police Quarters, JC Nagar, Mysuru, Karnataka 570010","Police Quarters, JC Nagar",7MWH+FCV,Mysuru,570010,Karnataka,IN,https://www.google.com/maps/place/Jamia+Masjid/data=!4m7!3m6!1s0x3baf7028df1f47d1:0xb6064558cc675e1d!8m2!3d12.296231!4d76.678533!16s%2Fg%2F11fzb1f13j!19sChIJ0Ucf3yhwrzsRHV5nzFhFBrY?authuser=0&hl=en&rclk=1,"12.296230999999999,76.678533"
Masjid-E-Al Mayraj (msjdi lm`rj),Mosque,"8MM5+5JV Masjid-E-Al Mayraj (msjdi lm`rj), Opposite Meraj Tours & Travels, Subhash Nagar, Rajendra Nagar, Mysuru, Karnataka 570007","Subhash Nagar, Rajendra Nagar","8MM5+5JV, Opposite Meraj Tours & Travels",Mysuru,570007,Karnataka,IN,https://www.google.com/maps/place/Masjid-E-Al+Mayraj+%28%D9%85%D8%B3%D8%AC%D8%AF%D9%90+%D8%A7%D9%84%D9%85%D8%B9%D8%B1%D8%A7%D8%AC%29%E2%80%AD/data=!4m7!3m6!1s0x3baf70617b461d83:0x2b52ab873b62dd24!8m2!3d12.3329874!4d76.6590478!16s%2Fg%2F1tsyhn0j!19sChIJgx1Ge2FwrzsRJN1iO4erUis?authuser=0&hl=en&rclk=1,"12.332987399999999,76.6590478"
Shahi Masjid,Mosque,"Shahi Masjid, 2687, Pulikeshi Main Rd, Menna Bazzar, Mandi Mohalla, Mysuru, Karnataka 570001","Menna Bazzar, Mandi Mohalla","2687, Pulikeshi Main Rd",Mysuru,570001,Karnataka,IN,https://www.google.com/maps/place/Shahi+Masjid/data=!4m7!3m6!1s0x3baf706f0483da1b:0x12aa4924b23976c1!8m2!3d12.3225638!4d76.6562036!16s%2Fg%2F124sz7sg6!19sChIJG9qDBG9wrzsRwXY5siRJqhI?authuser=0&hl=en&rclk=1,"12.3225638,76.6562036"
Masjid-E-Shuhada-Ul-Badr (Ek Minar Masjid),Mosque,"8MGM+W3Q Masjid-E-Shuhada-Ul-Badr (Ek Minar Masjid), Shantinagara North, Udayagiri, Mysuru, Karnataka 570019","Shantinagara North, Udayagiri",8MGM+W3Q,Mysuru,570019,Karnataka,IN,https://www.google.com/maps/place/Masjid-E-Shuhada-Ul-Badr+%28Ek+Minar+Masjid%29/data=!4m7!3m6!1s0x3baf70521152c255:0x5fabb153bab9e30!8m2!3d12.3273304!4d76.6827414!16s%2Fg%2F11g7z0kggm!19sChIJVcJSEVJwrzsRMJ6rOxW7-gU?authuser=0&hl=en&rclk=1,"12.3273304,76.6827414"
Masjid-E-Usmania,Mosque,"8MCM+6XR Masjid-E-Usmania, Udayagiri, Mysuru, Karnataka 570019",Udayagiri,8MCM+6XR,Mysuru,570019,Karnataka,IN,https://www.google.com/maps/place/Masjid-E-Usmania/data=!4m7!3m6!1s0x3baf704b7e622e49:0x6ef66fcfd375b27e!8m2!3d12.3206218!4d76.6848788!16s%2Fg%2F1pp2txmtr!19sChIJSS5ifktwrzsRfrJ1089v9m4?authuser=0&hl=en&rclk=1,"12.3206218,76.68487879999999"
Masjid E Abu Hanifa msjd,Mosque,"8MGR+M2W Masjid E Abu Hanifa msjd, KEB Circle, Dr Rajkumar Rd, Azeez Sait Nagar, Mysuru, Karnataka 570020","Kalyanagirinagara, Azeez Sait Nagar, Kalyanagiri","8MGR+M2W, KEB Circle, Dr Rajkumar Rd",Mysuru,570020,Karnataka,IN,https://www.google.com/maps/place/Masjid+E+Abu+Hanifa+%D9%85%D8%B3%D8%AC%D8%AF%E2%80%AD/data=!4m7!3m6!1s0x3baf71ad7e24cfb1:0x8d7a4de5014c0386!8m2!3d12.326727!4d76.6900752!16s%2Fg%2F1pp2ty90g!19sChIJsc8kfq1xrzsRhgNMAeVNeo0?authuser=0&hl=en&rclk=1,"12.326727,76.6900752"
Masjid E Mubeen (msjdi mbyn),Mosque,"8J3X+P42 Masjid E Mubeen (msjdi mbyn), Subbarayanakere, Chamrajpura, Mysuru, Karnataka 570024","Subbarayanakere, Chamrajpura",8J3X+P42,Mysuru,570024,Karnataka,IN,https://www.google.com/maps/place/Masjid+E+Mubeen+%28%D9%85%D8%B3%D8%AC%D8%AF%D9%90+%D9%85%D8%A8%DB%8C%D9%86%29%E2%80%AD/data=!4m7!3m6!1s0x3baf705e34b9b701:0x656e0c254c966022!8m2!3d12.3042538!4d76.6477689!16s%2Fg%2F1pp2txndn!19sChIJAbe5NF5wrzsRImCWTCUMbmU?authuser=0&hl=en&rclk=1,"12.3042538,76.6477689"
Masjid E Jaffery (SHIA )j`fry msjd,Mosque,"Masjid E Jaffery (SHIA )j`fry msjd, Akbar Rd Cross, Lashkar Mohalla, Mandi Mohalla, Mysuru, Karnataka 570001","Lashkar Mohalla, Mandi Mohalla",Akbar Rd Cross,Mysuru,570001,Karnataka,IN,https://www.google.com/maps/place/Masjid+E+Jaffery+%28SHIA+%29%D8%AC%D8%B9%D9%81%D8%B1%DB%8C+%D9%85%D8%B3%D8%AC%D8%AF%E2%80%AD/data=!4m7!3m6!1s0x3baf706dcb90b1f7:0x7636c31948c3b82c!8m2!3d12.3181622!4d76.655512!16s%2Fg%2F1vv2qpmn!19sChIJ97GQy21wrzsRLLjDSBnDNnY?authuser=0&hl=en&rclk=1,"12.3181622,76.655512"
Masjid e Dar-Us-Salam,Mosque,"8MJQ+HC2 Masjid e Dar-Us-Salam, Ali Miyan Rd, Shantinagara North, 2nd Stage, Rajiv Nagar, Mysuru, Karnataka 570019","Shantinagara North, 2nd Stage, Rajiv Nagar","8MJQ+HC2, Ali Miyan Rd",Mysuru,570019,Karnataka,IN,https://www.google.com/maps/place/Masjid+e+Dar-Us-Salam/data=!4m7!3m6!1s0x3baf71acbb5d52d9:0x3b385e5659de5518!8m2!3d12.3313991!4d76.6885021!16s%2Fg%2F1ptx_nntd!19sChIJ2VJdu6xxrzsRGFXeWVZeODs?authuser=0&hl=en&rclk=1,"12.331399099999999,76.6885021"
Madani Masjid,Mosque,"8MHM+5JQ Madani Masjid, Mahadevapura Main Rd, Shantinagara North, Rajiv Nagar, Mysuru, Karnataka 570019","Shantinagara North, Rajiv Nagar","8MHM+5JQ, Mahadevapura Main Rd",Mysuru,570019,Karnataka,IN,https://www.google.com/maps/place/Madani+Masjid/data=!4m7!3m6!1s0x3baf71acd8fc6eab:0xf85c675b37a2f710!8m2!3d12.3279695!4d76.6841037!16s%2Fg%2F1tjjmtq0!19sChIJq2782KxxrzsREPeiN1tnXPg?authuser=0&hl=en&rclk=1,"12.3279695,76.6841037"
Masjid E Mukhtar msjd,Mosque,"Masjid E Mukhtar msjd, 2092, 11th Cross St, Rajiv Nagar Rajiv Nagar Mysuru, Karnataka 570007","2nd Stage, Rajiv Nagar","2092, 11th Cross St, Rajiv Nagar Rajiv Nagar Mysuru, Karnataka 570007",Mysuru,,Karnataka,IN,https://www.google.com/maps/place/Masjid+E+Mukhtar+%D9%85%D8%B3%D8%AC%D8%AF%E2%80%AD/data=!4m7!3m6!1s0x3baf7055f4be7201:0x187cd5d2381f4c36!8m2!3d12.337224!4d76.6830565!16s%2Fg%2F11b7q5xs3x!19sChIJAXK-9FVwrzsRNkwfONLVfBg?authuser=0&hl=en&rclk=1,"12.337223999999999,76.68305649999999"
Masjid e ilyaz (MARKAZ)msjd,Mosque,"8MR7+22F Masjid e ilyaz (MARKAZ)msjd, Rajendra Nagar, Hale Kesare, Mysuru, Karnataka 570007",Rajendra Nagar,8MR7+22F,"Hale Kesare, Mysuru",570007,Karnataka,IN,https://www.google.com/maps/place/Masjid+e+ilyaz+%28MARKAZ%29%D9%85%D8%B3%D8%AC%D8%AF%E2%80%AD/data=!4m7!3m6!1s0x3baf708b10b51fdd:0x445f5464495e9287!8m2!3d12.3400709!4d76.6625621!16s%2Fg%2F11c6d_vmj7!19sChIJ3R-1EItwrzsRh5JeSWRUX0Q?authuser=0&hl=en&rclk=1,"12.340070899999999,76.6625621"
Masjid E Nazarabad (msjdi nZr abd) msjid i njr baad,Mosque,"8M67+6V8 Masjid E Nazarabad (msjdi nZr abd) msjid i njr baad, Masjid Rd, opposite Nimbuji Devi Temple & Trust, Nazarbad, Mysuru, Karnataka 570010",Nazarbad,"8M67+6V8, Masjid Rd, opposite Nimbuji Devi Temple & Trust",Mysuru,570010,Karnataka,IN,https://www.google.com/maps/place/Masjid+E+Nazarabad+%28%D9%85%D8%B3%D8%AC%D8%AF%D9%90+%D9%86%D8%B8%D8%B1+%D8%A2%D8%A8%D8%A7%D8%AF%29+%E0%B2%AE%E0%B2%B8%E0%B3%8D%E0%B2%9C%E0%B2%BF%E0%B2%A6%E0%B3%8D+%E0%B2%87+%E0%B2%A8%E0%B2%9C%E0%B2%B0%E0%B3%8D+%E0%B2%AC%E0%B2%BE%E0%B2%A6%E0%B3%8D%E2%80%AD/data=!4m7!3m6!1s0x3baf703efd90ea59:0x3fd6a738e494d6b2!8m2!3d12.3105267!4d76.6647092!16s%2Fg%2F1wd3th8s!19sChIJWeqQ_T5wrzsRstaU5Din1j8?authuser=0&hl=en&rclk=1,"12.310526699999999,76.66470919999999"
nuur msiidi | Masjid-E-Noor,Mosque,"nuur msiidi | Masjid-E-Noor, 106, Chikka veeranna Rd, New Bannimantap Extension, Bannimantap, Mysuru, Karnataka 570001","New Bannimantap Extension, Bannimantap","106, Chikka veeranna Rd",Mysuru,570001,Karnataka,IN,https://www.google.com/maps/place/%E0%B2%A8%E0%B3%82%E0%B2%B0%E0%B3%8D+%E0%B2%AE%E0%B2%B8%E0%B3%80%E0%B2%A6%E0%B2%BF+%7C+Masjid-E-Noor/data=!4m7!3m6!1s0x3baf707cbb99ebd5:0xc78f45732b9fcbe9!8m2!3d12.331273!4d76.6518122!16s%2Fg%2F11cjnn8tj4!19sChIJ1euZu3xwrzsR6cufK3NFj8c?authuser=0&hl=en&rclk=1,"12.331273,76.6518122"
Masjid-e-Umar msjd,Mosque,"7JHR+QX4 Masjid-e-Umar msjd, Unnamed Road, Vidyaranyapura, Visveshwara Nagar, Karnataka 570008",Vidyaranyapura,"7JHR+QX4, Unnamed Road",Visveshwara Nagar,570008,Karnataka,IN,https://www.google.com/maps/place/Masjid-e-Umar+%D9%85%D8%B3%D8%AC%D8%AF%E2%80%AD/data=!4m7!3m6!1s0x3baf6ff7f5fa3803:0xedfd65f6f70f54aa!8m2!3d12.2793932!4d76.6424546!16s%2Fg%2F11gf5yrdg1!19sChIJAzj69fdvrzsRqlQP9_Zl_e0?authuser=0&hl=en&rclk=1,"12.2793932,76.6424546"
Masjid E Rahmania (msjdi rHmnyh),Mosque,"8J2W+488 Masjid E Rahmania (msjdi rHmnyh), Sunnadakeri, Lakshmipuram, Mysuru, Karnataka 570004","Sunnadakeri, Lakshmipuram",8J2W+488,Mysuru,570004,Karnataka,IN,https://www.google.com/maps/place/Masjid+E+Rahmania+%28%D9%85%D8%B3%D8%AC%D8%AF%D9%90+%D8%B1%D8%AD%D9%85%D8%A7%D9%86%D9%8A%D9%87%29%E2%80%AD/data=!4m7!3m6!1s0x3baf70066968af7d:0x12cbce7135d38413!8m2!3d12.3002851!4d76.6458429!16s%2Fg%2F1tqycypm!19sChIJfa9oaQZwrzsRE4TTNXHOyxI?authuser=0&hl=en&rclk=1,"12.3002851,76.64584289999999"
Hilal Memon Masjid (hll mymun msjd),Mosque,"8M52+RPV Hilal Memon Masjid (hll mymun msjd), Devaraja Mohalla, Shivarampet, Mysuru, Karnataka 570001","Devaraja Mohalla, Shivarampet",8M52+RPV,Mysuru,570001,Karnataka,IN,https://www.google.com/maps/place/Hilal+Memon+Masjid+%28%DA%BE%D9%84%D8%A7%D9%84+%D9%85%DB%8C%D9%85%D9%8F%D9%86+%D9%85%D8%B3%D8%AC%D8%AF%29%E2%80%AD/data=!4m7!3m6!1s0x3baf700d93bfee9b:0x1293913ef3329799!8m2!3d12.3096183!4d76.651804!16s%2Fg%2F11bxc7pp5r!19sChIJm-6_kw1wrzsRmZcy8z6RkxI?authuser=0&hl=en&rclk=1,"12.309618299999999,76.651804"
Masjid E Ya Rasoolallah,Mosque,"Masjid E Ya Rasoolallah, Made Gowda Circle, Rajiv Nagar 1st, Mahadevapura Road, Rajiv Nagar, Mysuru, Karnataka 570024","2nd Stage, Rajiv Nagar","Made Gowda Circle, Rajiv Nagar 1st, Mahadevapura Road, Rajiv Nagar",Mysuru,570024,Karnataka,IN,https://www.google.com/maps/place/Masjid+E+Ya+Rasoolallah/data=!4m7!3m6!1s0x3baf71ab6960bb4d:0x675ec602358923d9!8m2!3d12.3331189!4d76.6895876!16s%2Fg%2F1ptw12__t!19sChIJTbtgaatxrzsR2SOJNQLGXmc?authuser=0&hl=en&rclk=1,"12.333118899999999,76.6895876"
Masjid E Fillkhana,Mosque,"Masjid E Fillkhana, Veene Sheshanna Road, 1st Cross, K.R. Mohalla, Veene Sheshanna Road, 1st Cross, Opposite Masjid, K.N. Agrahara, Mysuru, Karnataka 570024","Agrahara, Chamrajpura","Veene Sheshanna Road, 1st Cross, K.R. Mohalla, Veene Sheshanna Road, 1st Cross, Opposite Masjid, K.N. Agrahara",Mysuru,570024,Karnataka,IN,https://www.google.com/maps/place/Masjid+E+Fillkhana/data=!4m7!3m6!1s0x3baf700ff33400bb:0x5a604f6d9ba169f8!8m2!3d12.3027997!4d76.6513729!16s%2Fg%2F1v1kn96z!19sChIJuwA08w9wrzsR-Gmhm21PYFo?authuser=0&hl=en&rclk=1,"12.3027997,76.6513729"
Masjid E Shaheda,Mosque,"8MQH+95P Masjid E Shaheda, 2nd Phase, 2nd Stage, Rajiv Nagar, Mysuru, Karnataka 570019","2nd Phase, 2nd Stage, Rajiv Nagar",8MQH+95P,Mysuru,570019,Karnataka,IN,https://www.google.com/maps/place/Masjid+E+Shaheda/data=!4m7!3m6!1s0x3baf70f86f4d5047:0xc4f0ca9976ada534!8m2!3d12.3384575!4d76.677965!16s%2Fg%2F11bwf91lt9!19sChIJR1BNb_hwrzsRNKWtdpnK8MQ?authuser=0&hl=en&rclk=1,"12.338457499999999,76.677965"
Masjid E Aqsa,Mosque,"8MG5+9C5 Masjid E Aqsa, Bangalore Mysore Road, BB Keri, Rajendra Nagar, Mysuru, Karnataka 570024","BB Keri, Rajendra Nagar","8MG5+9C5, Bangalore Mysore Road",Mysuru,570024,Karnataka,IN,https://www.google.com/maps/place/Masjid+E+Aqsa/data=!4m7!3m6!1s0x3baf7065e2d5a0a7:0xe8cf1f2dde0aef63!8m2!3d12.3258901!4d76.6586018!16s%2Fg%2F1pp2ty4zp!19sChIJp6DV4mVwrzsRY-8K3i0fz-g?authuser=0&hl=en&rclk=1,"12.325890099999999,76.6586018"
Mysore Shafi Masjid,Mosque,"Mysore Shafi Masjid, 1585, Akbar Rd Cross, Lashkar Mohalla, Mandi Mohalla, Mysuru, Karnataka 570001","Lashkar Mohalla, Mandi Mohalla","1585, Akbar Rd Cross",Mysuru,570001,Karnataka,IN,https://www.google.com/maps/place/Mysore+Shafi+Masjid/data=!4m7!3m6!1s0x3baf706dadc84d85:0xd89ab15adf274444!8m2!3d12.3170914!4d76.6554311!16s%2Fg%2F11g6x7qfr0!19sChIJhU3IrW1wrzsRREQn31qxmtg?authuser=0&hl=en&rclk=1,"12.317091399999999,76.6554311"
Markazi Masjid e Ahle Hadees As-Salafiayyah,Mosque,"Markazi Masjid e Ahle Hadees As-Salafiayyah, Lashkar Mohalla, Ashoka Rd, Menna Bazzar, Mandi Mohalla, Mysuru, Karnataka 570001","Menna Bazzar, Mandi Mohalla","Lashkar Mohalla, Ashoka Rd",Mysuru,570001,Karnataka,IN,https://www.google.com/maps/place/Markazi+Masjid+e+Ahle+Hadees+As-Salafiayyah/data=!4m7!3m6!1s0x3baf706ee0a20d49:0xd05a2868f72f3221!8m2!3d12.3220329!4d76.6571031!16s%2Fg%2F1pv0x2xdx!19sChIJSQ2i4G5wrzsRITIv92goWtA?authuser=0&hl=en&rclk=1,"12.3220329,76.6571031"
Masjid E Janath Ul Jalal,Mosque,"Masjid E Janath Ul Jalal, 1st Main Rd Srinagar - Kanyakumari Highway, 16th Cross Rd, B M Shree Nagar, Mysuru, Karnataka 570016",B M Shree Nagar,"1st Main Rd Srinagar - Kanyakumari Highway, 16th Cross Rd",Mysuru,570016,Karnataka,IN,https://www.google.com/maps/place/Masjid+E+Janath+Ul+Jalal/data=!4m7!3m6!1s0x3baf7a7853113921:0x34f0461f64ef29a!8m2!3d12.344165!4d76.6385291!16s%2Fg%2F1vcjkpsd!19sChIJITkRU3h6rzsRmvJO9mEETwM?authuser=0&hl=en&rclk=1,"12.344165,76.6385291"
Juma Masjid,Mosque,"8J8M+48G Juma Masjid, Vijaya Nagar 4th Stage, CFTRI Campus, Yadavagiri, Mysuru, Karnataka 570020","Vijaya Nagar 4th Stage, CFTRI Campus, Yadavagiri",8J8M+48G,Mysuru,570020,Karnataka,IN,https://www.google.com/maps/place/Juma+Masjid/data=!4m7!3m6!1s0x3baf7a98fd33b7af:0x1cf8fc4947e00fb2!8m2!3d12.3153201!4d76.6333127!16s%2Fg%2F11hbn3dl4s!19sChIJr7cz_Zh6rzsRsg_gR0n8-Bw?authuser=0&hl=en&rclk=1,"12.3153201,76.63331269999999"
Masjid E Khairul Wara,Mosque,"8MPH+F9P Masjid E Khairul Wara, All Badar Circle, Rajiv Nagar 2nd Stage, Rajiv Nagar, Mysuru, Karnataka 570024","Rajiv Nagar 2nd Stage, 2nd Stage, Rajiv Nagar","8MPH+F9P, All Badar Circle",Mysuru,570024,Karnataka,IN,https://www.google.com/maps/place/Masjid+E+Khairul+Wara/data=!4m7!3m6!1s0x3baf7057ceaafb7d:0xee16ef9cec3b0217!8m2!3d12.3362228!4d76.6784462!16s%2Fg%2F1w2ys9sm!19sChIJffuqzldwrzsRFwI77JzvFu4?authuser=0&hl=en&rclk=1,"12.3362228,76.6784462"
Masjid -E- Ar Rahman Ahle Hadees Mysore,Mosque,"Masjid -E- Ar Rahman Ahle Hadees Mysore, Siddiqui Nagar Main Road, S S Nagar, Siddique Nagar, Bannimantap, Mysuru, Karnataka 570015","S S Nagar, Siddique Nagar, Bannimantap",Siddiqui Nagar Main Road,Mysuru,570015,Karnataka,IN,https://www.google.com/maps/place/Masjid+-E-+Ar+Rahman+Ahle+Hadees+Mysore/data=!4m7!3m6!1s0x3baf716e61f92d13:0xf6abe8b6f87aeca!8m2!3d12.349073!4d76.656913!16s%2Fg%2F11f62n4njb!19sChIJEy35YW5xrzsRyq6Hb4u-ag8?authuser=0&hl=en&rclk=1,"12.349072999999999,76.656913"
Santhepet Rahmaniya Masjid,Mosque,"8M52+57X Santhepet Rahmaniya Masjid, Bidaram Krishnappa Street, Santhepet, Shivarampete, Subbarayanakere, Chamrajpura, Mysuru, Karnataka 570004","Subbarayanakere, Chamrajpura","8M52+57X, Bidaram Krishnappa Street, Santhepet, Shivarampete, Subbarayanakere, Chamrajpura",Mysuru,570004,Karnataka,IN,https://www.google.com/maps/place/Santhepet+Rahmaniya+Masjid/data=!4m7!3m6!1s0x3baf700dd78b60f3:0x535668babac20ea9!8m2!3d12.3079959!4d76.6507325!16s%2Fg%2F11bytv2h18!19sChIJ82CL1w1wrzsRqQ7CurpoVlM?authuser=0&hl=en&rclk=1,"12.3079959,76.65073249999999"
Masjid E Attaqwa Ahle Hadees,Mosque,"Masjid E Attaqwa Ahle Hadees, #360, Ghousia Nagar C Block Mysore, Mysuru, Karnataka 570019","Shantinagara North, Udayagiri","#360, Ghousia Nagar C Block Mysore",Mysuru,570019,Karnataka,IN,https://www.google.com/maps/place/Masjid+E+Attaqwa+Ahle+Hadees/data=!4m7!3m6!1s0x3baf705281345dff:0x2490d2af49f60264!8m2!3d12.326726!4d76.684837!16s%2Fg%2F11b6xr6ddg!19sChIJ_100gVJwrzsRZAL2Sa_SkCQ?authuser=0&hl=en&rclk=1,"12.326725999999999,76.684837"
Masjid-e-Siddique (msjdi Sdyqi),Mosque,"9M25+2QG Masjid-e-Siddique (msjdi Sdyqi), Siddique Nagar, Bannimantap, Mysuru, Karnataka 570015","Siddique Nagar, Bannimantap",9M25+2QG,Mysuru,570015,Karnataka,IN,https://www.google.com/maps/place/Masjid-e-Siddique+%28%D9%85%D8%B3%D8%AC%D8%AF%D9%90+%D8%B5%D8%AF%DB%8C%D9%82%D9%90%29%E2%80%AD/data=!4m7!3m6!1s0x3baf7092323908ad:0x8445bdac8ba114a2!8m2!3d12.3500689!4d76.6594424!16s%2Fg%2F11g6qv1dzr!19sChIJrQg5MpJwrzsRohShi6y9RYQ?authuser=0&hl=en&rclk=1,"12.3500689,76.6594424"
Rifah Masjid,Mosque,"8J8X+PJ7 Rifah Masjid, Sayyaji Rao Rd, Medar Block, Yadavagiri, Mysuru, Karnataka 570001","Medar Block, Yadavagiri","8J8X+PJ7, Sayyaji Rao Rd",Mysuru,570001,Karnataka,IN,https://www.google.com/maps/place/Rifah+Masjid/data=!4m7!3m6!1s0x3baf7073b124f623:0x2e471af8cd2515c9!8m2!3d12.3167851!4d76.6490431!16s%2Fg%2F11h0kc4js!19sChIJI_YksXNwrzsRyRUlzfgaRy4?authuser=0&hl=en&rclk=1,"12.316785099999999,76.6490431"
Ghousiya Masjid,Mosque,"Ghousiya Masjid, Ghousiya masjid, Ghousia Nagar, Mysuru, Karnataka 570019",Ghousia Nagar,Ghousiya masjid,Mysuru,570019,Karnataka,IN,https://www.google.com/maps/place/Ghousiya+Masjid/data=!4m7!3m6!1s0x3baf704bd14e535d:0xf73983806ced2465!8m2!3d12.3182526!4d76.6820906!16s%2Fg%2F11dzw4xy9x!19sChIJXVNO0UtwrzsRZSTtbICDOfc?authuser=0&hl=en&rclk=1,"12.3182526,76.6820906"
Masjid E Jyothi Nagar,Mosque,"8M7H+H6R Masjid E Jyothi Nagar, Jyothi Nagar, Chamundi Vihar Layout, Mysuru, Karnataka 570019","Jyothi Nagar, Chamundi Vihar Layout",8M7H+H6R,Mysuru,570019,Karnataka,IN,https://www.google.com/maps/place/Masjid+E+Jyothi+Nagar/data=!4m7!3m6!1s0x3baf7037c5730c0b:0xb779555a98d6c13!8m2!3d12.3139999!4d76.6780069!16s%2Fg%2F1ptx2jbv5!19sChIJCwxzxTdwrzsRE2yNqVWVdws?authuser=0&hl=en&rclk=1,"12.313999899999999,76.6780069"
Masjid - E - Malbari keerll musliN jmatt,Mosque,"Masjid - E - Malbari keerll musliN jmatt, 1786/1, Akbar Rd Cross, Lashkar Mohalla, Mandi Mohalla, Mysuru, Karnataka 570024","Lashkar Mohalla, Mandi Mohalla","1786/1, Akbar Rd Cross",Mysuru,570024,Karnataka,IN,https://www.google.com/maps/place/Masjid+-+E+-+Malbari+%E0%B4%95%E0%B5%87%E0%B4%B0%E0%B4%B3+%E0%B4%AE%E0%B5%81%E0%B4%B8%E0%B5%8D%E0%B4%B2%E0%B4%BF%E0%B4%82+%E0%B4%9C%E0%B4%AE%E0%B4%85%E0%B4%A4%E0%B5%8D%E0%B4%A4%E0%B5%8D/data=!4m7!3m6!1s0x3baf706dadcfcfb5:0x7af1d1c34f219c30!8m2!3d12.317091!4d76.6553976!16s%2Fg%2F1ptwhxbmx!19sChIJtc_PrW1wrzsRMJwhT8PR8Xo?authuser=0&hl=en&rclk=1,"12.317091,76.6553976"
Mohommadiya Masjid,Mosque,"8MHH+VMH Mohommadiya Masjid, Shantinagara North, Rajiv Nagar, Mysuru, Karnataka 570019","Shantinagara North, Rajiv Nagar",8MHH+VMH,Mysuru,570019,Karnataka,IN,https://www.google.com/maps/place/Mohommadiya+Masjid/data=!4m7!3m6!1s0x3baf70511b67d655:0x13fb2f952f6426f8!8m2!3d12.3296789!4d76.6792377!16s%2Fg%2F11b6p73410!19sChIJVdZnG1FwrzsR-CZkL5Uv-xM?authuser=0&hl=en&rclk=1,"12.3296789,76.6792377"
"Makkah Masjid, Ahle Sunnath Masjid",Mosque,"Makkah Masjid, Ahle Sunnath Masjid, 523, 4th Cross, Shantinagara North, 2nd Stage, Rajiv Nagar, Mysuru, Karnataka 570019","Shantinagara North, Rajiv Nagar","523, 4th Cross, Shantinagara North, 2nd Stage, Rajiv Nagar",Mysuru,570019,Karnataka,IN,"https://www.google.com/maps/place/Makkah+Masjid,+Ahle+Sunnath+Masjid/data=!4m7!3m6!1s0x3baf7056c7d185c5:0x3aa8870c6d016766!8m2!3d12.3325704!4d76.6801433!16s%2Fg%2F12hp6cy66!19sChIJxYXRx1ZwrzsRZmcBbQyHqDo?authuser=0&hl=en&rclk=1","12.3325704,76.6801433"
Masjid E Ammar,Mosque,"8MJH+G4W Masjid E Ammar, shathi Nagar North, Shantinagara North, Rajiv Nagar, Mysuru, Karnataka 570019","Shantinagara North, Rajiv Nagar","8MJH+G4W, shathi Nagar North",Mysuru,570019,Karnataka,IN,https://www.google.com/maps/place/Masjid+E+Ammar/data=!4m7!3m6!1s0x3baf7050cc3b8693:0x85f2b9644524fd5!8m2!3d12.3313517!4d76.6778378!16s%2Fg%2F11f3y07vx6!19sChIJk4Y7zFBwrzsR1U9SRJYrXwg?authuser=0&hl=en&rclk=1,"12.331351699999999,76.67783779999999"
Masjid E Marwa,Mosque,"8MGV+JF6 Masjid E Marwa, Sathagalli Layout, Mysuru, Karnataka 570019",Sathagalli Layout,8MGV+JF6,Mysuru,570019,Karnataka,IN,https://www.google.com/maps/place/Masjid+E+Marwa/data=!4m7!3m6!1s0x3baf71b1fbf294df:0x408706577ee22317!8m2!3d12.3265455!4d76.6936414!16s%2Fg%2F11fy2tg7xy!19sChIJ35Ty-7FxrzsRFyPiflcGh0A?authuser=0&hl=en&rclk=1,"12.3265455,76.69364139999999"
"Alnoor,Kerala Masjid",Mosque,"8MFM+8GW Alnoor,Kerala Masjid, Udayagiri, Mysuru, Karnataka 570019",Udayagiri,8MFM+8GW,Mysuru,570019,Karnataka,IN,"https://www.google.com/maps/place/Alnoor,Kerala+Masjid/data=!4m7!3m6!1s0x3baf704c528cccb9:0x733a088933e903b9!8m2!3d12.323371!4d76.6838387!16s%2Fg%2F11dx8yxyk9!19sChIJucyMUkxwrzsRuQPpM4kIOnM?authuser=0&hl=en&rclk=1","12.323371,76.6838387"
Masjid e Nida,Mosque,"Masjid e Nida, 323, San Marg, Siddhartha Layout, Mysuru, Karnataka 570011",Siddhartha Layout,"323, San Marg",Mysuru,570011,Karnataka,IN,https://www.google.com/maps/place/Masjid+e+Nida/data=!4m7!3m6!1s0x3baf702d77c7e809:0x2fc6f50a6c277519!8m2!3d12.303084!4d76.6846015!16s%2Fg%2F11g8bx5qpn!19sChIJCejHdy1wrzsRGXUnbAr1xi8?authuser=0&hl=en&rclk=1,"12.303084,76.6846015"
MASJID-E-MUBEEN (msjdi mubyn),Mosque,"MASJID-E-MUBEEN (msjdi mubyn), 10th cross, Shivaji Rd, N R Mohalla, 2nd Stage, R.S.Naidu Nagar, Mysuru, Karnataka 570007","N R Mohalla, 2nd Stage, R.S.Naidu Nagar","10th cross, Shivaji Rd",Mysuru,570007,Karnataka,IN,https://www.google.com/maps/place/MASJID-E-MUBEEN+%28%D9%85%D8%B3%D8%AC%D8%AF%D9%90+%D9%85%D9%8F%D8%A8%DB%8C%D9%86%29%E2%80%AD/data=!4m7!3m6!1s0x3baf710d39d54021:0xda7dfcef60347f7b!8m2!3d12.3336859!4d76.6656479!16s%2Fg%2F11hgl6p3x2!19sChIJIUDVOQ1xrzsRe380YO_8fdo?authuser=0&hl=en&rclk=1,"12.333685899999999,76.6656479"
Elahi Masjid,Mosque,"8MGC+H3M Elahi Masjid, satyanagar udyagiri, Satya Marg, Siddhartha Layout, Mysuru, Karnataka 570011","Udayagir, Siddhartha Layout","8MGC+H3M, satyanagar udyagiri, Satya Marg",Mysuru,570011,Karnataka,IN,https://www.google.com/maps/place/Elahi+Masjid/data=!4m7!3m6!1s0x3baf705b544d77bf:0x14eba308ac86e358!8m2!3d12.3264686!4d76.670187!16s%2Fg%2F11fx912lsd!19sChIJv3dNVFtwrzsRWOOGrAij6xQ?authuser=0&hl=en&rclk=1,"12.3264686,76.670187"
mecca masjid,Mosque,"8MJH+RQM mecca masjid, 12th Cross Rd, Shantinagara North, Rajiv Nagar, Mysuru, Karnataka 570019","Shantinagara North, Rajiv Nagar","8MJH+RQM, 12th Cross Rd",Mysuru,570019,Karnataka,IN,https://www.google.com/maps/place/mecca+masjid/data=!4m7!3m6!1s0x3baf7107dda0335b:0x42959b9849026b52!8m2!3d12.3320936!4d76.6794307!16s%2Fg%2F11ghrfc0nc!19sChIJWzOg3QdxrzsRUmsCSZiblUI?authuser=0&hl=en&rclk=1,"12.3320936,76.6794307"
Masjid e Ayesha (Ahle Hadees) Mysuru,Mosque,"8MR7+R8C Masjid e Ayesha (Ahle Hadees) Mysuru, 2nd Stage, R.S.Naidu Nagar, Hale Kesare, Mysuru, Karnataka 570007","2nd Stage, R.S.Naidu Nagar",8MR7+R8C,"Hale Kesare, Mysuru",570007,Karnataka,IN,https://www.google.com/maps/place/Masjid+e+Ayesha+%28Ahle+Hadees%29+Mysuru/data=!4m7!3m6!1s0x3baf7164be8dfd23:0x78259b223df91ffc!8m2!3d12.3420584!4d76.6632597!16s%2Fg%2F11fjbqm2n3!19sChIJI_2NvmRxrzsR_B_5PSKbJXg?authuser=0&hl=en&rclk=1,"12.342058399999999,76.6632597"
Masjid_E_Ibrahim .A.S(`lyh lslm),Mosque,"Masjid_E_Ibrahim .A.S(`lyh lslm), N R Mohalla, Rajendra Nagar, Mysuru, Karnataka 570019","N R Mohalla, Rajendra Nagar",,Mysuru,570019,Karnataka,IN,https://www.google.com/maps/place/Masjid_E_Ibrahim+.A.S%28%D8%B9%D9%84%D9%8A%D9%87+%D8%A7%D9%84%D8%B3%D9%84%D8%A7%D9%85%29%E2%80%AD/data=!4m7!3m6!1s0x3baf704369c9f4c5:0xac8ebb8332610da7!8m2!3d12.3247853!4d76.6675241!16s%2Fg%2F11csb21zsz!19sChIJxfTJaUNwrzsRpw1hMoO7jqw?authuser=0&hl=en&rclk=1,"12.3247853,76.6675241"
Masjid E Baghban msjd,Mosque,"8M94+5CR Masjid E Baghban msjd, Lashkar Mohalla, Mandi Mohalla, Mysuru, Karnataka 570024","Lashkar Mohalla, Mandi Mohalla",8M94+5CR,Mysuru,570024,Karnataka,IN,https://www.google.com/maps/place/Masjid+E+Baghban+%D9%85%D8%B3%D8%AC%D8%AF%E2%80%AD/data=!4m7!3m6!1s0x3baf706c35f3d61d:0x2d9edbcd8db44b12!8m2!3d12.3179925!4d76.6560034!16s%2Fg%2F1pv5_zr4z!19sChIJHdbzNWxwrzsREku0jc3bni0?authuser=0&hl=en&rclk=1,"12.317992499999999,76.6560034"
Masjid - E - Omer Khan,Mosque,"8M82+CX4 Masjid - E - Omer Khan, Kali Temple St, Devaraja Mohalla, CFTRI Campus, Mandi Mohalla, Mysuru, Karnataka 570024","Devaraja Mohalla, CFTRI Campus, Mandi Mohalla","8M82+CX4, Kali Temple St",Mysuru,570024,Karnataka,IN,https://www.google.com/maps/place/Masjid+-+E+-+Omer+Khan/data=!4m7!3m6!1s0x3baf707283ea848d:0xeffa47a2656abc13!8m2!3d12.3160062!4d76.6524602!16s%2Fg%2F1hdzy2b66!19sChIJjYTqg3JwrzsRE7xqZaJH-u8?authuser=0&hl=en&rclk=1,"12.316006199999999,76.6524602"
Al Badar Masjid,Mosque,"8MJG+XXR Al Badar Masjid, Al Badar Circle, 504/1, Al Badar Masjid Main Rd, Udayagir, 2nd Stage, Rajiv Nagar, Mysuru, Karnataka 570019","Udayagir, 2nd Stage, Rajiv Nagar","8MJG+XXR Al Badar Circle, 504/1, Al Badar Masjid Main Rd",Mysuru,570019,Karnataka,IN,https://www.google.com/maps/place/Al+Badar+Masjid/data=!4m7!3m6!1s0x3baf71785787fbff:0xcab58e31d69dc676!8m2!3d12.3345848!4d76.6764811!16s%2Fg%2F11lt4kkcs7!19sChIJ__uHV3hxrzsRdsad1jGOtco?authuser=0&hl=en&rclk=1,"12.3345848,76.67648109999999"
Ansar Masjid,Mosque,"8MQ8+RG5 Ansar Masjid, Nagunhalli Rd, 2nd Stage, R.S.Naidu Nagar, Mysuru, Karnataka 570007","2nd Stage, R.S.Naidu Nagar","8MQ8+RG5, Nagunhalli Rd",Mysuru,570007,Karnataka,IN,https://www.google.com/maps/place/Ansar+Masjid/data=!4m7!3m6!1s0x3baf711c5158b813:0x8cfe211253c285ae!8m2!3d12.3395196!4d76.6663594!16s%2Fg%2F11g0d4h9w8!19sChIJE7hYURxxrzsRroXCUxIh_ow?authuser=0&hl=en&rclk=1,"12.3395196,76.66635939999999"
Masjid E Alhe Hadees Gousiya Nager Mysore,Mosque,"8MCP+8G8 Masjid E Alhe Hadees Gousiya Nager Mysore, Udayagiri, Mysuru, Karnataka 570019",Udayagiri,8MCP+8G8,Mysuru,570019,Karnataka,IN,https://www.google.com/maps/place/Masjid+E+Alhe+Hadees+Gousiya+Nager+Mysore/data=!4m7!3m6!1s0x3baf704b5f405d77:0x30e85e6099c30339!8m2!3d12.3207949!4d76.6863291!16s%2Fg%2F11g6z1j5dh!19sChIJd11AX0twrzsROQPDmWBe6DA?authuser=0&hl=en&rclk=1,"12.3207949,76.6863291"
Railway Masjid,Mosque,"8J9V+WM9 Railway Masjid, Railway Quarters Yadavagiri, Railway loco colony, opposite to Vani vilas water works, Medar Block, Yadavagiri, Mysuru, Karnataka 570020","Medar Block, Yadavagiri","8J9V+WM9, Railway Quarters Yadavagiri, Railway loco colony, opposite to Vani vilas water works",Mysuru,570020,Karnataka,IN,https://www.google.com/maps/place/Railway+Masjid/data=!4m7!3m6!1s0x3baf7077f635fe25:0xa2c271f634fec69c!8m2!3d12.3197803!4d76.6442373!16s%2Fg%2F11bz_zpwpf!19sChIJJf419ndwrzsRnMb-NPZxwqI?authuser=0&hl=en&rclk=1,"12.3197803,76.6442373"
Khadriya Masjid,Mosque,"7JVX+CHX Khadriya Masjid, Madavachar Rd, KR Mohalla, Ramachandra Agrahara, Mysuru, Karnataka 570004","KR Mohalla, Ramachandra Agrahara","7JVX+CHX, Madavachar Rd",Mysuru,,Karnataka,IN,https://www.google.com/maps/place/Khadriya+Masjid/data=!4m7!3m6!1s0x3baf70024c3f46f3:0x7518744b6b346f81!8m2!3d12.2936205!4d76.6489898!16s%2Fg%2F11f3ct8pzq!19sChIJ80Y_TAJwrzsRgW80a0t0GHU?authuser=0&hl=en&rclk=1,"12.2936205,76.6489898"
Masjid e Ahad,Mosque,"Masjid e Ahad, No 34/35, Ali Miyan Rd, Christian Colony, 2nd Stage, Nagar, Rajiv Nagar, Mysuru, Karnataka 570019","Christian Colony, 2nd Stage, Nagar, Rajiv Nagar","No 34/35, Ali Miyan Rd",Mysuru,570019,Karnataka,IN,https://www.google.com/maps/place/Masjid+e+Ahad/data=!4m7!3m6!1s0x3baf71f39fe516fb:0x7d4acd90f262e5b5!8m2!3d12.3347649!4d76.6712189!16s%2Fg%2F11h71ntfyh!19sChIJ-xbln_NxrzsRteVi8pDNSn0?authuser=0&hl=en&rclk=1,"12.3347649,76.6712189"
Najma masjid,Mosque,"8MVX+J9 Najma masjid, Mysuru, Karnataka 570019",,8MVX+J9,Mysuru,,Karnataka,IN,https://www.google.com/maps/place/Najma+masjid/data=!4m7!3m6!1s0x3baf71403884c9a5:0xbde6f93ac6f0f556!8m2!3d12.3440674!4d76.6984414!16s%2Fg%2F11sx4rxhsh!19sChIJpcmEOEBxrzsRVvXwxjr55r0?authuser=0&hl=en&rclk=1,"12.3440674,76.6984414"
Masjid E Meeran Baig,Mosque,"7MW2+J49 Masjid E Meeran Baig, Agrhara Main Road, Agrahara, Nanutinullgi, Lakshmipuram, Mysuru, Karnataka 570024","Agrahara, Nanutinullgi, Lakshmipuram","7MW2+J49, Agrhara Main Road",Mysuru,570024,Karnataka,IN,https://www.google.com/maps/place/Masjid+E+Meeran+Baig/data=!4m7!3m6!1s0x3baf70037c021ce7:0x2e6a07c2209335a4!8m2!3d12.2965325!4d76.6503593!16s%2Fg%2F1ptz0rmgt!19sChIJ5xwCfANwrzsRpDWTIMIHai4?authuser=0&hl=en&rclk=1,"12.2965325,76.65035929999999"
Masjid-e-Yusuf,Mosque,"Masjid-e-Yusuf, 2, Mahadevapura Main Rd, KEB Colony, Mahadevapura Main Rd, KEB Colony, Udayagiri, Mysuru, Karnataka 570019","KEB Colony, Udayagiri","2, Mahadevapura Main Rd, KEB Colony, Mahadevapura Main Rd",Mysuru,570019,Karnataka,IN,https://www.google.com/maps/place/Masjid-e-Yusuf/data=!4m7!3m6!1s0x3baf704e160d9209:0xd2315a8416ceb365!8m2!3d12.3251724!4d76.6803237!16s%2Fg%2F11g69gcgch!19sChIJCZINFk5wrzsRZbPOFoRaMdI?authuser=0&hl=en&rclk=1,"12.3251724,76.6803237"
Masjid Ul Muslimeen,Mosque,"8M8M+M9C Masjid Ul Muslimeen, Ghousia Nagar, Mysuru, Karnataka 570019",Ghousia Nagar,8M8M+M9C,Mysuru,570019,Karnataka,IN,https://www.google.com/maps/place/Masjid+Ul+Muslimeen/data=!4m7!3m6!1s0x3baf704a41a05555:0x3326cc787823a3fc!8m2!3d12.3166774!4d76.6833991!16s%2Fg%2F11f50kgzz_!19sChIJVVWgQUpwrzsR_KMjeHjMJjM?authuser=0&hl=en&rclk=1,"12.3166774,76.6833991"
Masjid E Zahida,Mosque,"8MMW+P89 Masjid E Zahida, Madepura Main Road, Bharath Nagar, Mysuru, Karnataka 570024",Bharath Nagar,"8MMW+P89, Madepura Main Road",Mysuru,570024,Karnataka,IN,https://www.google.com/maps/place/Masjid+E+Zahida/data=!4m7!3m6!1s0x3baf71a91ea7549d:0x872df7fbd229472f!8m2!3d12.3342766!4d76.695844!16s%2Fg%2F1pp2txmwq!19sChIJnVSnHqlxrzsRL0cp0vv3LYc?authuser=0&hl=en&rclk=1,"12.334276599999999,76.695844"
Masjid E Raza,Mosque,"8M9J+MGG Masjid E Raza, Ghousia Nagar, Mysuru, Karnataka 570019",Ghousia Nagar,8M9J+MGG,Mysuru,570019,Karnataka,IN,https://www.google.com/maps/place/Masjid+E+Raza/data=!4m7!3m6!1s0x3baf70496753dccb:0x8778e06a11c2a9cc!8m2!3d12.3191832!4d76.6813155!16s%2Fg%2F11c5bgw_2m!19sChIJy9xTZ0lwrzsRzKnCEWrgeIc?authuser=0&hl=en&rclk=1,"12.3191832,76.6813155"
Zakariyya Masjid,Mosque,"8MJG+8JH Zakariyya Masjid, 11th Cross Rd, Rajiv Nagar, Mysuru, Karnataka 570019",Rajiv Nagar,"8MJG+8JH, 11th Cross Rd",Mysuru,570019,Karnataka,IN,https://www.google.com/maps/place/Zakariyya+Masjid/data=!4m7!3m6!1s0x3baf7050a549891f:0x522f3cf289b0404f!8m2!3d12.3308046!4d76.6766202!16s%2Fg%2F11bvt5tdb1!19sChIJH4lJpVBwrzsRT0CwifI8L1I?authuser=0&hl=en&rclk=1,"12.330804599999999,76.6766202"
Masjid-e-Moula Hussain,Mosque,"8MF9+WRC Masjid-e-Moula Hussain, SATYANAGAR and A J block link Road, N R Mohalla, Mysuru, Karnataka 570007","N R Mohalla, Gayathri Puram","8MF9+WRC, SATYANAGAR and A J block link Road",Mysuru,570007,Karnataka,IN,https://www.google.com/maps/place/Masjid-e-Moula+Hussain/data=!4m7!3m6!1s0x3baf7176e7231089:0x907a081562f8b786!8m2!3d12.3248108!4d76.6695106!16s%2Fg%2F11fjy4jy73!19sChIJiRAj53ZxrzsRhrf4YhUIepA?authuser=0&hl=en&rclk=1,"12.3248108,76.6695106"
Masjid Mina,Mosque,"8MC7+595 Masjid Mina, Earangere, Mandi Mohalla, Mysuru, Karnataka 570001","Earangere, Mandi Mohalla",8MC7+595,Mysuru,570001,Karnataka,IN,https://www.google.com/maps/place/Masjid+Mina/data=!4m7!3m6!1s0x3baf706bceb0730d:0x735ead13f9e4f5ed!8m2!3d12.3203876!4d76.663479!16s%2Fg%2F11c3svmcmf!19sChIJDXOwzmtwrzsR7fXk-ROtXnM?authuser=0&hl=en&rclk=1,"12.3203876,76.663479"
Makkah Masjid,Mosque,"8MV7+VWH Makkah Masjid, 2nd Stage, R.S.Naidu Nagar, Hale Kesare, Mysuru, Karnataka 570007","2nd Stage, R.S.Naidu Nagar",8MV7+VWH,"Hale Kesare, Mysuru",570007,Karnataka,IN,https://www.google.com/maps/place/Makkah+Masjid/data=!4m7!3m6!1s0x3baf70f329318d7f:0xf37defa09d2ed669!8m2!3d12.344685!4d76.6648627!16s%2Fg%2F11c2lhyk6n!19sChIJf40xKfNwrzsRadYunaDvffM?authuser=0&hl=en&rclk=1,"12.344685,76.6648627"
Masjid-e- Hamza,Mosque,"8M8M+CMW Masjid-e- Hamza, Ghousia Nagar, Mysuru, Karnataka 570019",Ghousia Nagar,8M8M+CMW,Mysuru,570019,Karnataka,IN,https://www.google.com/maps/place/Masjid-e-+Hamza/data=!4m7!3m6!1s0x3baf704970000001:0xea731090983346ef!8m2!3d12.3161147!4d76.6842145!16s%2Fg%2F11gg9l2pmx!19sChIJAQAAcElwrzsR70YzmJAQc-o?authuser=0&hl=en&rclk=1,"12.3161147,76.6842145"
Noor-E-Elahi Masjid (msjdi nuwri ilhy),Mosque,"Noor-E-Elahi Masjid (msjdi nuwri ilhy), 905/1, Sunnadakeri, KR Mohalla, Rahmania Mohalla, Mysuru, Karnataka 570004","Sunnadakeri, KR Mohalla, Rahmania Mohalla",905/1,Mysuru,570004,Karnataka,IN,https://www.google.com/maps/place/Noor-E-Elahi+Masjid+%28%D9%85%D8%B3%D8%AC%D8%AF%D9%90+%D9%86%D9%8F%D9%88%D8%B1%D9%90+%D8%A7%D9%90%D9%84%DB%81%DB%8C%29%E2%80%AD/data=!4m7!3m6!1s0x3baf7005ce4b5513:0x6696c3e5157bac0f!8m2!3d12.2998812!4d76.6478814!16s%2Fg%2F11g69ht5jj!19sChIJE1VLzgVwrzsRD6x7FeXDlmY?authuser=0&hl=en&rclk=1,"12.2998812,76.6478814"
Masjid E Zubaida,Mosque,"hyderali block, Masjid E Zubaida, Sultan Rd, Ghousia Nagar, Mysuru, Karnataka 570019",Ghousia Nagar,"hyderali block, Sultan Rd",Mysuru,570019,Karnataka,IN,https://www.google.com/maps/place/Masjid+E+Zubaida/data=!4m7!3m6!1s0x3baf704d2a46a641:0xa48be969f9c8a56b!8m2!3d12.3238171!4d76.687221!16s%2Fg%2F11d_8s7zjs!19sChIJQaZGKk1wrzsRa6XI-Wnpi6Q?authuser=0&hl=en&rclk=1,"12.3238171,76.687221"
Masjid Khadeejatul Kubra,Mosque,"8MP4+MXC Masjid Khadeejatul Kubra, Bannimantap, Mysuru, Karnataka 570015",Bannimantap,8MP4+MXC,Mysuru,570015,Karnataka,IN,https://www.google.com/maps/place/Masjid+Khadeejatul+Kubra/data=!4m7!3m6!1s0x3baf7089e6a2b04b:0xfc7fbe85cdfaff03!8m2!3d12.3366829!4d76.657402!16s%2Fg%2F11hcw3_k7_!19sChIJS7Ci5olwrzsRA__6zYW-f_w?authuser=0&hl=en&rclk=1,"12.3366829,76.65740199999999"
MASJID E AYESHA,Mosque,"MASJID E AYESHA, Unnamed Road, Shantinagara North, Udayagiri, Mysuru, Karnataka 570019","Shantinagara North, Udayagiri",Unnamed Road,Mysuru,570019,Karnataka,IN,https://www.google.com/maps/place/MASJID+E+AYESHA/data=!4m7!3m6!1s0x3baf7122dd7c9dab:0xbc153767bff27c48!8m2!3d12.3294395!4d76.6815686!16s%2Fg%2F11jrsb8ndc!19sChIJq5183SJxrzsRSHzyv2c3Fbw?authuser=0&hl=en&rclk=1,"12.3294395,76.68156859999999"
Masjid E Abu Bakkar Ahlehadees,Mosque,"Masjid E Abu Bakkar Ahlehadees, 27, Subhasnagara, Rajendra Nagar, Mysuru, Karnataka 570007","Subhasnagara, Rajendra Nagar",27,Mysuru,570007,Karnataka,IN,https://www.google.com/maps/place/Masjid+E+Abu+Bakkar+Ahlehadees/data=!4m7!3m6!1s0x3baf7061552b769b:0x96ba1e2625d2b361!8m2!3d12.3314088!4d76.658726!16s%2Fg%2F11d_7hcvmp!19sChIJm3YrVWFwrzsRYbPSJSYeupY?authuser=0&hl=en&rclk=1,"12.3314088,76.658726"
Tameem Masjid,Mosque,"Tameem Masjid, 18th cross tameemmasjid road, Shanthinagar, Keshavanagar, Shikaripur, Karnataka","Shantinagara North, Shanthinagar, Keshavanagar",18th cross tameemmasjid road,"Shikaripur, Mysuru",,Karnataka,IN,https://www.google.com/maps/place/Tameem+Masjid/data=!4m7!3m6!1s0x3baf7053af478415:0xf43fc16bb9f151ce!8m2!3d12.3297341!4d76.6841646!16s%2Fg%2F11d_9dp4x1!19sChIJFYRHr1NwrzsRzlHxuWvBP_Q?authuser=0&hl=en&rclk=1,"12.3297341,76.6841646"
Masjid e ameen,Mosque,"8MHP+6C7 Masjid e ameen, Shantinagara North, Udayagiri, Mysuru, Karnataka 570019","Shantinagara North, Udayagiri",8MHP+6C7,Mysuru,570019,Karnataka,IN,https://www.google.com/maps/place/Masjid+e+ameen/data=!4m7!3m6!1s0x3baf7052c1d31fe9:0x24575b500953ce0a!8m2!3d12.32803!4d76.6860603!16s%2Fg%2F11bx5tyyql!19sChIJ6R_TwVJwrzsRCs5TCVBbVyQ?authuser=0&hl=en&rclk=1,"12.32803,76.6860603"
Masjid-e-Annas,Mosque,"8MHM+R9Q Masjid-e-Annas, Shantinagara North, Rajiv Nagar, Mysuru, Karnataka 570019","Shantinagara North, Rajiv Nagar",8MHM+R9Q,Mysuru,570019,Karnataka,IN,https://www.google.com/maps/place/Masjid-e-Annas/data=!4m7!3m6!1s0x3baf7053b6c961e1:0x26e0d17775fda889!8m2!3d12.3295754!4d76.683478!16s%2Fg%2F11hbkkzr63!19sChIJ4WHJtlNwrzsRiaj9dXfR4CY?authuser=0&hl=en&rclk=1,"12.3295754,76.683478"
Masjid E Arfath (msjdi `rft),Mosque,"8MC3+J5P Masjid E Arfath (msjdi `rft), Kailasapuram, Mandi Mohalla, Mysuru, Karnataka 570001","Kailasapuram, Mandi Mohalla",8MC3+J5P,Mysuru,570001,Karnataka,IN,https://www.google.com/maps/place/Masjid+E+Arfath+%28%D9%85%D8%B3%D8%AC%D8%AF%D9%90+%D8%B9%D8%B1%D9%81%D8%A7%D8%AA%29%E2%80%AD/data=!4m7!3m6!1s0x3baf716a41bd695d:0x68086bf6687c8ffc!8m2!3d12.3215958!4d76.6529629!16s%2Fg%2F11h05bj16p!19sChIJXWm9QWpxrzsR_I98aPZrCGg?authuser=0&hl=en&rclk=1,"12.321595799999999,76.65296289999999"
Ambiya masjid,Mosque,"8MHR+RPR Ambiya masjid, Sathagalli Layout, Mysuru, Karnataka 570019",Sathagalli Layout,8MHR+RPR,Mysuru,570019,Karnataka,IN,https://www.google.com/maps/place/Ambiya+masjid/data=!4m7!3m6!1s0x3baf710de458cf05:0x2da930f7c166b5aa!8m2!3d12.3296238!4d76.6917667!16s%2Fg%2F11hzy7m31b!19sChIJBc9Y5A1xrzsRqrVmwfcwqS0?authuser=0&hl=en&rclk=1,"12.3296238,76.6917667"
Masjid-e-Aasiya (msjdi asyh),Mosque,"Masjid-e-Aasiya (msjdi asyh), #123,124,16th cross,1st main, Shanthinagar, Azeez Sait Main Rd, Mysuru, Karnataka 570019",Rajiv Nagar,"#123,124,16th cross,1st main, Shanthinagar, Azeez Sait Main Rd",Mysuru,570019,Karnataka,IN,https://www.google.com/maps/place/Masjid-e-Aasiya+%28%D9%85%D8%B3%D8%AC%D8%AF%D9%90+%D8%A2%D8%B3%D9%8A%D9%87%29%E2%80%AD/data=!4m7!3m6!1s0x3baf7050f6d68d9b:0x3a7233265400364e!8m2!3d12.3291702!4d76.677893!16s%2Fg%2F11dympyxb5!19sChIJm43W9lBwrzsRTjYAVCYzcjo?authuser=0&hl=en&rclk=1,"12.3291702,76.677893"
Masjid E Subhaniya,Mosque,"8MV6+2X2 Masjid E Subhaniya, R.S.Naidu Nagar, Hale Kesare, Mysuru, Karnataka 570007",R.S.Naidu Nagar,8MV6+2X2,"Hale Kesare, Mysuru",570007,Karnataka,IN,https://www.google.com/maps/place/Masjid+E+Subhaniya/data=!4m7!3m6!1s0x3baf71e1247634af:0xbc5bef1dfda26b3a!8m2!3d12.3425159!4d76.6624025!16s%2Fg%2F11h24r1z8c!19sChIJrzR2JOFxrzsROmui_R3vW7w?authuser=0&hl=en&rclk=1,"12.342515899999999,76.6624025"
Masjid e Jannat ul Baqi,Mosque,"7MG5+X24 Masjid e Jannat ul Baqi, Gundurao Nagar, Chamundipuram, Mysuru, Karnataka 570025","Gundurao Nagar, Chamundipuram",7MG5+X24,Mysuru,570025,Karnataka,IN,https://www.google.com/maps/place/Masjid+e+Jannat+ul+Baqi/data=!4m7!3m6!1s0x3baf6fa3c51c3e9f:0x723c3fa7ad805d54!8m2!3d12.2773912!4d76.6575769!16s%2Fg%2F11hyrvhqcg!19sChIJnz4cxaNvrzsRVF2Arac_PHI?authuser=0&hl=en&rclk=1,"12.2773912,76.6575769"
Masjid e Nizamuddin,Mosque,"8M9P+762 Masjid e Nizamuddin, Unnamed Road, Udayagiri, Mysuru, Karnataka 570019",Udayagiri,"8M9P+762, Unnamed Road",Mysuru,570019,Karnataka,IN,https://www.google.com/maps/place/Masjid+e+Nizamuddin/data=!4m7!3m6!1s0x3baf714d4e7354b1:0x93985a25e519dcf!8m2!3d12.3181473!4d76.6855214!16s%2Fg%2F11fm17kk6g!19sChIJsVRzTk1xrzsRz51RXqKFOQk?authuser=0&hl=en&rclk=1,"12.3181473,76.6855214"
Masjed E Al Momin,Mosque,"8MQR+8HP Masjed E Al Momin, Mysuru, Karnataka 570019",,8MQR+8HP,Mysuru,570019,Karnataka,IN,https://www.google.com/maps/place/Masjed+E+Al+Momin/data=!4m7!3m6!1s0x3baf713a8c05848b:0xda6cac8a3b467ee2!8m2!3d12.3383499!4d76.6914582!16s%2Fg%2F11k48l8v4b!19sChIJi4QFjDpxrzsR4n5GO4qsbNo?authuser=0&hl=en&rclk=1,"12.338349899999999,76.6914582"
Zubaida masjid,Mosque,"Zubaida masjid, hyder ali block, Ghousia Nagar, Mysuru, Karnataka 570019",Ghousia Nagar,hyder ali block,Mysuru,570019,Karnataka,IN,https://www.google.com/maps/place/Zubaida+masjid/data=!4m7!3m6!1s0x3baf7154826cadb7:0xb6e2266395e39e37!8m2!3d12.3229186!4d76.6853854!16s%2Fg%2F11hdyzv90m!19sChIJt61sglRxrzsRN57jlWMm4rY?authuser=0&hl=en&rclk=1,"12.3229186,76.6853854"
Mysore Shia Masjid,Mosque,"8M94+792 Mysore Shia Masjid, Unnamed Road, Lashkar Mohalla, Mandi Mohalla, Mysuru, Karnataka 570001","Lashkar Mohalla, Mandi Mohalla","8M94+792, Unnamed Road",Mysuru,570001,Karnataka,IN,https://www.google.com/maps/place/Mysore+Shia+Masjid/data=!4m7!3m6!1s0x3baf711356d83557:0x14b5630fe6c7027a!8m2!3d12.3181448!4d76.6559043!16s%2Fg%2F11h37wdhmz!19sChIJVzXYVhNxrzsRegLH5g9jtRQ?authuser=0&hl=en&rclk=1,"12.318144799999999,76.6559043"
Masjid E Mushayeqeen,Mosque,"8MQG+GJG Masjid E Mushayeqeen, Masjid Mushayeqeen, Char Chowkhi, Empire Layout, Syed Abdul Rahman Rd, near Shabnam Function Hall, 2nd Stage, Rajiv Nagar, Mysuru, Karnataka 570019","2nd Stage, Rajiv Nagar","8MQG+GJG, Masjid Mushayeqeen, Char Chowkhi, Empire Layout, Syed Abdul Rahman Rd, near Shabnam Function Hall",Mysuru,570019,Karnataka,IN,https://www.google.com/maps/place/Masjid+E+Mushayeqeen/data=!4m7!3m6!1s0x3baf71173f9cf72d:0x69b3b889346e2afb!8m2!3d12.3388034!4d76.6765636!16s%2Fg%2F11fq15p_l0!19sChIJLfecPxdxrzsR-ypuNIm4s2k?authuser=0&hl=en&rclk=1,"12.3388034,76.6765636"
Masjid,Mosque,"Masjid, #65 5 th cross, Maruthi Temple Rd, Gangothri Layout, Mysuru, Karnataka 570009",Gangothri Layout,"#65 5 th cross, Maruthi Temple Rd",Mysuru,570009,Karnataka,IN,https://www.google.com/maps/place/Masjid/data=!4m7!3m6!1s0x3baf7ba1677bab87:0x90cb9a279ce34557!8m2!3d12.3052306!4d76.6197303!16s%2Fg%2F11ry5ztw_8!19sChIJh6t7Z6F7rzsRV0XjnCeay5A?authuser=0&hl=en&rclk=1,"12.3052306,76.6197303"
Masjid E Khairunnisa,Mosque,"8MR6+F8J Masjid E Khairunnisa, Ajju Nagar, R.S.Naidu Nagar, Hale Kesare, Mysuru, Karnataka 570007",R.S.Naidu Nagar,8MR6+F8J Ajju Nagar,"Hale Kesare, Mysuru",570007,Karnataka,IN,https://www.google.com/maps/place/Masjid+E+Khairunnisa/data=!4m7!3m6!1s0x3baf71b17f76fb45:0xf3fd2e8638e1dfd1!8m2!3d12.3411815!4d76.6609002!16s%2Fg%2F11h_yrdtx9!19sChIJRft2f7FxrzsR0d_hOIYu_fM?authuser=0&hl=en&rclk=1,"12.3411815,76.6609002"
Masjid E Noumaan,Mosque,"Masjid E Noumaan, Rajiv Nagar 2BIT, All Badar Road, Shantinagara North, Rajiv Nagar, Mysuru, Karnataka 570024","Shantinagara North, Rajiv Nagar","Rajiv Nagar 2BIT, All Badar Road",Mysuru,570024,Karnataka,IN,https://www.google.com/maps/place/Masjid+E+Noumaan/data=!4m7!3m6!1s0x3baf7056e72ad5bf:0x12240cf61089e383!8m2!3d12.3332762!4d76.679171!16s%2Fg%2F1ptzzmfjp!19sChIJv9Uq51ZwrzsRg-OJEPYMJBI?authuser=0&hl=en&rclk=1,"12.3332762,76.679171"
Masjid-e-Fathimatuz-Zohra,Mosque,"8MHC+97F Masjid-e-Fathimatuz-Zohra, Unnamed Road, Udayagir, Gayathri Puram, Mysuru, Karnataka 570019","Udayagir, Gayathri Puram","8MHC+97F, Unnamed Road",Mysuru,570019,Karnataka,IN,https://www.google.com/maps/place/Masjid-e-Fathimatuz-Zohra/data=!4m7!3m6!1s0x3baf71810faa0b07:0xe4a42c9f829eb119!8m2!3d12.3284329!4d76.6706755!16s%2Fg%2F11mv4txqf7!19sChIJBwuqD4FxrzsRGbGegp8spOQ?authuser=0&hl=en&rclk=1,"12.3284329,76.6706755"
Masjid of Forum Centre City Mall,Mosque,"8M98+78V Masjid of Forum Centre City Mall, Jyothi Nagar, Gayathri Puram, Mysuru, Karnataka 570019","Jyothi Nagar, Gayathri Puram",8M98+78V,Mysuru,570019,Karnataka,IN,https://www.google.com/maps/place/Masjid+of+Forum+Centre+City+Mall/data=!4m7!3m6!1s0x3baf71265e1b63cb:0xaa079b9b4e166c25!8m2!3d12.3182411!4d76.6657828!16s%2Fg%2F11hdz80g7k!19sChIJy2MbXiZxrzsRJWwWTpubB6o?authuser=0&hl=en&rclk=1,"12.3182411,76.6657828"
Masjid E Mohammed Ilyas,Mosque,"8MJH+HFW Masjid E Mohammed Ilyas, 3rd Cross Rd, Shantinagara North, Rajiv Nagar, Mysuru, Karnataka 570019","Shantinagara North, Rajiv Nagar","8MJH+HFW, 3rd Cross Rd",Mysuru,570019,Karnataka,IN,https://www.google.com/maps/place/Masjid+E+Mohammed+Ilyas/data=!4m7!3m6!1s0x3baf71c7ae6389d5:0x6e986e3c83387646!8m2!3d12.3314874!4d76.6786959!16s%2Fg%2F11t65gd774!19sChIJ1YljrsdxrzsRRnY4gzxumG4?authuser=0&hl=en&rclk=1,"12.3314874,76.6786959"
Masjid e Qadeer,Mosque,"8JQV+9G6 Masjid e Qadeer, Hudco A Layout, Bannimantap, Mysuru, Karnataka 570015","Hudco A Layout, Bannimantap",8JQV+9G6,Mysuru,570015,Karnataka,IN,https://www.google.com/maps/place/Masjid+e+Qadeer/data=!4m7!3m6!1s0x3baf71307248d809:0xb807338309b9412a!8m2!3d12.3384008!4d76.6437538!16s%2Fg%2F11fl08463p!19sChIJCdhIcjBxrzsRKkG5CYMzB7g?authuser=0&hl=en&rclk=1,"12.338400799999999,76.6437538"
MASJID E ALA HAZRATH,Mosque,"8MQF+3M5 MASJID E ALA HAZRATH, S.A.S.A Layout, opp. shabnam function hall, 2nd Stage, Rajiv Nagar, Mysuru, Karnataka 570007","2nd Stage, Rajiv Nagar","8MQF+3M5, S.A.S.A Layout, opp. shabnam function hall",Mysuru,570007,Karnataka,IN,https://www.google.com/maps/place/MASJID+E+ALA+HAZRATH/data=!4m7!3m6!1s0x3baf7187d52a763b:0xfea8d0560587afba!8m2!3d12.3376348!4d76.674223!16s%2Fg%2F11n85x5cph!19sChIJO3Yq1YdxrzsRuq-HBVbQqP4?authuser=0&hl=en&rclk=1,"12.3376348,76.674223"
Masjid e noor ul huda,Mosque,"8J8X+RHP Masjid e noor ul huda, Sayyaji Rao Rd, Medar Block, Mandi Mohalla, Mysuru, Karnataka 570001","Medar Block, Mandi Mohalla","8J8X+RHP, Sayyaji Rao Rd",Mysuru,570001,Karnataka,IN,https://www.google.com/maps/place/Masjid+e+noor+ul+huda/data=!4m7!3m6!1s0x3baf71544883397d:0x93353f3ff79b18cf!8m2!3d12.317081!4d76.648944!16s%2Fg%2F11h6nrxlq_!19sChIJfTmDSFRxrzsRzxib9z8_NZM?authuser=0&hl=en&rclk=1,"12.317081,76.648944"
Masjid and Madarsa Khudadad,Mosque,"8MPJ+95W Masjid and Madarsa Khudadad, Gupta Store Main Rd, 2nd Stage, Rajiv Nagar, Mysuru, Karnataka 570007","2nd Stage, Rajiv Nagar","8MPJ+95W, Gupta Store Main Rd",Mysuru,570007,Karnataka,IN,https://www.google.com/maps/place/Masjid+and+Madarsa+Khudadad/data=!4m7!3m6!1s0x3baf71d41567784f:0x1322728718e2468!8m2!3d12.335976!4d76.6804455!16s%2Fg%2F11fmzgw45l!19sChIJT3hnFdRxrzsRaCSOcSgnMgE?authuser=0&hl=en&rclk=1,"12.335975999999999,76.68044549999999"
Masjid E Naksh Bandi,Mosque,"Masjid E Naksh Bandi, 3044, Akbar Rd Cross, Kailasapuram, Mandi Mohalla, Mysuru, Karnataka 570021","Kailasapuram, Mandi Mohalla","3044, Akbar Rd Cross",Mysuru,570021,Karnataka,IN,https://www.google.com/maps/place/Masjid+E+Naksh+Bandi/data=!4m7!3m6!1s0x3baf706deaf97199:0xc447bb2aa13754e4!8m2!3d12.318025!4d76.6541175!16s%2Fg%2F11csb3cs22!19sChIJmXH56m1wrzsR5FQ3oSq7R8Q?authuser=0&hl=en&rclk=1,"12.318024999999999,76.6541175"
