name,main_category,address,address_ward,address_street,address_city,address_postal_code,address_state,address_country_code,link,coordinates
Masjid-E-Bilal,Mosque,"C24W+4XG Masjid-E-Bilal, KGN Colony, Chintamani, Karnataka 563125",KGN Colony,C24W+4XG,Chintamani,563125,Karnataka,IN,https://www.google.com/maps/place/Masjid-E-Bilal/data=!4m7!3m6!1s0x3bb2058051055e2b:0x1ede2448d961970c!8m2!3d13.4053146!4d78.047452!16s%2Fg%2F11k9pqm5zm!19sChIJK14FUYAFsjsRDJdh2Ugk3h4?authuser=0&hl=en&rclk=1,"13.405314599999999,78.04745199999999"
Masjid E Umar msjd ` `mr,Mosque,"Masjid E Umar msjd ` `mr, KGN Colony, Chintamani, Karnataka 563125",KGN Colony,,Chintamani,563125,Karnataka,IN,https://www.google.com/maps/place/Masjid+E+Umar+%D9%85%D8%B3%D8%AC%D8%AF+%D8%B9+%D8%B9%D9%85%D8%B1%E2%80%AD/data=!4m7!3m6!1s0x3bb204f19aaaaaab:0xf3bfbd0d01216f60!8m2!3d13.4044087!4d78.0487596!16s%2Fg%2F11b7hlx48f!19sChIJq6qqmvEEsjsRYG8hAQ29v_M?authuser=0&hl=en&rclk=1,"13.4044087,78.0487596"
Masjid E Noorani Ahlesunnath O Jama'ath,Mosque,"C22W+QF4 Masjid E Noorani Ahlesunnath O Jama'ath, Venkatagiri Kote, Chintamani, Karnataka 563125",Venkatagiri Kote,C22W+QF4,Chintamani,563125,Karnataka,IN,https://www.google.com/maps/place/Masjid+E+Noorani+Ahlesunnath+O+Jama%27ath/data=!4m7!3m6!1s0x3bb204f47113d581:0x6c623e56d2daedc7!8m2!3d13.401889!4d78.0462117!16s%2Fg%2F11dxnz4h3k!19sChIJgdUTcfQEsjsRx-3a0lY-Ymw?authuser=0&hl=en&rclk=1,"13.401888999999999,78.0462117"
Madina Masjid-E-Azam,Mosque,"93X6+347 Madina Masjid-E-Azam, MG Road Chowdareddy Palya Chintamani, Karnataka 563125",Chowdareddy Palya,"93X6+347, MG Road Chowdareddy Palya Chintamani",Chintamani,563125,Karnataka,IN,https://www.google.com/maps/place/Madina+Masjid-E-Azam/data=!4m7!3m6!1s0x3bb204ff5879c80f:0xa15e3ad397f15c06!8m2!3d13.3976503!4d78.0602863!16s%2Fg%2F11c5g8q3ns!19sChIJD8h5WP8EsjsRBlzxl9M6XqE?authuser=0&hl=en&rclk=1,"13.397650299999999,78.0602863"
MASJID E NOOR,Mosque,"MASJID E NOOR, Vinobha Colony, Chintamani, Karnataka 563125",Vinobha Colony,,Chintamani,563125,Karnataka,IN,https://www.google.com/maps/place/MASJID+E+NOOR/data=!4m7!3m6!1s0x3bb204f88d844d17:0x1601017929696fe7!8m2!3d13.3984258!4d78.0573175!16s%2Fg%2F11g6q_h3tp!19sChIJF02EjfgEsjsR529pKXkBARY?authuser=0&hl=en&rclk=1,"13.3984258,78.0573175"
Masjid-e-amina,Mosque,"C342+MR6 Masjid-e-amina, Chintamani, Karnataka 563125",,C342+MR6,Chintamani,563125,Karnataka,IN,https://www.google.com/maps/place/Masjid-e-amina/data=!4m7!3m6!1s0x3bb204f041329c7b:0xea3194dcb6f56164!8m2!3d13.4066686!4d78.0520056!16s%2Fg%2F11dxdr0cjs!19sChIJe5wyQfAEsjsRZGH1ttyUMeo?authuser=0&hl=en&rclk=1,"13.4066686,78.0520056"
Masjid-e-aisha msjd ` `y'shh,Mosque,"C352+382 Masjid-e-aisha msjd ` `y'shh, Hyder Ali Nagar, Chintamani, Karnataka 563125",Hyder Ali Nagar,C352+382,Chintamani,563125,Karnataka,IN,https://www.google.com/maps/place/Masjid-e-aisha+%D9%85%D8%B3%D8%AC%D8%AF+%D8%B9+%D8%B9%D8%A7%D8%A6%D8%B4%DB%81%E2%80%AD/data=!4m7!3m6!1s0x3bb204f1d2f9d9e7:0x89566bccf21f0454!8m2!3d13.4076495!4d78.050755!16s%2Fg%2F11dxdq38_h!19sChIJ59n50vEEsjsRVAQf8sxrVok?authuser=0&hl=en&rclk=1,"13.4076495,78.050755"
Masjid E Mohamadiya,Mosque,"92XW+WGM Masjid E Mohamadiya, Venkatagiri Kote, Chintamani, Karnataka 563125",Venkatagiri Kote,92XW+WGM,Chintamani,563125,Karnataka,IN,https://www.google.com/maps/place/Masjid+E+Mohamadiya/data=!4m7!3m6!1s0x3bb204f4495206a7:0x2e96c9c9d3d64ebf!8m2!3d13.3998326!4d78.0463008!16s%2Fg%2F11hbg827l4!19sChIJpwZSSfQEsjsRv07W08nJli4?authuser=0&hl=en&rclk=1,"13.3998326,78.0463008"
Masjid-e-rahman,Mosque,"C352+RGW Masjid-e-rahman, Unnamed Road, Mehabub Nagar, Chintamani, Karnataka 563125",Mehabub Nagar,"C352+RGW, Unnamed Road",Chintamani,563125,Karnataka,IN,https://www.google.com/maps/place/Masjid-e-rahman/data=!4m7!3m6!1s0x3bb204efc99358ad:0x8d5451ac0530984e!8m2!3d13.409622!4d78.0513231!16s%2Fg%2F11g6r0mfs7!19sChIJrViTye8EsjsRTpgwBaxRVI0?authuser=0&hl=en&rclk=1,"13.409621999999999,78.05132309999999"
Masjid-E-Mohammedia Ahle Hadees,Mosque,"C326+7RM Masjid-E-Mohammedia Ahle Hadees, Chintamani, Karnataka 563125",,C326+7RM,Chintamani,563125,Karnataka,IN,https://www.google.com/maps/place/Masjid-E-Mohammedia+Ahle+Hadees/data=!4m7!3m6!1s0x3bb204fef9186e9d:0x1750171df3336171!8m2!3d13.400702!4d78.0620566!16s%2Fg%2F11fy2jz2p6!19sChIJnW4Y-f4EsjsRcWEz8x0XUBc?authuser=0&hl=en&rclk=1,"13.400701999999999,78.06205659999999"
Jumma Masjid,Mosque,"Jumma Masjid, Jumma Masjid Complex, Dodda Pete, Chintamani, Karnataka 563125",Dodda Pete,Jumma Masjid Complex,Chintamani,563125,Karnataka,IN,https://www.google.com/maps/place/Jumma+Masjid/data=!4m7!3m6!1s0x3bb204fa13f23ce3:0x92c5bb9bc8e89baa!8m2!3d13.4036694!4d78.0546915!16s%2Fg%2F12616hrvr!19sChIJ4zzyE_oEsjsRqpvoyJu7xZI?authuser=0&hl=en&rclk=1,"13.4036694,78.05469149999999"
Ayubia Masjid,Mosque,"C333+557 Ayubia Masjid, Chintamani, Karnataka 563125",,C333+557,Chintamani,563125,Karnataka,IN,https://www.google.com/maps/place/Ayubia+Masjid/data=!4m7!3m6!1s0x3bb204f0b4f7d11d:0x998fcf27b022fa7d!8m2!3d13.4029077!4d78.0529304!16s%2Fg%2F11c6vkrn6s!19sChIJHdH3tPAEsjsRffoisCfPj5k?authuser=0&hl=en&rclk=1,"13.4029077,78.0529304"
Markaz e Ahle Sunnat wal jamaat Jamia Masjid Chintamani,Mosque,"C333+CV9 Markaz e Ahle Sunnat wal jamaat Jamia Masjid Chintamani, Dodda Pete, Chintamani, Karnataka 563125",Dodda Pete,C333+CV9,Chintamani,563125,Karnataka,IN,https://www.google.com/maps/place/Markaz+e+Ahle+Sunnat+wal+jamaat+Jamia+Masjid+Chintamani/data=!4m7!3m6!1s0x3bb204fa11100001:0xf02794d888a2b566!8m2!3d13.4035318!4d78.0547238!16s%2Fg%2F11fz9_3_j8!19sChIJAQAQEfoEsjsRZrWiiNiUJ_A?authuser=0&hl=en&rclk=1,"13.4035318,78.05472379999999"
Masjid E Abu Bakr msjd ` bwbkhr,Mosque,"93X6+7R7 Masjid E Abu Bakr msjd ` bwbkhr, Vishnu Ganig Road, Tippu Nagar, Chintamani, Karnataka 563125",Tippu Nagar,"93X6+7R7, Vishnu Ganig Road",Chintamani,563125,Karnataka,IN,https://www.google.com/maps/place/Masjid+E+Abu+Bakr+%D9%85%D8%B3%D8%AC%D8%AF+%D8%B9+%D8%A7%D8%A8%D9%88%D8%A8%DA%A9%D8%B1%E2%80%AD/data=!4m7!3m6!1s0x3bb20557702c4fbf:0x3551bc9060d1249f!8m2!3d13.3981619!4d78.0620581!16s%2Fg%2F11hzkp_d1q!19sChIJv08scFcFsjsRnyTRYJC8UTU?authuser=0&hl=en&rclk=1,"13.3981619,78.0620581"
Azam Masjid Ahle Sunnath Ul Jamayath,Mosque,"C344+V7F Azam Masjid Ahle Sunnath Ul Jamayath, JJ Colony, Chintamani, Karnataka 563125",JJ Colony,C344+V7F,Chintamani,563125,Karnataka,IN,https://www.google.com/maps/place/Azam+Masjid+Ahle+Sunnath+Ul+Jamayath/data=!4m7!3m6!1s0x3bb204fac24176bb:0xd7bab7196866b12e!8m2!3d13.4071769!4d78.055672!16s%2Fg%2F11g8kswjx_!19sChIJu3ZBwvoEsjsRLrFmaBm3utc?authuser=0&hl=en&rclk=1,"13.4071769,78.055672"
masjid e ghousiya Ahle sunnatul jamayet,Mosque,"masjid e ghousiya Ahle sunnatul jamayet, Unnamed Road, Ashraya Colony, Chintamani, Karnataka 563125",Ashraya Colony,Unnamed Road,Chintamani,563125,Karnataka,IN,https://www.google.com/maps/place/masjid+e+ghousiya+Ahle+sunnatul+jamayet/data=!4m7!3m6!1s0x3bb2048ab9326943:0x46dce40513561960!8m2!3d13.3975617!4d78.0413473!16s%2Fg%2F11ggfj7z5z!19sChIJQ2kyuYoEsjsRYBlWEwXk3EY?authuser=0&hl=en&rclk=1,"13.397561699999999,78.0413473"
Jamie Masjid,Mosque,"C359+75G Jamie Masjid, Kariyapalli, Chintamani, Karnataka 563125",,C359+75G,"Kariyapalli, Chintamani",,Karnataka,IN,https://www.google.com/maps/place/Jamie+Masjid/data=!4m7!3m6!1s0x3bb2057bbe52bfcf:0x9ea6989a2b8c47d2!8m2!3d13.4081929!4d78.0679407!16s%2Fg%2F11gyyznzs7!19sChIJz79SvnsFsjsR0keMK5qYpp4?authuser=0&hl=en&rclk=1,"13.4081929,78.0679407"
Noorani Masjid,Mosque,"Noorani Masjid, IDSMT complex, Tippu Nagar, Chintamani, Karnataka 563125",Tippu Nagar,IDSMT complex,Chintamani,563125,Karnataka,IN,https://www.google.com/maps/place/Noorani+Masjid/data=!4m7!3m6!1s0x3bb20583421230b9:0x3444140255325d06!8m2!3d13.3995214!4d78.0628083!16s%2Fg%2F11rh_8c430!19sChIJuTASQoMFsjsRBl0yVQIURDQ?authuser=0&hl=en&rclk=1,"13.3995214,78.0628083"
Masjid-e-Qhasim,Mosque,"C24W+X2V Masjid-e-Qhasim, Chintamani, Karnataka 563125",,C24W+X2V,Chintamani,563125,Karnataka,IN,https://www.google.com/maps/place/Masjid-e-Qhasim/data=!4m7!3m6!1s0x3bb2051c793dedcb:0xdaeaeb492080ee20!8m2!3d13.4074913!4d78.0450447!16s%2Fg%2F11hgqx7n7l!19sChIJy-09eRwFsjsRIO6AIEnr6to?authuser=0&hl=en&rclk=1,"13.4074913,78.04504469999999"
masjid e kousar,Mosque,"92WR+QM2 masjid e kousar, Ashraya Colony, Chintamani, Karnataka 563125",Ashraya Colony,92WR+QM2,Chintamani,563125,Karnataka,IN,https://www.google.com/maps/place/masjid+e+kousar/data=!4m7!3m6!1s0x3bb2048aa5f441bf:0xf116895bcdacd92!8m2!3d13.3968965!4d78.0416387!16s%2Fg%2F11hb3g767y!19sChIJv0H0pYoEsjsRks3avJVoEQ8?authuser=0&hl=en&rclk=1,"13.396896499999999,78.0416387"
Saleha tarpulin and bag works,Mosque,"Saleha tarpulin and bag works, Saleha tarpulin, Dodda Pete, Chintamani, Karnataka 563125",Dodda Pete,Saleha tarpulin,Chintamani,563125,Karnataka,IN,https://www.google.com/maps/place/Saleha+tarpulin+and+bag+works/data=!4m7!3m6!1s0x3bb205749c2c426d:0x898be37b8145a59e!8m2!3d13.4045941!4d78.0548668!16s%2Fg%2F11gjt94sm6!19sChIJbUIsnHQFsjsRnqVFgXvji4k?authuser=0&hl=en&rclk=1,"13.404594099999999,78.0548668"
Masjid e Qasim Dawate Tabligh,Mosque,"C23X+X54 Masjid e Qasim Dawate Tabligh, KGN Colony, Chintamani, Karnataka 563125",KGN Colony,C23X+X54,Chintamani,563125,Karnataka,IN,https://www.google.com/maps/place/Masjid+e+Qasim+Dawate+Tabligh/data=!4m7!3m6!1s0x3bb205fbbad65007:0x41c986f4123de4b6!8m2!3d13.4071962!4d78.0466792!16s%2Fg%2F11sn029dbh!19sChIJB1DWuvsFsjsRtuQ9EvSGyUE?authuser=0&hl=en&rclk=1,"13.4071962,78.0466792"
S Masjid,Mosque,"S Masjid, Chintamani, Karnataka 563125",,,Chintamani,,Karnataka,IN,https://www.google.com/maps/place/S+Masjid/data=!4m7!3m6!1s0x3bb205c116d4ee91:0xf9a81cdda4da7abb!8m2!3d13.4067445!4d78.0647774!16s%2Fg%2F11s21nd43q!19sChIJke7UFsEFsjsRu3rapN0cqPk?authuser=0&hl=en&rclk=1,"13.406744499999999,78.0647774"
Darul uloom Muhammadpur,Mosque,"C324+Q3J Darul uloom Muhammadpur, Chintamani, Karnataka 563125",,C324+Q3J,Chintamani,563125,Karnataka,IN,https://www.google.com/maps/place/Darul+uloom+Muhammadpur/data=!4m7!3m6!1s0x3bb2053262a0dc4b:0x779d2419739638cf!8m2!3d13.4019689!4d78.0551384!16s%2Fg%2F11twhts82x!19sChIJS9ygYjIFsjsRzziWcxkknXc?authuser=0&hl=en&rclk=1,"13.4019689,78.05513839999999"
Masjid E Sultan Dawate Tableeq.. real,Mosque,"C324+Q3J Masjid E Sultan Dawate Tableeq.. real, Chintamani, Karnataka 563125",,C324+Q3J,Chintamani,,Karnataka,IN,https://www.google.com/maps/place/Masjid+E+Sultan+Dawate+Tableeq..+real/data=!4m7!3m6!1s0x3bb205d6770052cd:0x4556379953beffaa!8m2!3d13.4019689!4d78.0551384!16s%2Fg%2F11t1gjb6wt!19sChIJzVIAd9YFsjsRqv--U5k3VkU?authuser=0&hl=en&rclk=1,"13.4019689,78.05513839999999"
makan,Mosque,"C324+Q3J makan, makan upperpet, chintamani taluq, dist",,"C324+Q3J, makan upperpet, chintamani taluq, dist",Chintamani,,Karnataka,IN,https://www.google.com/maps/place/makan/data=!4m7!3m6!1s0x3bb2056eb3e1dbf1:0xb4ff394672ba4d92!8m2!3d13.4019689!4d78.0551384!16s%2Fg%2F11rv3kgmw6!19sChIJ8dvhs24FsjsRkk26ckY5_7Q?authuser=0&hl=en&rclk=1,"13.4019689,78.05513839999999"
Muslim hands.,Mosque,"Muslim hands., Tippu Nagar, Chintamani, Karnataka 563125",Tippu Nagar,,Chintamani,563125,Karnataka,IN,https://www.google.com/maps/place/Muslim+hands./data=!4m7!3m6!1s0x3bb20586e2a6db0d:0xd1104e9883a1043c!8m2!3d13.3978986!4d78.0630337!16s%2Fg%2F11kqm9dwk8!19sChIJDdum4oYFsjsRPAShg5hOENE?authuser=0&hl=en&rclk=1,"13.3978986,78.06303369999999"
