name,main_category,address,address_ward,address_street,address_city,address_postal_code,address_state,address_country_code,link,coordinates
Jama Masjid,Mosque,"Jama Masjid, Old Delhi, Delhi, 110006","Jama Masjid, Old Delhi",,Delhi,110006,Delhi,IN,https://www.google.com/maps/place/Jama+Masjid/data=!4m7!3m6!1s0x390cfd18df89b215:0xdd57369e29bf9d96!8m2!3d28.6506792!4d77.2334421!16zL20vMDR5emo1!19sChIJFbKJ3xj9DDkRlp2_KZ42V90?authuser=0&hl=en&rclk=1,"28.6506792,77.23344209999999"
Jama Masjid Shukal Dumar,Mosque,"F4MH+33W Jama Masjid Shukal Dumar, Dumar Shukul, Bihar 841426",,F4MH+33W,Dumar Shukul,841426,Bihar,IN,https://www.google.com/maps/place/Jama+Masjid+Shukal+Dumar/data=!4m7!3m6!1s0x3993af89589c87cf:0x459dc7a4f2346579!8m2!3d26.4827338!4d84.1277!16s%2Fg%2F11c6lt835b!19sChIJz4ecWImvkzkReWU08qTHnUU?authuser=0&hl=en&rclk=1,"26.4827338,84.12769999999999"
Jama Masjid Dhanhara parsurampur sitamarhi Bihar,Mosque,"Jama Masjid Dhanhara parsurampur sitamarhi Bihar, WARD-15 vill- dhanhara Ps- parsurampur Ps, Parsauni - Riga Rd, Sitamarhi, Bihar 843325",,"WARD-15 vill- dhanhara Ps- parsurampur Ps, Parsauni - Riga Rd","Sitamarhi, Parsurampur",843325,Bihar,IN,https://www.google.com/maps/place/Jama+Masjid+Dhanhara+parsurampur+sitamarhi+Bihar/data=!4m7!3m6!1s0x39ecefa5807fda9b:0x27d26bf896d82719!8m2!3d26.538768!4d85.4070469!16s%2Fg%2F11hj5d3srg!19sChIJm9p_gKXv7DkRGSfYlvhr0ic?authuser=0&hl=en&rclk=1,"26.538767999999997,85.4070469"
Jama Masjid Dumaria,Mosque,"Jama Masjid Dumaria, Ward no 09, PARSHADPUR DUMARIA Block jokihat, PS, MAHALGOWN, Dumariya, Bihar 854325",MAHALGOWN,"Ward no 09, PARSHADPUR DUMARIA Block jokihat, PS","Dumariya, Chikania",854325,Bihar,IN,https://www.google.com/maps/place/Jama+Masjid+Dumaria/data=!4m7!3m6!1s0x39ef8be0231dbf85:0x3b05c9236bdfb4a1!8m2!3d26.0745738!4d87.536031!16s%2Fg%2F11r7g_vls0!19sChIJhb8dI-CL7zkRobTfayPJBTs?authuser=0&hl=en&rclk=1,"26.0745738,87.536031"
Mehsaul Chowk Jame Masjid,Mosque,"HGV2+G39 Mehsaul Chowk Jame Masjid, chowk, Mehsaul Pashchim, Bihar 843302",Sonavati Colony,"HGV2+G39, chowk","Mehsaul Pashchim, Chak Rajopatti",843302,Bihar,IN,https://www.google.com/maps/place/Mehsaul+Chowk+Jame+Masjid/data=!4m7!3m6!1s0x39ecf1228ee23381:0xd828e7fb17fd849c!8m2!3d26.5937963!4d85.5002336!16s%2Fg%2F11g9gz6j_w!19sChIJgTPijiLx7DkRnIT9F_vnKNg?authuser=0&hl=en&rclk=1,"26.593796299999998,85.5002336"
lchhmy pwr msjd,Mosque,"lchhmy pwr msjd, Islampur Rd, Lakshmipur, Bihar 804404",,Islampur Rd,Lakshmipur,804404,Bihar,IN,https://www.google.com/maps/place/%D9%84%DA%86%DA%BE%D9%85%DB%8C+%D9%BE%D9%88%D8%B1+%D9%85%D8%B3%D8%AC%D8%AF%E2%80%AD/data=!4m7!3m6!1s0x398d2b4c16cda825:0x3c30e273197810ec!8m2!3d24.8967915!4d84.9357882!16s%2Fg%2F11bwy_40p4!19sChIJJajNFkwrjTkR7BB4GXPiMDw?authuser=0&hl=en&rclk=1,"24.8967915,84.93578819999999"
Harser Masjid - hrsr msjd,Mosque,"W7JV+V74 Harser Masjid - hrsr msjd, Dumra - Jalalpur - Madarpur - Bhagwanpur Rd, Mustafapur Harsher, Bihar 844118",,"W7JV+V74, Dumra - Jalalpur - Madarpur - Bhagwanpur Rd",Mustafapur Harsher,844118,Bihar,IN,https://www.google.com/maps/place/Harser+Masjid+-+%DB%81%D8%B1%D8%B3%D8%B1+%D9%85%D8%B3%D8%AC%D8%AF%E2%80%AD/data=!4m7!3m6!1s0x39ed6aed2c201fdf:0x829230bebdd0b607!8m2!3d25.9321396!4d85.2932164!16s%2Fg%2F11c1v1_3xb!19sChIJ3x8gLO1q7TkRB7bQvb4wkoI?authuser=0&hl=en&rclk=1,"25.9321396,85.29321639999999"
Dharajpur Masjid,Mosque,"7G34+X2P Dharajpur Masjid, Dharajpur, Chaukihasan Chauki Makhdum, Bihar 841434",,7G34+X2P,"Dharajpur, Chaukihasan Chauki Makhdum",841434,Bihar,IN,https://www.google.com/maps/place/Dharajpur+Masjid/data=!4m7!3m6!1s0x3992e3c622f28d45:0x2bd235417dd4e570!8m2!3d26.2549617!4d84.5050909!16s%2Fg%2F11gfk0h55p!19sChIJRY3yIsbjkjkRcOXUfUE10is?authuser=0&hl=en&rclk=1,"26.2549617,84.5050909"
"Jama Masjid, Dumrama",Mosque,"Jama Masjid, Dumrama, Dumrama, Amarpur, Gopalpur Arazi, Bihar 813101",,Dumrama,"Amarpur, Gopalpur Arazi",813101,Bihar,IN,"https://www.google.com/maps/place/Jama+Masjid,+Dumrama/data=!4m7!3m6!1s0x39f05329c7323c7f:0x34f0098a4efbb411!8m2!3d25.0604507!4d86.9131592!16s%2Fg%2F11g0h08_ky!19sChIJfzwyxylT8DkREbT7TooJ8DQ?authuser=0&hl=en&rclk=1","25.0604507,86.9131592"
Badi Masjid Dumduma brry msjd,Mosque,"4VHV+R2G Badi Masjid Dumduma brry msjd, Dumduma Road, Laheriasarai, Darbhanga, Bihar 846003",Laheriasarai,"4VHV+R2G, Dumduma Road",Darbhanga,846003,Bihar,IN,https://www.google.com/maps/place/Badi+Masjid+Dumduma+%D8%A8%DA%91%DB%8C+%D9%85%D8%B3%D8%AC%D8%AF%E2%80%AD/data=!4m7!3m6!1s0x39edb85464a1b3c3:0xe53cb08e27bf330e!8m2!3d26.129571!4d85.8925807!16s%2Fg%2F11ckw29d0k!19sChIJw7OhZFS47TkRDjO_J46wPOU?authuser=0&hl=en&rclk=1,"26.129571,85.8925807"
Malhipur Noorani Jama Masjid,Mosque,"C249+WQ4 Malhipur Noorani Jama Masjid, Simaria Entrance Road, Malhipur Chowk, Bihat-IV, Bihar 851116",,"C249+WQ4, Simaria Entrance Road, Malhipur Chowk","Bihat-IV, Malhipur (North)",851116,Bihar,IN,https://www.google.com/maps/place/Malhipur+Noorani+Jama+Masjid/data=!4m7!3m6!1s0x39f20e1ff8418927:0x7f0a24cee99c892!8m2!3d25.4072665!4d86.0194496!16s%2Fg%2F1tlmlrct!19sChIJJ4lB-B8O8jkRksiZ7kyi8Ac?authuser=0&hl=en&rclk=1,"25.4072665,86.0194496"
Chatra Masjid,Mosque,"FW8X+FJ5 Chatra Masjid, Benipatti, Dumra, Bihar 847223",,FW8X+FJ5,"Benipatti, Dumra",847223,Bihar,IN,https://www.google.com/maps/place/Chatra+Masjid/data=!4m7!3m6!1s0x39ec360d1a99de75:0x71d8c3f16b49f4e!8m2!3d26.4661445!4d85.9491152!16s%2Fg%2F11gb3p7ggp!19sChIJdd6ZGg027DkRTp-0Fj-MHQc?authuser=0&hl=en&rclk=1,"26.4661445,85.9491152"
Dumra Peer Dargah,Religious destination,"322V+9MR Dumra Peer Dargah, Dumra, Gujarat 370490",,322V+9MR,Dumra,370490,Gujarat,IN,https://www.google.com/maps/place/Dumra+Peer+Dargah/data=!4m7!3m6!1s0x39515da170a39d5b:0x1abd45fb2ce1b2b9!8m2!3d23.0509928!4d69.0441554!16s%2Fg%2F11f10dq14j!19sChIJW52jcKFdUTkRubLhLPtFvRo?authuser=0&hl=en&rclk=1,"23.0509928,69.0441554"
Bahopur sunni Masjid,Mosque,"6GJQ+WVG Bahopur sunni Masjid, Bahopur, Dumra, Bihar 841439",,6GJQ+WVG,"Bahopur, Dumra",841439,Bihar,IN,https://www.google.com/maps/place/Bahopur+sunni+Masjid/data=!4m7!3m6!1s0x3992e1ab8fc7efc1:0x1c5832cc0913c3b!8m2!3d26.2323232!4d84.5397123!16s%2Fg%2F11glycq80m!19sChIJwe_Hj6vhkjkROzyRwCyDxQE?authuser=0&hl=en&rclk=1,"26.2323232,84.53971229999999"
Bhulahwa Masjid,Mosque,"474G+6F9 Bhulahwa Masjid, Masjid Rd, bhulahwa, Raibari Mahuawa, Bihar 845101",bhulahwa,"474G+6F9, Masjid Rd",Raibari Mahuawa,845101,Bihar,IN,https://www.google.com/maps/place/Bhulahwa+Masjid/data=!4m7!3m6!1s0x3994808746d48891:0xf939aea65f6be148!8m2!3d27.1055341!4d84.2762194!16s%2Fg%2F11f3mbs89b!19sChIJkYjURoeAlDkRSOFrX6auOfk?authuser=0&hl=en&rclk=1,"27.1055341,84.2762194"
Dumra Zama Masjid,Mosque,"7J8R+2X9 Dumra Zama Masjid, Sidhwaliya - Saidpur - Dumra Rd, Dumara, Bihar 841409",,"7J8R+2X9, Sidhwaliya - Saidpur - Dumra Rd",Dumara,841409,Bihar,IN,https://www.google.com/maps/place/Dumra+Zama+Masjid/data=!4m7!3m6!1s0x3992de5135997015:0x8fd3f18baf70cbe4!8m2!3d26.2650427!4d84.6424887!16s%2Fg%2F11f3n2x3s6!19sChIJFXCZNVHekjkR5Mtwr4vx048?authuser=0&hl=en&rclk=1,"26.2650427,84.6424887"
Jama Masjid Dumra Brahmpur,Mosque,"PJ9H+7PX Jama Masjid Dumra Brahmpur, Dumra, Bihar 854337",,PJ9H+7PX,Dumra,,Bihar,IN,https://www.google.com/maps/place/Jama+Masjid+Dumra+Brahmpur/data=!4m7!3m6!1s0x39e553ed9a474d5f:0xd83640c1ff8d287d!8m2!3d25.7182391!4d87.6293732!16s%2Fg%2F11gdkq2zjb!19sChIJX01Hmu1T5TkRfSiN_8FANtg?authuser=0&hl=en&rclk=1,"25.718239099999998,87.62937319999999"
"Noori Jama Masjid, Kharka",Mosque,"Noori Jama Masjid, Kharka, P.s, Vill, Kharka Road, Post, Punaura Pashchim, Bihar 843302",Post,"P.s, Vill, Kharka Road",Punaura Pashchim,843302,Bihar,IN,"https://www.google.com/maps/place/Noori+Jama+Masjid,+Kharka/data=!4m7!3m6!1s0x39ecf056bf5539e5:0xd3fadb0c729a531f!8m2!3d26.5763248!4d85.4746373!16s%2Fg%2F11hb2zw8br!19sChIJ5TlVv1bw7DkRH1Oacgzb-tM?authuser=0&hl=en&rclk=1","26.5763248,85.4746373"
SHAHBAJPUR MASJID & MADARSA,Mosque,"RGX4+V3G SHAHBAJPUR MASJID & MADARSA, Simarwara, Bihar 843110",,RGX4+V3G,Simarwara,,Bihar,IN,https://www.google.com/maps/place/SHAHBAJPUR+MASJID+%26+MADARSA/data=!4m7!3m6!1s0x39ed7139375dcb43:0x9515f79c709897c6!8m2!3d25.849683!4d85.505191!16s%2Fg%2F11gdzhz5d0!19sChIJQ8tdNzlx7TkRxpeYcJz3FZU?authuser=0&hl=en&rclk=1,"25.849683,85.505191"
Jama Masjid Dumra Purab Mohalla,Mosque,"988P+HRC Jama Masjid Dumra Purab Mohalla, Dumra, Purab Mohalla, Andhratharhi (N), Bihar",Purab Mohalla,"988P+HRC, Dumra",Andhratharhi (N),,Bihar,IN,https://www.google.com/maps/place/Jama+Masjid+Dumra+Purab+Mohalla/data=!4m7!3m6!1s0x39ee7fafc7fbba6d:0x99e7c97091987583!8m2!3d26.366428!4d86.3370045!16s%2Fg%2F11fj17xslj!19sChIJbbr7x69_7jkRg3WYkXDJ55k?authuser=0&hl=en&rclk=1,"26.366428,86.33700449999999"
Jama Masjid Suhwa Barhampur,Mosque,"PJ8R+VC5 Jama Masjid Suhwa Barhampur, Dumra, Bihar 855105",,PJ8R+VC5,Dumra,855105,Bihar,IN,https://www.google.com/maps/place/Jama+Masjid+Suhwa+Barhampur/data=!4m7!3m6!1s0x39e553c0fa1c6e3b:0x47150d1c42038e16!8m2!3d25.7171322!4d87.6411165!16s%2Fg%2F11g9q41l7g!19sChIJO24c-sBT5TkRFo4DQhwNFUc?authuser=0&hl=en&rclk=1,"25.717132199999998,87.6411165"
MASJID-E-TAJUSHARIYA,Mosque,"6MFC+5FM MASJID-E-TAJUSHARIYA, Patna - Parsa - Siwan Highway, Dumra - Jalalpur - Madarpur - Bhagwanpur Rd, Kiratpur Raja Ram, Bihar 841416",,"6MFC+5FM, Patna - Parsa - Siwan Highway, Dumra - Jalalpur - Madarpur - Bhagwanpur Rd",Kiratpur Raja Ram,841416,Bihar,IN,https://www.google.com/maps/place/MASJID-E-TAJUSHARIYA/data=!4m7!3m6!1s0x3992dc1f03a0bf0d:0xb9b07c1e1182527!8m2!3d26.2229566!4d84.6711625!16s%2Fg%2F11hbnlb0bl!19sChIJDb-gAx_ckjkRJyUY4cEHmws?authuser=0&hl=en&rclk=1,"26.2229566,84.6711625"
JAME MASJID MADHOPUR,Mosque,"HR9P+9MQ JAME MASJID MADHOPUR, Chhapwa - Turkaulia - Kotwa Rd, Madhopur, Amwa, Bihar 84541537",,"HR9P+9MQ, Chhapwa - Turkaulia - Kotwa Rd","Madhopur, Amwa",84541537,Bihar,IN,https://www.google.com/maps/place/JAME+MASJID+MADHOPUR/data=!4m7!3m6!1s0x399331614bb0040f:0x2ad92f5d35c24b96!8m2!3d26.5684587!4d84.8367216!16s%2Fg%2F11c57rs4n8!19sChIJDwSwS2ExkzkRlkvCNV0v2So?authuser=0&hl=en&rclk=1,"26.568458699999997,84.83672159999999"
Jama Masjid Bhakurahar,Mosque,"Bhakurahar, P7VP+RFH Jama Masjid Bhakurahar, Bairgania, Bihar 843313",,"Bhakurahar, P7VP+RFH",Bairgania,843313,Bihar,IN,https://www.google.com/maps/place/Jama+Masjid+Bhakurahar/data=!4m7!3m6!1s0x39ec95814b468021:0x6c6dea34157c115a!8m2!3d26.7451459!4d85.2863231!16s%2Fg%2F11k06fpscc!19sChIJIYBGS4GV7DkRWhF8FTTqbWw?authuser=0&hl=en&rclk=1,"26.745145899999997,85.28632309999999"
Noori Jama Masjid,Mosque,"Noori Jama Masjid, Dumra Rd, Talkhapur, Sitamarhi, Bihar 843301",Talkhapur,Dumra Rd,Sitamarhi,843301,Bihar,IN,https://www.google.com/maps/place/Noori+Jama+Masjid/data=!4m7!3m6!1s0x39ecf1b413669a6b:0x5a732e9ed381d82e!8m2!3d26.5700388!4d85.5121646!16s%2Fg%2F11f716mtxs!19sChIJa5pmE7Tx7DkRLtiB054uc1o?authuser=0&hl=en&rclk=1,"26.5700388,85.51216459999999"
Madarsa Islamia Faizul Rasul & Noori Masjid,Mosque,"VG5C+Q2R Madarsa Islamia Faizul Rasul & Noori Masjid, Saidpur Dumra, Bihar 843114",,VG5C+Q2R,Saidpur Dumra,843114,Bihar,IN,https://www.google.com/maps/place/Madarsa+Islamia+Faizul+Rasul+%26+Noori+Masjid/data=!4m7!3m6!1s0x39ed714b52ad71bd:0x7d4f2f569049f97b!8m2!3d25.859485!4d85.520016!16s%2Fg%2F11dztq6ntf!19sChIJvXGtUktx7TkRe_lJkFYvT30?authuser=0&hl=en&rclk=1,"25.859485,85.520016"
Dumra Masjid,School,"6CGJ+952 Dumra Masjid, Unnamed Road, Hauda, Dumra, Bihar 845455",,"6CGJ+952, Unnamed Road","Hauda, Dumra",845455,Bihar,IN,https://www.google.com/maps/place/Dumra+Masjid/data=!4m7!3m6!1s0x3994855cd9e429ed:0x2b086039c014d8d9!8m2!3d27.2290302!4d84.4280848!16s%2Fg%2F11fj00lgfc!19sChIJ7Snk2VyFlDkR2dgUwDlgCCs?authuser=0&hl=en&rclk=1,"27.2290302,84.4280848"
MASJID-E-HUDA BISAMBHARA KITTA,Mosque,"26HW+2FF MASJID-E-HUDA BISAMBHARA KITTA, Dumra, Jharkhand 814154",,26HW+2FF,Dumra,814154,Jharkhand,IN,https://www.google.com/maps/place/MASJID-E-HUDA+BISAMBHARA+KITTA/data=!4m7!3m6!1s0x39f067a3e49a2683:0x6b70351172c70640!8m2!3d25.027552!4d87.246186!16s%2Fg%2F11gg9b64yz!19sChIJgyaa5KNn8DkRQAbHchE1cGs?authuser=0&hl=en&rclk=1,"25.027552,87.246186"
Imaam Ahmad Raza Masjid.,Mosque,"HGG5+368 Imaam Ahmad Raza Masjid., Raza Nagar, Talkhapur, Sitamarhi, Bihar 843302","Raza Nagar, Talkhapur",HGG5+368,Sitamarhi,843302,Bihar,IN,https://www.google.com/maps/place/Imaam+Ahmad+Raza+Masjid./data=!4m7!3m6!1s0x39ecf142c46450bb:0x38b2ba9d1eda0571!8m2!3d26.5751695!4d85.5080807!16s%2Fg%2F11gvz1f26l!19sChIJu1BkxELx7DkRcQXaHp26sjg?authuser=0&hl=en&rclk=1,"26.575169499999998,85.5080807"
Jama Masjid Banchauri,Mosque,"HF4G+V56 Jama Masjid Banchauri, Banchauri, Bihar 843302",,HF4G+V56,Banchauri,,Bihar,IN,https://www.google.com/maps/place/Jama+Masjid+Banchauri/data=!4m7!3m6!1s0x39ecf1af35c3f457:0x49f2aef5b01acdd6!8m2!3d26.5571513!4d85.4754017!16s%2Fg%2F11fgm66293!19sChIJV_TDNa_x7DkR1s0asPWu8kk?authuser=0&hl=en&rclk=1,"26.557151299999997,85.47540169999999"
EIDGAH MASJID,Mosque,"37XM+RCH EIDGAH MASJID, Raibari Mahuawa, Bihar 845101",,37XM+RCH,Raibari Mahuawa,845101,Bihar,IN,https://www.google.com/maps/place/EIDGAH+MASJID/data=!4m7!3m6!1s0x399480639b0e2675:0xe34cd13cafcf20b3!8m2!3d27.0995696!4d84.2836192!16s%2Fg%2F11crzztfw_!19sChIJdSYOm2OAlDkRsyDPrzzRTOM?authuser=0&hl=en&rclk=1,"27.0995696,84.28361919999999"
Shaikh Mohalla Masjid Dumra,Mosque,"7J7X+3RW Shaikh Mohalla Masjid Dumra, Dumara, Bihar 841409",,7J7X+3RW,Dumara,,Bihar,IN,https://www.google.com/maps/place/Shaikh+Mohalla+Masjid+Dumra/data=!4m7!3m6!1s0x3992def846ba519f:0xac3db25d63b65c45!8m2!3d26.262743!4d84.6495866!16s%2Fg%2F11hblwgnvs!19sChIJn1G6RvjekjkRRVy2Y12yPaw?authuser=0&hl=en&rclk=1,"26.262743,84.64958659999999"
Jama Masjid Dumra,Mosque,"2C67+H4W Jama Masjid Dumra, Unnamed Road, Latahri, Bihar 854312",,"2C67+H4W, Unnamed Road",Latahri,854312,Bihar,IN,https://www.google.com/maps/place/Jama+Masjid+Dumra/data=!4m7!3m6!1s0x39eff3fbc5d20af7:0xc24931cfbbd1a69!8m2!3d26.0114794!4d87.4128234!16s%2Fg%2F11hfgjb8vd!19sChIJ9wrSxfvz7zkRaRq9-xyTJAw?authuser=0&hl=en&rclk=1,"26.0114794,87.4128234"
Umar Masjid,Mosque,"8J8J+WPX Umar Masjid, Bihar 843301",,8J8J+WPX,,843301,Bihar,IN,https://www.google.com/maps/place/Umar+Masjid/data=!4m7!3m6!1s0x39edaaf0219ee7dd:0x5d2530d2dcf53b26!8m2!3d26.3173504!4d85.6318618!16s%2Fg%2F11b_00k27z!19sChIJ3eeeIfCq7TkRJjv13NIwJV0?authuser=0&hl=en&rclk=1,"26.3173504,85.6318618"
Jama Masjid Dumra Pachim Mohalla,Mosque,"Jama Masjid Dumra Pachim Mohalla, Dumra, Andhratharhi (N), Bihar 847401",,Dumra,Andhratharhi (N),847401,Bihar,IN,https://www.google.com/maps/place/Jama+Masjid+Dumra+Pachim+Mohalla/data=!4m7!3m6!1s0x39ee7f0cf910a2c5:0xd7205f30374a92b2!8m2!3d26.3665594!4d86.334728!16s%2Fg%2F11h61l18v3!19sChIJxaIQ-Qx_7jkRspJKNzBfINc?authuser=0&hl=en&rclk=1,"26.3665594,86.334728"
Masjide Bilaal and madarsa Miftahul uloom,Mosque,"Masjide Bilaal and madarsa Miftahul uloom, Basatpur, Dumra, Bihar 843302",,Basatpur,"Dumra, Sitamarhi",843302,Bihar,IN,https://www.google.com/maps/place/Masjide+Bilaal+and+madarsa+Miftahul+uloom/data=!4m7!3m6!1s0x39ecf7c7aea11e85:0xcbd450182d6d1d77!8m2!3d26.5705609!4d85.5341572!16s%2Fg%2F11n_yp43kp!19sChIJhR6hrsf37DkRdx1tLRhQ1Ms?authuser=0&hl=en&rclk=1,"26.5705609,85.5341572"
Eid Gaah Dumra,Mosque,"988J+837 Eid Gaah Dumra, Dumra, Andhratharhi (N), Bihar",,"988J+837, Dumra",Andhratharhi (N),,Bihar,IN,https://www.google.com/maps/place/Eid+Gaah+Dumra/data=!4m7!3m6!1s0x39ee7f8dfef3a64d:0x6f55b052c0e3879d!8m2!3d26.3657802!4d86.3301708!16s%2Fg%2F11h7c815xz!19sChIJTabz_o1_7jkRnYfjwFKwVW8?authuser=0&hl=en&rclk=1,"26.3657802,86.33017079999999"
"Madani masjid, dumrawan",Mosque,"3W77+42G Madani masjid, dumrawan, Gopalpur Arazi, Bihar 813101",,3W77+42G,Gopalpur Arazi,813101,Bihar,IN,"https://www.google.com/maps/place/Madani+masjid,+dumrawan/data=!4m7!3m6!1s0x39f04d802bad70a3:0xb60d4b840f81b2c3!8m2!3d25.062802!4d86.9125689!16s%2Fg%2F11qpftp122!19sChIJo3CtK4BN8DkRw7KBD4RLDbY?authuser=0&hl=en&rclk=1","25.062801999999998,86.9125689"
badi masjid DUMRA,Mosque,"6CHH+4F9 badi masjid DUMRA, Dumra, Bihar 845455",,6CHH+4F9,Dumra,845455,Bihar,IN,https://www.google.com/maps/place/badi+masjid+DUMRA/data=!4m7!3m6!1s0x3994854c5b1cc917:0x710b3e03330cc47b!8m2!3d27.2277756!4d84.4287494!16s%2Fg%2F11pdrrh1pv!19sChIJF8kcW0yFlDkRe8QMMwM-C3E?authuser=0&hl=en&rclk=1,"27.227775599999998,84.4287494"
Dumra Muslim Qabrastan,Mosque,"988H+52Q Dumra Muslim Qabrastan, Dumra, Andhratharhi (N), Bihar",,"988H+52Q, Dumra",Andhratharhi (N),,Bihar,IN,https://www.google.com/maps/place/Dumra+Muslim+Qabrastan/data=!4m7!3m6!1s0x39ee7f1c9cc8933b:0x5172f6b8fc67bf5!8m2!3d26.3654525!4d86.327623!16s%2Fg%2F11fmpyf9yv!19sChIJO5PInBx_7jkR9XvGj2svFwU?authuser=0&hl=en&rclk=1,"26.3654525,86.327623"
mdrsaa rij'viyaa nuuriyaa tlkhaapur ddumraa siitaamddh'ii bihaar,Mosque,"HG96+WV8 mdrsaa rij'viyaa nuuriyaa tlkhaapur ddumraa siitaamddh'ii bihaar, Talkhapur, Sitamarhi, Bihar 843302",Talkhapur,HG96+WV8,Sitamarhi,843302,Bihar,IN,https://www.google.com/maps/place/%E0%A4%AE%E0%A4%A6%E0%A4%B0%E0%A4%B8%E0%A4%BE+%E0%A4%B0%E0%A4%BF%E0%A4%9C%E0%A4%BC%E0%A4%B5%E0%A4%BF%E0%A4%AF%E0%A4%BE+%E0%A4%A8%E0%A5%82%E0%A4%B0%E0%A4%BF%E0%A4%AF%E0%A4%BE+%E0%A4%A4%E0%A4%B2%E0%A4%96%E0%A4%BE%E0%A4%AA%E0%A5%81%E0%A4%B0+%E0%A4%A1%E0%A5%81%E0%A4%AE%E0%A4%B0%E0%A4%BE+%E0%A4%B8%E0%A5%80%E0%A4%A4%E0%A4%BE%E0%A4%AE%E0%A4%A2%E0%A4%BC%E0%A5%80+%E0%A4%AC%E0%A4%BF%E0%A4%B9%E0%A4%BE%E0%A4%B0/data=!4m7!3m6!1s0x39ecf19acc2bdd63:0x2934f047865133a2!8m2!3d26.5697875!4d85.5122114!16s%2Fg%2F11q2773xmz!19sChIJY90rzJrx7DkRojNRhkfwNCk?authuser=0&hl=en&rclk=1,"26.5697875,85.5122114"
Masjid E Tajushshariya Phoolbhasa,Mosque,"QQJ5+2HG Masjid E Tajushshariya Phoolbhasa, Phulbhasa, Baisi, Bihar",,"QQJ5+2HG, Phulbhasa","Baisi, Phulbhasa",,Bihar,IN,https://www.google.com/maps/place/Masjid+E+Tajushshariya+Phoolbhasa/data=!4m7!3m6!1s0x39e54f84a7ed66e9:0xe748b2517a15bdfa!8m2!3d25.7800567!4d87.7589658!16s%2Fg%2F11ptqp88cp!19sChIJ6Wbtp4RP5TkR-r0VelGySOc?authuser=0&hl=en&rclk=1,"25.7800567,87.7589658"
Gausia Masjid (Gwthyh msjd) Narainapur,Mosque,"588P+32M Gausia Masjid (Gwthyh msjd) Narainapur, Bihar 845106",,588P+32M,,845106,Bihar,IN,https://www.google.com/maps/place/Gausia+Masjid+%28%D8%BA%D9%88%D8%AB%DB%8C%DB%81+%D9%85%D8%B3%D8%AC%D8%AF%29+Narainapur%E2%80%AD/data=!4m7!3m6!1s0x399487ab108e1109:0x49c05694c8fd30f4!8m2!3d27.1651739!4d84.3349958!16s%2Fg%2F11s1sxlx3x!19sChIJCRGOEKuHlDkR9DD9yJRWwEk?authuser=0&hl=en&rclk=1,"27.1651739,84.3349958"
Jamia masjid Dumra,Mosque,"22RV+74W Jamia masjid Dumra, Unnamed Road, Darbargatha, Dumra, Gujarat 370490",Darbargatha,"22RV+74W, Unnamed Road",Dumra,370490,Gujarat,IN,https://www.google.com/maps/place/Jamia+masjid+Dumra/data=!4m7!3m6!1s0x39515d60af356417:0xc58597b8de63bf18!8m2!3d23.0407441!4d69.0428395!16s%2Fg%2F11qgfcf4fm!19sChIJF2Q1r2BdUTkRGL9j3riXhcU?authuser=0&hl=en&rclk=1,"23.040744099999998,69.0428395"
"Barqati Masjid, Rikhauli Chowk",Mosque,"Barqati Masjid, Rikhauli Chowk, Chowk, Dumra - Parsauni Rd, Rikhauli, Bhasar Machhaha, Bihar 843314",,"Chowk, Dumra - Parsauni Rd","Rikhauli, Bhasar Machhaha",843314,Bihar,IN,"https://www.google.com/maps/place/Barqati+Masjid,+Rikhauli+Chowk/data=!4m7!3m6!1s0x39ecf7bbfd55b3f5:0x92d59cea0fcc6e49!8m2!3d26.547003!4d85.5600241!16s%2Fg%2F11fmztdq90!19sChIJ9bNV_bv37DkRSW7MD-qc1ZI?authuser=0&hl=en&rclk=1","26.547003,85.56002409999999"
Jama Masjid Dumra jaamaa msjid ddumraa,Mosque,"WPC3+2H4 Jama Masjid Dumra jaamaa msjid ddumraa, Po, Vill, Dumra, Machchhatta, Bihar 854315",Vill,"WPC3+2H4, Po","Dumra, Machchhatta",854315,Bihar,IN,https://www.google.com/maps/place/Jama+Masjid+Dumra+%E0%A4%9C%E0%A4%BE%E0%A4%AE%E0%A4%BE+%E0%A4%AE%E0%A4%B8%E0%A5%8D%E0%A4%9C%E0%A4%BF%E0%A4%A6+%E0%A4%A1%E0%A5%81%E0%A4%AE%E0%A4%B0%E0%A4%BE/data=!4m7!3m6!1s0x39e54546246b1e73:0x17a2e18cecb66850!8m2!3d25.9200205!4d87.7039668!16s%2Fg%2F11hyd2msmk!19sChIJcx5rJEZF5TkRUGi27Izhohc?authuser=0&hl=en&rclk=1,"25.9200205,87.70396679999999"
Masjid dumrahar,Place of worship,"WXGP+JJ3 Masjid dumrahar, Dumarahar, Uttar Pradesh 231223",,WXGP+JJ3,Dumarahar,231223,Uttar Pradesh,IN,https://www.google.com/maps/place/Masjid+dumrahar/data=!4m7!3m6!1s0x39892b71784f4a45:0xcd756eb9128be0d!8m2!3d23.9265141!4d82.9865371!16s%2Fg%2F11rglmc279!19sChIJRUpPeHEriTkRDb4oketW1ww?authuser=0&hl=en&rclk=1,"23.9265141,82.98653709999999"
Jama Masjid,Mosque,"HGQM+6CG Jama Masjid, Unnamed Road, Bhairo Kothi, Bihar 843314",,"HGQM+6CG, Unnamed Road",Bhairo Kothi,843314,Bihar,IN,https://www.google.com/maps/place/Jama+Masjid/data=!4m7!3m6!1s0x39ecf7fd6deb13bb:0xb857df9a8108bc72!8m2!3d26.5880552!4d85.5335877!16s%2Fg%2F11h12h47jk!19sChIJuxPrbf337DkRcrwIgZrfV7g?authuser=0&hl=en&rclk=1,"26.5880552,85.5335877"
Dhankaul khurd Masjid,Mosque,"9MFC+H63 Dhankaul khurd Masjid, Dhankaul Khurd, Bihar 843318",,9MFC+H63,Dhankaul Khurd,,Bihar,IN,https://www.google.com/maps/place/Dhankaul+khurd+Masjid/data=!4m7!3m6!1s0x39ec551d968e55d3:0x2c2e2fe686694784!8m2!3d26.3738826!4d85.6705593!16s%2Fg%2F11qr589745!19sChIJ01WOlh1V7DkRhEdphuYvLiw?authuser=0&hl=en&rclk=1,"26.373882599999998,85.6705593"
Jama Masjid Jaffarpur,Mosque,"C9WM+HV9 Jama Masjid Jaffarpur, Jaffarpur, Sauli Rupauli, Bihar 843316",,C9WM+HV9,"Jaffarpur, Sauli Rupauli",,Bihar,IN,https://www.google.com/maps/place/Jama+Masjid+Jaffarpur/data=!4m7!3m6!1s0x39ece5791e048f77:0x8f6750dd2b7befa2!8m2!3d26.4464011!4d85.3847209!16s%2Fg%2F11rw90jkc0!19sChIJd48EHnnl7DkRou97K91QZ48?authuser=0&hl=en&rclk=1,"26.4464011,85.38472089999999"
Jama-E-Masjid,Mosque,"2FCM+P64 Jama-E-Masjid, Kedli Patti,Dumra Road, Distric, P.s, Nauhatta, Bihar 852123",P.s,"2FCM+P64, Kedli Patti,Dumra Road, Distric","Nauhatta, Kedli",852123,Bihar,IN,https://www.google.com/maps/place/Jama-E-Masjid/data=!4m7!3m6!1s0x39ee6d1c7c79562b:0x3dce3673eeb27dd6!8m2!3d26.0217685!4d86.4830826!16s%2Fg%2F11gxttdqxv!19sChIJK1Z5fBxt7jkR1n2y7nM2zj0?authuser=0&hl=en&rclk=1,"26.0217685,86.4830826"
Jama Masjid,Mosque,"39VR+2G9 Jama Masjid, Binodpur, Hayatpur, Binodpur, Bihar 854312",Binodpur,39VR+2G9,"Hayatpur, Binodpur",,Bihar,IN,https://www.google.com/maps/place/Jama+Masjid/data=!4m7!3m6!1s0x39ef8de69515aff5:0xa1f9768f1d977235!8m2!3d26.0925402!4d87.3913616!16s%2Fg%2F11gwkwmd35!19sChIJ9a8VleaN7zkRNXKXHY92-aE?authuser=0&hl=en&rclk=1,"26.0925402,87.3913616"
Anas Masjid (chhoti masjid) Dumra Deoraj,Mosque,"387J+JM8 Anas Masjid (chhoti masjid) Dumra Deoraj, Unnamed Road, Dumra Deoraj, Dumra, Bihar 845103",Dumra Deoraj,"387J+JM8, Unnamed Road",Dumra,845103,Bihar,IN,https://www.google.com/maps/place/Anas+Masjid+%28chhoti+masjid%29+Dumra+Deoraj/data=!4m7!3m6!1s0x3994813089b909ff:0x4e3d315bbece07de!8m2!3d27.0640261!4d84.3317116!16s%2Fg%2F11qnl2ddyf!19sChIJ_wm5iTCBlDkR3gfOvlsxPU4?authuser=0&hl=en&rclk=1,"27.0640261,84.33171159999999"
Quadri Jaama Masjid Dumra,Mosque,"WPC3+9MV Quadri Jaama Masjid Dumra, Dumra, Amour, Bihar 854315",,"WPC3+9MV, Dumra","Amour, Nitendar",854315,Bihar,IN,https://www.google.com/maps/place/Quadri+Jaama+Masjid+Dumra/data=!4m7!3m6!1s0x39e545d74153224d:0xbdbd66b7c223682d!8m2!3d25.9209983!4d87.7041867!16s%2Fg%2F11h38fvbyg!19sChIJTSJTQddF5TkRLWgjwrdmvb0?authuser=0&hl=en&rclk=1,"25.920998299999997,87.7041867"
Jama Masjid Dumra Kathwa,Mosque,"PJFW+H7R Jama Masjid Dumra Kathwa, Kamalpur, Bihar 855105",,PJFW+H7R,Kamalpur,,Bihar,IN,https://www.google.com/maps/place/Jama+Masjid+Dumra+Kathwa/data=!4m7!3m6!1s0x39e553c4fe52552b:0x7d057c2d336d8c82!8m2!3d25.7239991!4d87.6456555!16s%2Fg%2F11ggvwsdvs!19sChIJK1VS_sRT5TkRgoxtMy18BX0?authuser=0&hl=en&rclk=1,"25.7239991,87.64565549999999"
iidgaah k'aadrii ngr tlkhaapur ddumraa siitaamddh'ii,Mosque,"HG96+XQQ iidgaah k'aadrii ngr tlkhaapur ddumraa siitaamddh'ii, Sitamarhi, Bihar 843302",,HG96+XQQ,Sitamarhi,,Bihar,IN,https://www.google.com/maps/place/%E0%A4%88%E0%A4%A6%E0%A4%97%E0%A4%BE%E0%A4%B9+%E0%A4%95%E0%A4%BC%E0%A4%BE%E0%A4%A6%E0%A4%B0%E0%A5%80+%E0%A4%A8%E0%A4%97%E0%A4%B0+%E0%A4%A4%E0%A4%B2%E0%A4%96%E0%A4%BE%E0%A4%AA%E0%A5%81%E0%A4%B0+%E0%A4%A1%E0%A5%81%E0%A4%AE%E0%A4%B0%E0%A4%BE+%E0%A4%B8%E0%A5%80%E0%A4%A4%E0%A4%BE%E0%A4%AE%E0%A4%A2%E0%A4%BC%E0%A5%80/data=!4m7!3m6!1s0x39ecf1d717a01841:0x66cc7cd3463e6527!8m2!3d26.5699748!4d85.5119906!16s%2Fg%2F11rd4z_nqc!19sChIJQRigF9fx7DkRJ2U-RtN8zGY?authuser=0&hl=en&rclk=1,"26.569974799999997,85.51199059999999"
Jama masjid karnahiya sitamarhi bihar,Mosque,"GFX6+QRF Jama masjid karnahiya sitamarhi bihar, Karnahia, Bihar 843302",,GFX6+QRF,Karnahia,843302,Bihar,IN,https://www.google.com/maps/place/Jama+masjid+karnahiya+sitamarhi+bihar/data=!4m7!3m6!1s0x39ecf11ef997dcbf:0x77747b0d709fea16!8m2!3d26.5494362!4d85.4620528!16s%2Fg%2F11pzw8zq8p!19sChIJv9yX-R7x7DkRFuqfcA17dHc?authuser=0&hl=en&rclk=1,"26.5494362,85.4620528"
ddmry msjd Dumri Masjid,Mosque,"F68X+3G8 ddmry msjd Dumri Masjid, Dumri, Mahmadpur Katsari, Bihar 843329",,F68X+3G8,"Dumri, Mahmadpur Katsari",843329,Bihar,IN,https://www.google.com/maps/place/%DA%88%D9%85%D8%B1%DB%8C+%D9%85%D8%B3%D8%AC%D8%AF+Dumri+Masjid%E2%80%AD/data=!4m7!3m6!1s0x39ecdd9cddf04163:0xaa640de37b6ea7f3!8m2!3d26.4651726!4d85.2488203!16s%2Fg%2F11h8mr68sm!19sChIJY0Hw3Zzd7DkR86due-MNZKo?authuser=0&hl=en&rclk=1,"26.4651726,85.24882029999999"
Kokab masjid Shakil Nagar Barhampur,Mosque,"PJ8G+VHH Kokab masjid Shakil Nagar Barhampur, Mahendrapur, Dumra, Bihar 854337",,PJ8G+VHH,"Mahendrapur, Dumra",854337,Bihar,IN,https://www.google.com/maps/place/Kokab+masjid+Shakil+Nagar+Barhampur/data=!4m7!3m6!1s0x39e553bbee3106ff:0xd039a40c422429c6!8m2!3d25.7171755!4d87.6264678!16s%2Fg%2F11ssjcx2xp!19sChIJ_wYx7rtT5TkRxikkQgykOdA?authuser=0&hl=en&rclk=1,"25.7171755,87.6264678"
Masjid msjid,Mosque,"Masjid msjid, Chhachi, Bus Stop, Santhan-Chhachi Dumra Rd, Chhachi, Gujarat 370490",,"Chhachi, Bus Stop, Santhan-Chhachi Dumra Rd",Chhachi,370490,Gujarat,IN,https://www.google.com/maps/place/Masjid+%E0%AA%AE%E0%AA%B8%E0%AB%8D%E0%AA%9C%E0%AA%BF%E0%AA%A6/data=!4m7!3m6!1s0x39515936f8c97f89:0x38cbac63d09d2d81!8m2!3d22.9668489!4d68.9957474!16s%2Fg%2F11gy24z9z2!19sChIJiX_J-DZZUTkRgS2d0GOsyzg?authuser=0&hl=en&rclk=1,"22.9668489,68.9957474"
Madina masjid,Mosque,"Madina masjid, Materiya-Narkatiaganj Rd, Chiuntaha, Daraul, Bihar 845455",,Materiya-Narkatiaganj Rd,"Chiuntaha, Daraul",845455,Bihar,IN,https://www.google.com/maps/place/Madina+masjid/data=!4m7!3m6!1s0x3994856a3bcfca6b:0xb045547306b11344!8m2!3d27.2192081!4d84.411266!16s%2Fg%2F11fplxx77t!19sChIJa8rPO2qFlDkRRBOxBnNURbA?authuser=0&hl=en&rclk=1,"27.2192081,84.411266"
Ghulam - E - Mustafa Jama Masjid golaam _ i_ mostphaa jaame msjid,Mosque,"2M7R+F29 Ghulam - E - Mustafa Jama Masjid golaam _ i_ mostphaa jaame msjid, Railway Road (West, Gadadharpur, West Bengal 731234",,"2M7R+F29, Railway Road (West",Gadadharpur,731234,West Bengal,IN,https://www.google.com/maps/place/Ghulam+-+E+-+Mustafa+Jama+Masjid+%E0%A6%97%E0%A7%8B%E0%A6%B2%E0%A6%BE%E0%A6%AE+_+%E0%A6%87_+%E0%A6%AE%E0%A7%8B%E0%A6%B8%E0%A7%8D%E0%A6%A4%E0%A6%AB%E0%A6%BE+%E0%A6%9C%E0%A6%BE%E0%A6%AE%E0%A7%87+%E0%A6%AE%E0%A6%B8%E0%A6%9C%E0%A6%BF%E0%A6%A6/data=!4m7!3m6!1s0x39f9fbbbebbccc3b:0xac1f9935c849751c!8m2!3d24.0136725!4d87.6900947!16s%2Fg%2F11sgdgtj9s!19sChIJO8y867v7-TkRHHVJyDWZH6w?authuser=0&hl=en&rclk=1,"24.0136725,87.6900947"
Masjid e Imam e Aazam,Mosque,"33PJ+CG7 Masjid e Imam e Aazam, Reladiya Manjal, Gujarat 370490",,33PJ+CG7,Reladiya Manjal,370490,Gujarat,IN,https://www.google.com/maps/place/Masjid+e+%C4%B0mam+e+Aazam/data=!4m7!3m6!1s0x3951674d753b4e47:0x954c97cde205c5ea!8m2!3d23.0857!4d69.081808!16s%2Fg%2F11qb3rhd0b!19sChIJR047dU1nUTkR6sUF4s2XTJU?authuser=0&hl=en&rclk=1,"23.0857,69.081808"
Dumra masjid,Mosque,"FQQW+4PP Dumra masjid, masjid, Dumra, Bihar 845417",,FQQW+4PP masjid,Dumra,845417,Bihar,IN,https://www.google.com/maps/place/Dumra+masjid/data=!4m7!3m6!1s0x39932f966d6f20ed:0x91b80084ef989a39!8m2!3d26.4878369!4d84.7968431!16s%2Fg%2F11smntdwgm!19sChIJ7SBvbZYvkzkROZqY74QAuJE?authuser=0&hl=en&rclk=1,"26.487836899999998,84.79684309999999"
Dumra Telpur Masjid (border),Mosque,"385M+RGC Dumra Telpur Masjid (border), Dumra, Border, Telpur, Bihar 845103",,"385M+RGC, Dumra, Border","Telpur, Dumra",845103,Bihar,IN,https://www.google.com/maps/place/Dumra+Telpur+Masjid+%28border%29/data=!4m7!3m6!1s0x39937f3a9ed706f9:0xb2aaee6bce5b3082!8m2!3d27.0595639!4d84.3337565!16s%2Fg%2F11n099h5qz!19sChIJ-QbXnjp_kzkRgjBbzmvuqrI?authuser=0&hl=en&rclk=1,"27.059563899999997,84.33375649999999"
Dumra Eidgah,Mosque,"388H+FVW Dumra Eidgah, Dumra, Bihar 845103",,388H+FVW,Dumra,845103,Bihar,IN,https://www.google.com/maps/place/Dumra+Eidgah/data=!4m7!3m6!1s0x399481c2c0d57e71:0x42b6b31d0f0df96a!8m2!3d27.0662358!4d84.3297075!16s%2Fg%2F11n05r_w6p!19sChIJcX7VwMKBlDkRavkNDx2ztkI?authuser=0&hl=en&rclk=1,"27.066235799999998,84.3297075"
Narayanpur Jama Masjid,Place of worship,"GGVF+3CM Narayanpur Jama Masjid, Narayanpur simra road, Dumra, Simra, Bihar 843314",,"GGVF+3CM, Narayanpur simra road","Dumra, Simra",843314,Bihar,IN,https://www.google.com/maps/place/Narayanpur+Jama+Masjid/data=!4m7!3m6!1s0x39ecf72819a04bb9:0xf9cf156e67efe0f2!8m2!3d26.5427141!4d85.5235584!16s%2Fg%2F11f62vby7s!19sChIJuUugGSj37DkR8uDvZ24Vz_k?authuser=0&hl=en&rclk=1,"26.542714099999998,85.5235584"
Dumra Masjid,School,"G4MH+326 Dumra Masjid, Kapilvastu 32800, Nepal",,G4MH+326,Kapilvastu,,,NP,https://www.google.com/maps/place/Dumra+Masjid/data=!4m7!3m6!1s0x3996efeb13e1ce53:0x8baea022d697a73c!8m2!3d27.5326691!4d83.1275123!16s%2Fg%2F11jmyv9j_v!19sChIJU87hE-vvljkRPKeX1iKgros?authuser=0&hl=en&rclk=1,"27.5326691,83.12751229999999"
Jama Masjid Shershahwadi Colony Bansar,Mosque,"XCJ7+VW8 Jama Masjid Shershahwadi Colony Bansar, Bihar 854201",,XCJ7+VW8,,,Bihar,IN,https://www.google.com/maps/place/Jama+Masjid+Shershahwadi+Colony+Bansar/data=!4m7!3m6!1s0x39eff3a0f9ca09c5:0xe087354c6e6c0cf2!8m2!3d25.982152!4d87.4148363!16s%2Fg%2F11fhqrv216!19sChIJxQnK-aDz7zkR8gxsbkw1h-A?authuser=0&hl=en&rclk=1,"25.982152,87.41483629999999"
Mohammad asgar ali home,Mosque,"Mohammad asgar ali home, Dumra Dumra Panchayat ward no 2 masjid road rudrapur andhratharhi, Sahuriya, Bihar 847411",,Dumra Dumra Panchayat ward no 2 masjid road rudrapur andhratharhi,Sahuriya,847411,Bihar,IN,https://www.google.com/maps/place/Mohammad+asgar+ali+home/data=!4m7!3m6!1s0x39ee7d9deca23b5d:0xf0b40dee6f5afe6d!8m2!3d26.372245!4d86.340135!16s%2Fg%2F11n_ymphv6!19sChIJXTui7J197jkRbf5ab-4NtPA?authuser=0&hl=en&rclk=1,"26.372245,86.34013499999999"
Jama masjid dumra pachim mohalla,Coffee shop,"988M+GM9 Jama masjid dumra pachim mohalla, Bihar 847411",,988M+GM9,,847411,Bihar,IN,https://www.google.com/maps/place/Jama+masjid+dumra+pachim+mohalla/data=!4m7!3m6!1s0x39ee7f8f67bb26a1:0x688d21402cf2fa0f!8m2!3d26.3662777!4d86.3342471!16s%2Fg%2F11mw6tlmpv!19sChIJoSa7Z49_7jkRD_ryLEAhjWg?authuser=0&hl=en&rclk=1,"26.366277699999998,86.3342471"
Mohammadi Masjid ward No14 Murliyadi,Mosque,"GJC6+PWH Mohammadi Masjid ward No14 Murliyadi, Baragaon, Bihar 843314",,GJC6+PWH,Baragaon,,Bihar,IN,https://www.google.com/maps/place/Mohammadi+Masjid+ward+No14+Murliyadi/data=!4m7!3m6!1s0x39ec57d0bcdd75ed:0x99735d27420d697b!8m2!3d26.521805!4d85.6123468!16s%2Fg%2F11h5p07dbc!19sChIJ7XXdvNBX7DkRe2kNQiddc5k?authuser=0&hl=en&rclk=1,"26.521805,85.6123468"
Noori Masjid Kala Dumra,Musalla,"Noori Masjid Kala Dumra, Kala, Noori Masjid, Dumra, Siwan, Bihar 841439",,"Kala, Noori Masjid","Dumra, Siwan",841439,Bihar,IN,https://www.google.com/maps/place/Noori+Masjid+Kala+Dumra/data=!4m7!3m6!1s0x3992e1d0f6829e29:0xc51cb5c204bdfad2!8m2!3d26.2384032!4d84.525249!16s%2Fg%2F11l77ms5hp!19sChIJKZ6C9tDhkjkR0vq9BMK1HMU?authuser=0&hl=en&rclk=1,"26.2384032,84.525249"
Asad kirana store jama masjid dumra pachim mohalla,General store,"Asad kirana store jama masjid dumra pachim mohalla, 50 a 03, Dumara, Bihar 847411",,50 a 03,Dumara,847411,Bihar,IN,https://www.google.com/maps/place/Asad+kirana+store+jama+masjid+dumra+pachim+mohalla/data=!4m7!3m6!1s0x39ee7f590ef3d78f:0x4099e00123c20101!8m2!3d26.3661872!4d86.3344237!16s%2Fg%2F11qnsxh9r2!19sChIJj9fzDll_7jkRAQHCIwHgmUA?authuser=0&hl=en&rclk=1,"26.3661872,86.3344237"
Dumra chhoti masjid,Mosque,"6CHG+XHR Dumra chhoti masjid, Dumra, Bihar 845455",,6CHG+XHR,Dumra,845455,Bihar,IN,https://www.google.com/maps/place/Dumra+chhoti+masjid/data=!4m7!3m6!1s0x39948507a5150ffd:0x676403342e7ee874!8m2!3d27.2299888!4d84.4264052!16s%2Fg%2F11lrs7nrns!19sChIJ_Q8VpQeFlDkRdOh-LjQDZGc?authuser=0&hl=en&rclk=1,"27.229988799999997,84.42640519999999"
Dumra Masjid,Mosque,"HG78+4G5 Dumra Masjid, Bazpatti, Sitamarhi, Bihar 843314",,HG78+4G5,"Bazpatti, Sitamarhi",843314,Bihar,IN,https://www.google.com/maps/place/Dumra+Masjid/data=!4m7!3m6!1s0x39ecf15937e08775:0x129fbde495baa0a1!8m2!3d26.5620196!4d85.5155185!16s%2Fg%2F11y1mf4kxm!19sChIJdYfgN1nx7DkRoaC6leS9nxI?authuser=0&hl=en&rclk=1,"26.5620196,85.5155185"
Badi Masjid Dumra Deoraj,Mosque,"387M+846 Badi Masjid Dumra Deoraj, Dumra Deoraj, Dumra, Bihar 845103",Dumra Deoraj,387M+846,Dumra,845103,Bihar,IN,https://www.google.com/maps/place/Badi+Masjid+Dumra+Deoraj/data=!4m7!3m6!1s0x3994817ddf225b1b:0x8e3fd84d75877c6f!8m2!3d27.0632864!4d84.3327793!16s%2Fg%2F11n05s94qd!19sChIJG1si332BlDkRb3yHdU3YP44?authuser=0&hl=en&rclk=1,"27.0632864,84.3327793"
Jama Masjid Dumra,Mosque,"J8GQ+W66 Jama Masjid Dumra, Unnamed Road, Gaura, Bihar 824202",,"J8GQ+W66, Unnamed Road",Gaura,824202,Bihar,IN,https://www.google.com/maps/place/Jama+Masjid+Dumra/data=!4m7!3m6!1s0x398cf913bba1b363:0xd95f505610f5162a!8m2!3d24.627293!4d84.3380087!16s%2Fg%2F11rb4tn57_!19sChIJY7OhuxP5jDkRKhb1EFZQX9k?authuser=0&hl=en&rclk=1,"24.627292999999998,84.3380087"
mdynh msjd lwrykh,Mosque,"FVG7+249 mdynh msjd lwrykh, Dr. Abdul Kalam Azad Rd, Hussaini Mohalla, Lorika, Dumra, Bihar 847223",Hussaini Mohalla,"FVG7+249, Dr. Abdul Kalam Azad Rd","Lorika, Dumra",847223,Bihar,IN,https://www.google.com/maps/place/%D9%85%D8%AF%DB%8C%D9%86%DB%81+%D9%85%D8%B3%D8%AC%D8%AF+%D9%84%D9%88%D8%B1%DB%8C%DA%A9%D8%A7%E2%80%AD/data=!4m7!3m6!1s0x39ec497183b0e989:0xfb5fb61d206d1fc9!8m2!3d26.4750457!4d85.8628679!16s%2Fg%2F11ph50skmd!19sChIJiemwg3FJ7DkRyR9tIB22X_s?authuser=0&hl=en&rclk=1,"26.4750457,85.8628679"
Masjid and Maqtab Bhisa,Mosque,"HG9H+J7V Masjid and Maqtab Bhisa, DAV Road, Shivpuri, Dumra, Sitamarhi, Bihar 843301",Shivpuri,"HG9H+J7V, DAV Road","Dumra, Sitamarhi",843301,Bihar,IN,https://www.google.com/maps/place/Masjid+and+Maqtab+Bhisa/data=!4m7!3m6!1s0x39ecf71f6a0baedb:0x2f57661290ab20ae!8m2!3d26.5691229!4d85.5281606!16s%2Fg%2F11p0g9xnvw!19sChIJ264Lah_37DkRriCrkBJmVy8?authuser=0&hl=en&rclk=1,"26.5691229,85.52816059999999"
Jame Masjid,Hospital,"FRR2+442 Jame Masjid, Unnamed Road, Dumra, Bihar 845429",,"FRR2+442, Unnamed Road",Dumra,845429,Bihar,IN,https://www.google.com/maps/place/Jame+Masjid/data=!4m7!3m6!1s0x39932fc04f50d457:0xf2109b88639e1303!8m2!3d26.4902631!4d84.8002733!16s%2Fg%2F11hzz6flj0!19sChIJV9RQT8AvkzkRAxOeY4ibEPI?authuser=0&hl=en&rclk=1,"26.4902631,84.8002733"
JAMA-MASJID New Hamzapur,Mosque,"H27Q+FGF JAMA-MASJID New Hamzapur, Dumra, Bihar 805131",,H27Q+FGF,Dumra,805131,Bihar,IN,https://www.google.com/maps/place/JAMA-MASJID+New+Hamzapur/data=!4m7!3m6!1s0x39f331fa8bbf851b:0xa7090fb1969344a1!8m2!3d24.5636773!4d85.038807!16s%2Fg%2F11q32kv4pk!19sChIJG4W_i_ox8zkRoUSTlrEPCac?authuser=0&hl=en&rclk=1,"24.5636773,85.03880699999999"
Aaisa Masjid Meddu Kha Ki Hatta,Mosque,"2C79+JR6 Aaisa Masjid Meddu Kha Ki Hatta, Araria, Dumra, Bihar 854312",,2C79+JR6,"Araria, Dumra",854312,Bihar,IN,https://www.google.com/maps/place/Aaisa+Masjid+Meddu+Kha+Ki+Hatta/data=!4m7!3m6!1s0x39eff324fd3cf931:0x55d1b6813eb414c1!8m2!3d26.0140365!4d87.4195123!16s%2Fg%2F11rsr5h3bk!19sChIJMfk8_STz7zkRwRS0PoG20VU?authuser=0&hl=en&rclk=1,"26.0140365,87.4195123"
Madrasa Islamia Ishatul Quraan kethariya(Masjid kethariya),Mosque,"Madrasa Islamia Ishatul Quraan kethariya(Masjid kethariya), police station, Village kethariya post paktola, Dumra, Bihar 843302",,"police station, Village kethariya post paktola","Dumra, Bishunpur Ketharia",843302,Bihar,IN,https://www.google.com/maps/place/Madrasa+Islamia+Ishatul+Quraan+kethariya%28Masjid+kethariya%29/data=!4m7!3m6!1s0x39ecf9466f979dd1:0x45ae12ce84987d14!8m2!3d26.50414!4d85.5871238!16s%2Fg%2F11shdl0pzb!19sChIJ0Z2Xb0b57DkRFH2YhM4SrkU?authuser=0&hl=en&rclk=1,"26.50414,85.5871238"
Eidgah,Mosque,"HG7F+W29 Eidgah, Dumra, Sitamarhi, Bihar 843314",,HG7F+W29,"Dumra, Sitamarhi",,Bihar,IN,https://www.google.com/maps/place/Eidgah/data=!4m7!3m6!1s0x39ecf727f03af063:0x1df15722ead107c8!8m2!3d26.5647901!4d85.5226041!16s%2Fg%2F11sv2xpp1v!19sChIJY_A68Cf37DkRyAfR6iJX8R0?authuser=0&hl=en&rclk=1,"26.5647901,85.5226041"
Chandel Tola Masjid,Mosque,"7J8M+262 Chandel Tola Masjid, Dumara, Bihar 841416",,7J8M+262,Dumara,841416,Bihar,IN,https://www.google.com/maps/place/Chandel+Tola+Masjid/data=!4m7!3m6!1s0x3992df9f6b672257:0x375e3401ca627a74!8m2!3d26.2650619!4d84.6330362!16s%2Fg%2F11k39y2m5y!19sChIJVyJna5_fkjkRdHpiygE0Xjc?authuser=0&hl=en&rclk=1,"26.2650619,84.63303619999999"
Rahmat Masjid,Mosque,"388R+H7 Rahmat Masjid, Deurwa, Bihar 845103",,388R+H7,Deurwa,,Bihar,IN,https://www.google.com/maps/place/Rahmat+Masjid/data=!4m7!3m6!1s0x3994819c8f0f815d:0x4b8621cea3f8cd41!8m2!3d27.066412!4d84.3406868!16s%2Fg%2F11smj9fj3j!19sChIJXYEPj5yBlDkRQc34o84hhks?authuser=0&hl=en&rclk=1,"27.066412,84.3406868"
MASJID,Mosque,"6C74+2H3 MASJID, MADARSA TOLA, Daraul, Bhuski, Bihar 845455",,6C74+2H3 MADARSA TOLA,"Daraul, Bhuski",845455,Bihar,IN,https://www.google.com/maps/place/MASJID/data=!4m7!3m6!1s0x399485e1d7eaa10f:0x1a168a96f83d1ce8!8m2!3d27.2119693!4d84.4067295!16s%2Fg%2F11rm_8dvk4!19sChIJD6Hq1-GFlDkR6Bw9-JaKFho?authuser=0&hl=en&rclk=1,"27.2119693,84.4067295"
Jama masjid majgawan Ward NO 02,Mosque,"Ward NO 02, Jama masjid majgawan Ward NO 02, Jama Masjid, Majgawan, Bihar 854312",,"Ward NO 02, Jama Masjid",Majgawan,,Bihar,IN,https://www.google.com/maps/place/Jama+masjid+majgawan+Ward+NO+02/data=!4m7!3m6!1s0x39ef8b65cc8f2ae3:0x3b2ef1bec8a09c33!8m2!3d26.0935567!4d87.4933649!16s%2Fg%2F11rn7phq7p!19sChIJ4yqPzGWL7zkRM5ygyL7xLjs?authuser=0&hl=en&rclk=1,"26.093556699999997,87.4933649"
Masjid tola Dumra (Anganvadi Kendra),Preschool,"2C77+754 Masjid tola Dumra (Anganvadi Kendra), Latahri, Bihar 854312",,2C77+754,Latahri,854312,Bihar,IN,https://www.google.com/maps/place/Masjid+tola+Dumra+%28Anganvadi+Kendra%29/data=!4m7!3m6!1s0x39eff309ed0fe0bb:0x7ccc0f41a70ae1c4!8m2!3d26.0131323!4d87.4129611!16s%2Fg%2F11kj766d8p!19sChIJu-AP7Qnz7zkRxOEKp0EPzHw?authuser=0&hl=en&rclk=1,"26.0131323,87.41296109999999"
Al Lorika Deuri Dumra Muharram Maidan,Playground,"FVJ5+HPC Al Lorika Deuri Dumra Muharram Maidan, Dumra, Pokharauni Birta, Bihar 847308",,FVJ5+HPC,"Dumra, Pokharauni Birta",847308,Bihar,IN,https://www.google.com/maps/place/Al+Lorika+Deuri+Dumra+Muharram+Maidan/data=!4m7!3m6!1s0x39ec4908e8f7c6ad:0x99c567b71bddbe0c!8m2!3d26.4814467!4d85.8592691!16s%2Fg%2F11n2ypg567!19sChIJrcb36AhJ7DkRDL7dG7dnxZk?authuser=0&hl=en&rclk=1,"26.4814467,85.85926909999999"
Madina Masjid Purushottampur,,"2FHV+H6M Madina Masjid Purushottampur, Dumra, Bihar 852123",,2FHV+H6M,Dumra,852123,Bihar,IN,https://www.google.com/maps/place/Madina+Masjid+Purushottampur/data=!4m7!3m6!1s0x39ee6d9a57a49bf3:0xdd7df9ec14b94950!8m2!3d26.029734!4d86.4925551!16s%2Fg%2F11v5g14mv4!19sChIJ85ukV5pt7jkRUEm5FOz5fd0?authuser=0&hl=en&rclk=1,"26.029733999999998,86.49255509999999"
