name,main_category,address,address_ward,address_street,address_city,address_postal_code,address_state,address_country_code,link,coordinates
Jamiat Ahl-e Hadith Kaghaznagar,Religious organization,"Jamiat Ahl-e Hadith Kaghaznagar, Al-Masjid Al-Salafiyya Umm Ul Momi'neen Aisha Siddiqa Raadhiallahu Anha, Indira Market, Sriram Nagar, Kagaznagar, Telangana 504296","Indira Market, Sriram Nagar",Al-Masjid Al-Salafiyya Umm Ul Momi'neen Aisha Siddiqa Raadhiallahu Anha,Kagaznagar,504296,Telangana,IN,https://www.google.com/maps/place/Jamiat+Ahl-e+Hadith+Kaghaznagar/data=!4m7!3m6!1s0x3a2d56bb0489a763:0xb8fad4781e849f87!8m2!3d19.3432841!4d79.4839188!16s%2Fg%2F11c76mmmtl!19sChIJY6eJBLtWLToRh5-EHnjU-rg?authuser=0&hl=en&rclk=1,"19.343284099999998,79.4839188"
Al-Masjid Al-Salafiyya Umm Ul Momineen Aisha Siddiqa Raadhiallahu Anha,Mosque,"Al-Masjid Al-Salafiyya Umm Ul Momineen Aisha Siddiqa Raadhiallahu Anha, 1-3-186, Indira Market, Kagaznagar, Telangana 504296",Ward Number 3,"1-3-186, Indira Market",Kagaznagar,504296,Telangana,IN,https://www.google.com/maps/place/Al-Masjid+Al-Salafiyya+Umm+Ul+Momineen+Aisha+Siddiqa+Raadhiallahu+Anha/data=!4m7!3m6!1s0x3a2d57122ab10c9b:0x2366cf8f27649544!8m2!3d19.343273!4d79.483942!16s%2Fg%2F11px9yb4sd!19sChIJmwyxKhJXLToRRJVkJ4_PZiM?authuser=0&hl=en&rclk=1,"19.343273,79.483942"
Aslam Masjid,Mosque,"C4MP+X45 Aslam Masjid, Tower Circle Rd, near Alfa chowrastha, Ahmed Pura, Ashoknagar, Karimnagar, Telangana 505001","Ahmed Pura, Ashoknagar","C4MP+X45, Tower Circle Rd, near Alfa chowrastha",Karimnagar,505001,Telangana,IN,https://www.google.com/maps/place/Aslam+Masjid/data=!4m7!3m6!1s0x3bccd9177fc8d98b:0xc4287fadf1e93d9b!8m2!3d18.4348845!4d79.135344!16s%2Fg%2F1pyqgdxfg!19sChIJi9nIfxfZzDsRmz3p8a1_KMQ?authuser=0&hl=en&rclk=1,"18.4348845,79.135344"
Adalat Masjid,Mosque,"C4MM+56F Adalat Masjid, Sai Nagar, Karimnagar, Telangana 505001",Sai Nagar,C4MM+56F,Karimnagar,505001,Telangana,IN,https://www.google.com/maps/place/Adalat+Masjid/data=!4m7!3m6!1s0x3bccd917c527189b:0x593177f34ff7b9dc!8m2!3d18.4329369!4d79.1330492!16s%2Fg%2F11c5g774nj!19sChIJmxgnxRfZzDsR3Ln3T_N3MVk?authuser=0&hl=en&rclk=1,"18.432936899999998,79.1330492"
Jama Masjid,Mosque,"MGGQ+F5Q Jama Masjid, Jama Masjid Rd, Mahalaxmiwada, Adilabad, Telangana 504001",Mahalaxmiwada,"MGGQ+F5Q, Jama Masjid Rd",Adilabad,504001,Telangana,IN,https://www.google.com/maps/place/Jama+Masjid/data=!4m7!3m6!1s0x3bd25c75f87e8a01:0x25a95ee1fbab37d0!8m2!3d19.6762137!4d78.5379985!16s%2Fg%2F1tlqnfwv!19sChIJAYp--HVc0jsR0Der--FeqSU?authuser=0&hl=en&rclk=1,"19.676213699999998,78.5379985"
Gulzaar Masjid,Mosque,"MGCR+66Q Gulzaar Masjid, Bokkalguda St, Brahmanwadi, Adilabad, Telangana 504001",Brahmanwadi,"MGCR+66Q, Bokkalguda St",Adilabad,504001,Telangana,IN,https://www.google.com/maps/place/Gulzaar+Masjid/data=!4m7!3m6!1s0x3bd25c7477d00337:0x3dc61fe7489f62b1!8m2!3d19.6704596!4d78.5395986!16s%2Fg%2F1tcz6sjz!19sChIJNwPQd3Rc0jsRsWKfSOcfxj0?authuser=0&hl=en&rclk=1,"19.670459599999997,78.53959859999999"
Makka Masjid,Mosque,"C4VV+525 Makka Masjid, Kisan Nagar, Karimnagar, Telangana 505001",Kisan Nagar,C4VV+525,Karimnagar,505001,Telangana,IN,https://www.google.com/maps/place/Makka+Masjid/data=!4m7!3m6!1s0x3bccd91cc76155c3:0x7b2f1b6d9bd4bcdd!8m2!3d18.4428994!4d79.142609!16s%2Fg%2F1pyqvj8_n!19sChIJw1VhxxzZzDsR3bzUm20bL3s?authuser=0&hl=en&rclk=1,"18.442899399999998,79.142609"
Zam Zam Masjid,Mosque,"C4P9+979 Zam Zam Masjid, Raitu Bazar Rd, Kashmirgadda, Karimnagar, Telangana 505001",Kashmirgadda,"C4P9+979, Raitu Bazar Rd",Karimnagar,505001,Telangana,IN,https://www.google.com/maps/place/Zam+Zam+Masjid/data=!4m7!3m6!1s0x3bccd92fb4864367:0x844979631f1c52b!8m2!3d18.4359091!4d79.1182268!16s%2Fg%2F113jb5h_6!19sChIJZ0OGtC_ZzDsRK8XxMZaXRAg?authuser=0&hl=en&rclk=1,"18.4359091,79.1182268"
"Masid E Minar, IB Tandur",Mosque,"Masid E Minar, IB Tandur, 3""E, State Highway 2, Thiru Vi Ka Indl Estate, Thiru Vi Ka Industrial Estate, West Saidapet, Chennai, 600032",,"3""E, State Highway 2, Thiru Vi Ka Indl Estate, Thiru Vi Ka Industrial Estate, West Saidapet","Chennai, Tandur",600032,Telangana,IN,"https://www.google.com/maps/place/Masid+E+Minar,+IB+Tandur/data=!4m7!3m6!1s0x3a32ac70447ebbcb:0x4fdec0dfabd28dd5!8m2!3d19.1581003!4d79.4384271!16s%2Fg%2F11f352mymv!19sChIJy7t-RHCsMjoR1Y3Sq9_A3k8?authuser=0&hl=en&rclk=1","19.158100299999997,79.4384271"
Masjid-e-Musallam,Mosque,"C4P7+5MF Masjid-e-Musallam, Musallam Pura, Karimnagar, Telangana 505001",Musallam Pura,C4P7+5MF,Karimnagar,505001,Telangana,IN,https://www.google.com/maps/place/Masjid-e-Musallam/data=!4m7!3m6!1s0x3bccd92dc1bc23a3:0x6ffa28a08036727b!8m2!3d18.435429!4d79.114178!16s%2Fg%2F1tkksb1c!19sChIJoyO8wS3ZzDsRe3I2gKAo-m8?authuser=0&hl=en&rclk=1,"18.435429,79.114178"
New Bharat Bakery,Bakery and Cake Shop,"New Bharat Bakery, MG Rd, Kagaznagar, Telangana 504296",,MG Rd,Kagaznagar,504296,Telangana,IN,https://www.google.com/maps/place/New+Bharat+Bakery/data=!4m7!3m6!1s0x3a2d56b0120b366b:0xc1840950c460a17c!8m2!3d19.3475009!4d79.4828551!16s%2Fg%2F11c4b7t9yy!19sChIJazYLErBWLToRfKFgxFAJhME?authuser=0&hl=en&rclk=1,"19.3475009,79.4828551"
Ismail Hussain Mosque,Mosque,"Ismail Hussain Mosque, 8-4, Rajeev Nagar, AG Colony, 549/190, AG Colony Rd, near Ishaq & Ismail Textiles, Netaji Nagar, Gouthampuri Colony, Erragadda, Hyderabad, Telangana 500045","Netaji Nagar, Gouthampuri Colony, Erragadda","8-4, Rajeev Nagar, AG Colony, 549/190, AG Colony Rd, near Ishaq & Ismail Textiles",Hyderabad,500045,Telangana,IN,https://www.google.com/maps/place/Ismail+Hussain+Mosque/data=!4m7!3m6!1s0x3bcb911f043c0d4d:0x220bb14b8284fe79!8m2!3d17.4501922!4d78.42639!16s%2Fg%2F1vc6bvg9!19sChIJTQ08BB-RyzsRef6EgkuxCyI?authuser=0&hl=en&rclk=1,"17.4501922,78.42639"
Masjid al-Kausar,Mosque,"8FQH+H37 Masjid al-Kausar, 1-14-71/1, Kausar Nagar, Sriram Nagar, Kagaznagar, Telangana 504296","Kausar Nagar, Sriram Nagar","8FQH+H37, 1-14-71/1",Kagaznagar,504296,Telangana,IN,https://www.google.com/maps/place/Masjid+al-Kausar/data=!4m7!3m6!1s0x3a2d56a47baa058d:0x1c8a9f1315d0247!8m2!3d19.3410318!4d79.4783643!16s%2Fg%2F1tj7cgkk!19sChIJjQWqe6RWLToRRwJdMfGpyAE?authuser=0&hl=en&rclk=1,"19.3410318,79.4783643"
Masjid-e-Osmania,Mosque,"979Q+CCG Masjid-e-Osmania, Osmania Colony, Asifabad, Asifabad",,"979Q+CCG, Osmania Colony, Asifabad",Asifabad,,Telangana,IN,https://www.google.com/maps/place/Masjid-e-Osmania/data=!4m7!3m6!1s0x3bd2aea043e8367d:0xee7678b6d5658e7!8m2!3d19.3685527!4d79.2885762!16s%2Fg%2F11bw6692r_!19sChIJfTboQ6Cu0jsR51hWbYtn5w4?authuser=0&hl=en&rclk=1,"19.3685527,79.2885762"
Bilal Masjid,Mosque,"F42M+4Q3 Bilal Masjid, Saraswathi Nagar, Karimnagar, Telangana 505001",Saraswathi Nagar,F42M+4Q3,Karimnagar,505001,Telangana,IN,https://www.google.com/maps/place/Bilal+Masjid/data=!4m7!3m6!1s0x3bccd8e0fac45b97:0xe203e5f1088ec8a9!8m2!3d18.450254!4d79.1344316!16s%2Fg%2F1tcw21px!19sChIJl1vE-uDYzDsRqciOCPHlA-I?authuser=0&hl=en&rclk=1,"18.450253999999997,79.1344316"
Masjid Panjesha,Mosque,"Masjid Panjesha, masjid, panjesha marg, Bhainsa, Telangana 504103",,"masjid, panjesha marg",Bhainsa,,Telangana,IN,https://www.google.com/maps/place/Masjid+Panjesha/data=!4m7!3m6!1s0x3bcdfe45594b318b:0xa9a4527a0d3bdd4e!8m2!3d19.1114013!4d77.9614446!16s%2Fg%2F11xfvxc4m!19sChIJizFLWUX-zTsRTt07DXpSpKk?authuser=0&hl=en&rclk=1,"19.1114013,77.9614446"
Masjid e Noor Khursheed Nagar,Mosque,"Masjid e Noor Khursheed Nagar, khursheed Nagar, Adilabad, Telangana 504001",khursheed Nagar,,Adilabad,,Telangana,IN,https://www.google.com/maps/place/Masjid+e+Noor+Khursheed+Nagar/data=!4m7!3m6!1s0x3bd25b7f77891187:0xd64d9d2522c68201!8m2!3d19.6780656!4d78.5199255!16s%2Fg%2F1pp2x6dd1!19sChIJhxGJd39b0jsRAYLGIiWdTdY?authuser=0&hl=en&rclk=1,"19.6780656,78.5199255"
Golleti Masjid,Mosque,"69HJ+MRR Golleti Masjid, Gollet, Telangana 504292",,69HJ+MRR,Gollet,504292,Telangana,IN,https://www.google.com/maps/place/Golleti+Masjid/data=!4m7!3m6!1s0x3a32aacb61c1b09d:0x3d1c844762d42b55!8m2!3d19.2292306!4d79.3820089!16s%2Fg%2F11c0xp7n2t!19sChIJnbDBYcuqMjoRVSvUYkeEHD0?authuser=0&hl=en&rclk=1,"19.229230599999998,79.3820089"
Masjid-e-Irfan,Place of worship,"Masjid-e-Irfan, Irfan Colony, Irfan Nagar Colony, Kagaznagar, Telangana 504296",Irfan Nagar Colony,Irfan Colony,Kagaznagar,504296,Telangana,IN,https://www.google.com/maps/place/Masjid-e-Irfan/data=!4m7!3m6!1s0x3a2d56aa90d4eb1b:0xf69dc4d8b2934690!8m2!3d19.355791!4d79.4712658!16s%2Fg%2F1ptwyyk68!19sChIJG-vUkKpWLToRkEaTstjEnfY?authuser=0&hl=en&rclk=1,"19.355791,79.4712658"
Hafeez Bakery,Bakery and Cake Shop,"Hafeez Bakery, Kagaznagar, Telangana 504296",,,Kagaznagar,504296,Telangana,IN,https://www.google.com/maps/place/Hafeez+Bakery/data=!4m7!3m6!1s0x3a2d56bac92ffc79:0x87c5769ff7f0d939!8m2!3d19.344759!4d79.4821224!16s%2Fg%2F11g72940k_!19sChIJefwvybpWLToROdnw9592xYc?authuser=0&hl=en&rclk=1,"19.344759,79.4821224"
Masjid e Khadim,Mosque,"974W+GHR Masjid e Khadim, Asifabad, Telangana 504293",,974W+GHR,Asifabad,504293,Telangana,IN,https://www.google.com/maps/place/Masjid+e+Khadim/data=!4m7!3m6!1s0x3bd2ac0487a9f291:0x6fbe7074c3de740b!8m2!3d19.3563518!4d79.2964018!16s%2Fg%2F11cjj61r0q!19sChIJkfKphwSs0jsRC3Tew3Rwvm8?authuser=0&hl=en&rclk=1,"19.3563518,79.2964018"
Masjid-e-Huda,Mosque,"Masjid-e-Huda, opp. Bus Stand, Asifabad, Telangana 504293",,opp. Bus Stand,Asifabad,,Telangana,IN,https://www.google.com/maps/place/Masjid-e-Huda/data=!4m7!3m6!1s0x3bd2ac1c5f823685:0x442868b52a3ced5e!8m2!3d19.3620003!4d79.2942735!16s%2Fg%2F11bw7cz2mz!19sChIJhTaCXxys0jsRXu08KrVoKEQ?authuser=0&hl=en&rclk=1,"19.3620003,79.2942735"
Sabera Masjid,Mosque,"M3FM+35Q Sabera Masjid, Malapally, Mujahed Nagar, Nizamabad, Telangana 503001","Malapally, Mujahed Nagar",M3FM+35Q,Nizamabad,503001,Telangana,IN,https://www.google.com/maps/place/Sabera+Masjid/data=!4m7!3m6!1s0x3bcddb1984ba1037:0x8145996f08919629!8m2!3d18.6727151!4d78.0829728!16s%2Fg%2F11c6v9_3j7!19sChIJNxC6hBnbzTsRKZaRCG-ZRYE?authuser=0&hl=en&rclk=1,"18.672715099999998,78.0829728"
"Masjid, Indalwai",Mosque,"G6VV+X6C Masjid, Indalwai, Indalwai, Telangana 503164",,G6VV+X6C,Indalwai,503164,Telangana,IN,"https://www.google.com/maps/place/Masjid,+Indalwai/data=!4m7!3m6!1s0x3bcdc979e17b59dd:0xc6471e1000f650e0!8m2!3d18.5449253!4d78.2430099!16s%2Fg%2F11g6j92z44!19sChIJ3Vl74XnJzTsR4FD2ABAeR8Y?authuser=0&hl=en&rclk=1","18.5449253,78.24300989999999"
Jama Masjid,Mosque,"Jama Masjid, Bazarwadi,, Asifabad, Telangana 504293",,"Bazarwadi,",Asifabad,504293,Telangana,IN,https://www.google.com/maps/place/Jama+Masjid/data=!4m7!3m6!1s0x3bd2aea773cd3d43:0xc60c04b9f21fcf83!8m2!3d19.3622125!4d79.289124!16s%2Fg%2F11bw77yf0r!19sChIJQz3Nc6eu0jsRg88f8rkEDMY?authuser=0&hl=en&rclk=1,"19.3622125,79.289124"
Masjid-e-Charbhai,Mosque,"H6W9+2MC Masjid-e-Charbhai, NH 44, Dichpally, Telangana 503322",,"H6W9+2MC, NH 44",Dichpally,503322,Telangana,IN,https://www.google.com/maps/place/Masjid-e-Charbhai/data=!4m7!3m6!1s0x3bcdc8c3f5f4318b:0xb96f0e4800c8cc5c!8m2!3d18.5950729!4d78.2191446!16s%2Fg%2F11b6p4j0sd!19sChIJizH09cPIzTsRXMzIAEgOb7k?authuser=0&hl=en&rclk=1,"18.595072899999998,78.21914459999999"
Jama Masjid,Mosque,"7C48+F37 Jama Masjid, beside Post office, Rebbena, Telangana 504292",,"7C48+F37, beside Post office",Rebbena,,Telangana,IN,https://www.google.com/maps/place/Jama+Masjid/data=!4m7!3m6!1s0x3a32ab76eba52721:0x1019c60f50818098!8m2!3d19.2561673!4d79.4151744!16s%2Fg%2F11f879y6q1!19sChIJISel63arMjoRmICBUA_GGRA?authuser=0&hl=en&rclk=1,"19.256167299999998,79.4151744"
Masjid e Sahaba & Madarsa Tahfiz ul Quraan,Mosque,"Masjid e Sahaba & Madarsa Tahfiz ul Quraan, NAWAZISH NAGAR, Asifabad, Telangana 504293",,NAWAZISH NAGAR,Asifabad,504293,Telangana,IN,https://www.google.com/maps/place/Masjid+e+Sahaba+%26+Madarsa+Tahfiz+ul+Quraan/data=!4m7!3m6!1s0x3bd2aea7c6631baf:0x62b87d4b00422aba!8m2!3d19.3598125!4d79.2883125!16s%2Fg%2F113dzbrlr!19sChIJrxtjxqeu0jsRuipCAEt9uGI?authuser=0&hl=en&rclk=1,"19.3598125,79.28831249999999"
Masjid e Noorani,Mosque,"Masjid e Noorani, Kapuwada, Kagaznagar, Telangana 504296",Kapuwada,,Kagaznagar,504296,Telangana,IN,https://www.google.com/maps/place/Masjid+e+Noorani/data=!4m7!3m6!1s0x3a2d56b93b09e1f7:0x357a83cab19e831f!8m2!3d19.3420694!4d79.4891953!16s%2Fg%2F11bw7jjxtw!19sChIJ9-EJO7lWLToRH4OescqDejU?authuser=0&hl=en&rclk=1,"19.3420694,79.48919529999999"
Eidghah Congregation Prayer Palace,Mosque,"9F5G+9PP Eidghah Congregation Prayer Palace, Edgha colony, Kagaznagar, Telangana 504296",Edgha colony,9F5G+9PP,Kagaznagar,504296,Telangana,IN,https://www.google.com/maps/place/Eidghah+Congregation+Prayer+Palace/data=!4m7!3m6!1s0x3a2d51534e416e1d:0xb3e32641ae9869d0!8m2!3d19.3584639!4d79.4768223!16s%2Fg%2F11ckrc4_vw!19sChIJHW5BTlNRLToR0GmYrkEm47M?authuser=0&hl=en&rclk=1,"19.3584639,79.4768223"
Masjid-e-Qadeem,Mosque,"8FXM+3MX Masjid-e-Qadeem, Nizamuddin Colony, Kagaznagar, Telangana 504296",Nizamuddin Colony,8FXM+3MX,Kagaznagar,504296,Telangana,IN,https://www.google.com/maps/place/Masjid-e-Qadeem/data=!4m7!3m6!1s0x3a2d56b063da2fbd:0xe321e240d18cecbb!8m2!3d19.3477485!4d79.4842215!16s%2Fg%2F11bw65hd1l!19sChIJvS_aY7BWLToRu-yM0UDiIeM?authuser=0&hl=en&rclk=1,"19.347748499999998,79.48422149999999"
"Jama Masjid, Kagaznagar",Mosque,"8FXP+GH7 Jama Masjid, Kagaznagar, near Spm Gate, Kagaznagar, Telangana 504296",,"8FXP+GH7, near Spm Gate",Kagaznagar,504296,Telangana,IN,"https://www.google.com/maps/place/Jama+Masjid,+Kagaznagar/data=!4m7!3m6!1s0x3a2d56b0c5a924a5:0x1616f5cf3e128492!8m2!3d19.3488!4d79.4864136!16s%2Fg%2F11bw7_2vw3!19sChIJpSSpxbBWLToRkoQSPs_1FhY?authuser=0&hl=en&rclk=1","19.3488,79.48641359999999"
Masjid-e-Amera | msjd `myrh,Mosque,"8FVM+P2F Masjid-e-Amera | msjd `myrh, New Indira Market, Kagaznagar, Telangana",Ward Number 3,"8FVM+P2F, New Indira Market",Kagaznagar,,Telangana,IN,https://www.google.com/maps/place/Masjid-e-Amera+%7C+%D9%85%D8%B3%D8%AC%D8%AF+%D8%B9%D8%A7%D9%85%DB%8C%D8%B1%D8%A7%DB%81%E2%80%AD/data=!4m7!3m6!1s0x3a2d56badb25cd45:0x64c23d8b7bb9f786!8m2!3d19.3443152!4d79.4825415!16s%2Fg%2F11b6w96mkl!19sChIJRc0l27pWLToRhve5e4s9wmQ?authuser=0&hl=en&rclk=1,"19.3443152,79.4825415"
Masjid e Nasar,Mosque,"8FXH+2V4 Masjid e Nasar, Kagaznagar, Telangana 504296",,8FXH+2V4,Kagaznagar,504296,Telangana,IN,https://www.google.com/maps/place/Masjid+e+Nasar/data=!4m7!3m6!1s0x3a2d56af8e04a971:0x8eefd28da8ea9968!8m2!3d19.3475054!4d79.4797024!16s%2Fg%2F11bxf9z03y!19sChIJcakEjq9WLToRaJnqqI3S744?authuser=0&hl=en&rclk=1,"19.3475054,79.4797024"
Masjid-e-gouse-ul-wara,Mosque,"3FGP+WXC Masjid-e-gouse-ul-wara, Bellampalle, Kannal Rural, Telangana 504251",,3FGP+WXC,"Bellampalle, Kannal Rural",504251,Telangana,IN,https://www.google.com/maps/place/Masjid-e-gouse-ul-wara/data=!4m7!3m6!1s0x3a32ae1e07a8f3a1:0x30d5ea744ddf5099!8m2!3d19.0773045!4d79.4873999!16s%2Fg%2F11dfmg17l2!19sChIJofOoBx6uMjoRmVDfTXTq1TA?authuser=0&hl=en&rclk=1,"19.0773045,79.4873999"
Masjid e Ansar,Mosque,"Masjid e Ansar, Colony, Sirsilk Rd, Kagaznagar, Telangana 504296",,"Colony, Sirsilk Rd",Kagaznagar,504296,Telangana,IN,https://www.google.com/maps/place/Masjid+e+Ansar/data=!4m7!3m6!1s0x3a2d56b520c4819d:0x41e365a54af75873!8m2!3d19.3575975!4d79.4901958!16s%2Fg%2F11bw83jqr_!19sChIJnYHEILVWLToRc1j3SqVl40E?authuser=0&hl=en&rclk=1,"19.3575975,79.4901958"
JAMA MASJID SULTANGUDA,Mosque,"C2RR+XGF JAMA MASJID SULTANGUDA, Sultanguda, Kerimeri, Adilabad, Telangana 504313",Sultanguda,C2RR+XGF,"Kerimeri, Adilabad",,Telangana,IN,https://www.google.com/maps/place/JAMA+MASJID+SULTANGUDA/data=!4m7!3m6!1s0x3bd2bd475cdd2b39:0x2b52fccf2d27bcc0!8m2!3d19.4424339!4d79.0413029!16s%2Fg%2F11d_5drtt9!19sChIJOSvdXEe90jsRwLwnLc_8Uis?authuser=0&hl=en&rclk=1,"19.442433899999997,79.04130289999999"
Madarsa al Arabiya Bait ul Uloom & Masjid e Rahmania,Mosque,"8FWM+597 Madarsa al Arabiya Bait ul Uloom & Masjid e Rahmania, MG Rd, Kagaznagar, Telangana 504296",,"8FWM+597, MG Rd",Kagaznagar,504296,Telangana,IN,https://www.google.com/maps/place/Madarsa+al+Arabiya+Bait+ul+Uloom+%26+Masjid+e+Rahmania/data=!4m7!3m6!1s0x3a2d56ba940d6e41:0xa09cb1cd9452c8a6!8m2!3d19.345412!4d79.4834169!16s%2Fg%2F11bw5xmyn4!19sChIJQW4NlLpWLToRpshSlM2xnKA?authuser=0&hl=en&rclk=1,"19.345412,79.4834169"
Masjid e Bilal,Mosque,"9F9G+WXM Masjid e Bilal, Dada Nagar, Kagaznagar, Telangana 504296",Dada Nagar,9F9G+WXM,Kagaznagar,504296,Telangana,IN,https://www.google.com/maps/place/Masjid+e+Bilal/data=!4m7!3m6!1s0x3a2d515a754c6735:0xd45f0f4ccb45c2ba!8m2!3d19.3698374!4d79.4774318!16s%2Fg%2F11cjc1jzf5!19sChIJNWdMdVpRLToRusJFy0wPX9Q?authuser=0&hl=en&rclk=1,"19.369837399999998,79.47743179999999"
Masjid E Umar E Farooq Raadhiallahu Anhu,Mosque,"9F5C+HRF Masjid E Umar E Farooq Raadhiallahu Anhu, Ahmed.Raza.Colony, Kagaznagar, Telangana 504296",Ahmed.Raza.Colony,9F5C+HRF,Kagaznagar,504296,Telangana,IN,https://www.google.com/maps/place/Masjid+E+Umar+E+Farooq+Raadhiallahu+Anhu/data=!4m7!3m6!1s0x3a2d51553eee9879:0x8a39ea93011e9574!8m2!3d19.3589342!4d79.4720342!16s%2Fg%2F11bw6843jl!19sChIJeZjuPlVRLToRdJUeAZPqOYo?authuser=0&hl=en&rclk=1,"19.3589342,79.4720342"
Masjid e Noor,Mosque,"976M+99C Masjid e Noor, Asifabad, Telangana 504293",,976M+99C,Asifabad,504293,Telangana,IN,https://www.google.com/maps/place/Masjid+e+Noor/data=!4m7!3m6!1s0x3bd2aea5cbc568eb:0x5aed9b5568109c20!8m2!3d19.3609381!4d79.283388!16s%2Fg%2F11cjj4r8cv!19sChIJ62jFy6Wu0jsRIJwQaFWb7Vo?authuser=0&hl=en&rclk=1,"19.3609381,79.283388"
Masjid E Aqsa,Mosque,"V6M3+CQ7 Masjid E Aqsa, Godavari Rd, Luxettipet, Utukur, Telangana 504215",,"V6M3+CQ7, Godavari Rd","Luxettipet, Utukur",504215,Telangana,IN,https://www.google.com/maps/place/Masjid+E+Aqsa/data=!4m7!3m6!1s0x3bcd4806170503ff:0x41898622cf17800e!8m2!3d18.8835328!4d79.204429!16s%2Fg%2F11dx9f8k5s!19sChIJ_wMFFwZIzTsRDoAXzyKGiUE?authuser=0&hl=en&rclk=1,"18.883532799999998,79.20442899999999"
Osman Masjid,Mosque,"4X47+RJX Osman Masjid, Asad Baba Nagar, Bhainsa, Telangana 504103",Asad Baba Nagar,4X47+RJX,Bhainsa,504103,Telangana,IN,https://www.google.com/maps/place/Osman+Masjid/data=!4m7!3m6!1s0x3bcdfe5b6bc0025d:0x854fb770d38fd2a3!8m2!3d19.107103!4d77.9641068!16s%2Fg%2F11cn6jvztk!19sChIJXQLAa1v-zTsRo9KP03C3T4U?authuser=0&hl=en&rclk=1,"19.107103,77.9641068"
Masjid,Mosque,"69HJ+PQ9 Masjid, Gollet, Telangana 504292",,69HJ+PQ9,Gollet,504292,Telangana,IN,https://www.google.com/maps/place/Masjid/data=!4m7!3m6!1s0x3a32aacb61a4a7e9:0x218677eef2130f05!8m2!3d19.229293!4d79.381994!16s%2Fg%2F11c702ycmc!19sChIJ6aekYcuqMjoRBQ8T8u53hiE?authuser=0&hl=en&rclk=1,"19.229293,79.38199399999999"
Abdul Majeed,Electrical repair shop,"Abdul Majeed, near Amera Masjid, Indira Market, Kagaznagar, Telangana 504296",Indira Market,near Amera Masjid,Kagaznagar,504296,Telangana,IN,https://www.google.com/maps/place/Abdul+Majeed/data=!4m7!3m6!1s0x3a2d5150bf0d76d9:0x4e57754abdcbb36f!8m2!3d19.3442393!4d79.4826886!16s%2Fg%2F11f3rwv5pm!19sChIJ2XYNv1BRLToRb7PLvUp1V04?authuser=0&hl=en&rclk=1,"19.344239299999998,79.4826886"
Khalid Kirana,Shopping mall,"8FRH+77Q Khalid Kirana, Kausar Nagar, Kagaznagar, Telangana 504296",Kausar Nagar,8FRH+77Q,Kagaznagar,504296,Telangana,IN,https://www.google.com/maps/place/Khalid+Kirana/data=!4m7!3m6!1s0x3a2d56a479bbc615:0x9262ae5ccc1bfb6a!8m2!3d19.3407201!4d79.478245!16s%2Fg%2F11f24ts26p!19sChIJFca7eaRWLToRavsbzFyuYpI?authuser=0&hl=en&rclk=1,"19.3407201,79.478245"
Masjid e Khadim,Mosque,"FHHF+MW9 Masjid e Khadim, Pet Mohalla, Sirpur, Telangana 504299",,FHHF+MW9 Pet Mohalla,Sirpur,504299,Telangana,IN,https://www.google.com/maps/place/Masjid+e+Khadim/data=!4m7!3m6!1s0x3a2d45425afd0481:0xbb8003f82b6742d8!8m2!3d19.4791742!4d79.5748539!16s%2Fg%2F11c3w0kdh5!19sChIJgQT9WkJFLToR2EJnK_gDgLs?authuser=0&hl=en&rclk=1,"19.4791742,79.5748539"
Madina kirana(zubair),General store,"Madina kirana(zubair), Dtype aklaz masjid road, Sirsilk Rd, Kagaznagar, Telangana 504296",,"Dtype aklaz masjid road, Sirsilk Rd",Kagaznagar,504296,Telangana,IN,https://www.google.com/maps/place/Madina+kirana%28zubair%29/data=!4m7!3m6!1s0x3a2d5196a612c1b7:0x1690a5f111065583!8m2!3d19.3669855!4d79.4836751!16s%2Fg%2F11rxqtcnt9!19sChIJt8ESppZRLToRg1UGEfGlkBY?authuser=0&hl=en&rclk=1,"19.3669855,79.4836751"
Masjid E Mujtab Sunnatul Jamat,Mosque,"9F5V+PFV Masjid E Mujtab Sunnatul Jamat, Kagaznagar, Telangana 504296",,9F5V+PFV,Kagaznagar,504296,Telangana,IN,https://www.google.com/maps/place/Masjid+E+Mujtab+Sunnatul+Jamat/data=!4m7!3m6!1s0x3a2d51354e04ccd1:0xc6571f4357c154c3!8m2!3d19.3593655!4d79.4936785!16s%2Fg%2F11f00j6kvz!19sChIJ0cwETjVRLToRw1TBV0MfV8Y?authuser=0&hl=en&rclk=1,"19.3593655,79.4936785"
Masjid-e-Aamina,Mosque,"8FRV+PV6 Masjid-e-Aamina, Bhatpalli Rd, Kagaznagar, Telangana 504296",,"8FRV+PV6, Bhatpalli Rd",Kagaznagar,504296,Telangana,IN,https://www.google.com/maps/place/Masjid-e-Aamina/data=!4m7!3m6!1s0x3a2d56c7315505f3:0x478330fdb4e0ec72!8m2!3d19.3417809!4d79.494654!16s%2Fg%2F11f51zzsj0!19sChIJ8wVVMcdWLToRcuzgtP0wg0c?authuser=0&hl=en&rclk=1,"19.3417809,79.494654"
Jama Masjid,Mosque,"FHJH+JC7 Jama Masjid, Unnamed Rd, Sirpur, Telangana 504299",,"FHJH+JC7, Unnamed Rd",Sirpur,504299,Telangana,IN,https://www.google.com/maps/place/Jama+Masjid/data=!4m7!3m6!1s0x3a2d456a0ada463b:0x65371e8e7dc896d7!8m2!3d19.4815483!4d79.5785535!16s%2Fg%2F11ckfssgxv!19sChIJO0baCmpFLToR15bIfY4eN2U?authuser=0&hl=en&rclk=1,"19.4815483,79.5785535"
Jama Masjid,Mosque,"5F32+484 Jama Masjid, Tandur, Telangana 501141",,5F32+484,Tandur,501141,Telangana,IN,https://www.google.com/maps/place/Jama+Masjid/data=!4m7!3m6!1s0x3a32ac13a0cebcd7:0x2d0109d02673adad!8m2!3d19.1527617!4d79.4508136!16s%2Fg%2F11c4b2z2dm!19sChIJ17zOoBOsMjoRra1zJtAJAS0?authuser=0&hl=en&rclk=1,"19.1527617,79.45081359999999"
Dargah Muzaffar Ali Shah Qalandar Dada R H,Religious destination,"9F7W+4FP Dargah Muzaffar Ali Shah Qalandar Dada R H, Adilabad, Telangana 504296",,9F7W+4FP,Adilabad,,Telangana,IN,https://www.google.com/maps/place/Dargah+Muzaffar+Ali+Shah+Qalandar+Dada+R+H/data=!4m7!3m6!1s0x3a2d51344e304d11:0x548c2a3c98dcd259!8m2!3d19.3628401!4d79.4961912!16s%2Fg%2F11gd_17c57!19sChIJEU0wTjRRLToRWdLcmDwqjFQ?authuser=0&hl=en&rclk=1,"19.3628401,79.4961912"
Masjid-e-Mehdavia,Mosque,"H4G4+862 Masjid-e-Mehdavia, Mudakpalli, Telangana 503230",,H4G4+862,Mudakpalli,503230,Telangana,IN,https://www.google.com/maps/place/Masjid-e-Mehdavia/data=!4m7!3m6!1s0x3bcdd02b8c9b5229:0x34a4d95d4cbfe715!8m2!3d18.5757633!4d78.1055056!16s%2Fg%2F11f0kzpz4z!19sChIJKVKbjCvQzTsRFee_TF3ZpDQ?authuser=0&hl=en&rclk=1,"18.5757633,78.1055056"
Masjid e Taiba,Mosque,"Masjid e Taiba, Industrial Area, near HP Petrol Pump, Kagaznagar, Telangana 504296",,"Industrial Area, near HP Petrol Pump",Kagaznagar,504296,Telangana,IN,https://www.google.com/maps/place/Masjid+e+Taiba/data=!4m7!3m6!1s0x3a2d56a9f9e46a0d:0x9a80284099893d90!8m2!3d19.3515515!4d79.4710951!16s%2Fg%2F11bw77v1l8!19sChIJDWrk-alWLToRkD2JmUAogJo?authuser=0&hl=en&rclk=1,"19.3515515,79.4710951"
Masjid E Yamani,Mosque,"FHJC+2FC Masjid E Yamani, Sirpur, Telangana 504299",,FHJC+2FC,Sirpur,504299,Telangana,IN,https://www.google.com/maps/place/Masjid+E+Yamani/data=!4m7!3m6!1s0x3a2d455d4b92b701:0xcc84f17f21214e9!8m2!3d19.4800738!4d79.5711285!16s%2Fg%2F11cky3tv6r!19sChIJAbeSS11FLToR6RQS8hdPyAw?authuser=0&hl=en&rclk=1,"19.4800738,79.5711285"
Masjid e Yaseen,Mosque,"Masjid e Yaseen, opp. Jail, Jankapur, Asifabad, Telangana 504293",Jankapur,opp. Jail,Asifabad,504293,Telangana,IN,https://www.google.com/maps/place/Masjid+e+Yaseen/data=!4m7!3m6!1s0x3bd2ae9ef5cade0b:0xa80f60e413fdcad2!8m2!3d19.374471!4d79.2873049!16s%2Fg%2F11cjpfh3jq!19sChIJC97K9Z6u0jsR0sr9E-RgD6g?authuser=0&hl=en&rclk=1,"19.374471,79.2873049"
Masjid al-Ikhlas,Mosque,"9F8P+632 Masjid al-Ikhlas, Sirsilk Rd, beside Fire Station, Kagaznagar, Telangana 504296",,"9F8P+632, Sirsilk Rd, beside Fire Station",Kagaznagar,504296,Telangana,IN,https://www.google.com/maps/place/Masjid+al-Ikhlas/data=!4m7!3m6!1s0x3a2d5156dce6632b:0x88f967c40aed6e51!8m2!3d19.3655101!4d79.4851321!16s%2Fg%2F11ll8dp_b0!19sChIJK2Pm3FZRLToRUW7tCsRn-Yg?authuser=0&hl=en&rclk=1,"19.365510099999998,79.4851321"
Masjid e Abrar,Mosque,"Masjid e Abrar, Pakeeza Nagar, Bareguda, Kagaznagar, Telangana 504296",,Pakeeza Nagar,"Bareguda, Kagaznagar",504296,Telangana,IN,https://www.google.com/maps/place/Masjid+e+Abrar/data=!4m7!3m6!1s0x3a2d56a3c9998f43:0x4a9d72ede0a21436!8m2!3d19.3378967!4d79.4772796!16s%2Fg%2F11bwkm5kt3!19sChIJQ4-ZyaNWLToRNhSi4O1ynUo?authuser=0&hl=en&rclk=1,"19.337896699999998,79.4772796"
Jamia Dar-ul-uloom Mohammadia Jamia Nagar,Mosque,"8CPV+G46 Jamia Dar-ul-uloom Mohammadia Jamia Nagar, Sirpur - Kagaznagar Rd, Nandiguda, Telangana 504296",,"8CPV+G46, Sirpur - Kagaznagar Rd",Nandiguda,504296,Telangana,IN,https://www.google.com/maps/place/Jamia+Dar-ul-uloom+Mohammadia+Jamia+Nagar/data=!4m7!3m6!1s0x3a2d546bda5c573d:0xa9bbae92fe1420d8!8m2!3d19.3362918!4d79.4427549!16s%2Fg%2F11fylqyjjb!19sChIJPVdc2mtULToR2CAU_pKuu6k?authuser=0&hl=en&rclk=1,"19.336291799999998,79.4427549"
Masjede-E-Mohomadya,Mosque,"5C2V+5PQ Masjede-E-Mohomadya, Tandur, Telangana 504272",,5C2V+5PQ,Tandur,504272,Telangana,IN,https://www.google.com/maps/place/Masjede-E-Mohomadya/data=!4m7!3m6!1s0x3a32ac6b88820c93:0x87ac92cc59e900f3!8m2!3d19.1504521!4d79.4443549!16s%2Fg%2F11c6rhccd4!19sChIJkwyCiGusMjoR8wDpWcySrIc?authuser=0&hl=en&rclk=1,"19.1504521,79.4443549"
EIDGAH,Mosque,"976J+H9X EIDGAH, Asifabad, Yellaram, Telangana 504293",,976J+H9X,"Asifabad, Yellaram",504293,Telangana,IN,https://www.google.com/maps/place/EIDGAH/data=!4m7!3m6!1s0x3bd2aea4e343c61d:0x15ac3331aed26d20!8m2!3d19.3614885!4d79.2809802!16s%2Fg%2F11cs0_3lqd!19sChIJHcZD46Su0jsRIG3SrjEzrBU?authuser=0&hl=en&rclk=1,"19.3614885,79.2809802"
MASJID E QUBA,Mosque,"MASJID E QUBA, Kagaznagar, Telangana 504296",,,Kagaznagar,504296,Telangana,IN,https://www.google.com/maps/place/MASJID+E+QUBA/data=!4m7!3m6!1s0x3a2d51c96628b40b:0x7b1d067f67bba92d!8m2!3d19.3596201!4d79.4954535!16s%2Fg%2F11g0h7vzht!19sChIJC7QoZslRLToRLam7Z38GHXs?authuser=0&hl=en&rclk=1,"19.3596201,79.4954535"
Masjid Mohammadia,Mosque,"9QCG+VR7 Masjid Mohammadia, Utnoor Rd, Utnur, Telangana 504311",,"9QCG+VR7, Utnoor Rd",Utnur,504311,Telangana,IN,https://www.google.com/maps/place/Masjid+Mohammadia/data=!4m7!3m6!1s0x3bd285b0dc0d26a7:0xf6fa3333ae2948b7!8m2!3d19.3721507!4d78.7770528!16s%2Fg%2F11c2p105cs!19sChIJpyYN3LCF0jsRt0gprjMz-vY?authuser=0&hl=en&rclk=1,"19.3721507,78.77705279999999"
Masid -E- Moina,Mosque,"9F4J+H62 Masid -E- Moina, Kagaznagar, Telangana 504296",,9F4J+H62,Kagaznagar,504296,Telangana,IN,https://www.google.com/maps/place/Masid+-E-+Moina/data=!4m7!3m6!1s0x3a2d56ad6bf3ffff:0x9dfe118ee35ddb93!8m2!3d19.3563926!4d79.4805173!16s%2Fg%2F11txmz3bz7!19sChIJ___za61WLToRk9td444R_p0?authuser=0&hl=en&rclk=1,"19.3563926,79.4805173"
MASJID-E-MOHAMMADIA,Mosque,"7P47+Q94 MASJID-E-MOHAMMADIA, Dahegaon, Telangana 504273",,7P47+Q94,Dahegaon,504273,Telangana,IN,https://www.google.com/maps/place/MASJID-E-MOHAMMADIA/data=!4m7!3m6!1s0x3a32a06bc9f0aad9:0xc9ef99599038dddd!8m2!3d19.2568852!4d79.7134489!16s%2Fg%2F11d_78xldz!19sChIJ2arwyWugMjoR3d04kFmZ78k?authuser=0&hl=en&rclk=1,"19.2568852,79.7134489"
Masjid,Mosque,"V6MR+V66 Masjid, Ankathipally, Telangana 504215",,V6MR+V66,Ankathipally,504215,Telangana,IN,https://www.google.com/maps/place/Masjid/data=!4m7!3m6!1s0x3bcd49bdc216284d:0x350592a99ce08e14!8m2!3d18.8846738!4d79.2405227!16s%2Fg%2F11h2hhxpqs!19sChIJTSgWwr1JzTsRFI7gnKmSBTU?authuser=0&hl=en&rclk=1,"18.884673799999998,79.2405227"
Jama Masjid,Mosque,"GPFH+5G8 Jama Masjid, Kouthala, Telangana 504299",,GPFH+5G8,Kouthala,,Telangana,IN,https://www.google.com/maps/place/Jama+Masjid/data=!4m7!3m6!1s0x3a2d43bc15621a2f:0x829a46f3f80b2f48!8m2!3d19.5229233!4d79.7288207!16s%2Fg%2F11gxv41zp5!19sChIJLxpiFbxDLToRSC8L-PNGmoI?authuser=0&hl=en&rclk=1,"19.5229233,79.7288207"
MASJID-E-AQSA,Mosque,"9QCM+6FG MASJID-E-AQSA, Utnur, Telangana 504311",,9QCM+6FG,Utnur,504311,Telangana,IN,https://www.google.com/maps/place/MASJID-E-AQSA/data=!4m7!3m6!1s0x3bd285ae68120e2d:0x511a2112271c67ab!8m2!3d19.3705709!4d78.7836997!16s%2Fg%2F11d_8_t86t!19sChIJLQ4SaK6F0jsRq2ccJxIhGlE?authuser=0&hl=en&rclk=1,"19.3705709,78.7836997"
Mee seva,Government office,"8FVJ+W8H Mee seva, Kagaznagar, Telangana 504296",,8FVJ+W8H,Kagaznagar,504296,Telangana,IN,https://www.google.com/maps/place/Mee+seva/data=!4m7!3m6!1s0x3a2d57cf3d567d05:0x1e25f59132c4085d!8m2!3d19.3448049!4d79.4808701!16s%2Fg%2F11fjvrc_t7!19sChIJBX1WPc9XLToRXQjEMpH1JR4?authuser=0&hl=en&rclk=1,"19.3448049,79.48087009999999"
Masjid-e-Aqsa,Mosque,"Masjid-e-Aqsa, C, Babu Colony, Kagaznagar, Telangana 504296",Babu Colony,C,Kagaznagar,504296,Telangana,IN,https://www.google.com/maps/place/Masjid-e-Aqsa/data=!4m7!3m6!1s0x3a2d573ca2ab7e55:0xd6c91fd9a55532d!8m2!3d19.338031!4d79.4886317!16s%2Fg%2F11kxknz7mp!19sChIJVX6rojxXLToRLVNVmv2RbA0?authuser=0&hl=en&rclk=1,"19.338031,79.4886317"
Eidgah old,Mosque,"Eidgah old, 2, Fathima Rd, Edgha colony, Kagaznagar, Telangana 504296",Edgha colony,"2, Fathima Rd",Kagaznagar,504296,Telangana,IN,https://www.google.com/maps/place/Eidgah+old/data=!4m7!3m6!1s0x3a2d51531faaaaab:0xd09f9ed6a2cdc210!8m2!3d19.3596388!4d79.4790725!16s%2Fg%2F11d_786csg!19sChIJq6qqH1NRLToREMLNotaen9A?authuser=0&hl=en&rclk=1,"19.3596388,79.4790725"
Masjid E Shaheda,Mosque,"9F48+RXF Masjid E Shaheda, NGO's colony, Kagaznagar, Telangana 504296",NGO's colony,9F48+RXF,Kagaznagar,504296,Telangana,IN,https://www.google.com/maps/place/Masjid+E+Shaheda/data=!4m7!3m6!1s0x3a2d5502cd32a55f:0xcdd3f4a3b642f2c!8m2!3d19.3570619!4d79.4674218!16s%2Fg%2F11jf9rxybs!19sChIJX6UyzQJVLToRLC9kO0o_3Qw?authuser=0&hl=en&rclk=1,"19.357061899999998,79.4674218"
Masjid e Safia,Mosque,"8G9G+69 Masjid e Safia, Jagannathpur, Telangana 504273",,8G9G+69,Jagannathpur,,Telangana,IN,https://www.google.com/maps/place/Masjid+e+Safia/data=!4m7!3m6!1s0x3a2d57bf7f58f09b:0x5949498ed379833!8m2!3d19.3180122!4d79.5259171!16s%2Fg%2F11k3xl0wp2!19sChIJm_BYf79XLToRM5g37ZiUlAU?authuser=0&hl=en&rclk=1,"19.3180122,79.5259171"
Masjid E Khaja-e-hashmi R.H,Mosque,"8HCH+927 Masjid E Khaja-e-hashmi R.H, Jambuga, Telangana 504273",,8HCH+927,Jambuga,504273,Telangana,IN,https://www.google.com/maps/place/Masjid+E+Khaja-e-hashmi+R.H/data=!4m7!3m6!1s0x3a2d59ce3e17a901:0x736940e58f08c0e8!8m2!3d19.3209052!4d79.5775314!16s%2Fg%2F11h3qrxlqb!19sChIJAakXPs5ZLToR6MAIj-VAaXM?authuser=0&hl=en&rclk=1,"19.3209052,79.5775314"
Jama Masjid,Mosque,"5C74+CR4 Jama Masjid, Madaram, Telangana 504220",,5C74+CR4,Madaram,,Telangana,IN,https://www.google.com/maps/place/Jama+Masjid/data=!4m7!3m6!1s0x3a32ad7ae62b7df5:0xcdd8f1d2f05ef0ac!8m2!3d19.1635215!4d79.4070814!16s%2Fg%2F11g4dq6kvw!19sChIJ9X0r5nqtMjoRrPBe8NLx2M0?authuser=0&hl=en&rclk=1,"19.163521499999998,79.4070814"
Wankidi Asifabad,Mosque,"F8JC+8JX Wankidi Asifabad, Shivakesnagar, Wankidi (Kalan), Telangana 504295",Shivakesnagar,F8JC+8JX,Wankidi (Kalan),504295,Telangana,IN,https://www.google.com/maps/place/Wankidi+Asifabad/data=!4m7!3m6!1s0x3bd2b3c315900b4b:0x458e3ebaa1a65d9!8m2!3d19.4810568!4d79.3216502!16s%2Fg%2F11sssc97q2!19sChIJSwuQFcOz0jsR2WUaquvjWAQ?authuser=0&hl=en&rclk=1,"19.481056799999998,79.3216502"
MADINA MASJID.LONAVELLY,Mosque,"GJXQ+52C MADINA MASJID.LONAVELLY, Loanvelly, Telangana 504299",,GJXQ+52C,Loanvelly,504299,Telangana,IN,https://www.google.com/maps/place/MADINA+MASJID.LONAVELLY/data=!4m7!3m6!1s0x3a2d452bbbad071f:0x66b0851b20fa7a46!8m2!3d19.5479439!4d79.6375245!16s%2Fg%2F11h24rl1s0!19sChIJHwetuytFLToRRnr6IBuFsGY?authuser=0&hl=en&rclk=1,"19.5479439,79.6375245"
Siddiq Masjid,Mosque,"C4WX+C2P Siddiq Masjid, Kisan Nagar, Karimnagar, Telangana 505001",Kisan Nagar,C4WX+C2P,Karimnagar,505001,Telangana,IN,https://www.google.com/maps/place/Siddiq+Masjid/data=!4m7!3m6!1s0x3bccd96639de4375:0x511861d648df194f!8m2!3d18.44608!4d79.1475782!16s%2Fg%2F11r9p9j_xd!19sChIJdUPeOWbZzDsRTxnfSNZhGFE?authuser=0&hl=en&rclk=1,"18.44608,79.1475782"
Masjid-e-Muhammadiyya,Mosque,"Masjid-e-Muhammadiyya, H.No: 2-6-263/A Nogam Basthi, Kagaznagar, Telangana 504296",,H.No: 2-6-263/A Nogam Basthi,Kagaznagar,504296,Telangana,IN,https://www.google.com/maps/place/Masjid-e-Muhammadiyya/data=!4m7!3m6!1s0x3a2d57c2ffbb6a51:0x436e0f567a69b428!8m2!3d19.3498972!4d79.4772235!16s%2Fg%2F11h7d_19d5!19sChIJUWq7_8JXLToRKLRpelYPbkM?authuser=0&hl=en&rclk=1,"19.349897199999997,79.4772235"
Masjid e Mohiuddin,Mosque,"8FVJ+HGX Masjid e Mohiuddin, Street Number 21, Ward Number 3, Kagaznagar, Telangana 504296",Ward Number 3,"8FVJ+HGX, Street Number 21",Kagaznagar,504296,Telangana,IN,https://www.google.com/maps/place/Masjid+e+Mohiuddin/data=!4m7!3m6!1s0x3a2d5746c9550301:0x155a0e1a557e421b!8m2!3d19.3439843!4d79.4813698!16s%2Fg%2F11fq6r4rbw!19sChIJAQNVyUZXLToRG0J-VRoOWhU?authuser=0&hl=en&rclk=1,"19.3439843,79.4813698"
Masjid-E-mehraj,Mosque,"9F5M+Q6X Masjid-E-mehraj, Kagaznagar, Telangana 504296",,9F5M+Q6X,Kagaznagar,504296,Telangana,IN,https://www.google.com/maps/place/Masjid-E-mehraj/data=!4m7!3m6!1s0x3a2d512301acbe4f:0xa16b6b0da34d435a!8m2!3d19.3594803!4d79.4831088!16s%2Fg%2F11kgcjm_5t!19sChIJT76sASNRLToRWkNNow1ra6E?authuser=0&hl=en&rclk=1,"19.359480299999998,79.4831088"
Masjide e Shaheda,Mosque,"9F48+6GC Masjide e Shaheda, Boregaon, Telangana 504296",,9F48+6GC,Boregaon,504296,Telangana,IN,https://www.google.com/maps/place/Masjide+e+Shaheda/data=!4m7!3m6!1s0x3a2d55e976790463:0xf4321055665e109d!8m2!3d19.3555746!4d79.4662507!16s%2Fg%2F11j8pdg92n!19sChIJYwR5dulVLToRnRBeZlUQMvQ?authuser=0&hl=en&rclk=1,"19.3555746,79.4662507"
Mosque,Mosque,"9GV2+4MF Mosque, Vempally, Sirpur, Regulguda, Telangana 504296",Vempally,9GV2+4MF,"Sirpur, Regulguda",504296,Telangana,IN,https://www.google.com/maps/place/Mosque/data=!4m7!3m6!1s0x3a2d51d8ff13e49d:0x26e2fa88db4ae3c5!8m2!3d19.3924202!4d79.5013119!16s%2Fg%2F11sbfj5vqh!19sChIJneQT_9hRLToRxeNK24j64iY?authuser=0&hl=en&rclk=1,"19.3924202,79.50131189999999"
BAREGUDA,Mosque,"8FC9+VJR BAREGUDA, Bareguda, Vanjiri, Telangana 504296",,8FC9+VJR,"Bareguda, Vanjiri",504296,Telangana,IN,https://www.google.com/maps/place/BAREGUDA/data=!4m7!3m6!1s0x3a2d55d3e0a779ef:0xc051412f03290ed2!8m2!3d19.3228459!4d79.4690313!16s%2Fg%2F11t7m3r5s8!19sChIJ73mn4NNVLToR0g4pAy9BUcA?authuser=0&hl=en&rclk=1,"19.3228459,79.4690313"
Masjid - e - Ansar,Mosque,"CPQF+X75 Masjid - e - Ansar, Dabba, Telangana 504299",,CPQF+X75,Dabba,504299,Telangana,IN,https://www.google.com/maps/place/Masjid+-+e+-+Ansar/data=!4m7!3m6!1s0x3a2d5dca56d925d7:0x552c17ecd1cdd770!8m2!3d19.439885!4d79.7232312!16s%2Fg%2F11n6jjs8y0!19sChIJ1yXZVspdLToRcNfN0ewXLFU?authuser=0&hl=en&rclk=1,"19.439885,79.7232312"
Madaram jamm,Mosque,"Madaram jamm, Qno 4o8, near dispensary, Madaram, Telangana 504220",,"Qno 4o8, near dispensary",Madaram,504220,Telangana,IN,https://www.google.com/maps/place/Madaram+jamm/data=!4m7!3m6!1s0x3a32aba9f3587947:0xc2520d4afb36d87d!8m2!3d19.1667082!4d79.4090189!16s%2Fg%2F11fszl8n44!19sChIJR3lY86mrMjoRfdg2-0oNUsI?authuser=0&hl=en&rclk=1,"19.1667082,79.40901889999999"
Masjid,Mosque,"4MM9+WV9 Masjid, Muthapur, Ankannapet (D), Telangana 504219",,4MM9+WV9,"Muthapur, Ankannapet (D)",504219,Telangana,IN,https://www.google.com/maps/place/Masjid/data=!4m7!3m6!1s0x3a32a383c3d1e915:0x888c114d84029fb4!8m2!3d19.1351053!4d79.6688521!16s%2Fg%2F11sk1p1k_7!19sChIJFenRw4OjMjoRtJ8ChE0RjIg?authuser=0&hl=en&rclk=1,"19.1351053,79.6688521"
Masjid-e-Khadijah,Mosque,"974R+XWR Masjid-e-Khadijah, Asifabad, Telangana 504293",,974R+XWR,Asifabad,504293,Telangana,IN,https://www.google.com/maps/place/Masjid-e-Khadijah/data=!4m7!3m6!1s0x3bd2ad43aa7c3d41:0xceb45b62869910bb!8m2!3d19.3574779!4d79.2922524!16s%2Fg%2F11sshd34_9!19sChIJQT18qkOt0jsRuxCZhmJbtM4?authuser=0&hl=en&rclk=1,"19.3574779,79.2922524"
Dargah shareef,Mosque,"5C7X+FC Dargah shareef, Kothapalle, Telangana 504272",,5C7X+FC,Kothapalle,,Telangana,IN,https://www.google.com/maps/place/Dargah+shareef/data=!4m7!3m6!1s0x3a32ada887986453:0x54f943bfb75a322a!8m2!3d19.1636278!4d79.448567!16s%2Fg%2F11t62td4qj!19sChIJU2SYh6itMjoRKjJat79D-VQ?authuser=0&hl=en&rclk=1,"19.1636278,79.448567"
Nasar aminabhi masid,Mosque,"39FQ+QH5 Nasar aminabhi masid, Dharmaraopet, Telangana 504231",,39FQ+QH5,Dharmaraopet,,Telangana,IN,https://www.google.com/maps/place/Nasar+aminabhi+masid/data=!4m7!3m6!1s0x3a32ade904d6e6c5:0x2e43291e9b8a9e71!8m2!3d19.0743892!4d79.3889896!16s%2Fg%2F11qg0mpk9h!19sChIJxebWBOmtMjoRcZ6Kmx4pQy4?authuser=0&hl=en&rclk=1,"19.0743892,79.3889896"
Hazrat ali akbar baigh urf jamedar baba rahmatullah alaih,Mosque,"974W+5H6 Hazrat ali akbar baigh urf jamedar baba rahmatullah alaih, Asifabad, Telangana 504293",,974W+5H6,Asifabad,504293,Telangana,IN,https://www.google.com/maps/place/Hazrat+ali+akbar+baigh+urf+jamedar+baba+rahmatullah+alaih/data=!4m7!3m6!1s0x3bd2ad04b54506cd:0xc402655b1ee75b9b!8m2!3d19.3554179!4d79.2963962!16s%2Fg%2F11sjqrm663!19sChIJzQZFtQSt0jsRm1vnHltlAsQ?authuser=0&hl=en&rclk=1,"19.3554179,79.29639619999999"
MASJID E SHAHEDA,Mosque,"8FWQ+HXH MASJID E SHAHEDA, NGO Colony, Kagaznagar, Telangana 504296",NGO Colony,8FWQ+HXH,Kagaznagar,,Telangana,IN,https://www.google.com/maps/place/MASJID+E+SHAHEDA/data=!4m7!3m6!1s0x3a2d57d62aed7ce5:0x893703f71d564abc!8m2!3d19.3464329!4d79.4899888!16s%2Fg%2F11fszvx_m4!19sChIJ5XztKtZXLToRvEpWHfcDN4k?authuser=0&hl=en&rclk=1,"19.3464329,79.48998879999999"
Ansar masjid,Mosque,"9F5J+7W4 Ansar masjid, Kagaznagar, Telangana 504296",,9F5J+7W4,Kagaznagar,504296,Telangana,IN,https://www.google.com/maps/place/Ansar+masjid/data=!4m7!3m6!1s0x3a2d57b977fdbe6d:0x6960a1717e731215!8m2!3d19.3581456!4d79.4823339!16s%2Fg%2F11rsc1y_tg!19sChIJbb79d7lXLToRFRJzfnGhYGk?authuser=0&hl=en&rclk=1,"19.3581456,79.4823339"
Masjid E Qausar,Mosque,"8FRH+77Q Masjid E Qausar, Kausar Nagar, Sriram Nagar, Kagaznagar, Telangana 504296","Kausar Nagar, Sriram Nagar",8FRH+77Q,Kagaznagar,504296,Telangana,IN,https://www.google.com/maps/place/Masjid+E+Qausar/data=!4m7!3m6!1s0x3a2d575e13a03731:0xd0ee5cb55f5430a2!8m2!3d19.3407871!4d79.4783173!16s%2Fg%2F11rysdj5c8!19sChIJMTegE15XLToRojBUX7Vc7tA?authuser=0&hl=en&rclk=1,"19.3407871,79.4783173"
MASJID E SHAHEDA,Mosque,"9F5J+7W4 MASJID E SHAHEDA, NGO Colony, Kagaznagar, Telangana 504296",NGO Colony,9F5J+7W4,Kagaznagar,,Telangana,IN,https://www.google.com/maps/place/MASJID+E+SHAHEDA/data=!4m7!3m6!1s0x3a2d5703a7a9a817:0xf96caec15d8f9977!8m2!3d19.3581456!4d79.4823339!16s%2Fg%2F11j37gd00w!19sChIJF6ippwNXLToRd5mPXcGubPk?authuser=0&hl=en&rclk=1,"19.3581456,79.4823339"
MASJID E MONIYA,Mosque,"9F5J+7W4 MASJID E MONIYA, Kagaznagar, Telangana 504296",,9F5J+7W4,Kagaznagar,504296,Telangana,IN,https://www.google.com/maps/place/MASJID+E+MONIYA/data=!4m7!3m6!1s0x3a2d57da2d7f2b1d:0x8d9e255b8d876c7d!8m2!3d19.3581456!4d79.4823339!16s%2Fg%2F11kj02mzft!19sChIJHSt_LdpXLToRfWyHjVslno0?authuser=0&hl=en&rclk=1,"19.3581456,79.4823339"
Masjid e Quresh,Mosque,"8FVP+746 Masjid e Quresh, Sanjeeviah Colony, Kagaznagar, Telangana 504296",Sanjeeviah Colony,8FVP+746,Kagaznagar,504296,Telangana,IN,https://www.google.com/maps/place/Masjid+e+Quresh/data=!4m7!3m6!1s0x3a2d56bbb043c6a9:0x97198713a0689373!8m2!3d19.3431704!4d79.4852652!16s%2Fg%2F11bw65zvhz!19sChIJqcZDsLtWLToRc5NooBOHGZc?authuser=0&hl=en&rclk=1,"19.343170399999998,79.4852652"
Edgha colony,Mosque,"9F5J+7W4 Edgha colony, Kagaznagar, Telangana 504296",,9F5J+7W4,Kagaznagar,504296,Telangana,IN,https://www.google.com/maps/place/Edgha+colony/data=!4m7!3m6!1s0x3a2d578aaf27caff:0xcf4e93d61033b242!8m2!3d19.3581456!4d79.4823339!16s%2Fg%2F11jzw8f342!19sChIJ_8onr4pXLToRQrIzENaTTs8?authuser=0&hl=en&rclk=1,"19.3581456,79.4823339"
Kousar nagar,Mosque,"8FRH+FC8 Kousar nagar, Kausar Nagar, Balaji Nagar, Sriram Nagar, Kagaznagar, Telangana 504296","Kausar Nagar, Balaji Nagar, Sriram Nagar",8FRH+FC8,Kagaznagar,504296,Telangana,IN,https://www.google.com/maps/place/Kousar+nagar/data=!4m7!3m6!1s0x3a2d57c4111b1d31:0x5188e812f1e13138!8m2!3d19.3411643!4d79.4785924!16s%2Fg%2F11sv7c2fyx!19sChIJMR0bEcRXLToRODHh8RLoiFE?authuser=0&hl=en&rclk=1,"19.3411643,79.4785924"
Masjid E Iqlaas,Mosque,"9F8P+632 Masjid E Iqlaas, Sirsilk Rd, beside Fire Station, Kagaznagar, Telangana 504296",,"9F8P+632, Sirsilk Rd, beside Fire Station",Kagaznagar,504296,Telangana,IN,https://www.google.com/maps/place/Masjid+E+Iqlaas/data=!4m7!3m6!1s0x3a2d51d0cddbd5e7:0xf2aef1fe202c2d0d!8m2!3d19.3655076!4d79.4851167!16s%2Fg%2F11vkplc0nw!19sChIJ59XbzdBRLToRDS0sIP7xrvI?authuser=0&hl=en&rclk=1,"19.3655076,79.48511669999999"
Madeena Masjid,Mosque,"89F9+473 Madeena Masjid, SH1, Khairgaon, Telangana 504292",,"89F9+473, SH1",Khairgaon,,Telangana,IN,https://www.google.com/maps/place/Madeena+Masjid/data=!4m7!3m6!1s0x3bd2ab55de777551:0xd86d0f49d393c93f!8m2!3d19.3227714!4d79.3681607!16s%2Fg%2F11gwm9j8f5!19sChIJUXV33lWr0jsRP8mT00kPbdg?authuser=0&hl=en&rclk=1,"19.3227714,79.36816069999999"
msiidu,Mosque,"6HCR+XR2 msiidu, Wadal, Laxmipur, Telangana 504273",,6HCR+XR2,"Wadal, Laxmipur",504273,Telangana,IN,https://www.google.com/maps/place/%E0%B0%AE%E0%B0%B8%E0%B1%80%E0%B0%A6%E0%B1%81/data=!4m7!3m6!1s0x3a32a736f95b27e3:0x8c80225113dd9a52!8m2!3d19.2223867!4d79.5920304!16s%2Fg%2F11nxcdr157!19sChIJ4ydb-TanMjoRUprdE1EigIw?authuser=0&hl=en&rclk=1,"19.222386699999998,79.5920304"
Madeena,Mosque,"896F+9VG Madeena, Khairgaon, Telangana 504292",,896F+9VG,Khairgaon,504292,Telangana,IN,https://www.google.com/maps/place/Madeena/data=!4m7!3m6!1s0x3bd2ab76fe62e4f9:0x655e67e2cda8427f!8m2!3d19.3109257!4d79.3747141!16s%2Fg%2F11txsk5xt9!19sChIJ-eRi_nar0jsRf0KozeJnXmU?authuser=0&hl=en&rclk=1,"19.3109257,79.37471409999999"
Masjid-E-Bilal,Mosque,"87J6+9HP Masjid-E-Bilal, Thumpalle, Babapur, Telangana 504294",,87J6+9HP,"Thumpalle, Babapur",,Telangana,IN,https://www.google.com/maps/place/Masjid-E-Bilal/data=!4m7!3m6!1s0x3bd2a948559e9c4b:0xf625909021a2406d!8m2!3d19.3309518!4d79.2614523!16s%2Fg%2F11kjk9fcwg!19sChIJS5yeVUip0jsRbUCiIZCQJfY?authuser=0&hl=en&rclk=1,"19.330951799999998,79.2614523"
Choti masjid,Mosque,"5C2X+8M Choti masjid, Tandur, Telangana 504272",,5C2X+8M,Tandur,,Telangana,IN,https://www.google.com/maps/place/Choti+masjid/data=!4m7!3m6!1s0x3a32adad042446a3:0xd142992232766ce7!8m2!3d19.1507869!4d79.4491885!16s%2Fg%2F11sq8hn0w4!19sChIJo0YkBK2tMjoR52x2MiKZQtE?authuser=0&hl=en&rclk=1,"19.1507869,79.44918849999999"
Masjid kouthala,Mosque,"GPFH+5G6 Masjid kouthala, Kouthala, Telangana 504299",,GPFH+5G6,Kouthala,504299,Telangana,IN,https://www.google.com/maps/place/Masjid+kouthala/data=!4m7!3m6!1s0x3a2d43bd15f0a003:0x28a563f5c69a966d!8m2!3d19.5229013!4d79.728775!16s%2Fg%2F11nfq7ktml!19sChIJA6DwFb1DLToRbZaaxvVjpSg?authuser=0&hl=en&rclk=1,"19.522901299999997,79.728775"
Hazrat Moula Ali Gouse Azam Dastagir Chilla Shareef,Mosque,"Hazrat Moula Ali Gouse Azam Dastagir Chilla Shareef, Kothapally, Tandur, Kothapalle, Telangana 504272",,Kothapally,"Tandur, Kothapalle",504272,Telangana,IN,https://www.google.com/maps/place/Hazrat+Moula+Ali+Gouse+Azam+Dastagir+Chilla+Shareef/data=!4m7!3m6!1s0x3a32adca8b38aa6b:0xe8cd48f76d5f24fd!8m2!3d19.1648172!4d79.4409776!16s%2Fg%2F11l1fpg371!19sChIJa6o4i8qtMjoR_SRfbfdIzeg?authuser=0&hl=en&rclk=1,"19.164817199999998,79.4409776"
Hazrat makkusha maqdum sha Baba dargah shareef,Mosque,"5C3W+QR8 Hazrat makkusha maqdum sha Baba dargah shareef, Govt Hospital, Road, Tandur, Telangana 504272",,"5C3W+QR8 Govt Hospital, Road",Tandur,504272,Telangana,IN,https://www.google.com/maps/place/Hazrat+makkusha+maqdum+sha+Baba+dargah+shareef/data=!4m7!3m6!1s0x3a32ad4f88de6973:0x9a0699e3a44a547d!8m2!3d19.15451!4d79.447123!16s%2Fg%2F11t4jhz0xs!19sChIJc2neiE-tMjoRfVRKpOOZBpo?authuser=0&hl=en&rclk=1,"19.15451,79.44712299999999"
Thumpalli Muslim colony,Mosque,"976V+Q6C Thumpalli Muslim colony, Asifabad, Telangana 504293",,976V+Q6C,Asifabad,504293,Telangana,IN,https://www.google.com/maps/place/Thumpalli+Muslim+colony/data=!4m7!3m6!1s0x3bd2ad06cba3abe5:0x931a22a7c0a7a4f6!8m2!3d19.3619289!4d79.2930146!16s%2Fg%2F11twtx7brp!19sChIJ5aujywat0jsR9qSnwKciGpM?authuser=0&hl=en&rclk=1,"19.3619289,79.29301459999999"
SURAJ BALA ONLINE SERVICES,Social services organization,"SURAJ BALA ONLINE SERVICES, 3-2-277 Sirsilk Colony near RAM MANDIR, Mehraj masjid, Kagaznagar (Komrambheem, Kagaznagar, Telangana 504296",,"3-2-277 Sirsilk Colony near RAM MANDIR, Mehraj masjid, Kagaznagar (Komrambheem","Kagaznagar, Regulguda",504296,Telangana,IN,https://www.google.com/maps/place/SURAJ+BALA+ONLINE+SERVICES/data=!4m7!3m6!1s0x3a2d51d161bd6ea9:0x860eac3fd563f98c!8m2!3d19.3916337!4d79.4845662!16s%2Fg%2F11m_h3hjsw!19sChIJqW69YdFRLToRjPlj1T-sDoY?authuser=0&hl=en&rclk=1,"19.3916337,79.4845662"
"Masjid E Khadija, Maktab E Abdullah",Place of worship,"974R+VWP Masjid E Khadija, Maktab E Abdullah, Kasabwadi, Asifabad, Telangana 504293",Kasabwadi,974R+VWP,Asifabad,504293,Telangana,IN,"https://www.google.com/maps/place/Masjid+E+Khadija,+Maktab+E+Abdullah/data=!4m7!3m6!1s0x3bd2ad4c6a475809:0x7f6fc1ed635fd790!8m2!3d19.3572248!4d79.2923366!16s%2Fg%2F11sshcvd0p!19sChIJCVhHakyt0jsRkNdfY-3Bb38?authuser=0&hl=en&rclk=1","19.3572248,79.2923366"
Masjid E Gohar,Mosque,"PPFC+P83 Masjid E Gohar, Sirsanna, Telangana 504309",,PPFC+P83,Sirsanna,504309,Telangana,IN,https://www.google.com/maps/place/Masjid+E+Gohar/data=!4m7!3m6!1s0x3bd2f7eb0dbb98bb:0x482b941a64ade016!8m2!3d19.7242612!4d78.7207925!16s%2Fg%2F11tg51brq2!19sChIJu5i7Dev30jsRFuCtZBqUK0g?authuser=0&hl=en&rclk=1,"19.7242612,78.7207925"
Gayatri Nilayam,Housing society,"Gayatri Nilayam, 102/B, Sirsilk Colony, Park Lane, Sirpur Kaghaz Nagar, Komaram Bheem, 504296",,"102/B, Sirsilk Colony, Park Lane, Sirpur Kaghaz Nagar, Komaram Bheem",Kagaznagar,504296,Telangana,IN,https://www.google.com/maps/place/Gayatri+Nilayam/data=!4m7!3m6!1s0x3a2d510df378606f:0x2f746e6a9feb08ab!8m2!3d19.3604832!4d79.4882308!16s%2Fg%2F11pxk_d9lv!19sChIJb2B48w1RLToRqwjrn2pudC8?authuser=0&hl=en&rclk=1,"19.3604832,79.4882308"
Qadeem Masjid,Housing society,"976V+Q6C Qadeem Masjid, Asifabad, Telangana 504293",,976V+Q6C,Asifabad,504293,Telangana,IN,https://www.google.com/maps/place/Qadeem+Masjid/data=!4m7!3m6!1s0x3bd2ad16820b6fcf:0xc2c5251517b0c7f4!8m2!3d19.3619289!4d79.2930146!16s%2Fg%2F11s9c75fsj!19sChIJz28Lghat0jsR9MewFxUlxcI?authuser=0&hl=en&rclk=1,"19.3619289,79.29301459999999"
Edgha colony,,"Edgha colony, Kagaznagar, Telangana 504296",Edgha colony,,Kagaznagar,,Telangana,IN,https://www.google.com/maps/place/Edgha+colony/data=!4m7!3m6!1s0x3a2d56acd253f0d5:0xc539364b5735d9f8!8m2!3d19.358372!4d79.4770679!16s%2Fg%2F1hf9g6wv8!19sChIJ1fBT0qxWLToR-Nk1V0s2OcU?authuser=0&hl=en&rclk=1,"19.358372,79.4770679"
Graveyard,Cemetery,"8FPH+83X Graveyard, Bareguda, Kagaznagar, Telangana 504296",,8FPH+83X,"Bareguda, Kagaznagar",504296,Telangana,IN,https://www.google.com/maps/place/Graveyard/data=!4m7!3m6!1s0x3a2d5793e98c28ef:0x26514b1ebb53e51b!8m2!3d19.335858!4d79.4777326!16s%2Fg%2F11j0b30nk4!19sChIJ7yiM6ZNXLToRG-VTux5LUSY?authuser=0&hl=en&rclk=1,"19.335857999999998,79.4777326"
S A PAN SHOP TEA & CAFE,Tea store,"S A PAN SHOP TEA & CAFE, 1-26, Masjid Main Road, near Eidgha, Edgha colony, Sirpur, Kagaznagar, Telangana 504296",Edgha colony,"1-26, Masjid Main Road, near Eidgha","Sirpur, Kagaznagar",504296,Telangana,IN,https://www.google.com/maps/place/S+A+PAN+SHOP+TEA+%26+CAFE/data=!4m7!3m6!1s0x3a2d515bcc9e31bd:0x74f46bef1773d588!8m2!3d19.3587273!4d79.4761941!16s%2Fg%2F11l75g1tdr!19sChIJvTGezFtRLToRiNVzF-9r9HQ?authuser=0&hl=en&rclk=1,"19.358727299999998,79.4761941"
DARUL ULOOM JAMIA GHAUSIYA,School house,"DARUL ULOOM JAMIA GHAUSIYA, Masjid e noorani, Kagaznagar, Telangana 504296",,Masjid e noorani,Kagaznagar,504296,Telangana,IN,https://www.google.com/maps/place/DARUL+ULOOM+JAMIA+GHAUSIYA/data=!4m7!3m6!1s0x3a2d573f72e4553b:0x202fadd8f4910361!8m2!3d19.3420723!4d79.489193!16s%2Fg%2F11fpg192k5!19sChIJO1Xkcj9XLToRYQOR9NitLyA?authuser=0&hl=en&rclk=1,"19.342072299999998,79.489193"
Seva Maccs Skzr,Bank,"Seva Maccs Skzr, amera masjid, Indra market, Kagaznagar, Telangana 504296",,"amera masjid, Indra market",Kagaznagar,,Telangana,IN,https://www.google.com/maps/place/Seva+Maccs+Skzr/data=!4m7!3m6!1s0x3a2d56b2ad7e6959:0x55494eb0acc57d76!8m2!3d19.3581456!4d79.4823339!16s%2Fg%2F11h9zhk1gs!19sChIJWWl-rbJWLToRdn3FrLBOSVU?authuser=0&hl=en&rclk=1,"19.3581456,79.4823339"
