name,main_category,address,address_ward,address_street,address_city,address_postal_code,address_state,address_country_code,link,coordinates
Mosque,Place of worship,"722V+W5Q Mosque, Amhat, Sultanpur, Uttar Pradesh 228001",Amhat,722V+W5Q,Sultanpur,228001,Uttar Pradesh,IN,https://www.google.com/maps/place/Mosque/data=!4m7!3m6!1s0x399a7cd37b8b3221:0x3fefc480c4115fc8!8m2!3d26.2523461!4d82.0429944!16s%2Fg%2F11b6tmp20p!19sChIJITKLe9N8mjkRyF8RxIDE7z8?authuser=0&hl=en&rclk=1,"26.2523461,82.0429944"
Noorani Masjid,Mosque,"Noorani Masjid, 204, Sultanpur, New Delhi, Delhi 110030",Sultanpur,204,New Delhi,110030,Delhi,IN,https://www.google.com/maps/place/Noorani+Masjid/data=!4m7!3m6!1s0x390d1e4551a7abdf:0x537a2e081ba4c18c!8m2!3d28.4911875!4d77.1591791!16s%2Fg%2F11ckqn8fzb!19sChIJ36unUUUeDTkRjMGkGwguelM?authuser=0&hl=en&rclk=1,"28.4911875,77.1591791"
nekraahii shriif,Mosque,"734V+CM2 nekraahii shriif, Dargah Village Nekrahi Sharif,, Sultanpur, Uttar Pradesh 228001",Pyarepatti,"734V+CM2, Dargah Village Nekrahi Sharif,",Sultanpur,228001,Uttar Pradesh,IN,https://www.google.com/maps/place/%E0%A4%A8%E0%A5%87%E0%A4%95%E0%A4%B0%E0%A4%BE%E0%A4%B9%E0%A5%80+%E0%A4%B6%E0%A4%B0%E0%A5%80%E0%A5%9E/data=!4m7!3m6!1s0x399a7c51ebce2a7b:0x34b2f51d25ea39bb!8m2!3d26.2560021!4d82.0941345!16s%2Fg%2F11cmt2yhq6!19sChIJeyrO61F8mjkRuznqJR31sjQ?authuser=0&hl=en&rclk=1,"26.2560021,82.0941345"
Marqaz Mosque,Mosque,"Marqaz Mosque, Pyarepatti, Sultanpur, Uttar Pradesh 228001",Pyarepatti,,Sultanpur,228001,Uttar Pradesh,IN,https://www.google.com/maps/place/Marqaz+Mosque/data=!4m7!3m6!1s0x399a7ce535eb8b75:0xdafed3e73f0033dd!8m2!3d26.2579219!4d82.0738035!16s%2Fg%2F11d_1tx720!19sChIJdYvrNeV8mjkR3TMAP-fT_to?authuser=0&hl=en&rclk=1,"26.2579219,82.0738035"
Eidgah,Mosque,"734G+QXG Eidgah, Lala Ka Purwa, Sultanpur, Uttar Pradesh 228001",Lala Ka Purwa,734G+QXG,Sultanpur,228001,Uttar Pradesh,IN,https://www.google.com/maps/place/Eidgah/data=!4m7!3m6!1s0x399a7cfa4bc6c3a9:0xaa3c05e49a00113e!8m2!3d26.2577544!4d82.0777379!16s%2Fg%2F1hjgmxkv0!19sChIJqcPGS_p8mjkRPhEAmuQFPKo?authuser=0&hl=en&rclk=1,"26.2577544,82.0777379"
Masjid Ghulaam Rasool,Mosque,"Masjid Ghulaam Rasool, Gabhariya, Vaishnav Nager, Didenagar, Sultanpur, Uttar Pradesh 228001","Gabhariya, Vaishnav Nager, Didenagar",,Sultanpur,228001,Uttar Pradesh,IN,https://www.google.com/maps/place/Masjid+Ghulaam+Rasool/data=!4m7!3m6!1s0x399a7ce7c7f0c5f1:0x3d876f7e7d96c7af!8m2!3d26.2576186!4d82.064484!16s%2Fg%2F11b5ypytm4!19sChIJ8cXwx-d8mjkRr8eWfX5vhz0?authuser=0&hl=en&rclk=1,"26.257618599999997,82.064484"
Masjid E Bilal,Mosque,"732J+WWC Masjid E Bilal, Pyarepatti, Sultanpur, Uttar Pradesh 228001",Pyarepatti,732J+WWC,Sultanpur,228001,Uttar Pradesh,IN,https://www.google.com/maps/place/Masjid+E+Bilal/data=!4m7!3m6!1s0x399a7cff1754a07b:0x7a661f460e05ee55!8m2!3d26.2523048!4d82.0822692!16s%2Fg%2F11gbw8x6yn!19sChIJe6BUF_98mjkRVe4FDkYfZno?authuser=0&hl=en&rclk=1,"26.252304799999997,82.0822692"
Bilal masjid Bhuwapur,Mosque,"Bilal masjid Bhuwapur, Unnamed Road, Bahadurpur, Aphalepur, Uttar Pradesh 228001",,"Unnamed Road, Bahadurpur",Aphalepur,228001,Uttar Pradesh,IN,https://www.google.com/maps/place/Bilal+masjid+Bhuwapur/data=!4m7!3m6!1s0x399a633426ee9483:0xfa6f54507f41e27d!8m2!3d26.2654962!4d82.0353233!16s%2Fg%2F11bt_nw4bh!19sChIJg5TuJjRjmjkRfeJBf1BUb_o?authuser=0&hl=en&rclk=1,"26.265496199999998,82.0353233"
Mirza masjid (ali) kaithouli,Mosque,"75X7+PJ5 Mirza masjid (ali) kaithouli, kaithouli sultanpur up, Sultanpur - Jaisinghpur Rd, Uttar Pradesh 228119",,"75X7+PJ5, kaithouli sultanpur up, Sultanpur - Jaisinghpur Rd",Jvalipur,228119,Uttar Pradesh,IN,https://www.google.com/maps/place/Mirza+masjid+%28ali%29+kaithouli/data=!4m7!3m6!1s0x399a7ed331694f8d:0x79f78b09b2c588c5!8m2!3d26.2992583!4d82.1641208!16s%2Fg%2F11c2lsm3p1!19sChIJjU9pMdN-mjkRxYjFsgmL93k?authuser=0&hl=en&rclk=1,"26.299258299999998,82.16412079999999"
msjd Masjid,Mosque,"msjd Masjid, Bhulki, Uttar Pradesh 228001",,,Bhulki,,Uttar Pradesh,IN,https://www.google.com/maps/place/%D9%85%D8%B3%D8%AC%D8%AF+Masjid%E2%80%AD/data=!4m7!3m6!1s0x399a7daead682cd9:0x626bdfa9ca248be!8m2!3d26.2421403!4d82.0898223!16s%2Fg%2F1hm65y1mp!19sChIJ2Sxora59mjkRvkiinPq9JgY?authuser=0&hl=en&rclk=1,"26.2421403,82.0898223"
Noori Jama Masjid msjd Jhaliyavan,Mosque,"63VW+33F Noori Jama Masjid msjd Jhaliyavan, Jhaliyawan, Uttar Pradesh 228001",,"63VW+33F, Jhaliyawan",Bhulki,228001,Uttar Pradesh,IN,https://www.google.com/maps/place/Noori+Jama+Masjid+%D9%85%D8%B3%D8%AC%D8%AF+Jhaliyavan%E2%80%AD/data=!4m7!3m6!1s0x399a7dae02174929:0x279dfb205342a7d2!8m2!3d26.2426916!4d82.0951758!16s%2Fg%2F1hm3f91q0!19sChIJKUkXAq59mjkR0qdCUyD7nSc?authuser=0&hl=en&rclk=1,"26.2426916,82.09517579999999"
Hazrat Ayesha Masjid,Mosque,"64M2+462 Hazrat Ayesha Masjid, Sonbarsa, Paraupur, Uttar Pradesh 228001",,64M2+462,"Sonbarsa, Paraupur",228001,Uttar Pradesh,IN,https://www.google.com/maps/place/Hazrat+Ayesha+Masjid/data=!4m7!3m6!1s0x399a7dbbe23739dd:0x9a6ead9a750364d5!8m2!3d26.2327631!4d82.1005173!16s%2Fg%2F11c6ltrpj5!19sChIJ3Tk34rt9mjkR1WQDdZqtbpo?authuser=0&hl=en&rclk=1,"26.2327631,82.10051729999999"
Juma Masjid Gharhan Khurd Sultanpur,Mosque,"Juma Masjid Gharhan Khurd Sultanpur, Abhishek Khurd, Parchun, Sultanpur, Uttar Pradesh 228001",Pyarepatti,"Abhishek Khurd, Parchun",Sultanpur,228001,Uttar Pradesh,IN,https://www.google.com/maps/place/Juma+Masjid+Gharhan+Khurd+Sultanpur/data=!4m7!3m6!1s0x399a7cf99b584977:0xc5188b709ab6f797!8m2!3d26.257231!4d82.0795399!16s%2Fg%2F11fy4nq9bm!19sChIJd0lYm_l8mjkRl_e2mnCLGMU?authuser=0&hl=en&rclk=1,"26.257230999999997,82.0795399"
Masjid E Meraj Pyare Patti Byepass,Mosque,"63XQ+797 Masjid E Meraj Pyare Patti Byepass, Pyarepatti, Pyaepatti, Sultanpur, Uttar Pradesh 228001",Pyarepatti,63XQ+797,"Pyaepatti, Sultanpur",228001,Uttar Pradesh,IN,https://www.google.com/maps/place/Masjid+E+Meraj+Pyare+Patti+Byepass/data=!4m7!3m6!1s0x399a7dab49e81675:0xe3f4c132666adb65!8m2!3d26.2481518!4d82.0884215!16s%2Fg%2F11fz8wxsgd!19sChIJdRboSat9mjkRZdtqZjLB9OM?authuser=0&hl=en&rclk=1,"26.2481518,82.0884215"
Jama Masjid,Mosque,"736C+363 Jama Masjid, Khairabad, Sultanpur, Uttar Pradesh 228001",Khairabad,736C+363,Sultanpur,228001,Uttar Pradesh,IN,https://www.google.com/maps/place/Jama+Masjid/data=!4m7!3m6!1s0x399a7cef77854935:0x345180c387ee3ec9!8m2!3d26.2601286!4d82.0705436!16s%2Fg%2F11c329dd4b!19sChIJNUmFd-98mjkRyT7uh8OAUTQ?authuser=0&hl=en&rclk=1,"26.260128599999998,82.0705436"
Masjid Gulshan E Madeena Pyare Patti,Mosque,"63XP+QG2 Masjid Gulshan E Madeena Pyare Patti, Pyarepatti, Gharahakhu, Sultanpur, Uttar Pradesh 228001",Pyarepatti,63XP+QG2,"Gharahakhu, Sultanpur",228001,Uttar Pradesh,IN,https://www.google.com/maps/place/Masjid+Gulshan+E+Madeena+Pyare+Patti/data=!4m7!3m6!1s0x399a7c553ade5d7f:0x2a9f5d091670fb5d!8m2!3d26.2493859!4d82.0862556!16s%2Fg%2F11f144dx54!19sChIJf13eOlV8mjkRXftwFgldnyo?authuser=0&hl=en&rclk=1,"26.2493859,82.0862556"
Masjeid Raza Panchopiran,Mosque,"73HH+PV9 Masjeid Raza Panchopiran, Panchopiran, Sultanpur, Uttar Pradesh 228118",Panchopiran,73HH+PV9,Sultanpur,228118,Uttar Pradesh,IN,https://www.google.com/maps/place/Masjeid+Raza+Panchopiran/data=!4m7!3m6!1s0x399a7c89397d5fa7:0x1a9bbf375904097a!8m2!3d26.2792889!4d82.0797332!16s%2Fg%2F11fy92b68s!19sChIJp199OYl8mjkRegkEWTe_mxo?authuser=0&hl=en&rclk=1,"26.279288899999997,82.07973319999999"
"Masjid Nassarganj , jumma namaz khutba 01:30 pm",Mosque,"7345+FG9 Masjid Nassarganj , jumma namaz khutba 01:30 pm, Bahadurpur Rd, Gabhariya, Amhat, Sultanpur, Uttar Pradesh 228001","Gabhariya, Amhat","7345+FG9, Bahadurpur Rd",Sultanpur,228001,Uttar Pradesh,IN,"https://www.google.com/maps/place/Masjid+Nassarganj+,+jumma+namaz+khutba+01:30+pm/data=!4m7!3m6!1s0x399a7cdcf13647fb:0xc1f140b6e5579296!8m2!3d26.2561698!4d82.0588508!16s%2Fg%2F1hm4xqq44!19sChIJ-0c28dx8mjkRlpJX5bZA8cE?authuser=0&hl=en&rclk=1","26.2561698,82.0588508"
KNIT MOSQUE,Mosque,"73PJ+3XQ KNIT MOSQUE, Kasba Sultanpur, Uttar Pradesh 228118",,73PJ+3XQ,Kasba Sultanpur,228118,Uttar Pradesh,IN,https://www.google.com/maps/place/KNIT+MOSQUE/data=!4m7!3m6!1s0x399a7c87b915b1af:0x495d4c332cc6ef58!8m2!3d26.2852009!4d82.0824945!16s%2Fg%2F11cks50xt0!19sChIJr7EVuYd8mjkRWO_GLDNMXUk?authuser=0&hl=en&rclk=1,"26.2852009,82.0824945"
Masjid E Umar Paushala,Mosque,"733J+VP3 Masjid E Umar Paushala, Pyarepatti, Sultanpur, Uttar Pradesh 228001",Pyarepatti,733J+VP3,Sultanpur,228001,Uttar Pradesh,IN,https://www.google.com/maps/place/Masjid+E+Umar+Paushala/data=!4m7!3m6!1s0x399a7cf8d6fd0bc7:0xabe8cc8b4f1ef4cb!8m2!3d26.2546418!4d82.0817976!16s%2Fg%2F11fz26hr5c!19sChIJxwv91vh8mjkRy_QeT4vM6Ks?authuser=0&hl=en&rclk=1,"26.254641799999998,82.0817976"
Masjid,Mosque,"73Q2+FJ8 Masjid, Kurwar Road, Sultanpur, Paigapur, Uttar Pradesh 228001",,"73Q2+FJ8, Kurwar Road","Sultanpur, Paigapur",228001,Uttar Pradesh,IN,https://www.google.com/maps/place/Masjid/data=!4m7!3m6!1s0x399a7ca8a7440667:0xa61a96bdb6ff0ded!8m2!3d26.2886586!4d82.0515686!16s%2Fg%2F1hhwshbnf!19sChIJZwZEp6h8mjkR7Q3_tr2WGqY?authuser=0&hl=en&rclk=1,"26.288658599999998,82.0515686"
GIC Mosque,Mosque,"737C+MP2 GIC Mosque, State Highway 34, Badhaiyabeer, Civil Line, Sultanpur, Uttar Pradesh 228001","Badhaiyabeer, Civil Line","737C+MP2, State Highway 34",Sultanpur,228001,Uttar Pradesh,IN,https://www.google.com/maps/place/GIC+Mosque/data=!4m7!3m6!1s0x399a7cee6bf240a7:0x71cd6feb16134536!8m2!3d26.2641461!4d82.0717657!16s%2Fg%2F1td167lc!19sChIJp0Dya-58mjkRNkUTFutvzXE?authuser=0&hl=en&rclk=1,"26.264146099999998,82.0717657"
Madina Masjid,Mosque,"7348+7CC Madina Masjid, Gabhariya, Khairabad, Sultanpur, Uttar Pradesh 228001","Gabhariya, Khairabad",7348+7CC,Sultanpur,228001,Uttar Pradesh,IN,https://www.google.com/maps/place/Madina+Masjid/data=!4m7!3m6!1s0x399a7ce6ecf7d961:0xfaf0eafcce4ed716!8m2!3d26.2556752!4d82.0660083!16s%2Fg%2F11c2l20k11!19sChIJYdn37OZ8mjkRFtdOzvzq8Po?authuser=0&hl=en&rclk=1,"26.2556752,82.0660083"
Masjid Gulshan E Madeena Pyare Patti,Mosque,"733J+FPF Masjid Gulshan E Madeena Pyare Patti, Pyarepatti, Sultanpur, Uttar Pradesh 228001",Pyarepatti,733J+FPF,Sultanpur,228001,Uttar Pradesh,IN,https://www.google.com/maps/place/Masjid+Gulshan+E+Madeena+Pyare+Patti/data=!4m7!3m6!1s0x399a7cff296383ad:0x4e4525b5222e47bf!8m2!3d26.2536772!4d82.0817974!16s%2Fg%2F11gbxb17wn!19sChIJrYNjKf98mjkRv0cuIrUlRU4?authuser=0&hl=en&rclk=1,"26.2536772,82.0817974"
Mosque,Mosque,"Mosque, Sugar Mill Hasanpur, 244241, Uttar Pradesh 244242",,"Sugar Mill Hasanpur, 244241",Sultanpur Viran,244242,Uttar Pradesh,IN,https://www.google.com/maps/place/Mosque/data=!4m7!3m6!1s0x390b12bcbfffffff:0xea0800b7f5c556ee!8m2!3d28.7074285!4d78.3084137!16s%2Fg%2F11d_yygw17!19sChIJ____v7wSCzkR7lbF9bcACOo?authuser=0&hl=en&rclk=1,"28.7074285,78.3084137"
Dargah. Baba Darbari Sah (R.A),Mosque,"Dargah. Baba Darbari Sah (R.A), jama masjid, Khairabad, Sultanpur, Uttar Pradesh 228001",Khairabad,jama masjid,Sultanpur,228001,Uttar Pradesh,IN,https://www.google.com/maps/place/Dargah.+Baba+Darbari+Sah+%28R.A%29/data=!4m7!3m6!1s0x399a7cef77fdacc3:0x135394ce838430e2!8m2!3d26.2600643!4d82.0706781!16s%2Fg%2F11fzd126ks!19sChIJw6z9d-98mjkR4jCEg86UUxM?authuser=0&hl=en&rclk=1,"26.2600643,82.0706781"
Jama Masjid Ghasiganj,Mosque,"H.no-100, Jama Masjid Ghasiganj, 1, ghasiganj, Mahuariya, Sultanpur, Uttar Pradesh 228001",Mahuariya,"H.no-100, 1, ghasiganj",Sultanpur,228001,Uttar Pradesh,IN,https://www.google.com/maps/place/Jama+Masjid+Ghasiganj/data=!4m7!3m6!1s0x399a7ce022a44c13:0x35baf67be2948e8f!8m2!3d26.2479266!4d82.0638951!16s%2Fg%2F11fzbj8wr0!19sChIJE0ykIuB8mjkRj46U4nv2ujU?authuser=0&hl=en&rclk=1,"26.2479266,82.0638951"
Taj Masjid,Mosque,"Taj Masjid, Bahadurpur, Tajkhanpur, Sultanpur, Uttar Pradesh 228001",Bahadurpur,,"Tajkhanpur, Sultanpur",,Uttar Pradesh,IN,https://www.google.com/maps/place/Taj+Masjid/data=!4m7!3m6!1s0x399a7cd2750420a5:0x80aea460a87e957e!8m2!3d26.2577647!4d82.0446512!16s%2Fg%2F11_ppy4jw!19sChIJpSAEddJ8mjkRfpV-qGCkroA?authuser=0&hl=en&rclk=1,"26.2577647,82.04465119999999"
Aashiqu-e-Habeeb Noori Masjid,Mosque,"734H+3JG Aashiqu-e-Habeeb Noori Masjid, Pyarepatti, Sultanpur, Uttar Pradesh 228001",Pyarepatti,734H+3JG,Sultanpur,228001,Uttar Pradesh,IN,https://www.google.com/maps/place/Aashiqu-e-Habeeb+Noori+Masjid/data=!4m7!3m6!1s0x399a7cf95faa61e1:0xdcf79bb77ca1b63c!8m2!3d26.255198!4d82.0790916!16s%2Fg%2F11c0q0gftz!19sChIJ4WGqX_l8mjkRPLahfLeb99w?authuser=0&hl=en&rclk=1,"26.255198,82.0790916"
Masjid msjd,Mosque,"Masjid msjd, 286, Dariyapur Rd, Khairabad, Sultanpur, Uttar Pradesh 228001",Khairabad,"286, Dariyapur Rd",Sultanpur,228001,Uttar Pradesh,IN,https://www.google.com/maps/place/Masjid+%D9%85%D8%B3%D8%AC%D8%AF%E2%80%AD/data=!4m7!3m6!1s0x399a7ce5d3c09cfd:0xcdc98114a01974f8!8m2!3d26.256602!4d82.0684069!16s%2Fg%2F12cp0h4pd!19sChIJ_ZzA0-V8mjkR-HQZoBSByc0?authuser=0&hl=en&rclk=1,"26.256601999999997,82.0684069"
Masjid E Raheem,Mosque,"734M+R4V Masjid E Raheem, Pyarepatti, Sultanpur, Uttar Pradesh 228001",Pyarepatti,734M+R4V,Sultanpur,228001,Uttar Pradesh,IN,https://www.google.com/maps/place/Masjid+E+Raheem/data=!4m7!3m6!1s0x399a7cf85f91776b:0x34784c0a118eacbd!8m2!3d26.2571248!4d82.0828046!16s%2Fg%2F11fz8wtyfm!19sChIJa3eRX_h8mjkRvayOEQpMeDQ?authuser=0&hl=en&rclk=1,"26.2571248,82.0828046"
Noore Masjid,Mosque,"7328+XV3 Noore Masjid, Khairabad, Sultanpur, Uttar Pradesh 228001",Khairabad,7328+XV3,Sultanpur,228001,Uttar Pradesh,IN,https://www.google.com/maps/place/Noore+Masjid/data=!4m7!3m6!1s0x399a7ce1451f790b:0xcd7adb9d095f156c!8m2!3d26.2523956!4d82.0671841!16s%2Fg%2F11gdw238d_!19sChIJC3kfReF8mjkRbBVfCZ3bes0?authuser=0&hl=en&rclk=1,"26.2523956,82.06718409999999"
MASJID GAREEB NAWAZ,Mosque,"73GH+5QQ MASJID GAREEB NAWAZ, Unnamed Road, Piri, Vallipur, Sultanpur, Uttar Pradesh 228118","Piri, Vallipur","73GH+5QQ, Unnamed Road",Sultanpur,228118,Uttar Pradesh,IN,https://www.google.com/maps/place/MASJID+GAREEB+NAWAZ/data=!4m7!3m6!1s0x399a7debacee79a5:0xd0851fb47ab1d24d!8m2!3d26.2754688!4d82.0794978!16s%2Fg%2F11rs2dbvn2!19sChIJpXnurOt9mjkRTdKxerQfhdA?authuser=0&hl=en&rclk=1,"26.2754688,82.0794978"
HUSSAINI MASJID MAHANPUR,Mosque,"64C2+47C HUSSAINI MASJID MAHANPUR, Lohramau Rd, Dadupur, Sultanpur, Sonbarsa, Uttar Pradesh 228001",Dadupur,"64C2+47C, Lohramau Rd","Sultanpur, Sonbarsa",228001,Uttar Pradesh,IN,https://www.google.com/maps/place/HUSSAINI+MASJID+MAHANPUR/data=!4m7!3m6!1s0x399a7d975d4a79d1:0x1a76c88f791e35ea!8m2!3d26.220315!4d82.1006454!16s%2Fg%2F11jbd5nnpl!19sChIJ0XlKXZd9mjkR6jUeeY_Idho?authuser=0&hl=en&rclk=1,"26.220315,82.10064539999999"
Masjid msjd,Mosque,"72XV+R3R Masjid msjd, Kurwar Road, Sultanpur, Khakhlikhurd, Uttar Pradesh 228001",,"72XV+R3R, Kurwar Road","Sultanpur, Khakhlikhurd",228001,Uttar Pradesh,IN,https://www.google.com/maps/place/Masjid+%D9%85%D8%B3%D8%AC%D8%AF%E2%80%AD/data=!4m7!3m6!1s0x399a7b536f89ed45:0x65cdf7d4fef12178!8m2!3d26.2996021!4d82.0426476!16s%2Fg%2F1hm4qghyr!19sChIJRe2Jb1N7mjkReCHx_tT3zWU?authuser=0&hl=en&rclk=1,"26.299602099999998,82.0426476"
Makki Madni Masjid,Mosque,"74RJ+FC4 Makki Madni Masjid, Sultanpur - Kadipur Rd, Itkauli, Uttar Pradesh 228119",,"74RJ+FC4, Sultanpur - Kadipur Rd",Itkauli,228119,Uttar Pradesh,IN,https://www.google.com/maps/place/Makki+Madni+Masjid/data=!4m7!3m6!1s0x399a7ea96d855311:0x58b217411f796819!8m2!3d26.2911354!4d82.1310714!16s%2Fg%2F11f314z4_f!19sChIJEVOFbal-mjkRGWh5H0EXslg?authuser=0&hl=en&rclk=1,"26.291135399999998,82.1310714"
Masjid E Siratul Mustaqeem Loleypur,Mosque,"734P+2F9 Masjid E Siratul Mustaqeem Loleypur, Pyarepatti, Sultanpur, Uttar Pradesh 228001",Pyarepatti,734P+2F9,Sultanpur,228001,Uttar Pradesh,IN,https://www.google.com/maps/place/Masjid+E+Siratul+Mustaqeem+Loleypur/data=!4m7!3m6!1s0x399a7c567047b985:0x662d98d5cf24b411!8m2!3d26.2550478!4d82.0862491!16s%2Fg%2F11fz8wx_89!19sChIJhblHcFZ8mjkREbQkz9WYLWY?authuser=0&hl=en&rclk=1,"26.2550478,82.08624909999999"
Bag wali masjid,Mosque,"726X+R3C Bag wali masjid, Bag Road, Bahadurpur, Aphalepur, Uttar Pradesh 228001",Bahadurpur,"726X+R3C, Bag Road",Aphalepur,228001,Uttar Pradesh,IN,https://www.google.com/maps/place/Bag+wali+masjid/data=!4m7!3m6!1s0x399a7d174dd9c27f:0x542c2c9ea2d5b35!8m2!3d26.2620619!4d82.0476322!16s%2Fg%2F11r7518_h8!19sChIJf8LZTRd9mjkRNVst6snCQgU?authuser=0&hl=en&rclk=1,"26.2620619,82.0476322"
"Madani Jama Masjid, Lodhepur",Mosque,"Madani Jama Masjid, Lodhepur, 56, NH927, Sultanpur, Husainganj, Uttar Pradesh 227808",,"56, NH927","Sultanpur, Husainganj",227808,Uttar Pradesh,IN,"https://www.google.com/maps/place/Madani+Jama+Masjid,+Lodhepur/data=!4m7!3m6!1s0x399a6312a8afc257:0xae7b8b2c0bea1a76!8m2!3d26.2669486!4d82.0083204!16s%2Fg%2F1ptxm8jj6!19sChIJV8KvqBJjmjkRdhrqCyyLe64?authuser=0&hl=en&rclk=1","26.2669486,82.0083204"
"Chhoti Masjid, Judupur",Mosque,"7XGP+Q9C Chhoti Masjid, Judupur, Sultanpur, Uttar Pradesh 227808",,7XGP+Q9C,Sultanpur,227808,Uttar Pradesh,IN,"https://www.google.com/maps/place/Chhoti+Masjid,+Judupur/data=!4m7!3m6!1s0x399a63900bf19c1d:0x4cdf0895a0aa5d70!8m2!3d26.2769441!4d81.9858982!16s%2Fg%2F1hm5x4kq8!19sChIJHZzxC5BjmjkRcF2qoJUI30w?authuser=0&hl=en&rclk=1","26.276944099999998,81.9858982"
Jama Masjid Sultanpur Ghosh,Mosque,"R678+8CX Jama Masjid Sultanpur Ghosh, Sultanpur Ghosh, Uttar Pradesh 212653",,R678+8CX,Sultanpur Ghosh,,Uttar Pradesh,IN,https://www.google.com/maps/place/Jama+Masjid+Sultanpur+Ghosh/data=!4m7!3m6!1s0x399b154dffafba1f:0x49ac4910b7b89eb4!8m2!3d25.8133597!4d81.2161232!16s%2Fg%2F11g22yql_s!19sChIJH7qv_00VmzkRtJ64txBJrEk?authuser=0&hl=en&rclk=1,"25.8133597,81.2161232"
Jama Masjid Sultanpur,Mosque,"5H8F+3MF Jama Masjid Sultanpur, Sultanpur, Uttar Pradesh 275304",,5H8F+3MF,Sultanpur,275304,Uttar Pradesh,IN,https://www.google.com/maps/place/Jama+Masjid+Sultanpur/data=!4m7!3m6!1s0x39918746db8b8fc7:0x5351363e03748148!8m2!3d26.1651929!4d83.5741602!16s%2Fg%2F11c6mdn3hg!19sChIJx4-L20aHkTkRSIF0Az42UVM?authuser=0&hl=en&rclk=1,"26.165192899999997,83.5741602"
Masjid E Abu Bakr,Mosque,"734J+MFX Masjid E Abu Bakr, Lala Ka Purwa, Sultanpur, Uttar Pradesh 228001",Lala Ka Purwa,734J+MFX,Sultanpur,228001,Uttar Pradesh,IN,https://www.google.com/maps/place/Masjid+E+Abu+Bakr/data=!4m7!3m6!1s0x399a7cf9014a047f:0xd2af04d4c03a64c7!8m2!3d26.2567324!4d82.0812469!16s%2Fg%2F11fz8wy_rl!19sChIJfwRKAfl8mjkRx2Q6wNQEr9I?authuser=0&hl=en&rclk=1,"26.256732399999997,82.0812469"
KARAUDIYA SUNNI MASJID,Mosque,"7398+GV3 KARAUDIYA SUNNI MASJID, Vivek Nagar, Sultanpur, Uttar Pradesh 228001",Vivek Nagar,7398+GV3,Sultanpur,228001,Uttar Pradesh,IN,https://www.google.com/maps/place/KARAUDIYA+SUNNI+MASJID/data=!4m7!3m6!1s0x399a7d9368e9403b:0xeeb83743937b663d!8m2!3d26.2687678!4d82.0671593!16s%2Fg%2F11hz47shq2!19sChIJO0DpaJN9mjkRPWZ7k0M3uO4?authuser=0&hl=en&rclk=1,"26.2687678,82.0671593"
Masjid Habibiya,Place of worship,"Masjid Habibiya, 1168, Sirwara Rd, Paltan Bazar, Sirwara Rd, Paltan Bazar, Pyarepatti, Sultanpur, Uttar Pradesh 228001","Paltan Bazar, Pyarepatti","1168, Sirwara Rd, Paltan Bazar, Sirwara Rd",Sultanpur,228001,Uttar Pradesh,IN,https://www.google.com/maps/place/Masjid+Habibiya/data=!4m7!3m6!1s0x399a7cf087f2486b:0xfc64c09332626fbc!8m2!3d26.2603438!4d82.0761499!16s%2Fg%2F11dxm5n4m6!19sChIJa0jyh_B8mjkRvG9iMpPAZPw?authuser=0&hl=en&rclk=1,"26.260343799999998,82.07614989999999"
Masjid e.Sufiya,Mosque,"73JJ+R25 Masjid e.Sufiya, Panchopiran, Sultanpur, Uttar Pradesh 228118",Panchopiran,73JJ+R25,Sultanpur,228118,Uttar Pradesh,IN,https://www.google.com/maps/place/Masjid+e.Sufiya/data=!4m7!3m6!1s0x399a7c88bfffffff:0x3a854afe587e1530!8m2!3d26.2820039!4d82.080097!16s%2Fg%2F11fxb3kltw!19sChIJ____v4h8mjkRMBV-WP5KhTo?authuser=0&hl=en&rclk=1,"26.2820039,82.080097"
Maganganj masjid,Mosque,"75Q6+XWJ Maganganj masjid, Sultanpur - Jaisinghpur Rd, Joli Meerganj, Ganeshpur Kaithouli, Uttar Pradesh 228119",,"75Q6+XWJ, Sultanpur - Jaisinghpur Rd","Joli Meerganj, Ganeshpur Kaithouli",228119,Uttar Pradesh,IN,https://www.google.com/maps/place/Maganganj+masjid/data=!4m7!3m6!1s0x399a7f62a2238149:0xaf4ba43aa4395631!8m2!3d26.289957!4d82.162261!16s%2Fg%2F11sghk0hns!19sChIJSYEjomJ_mjkRMVY5pDqkS68?authuser=0&hl=en&rclk=1,"26.289956999999998,82.162261"
Masjid Kamangar,Mosque,"74C3+937 Masjid Kamangar, Lolepur, Uttar Pradesh 228001",,74C3+937,Lolepur,228001,Uttar Pradesh,IN,https://www.google.com/maps/place/Masjid+Kamangar/data=!4m7!3m6!1s0x399a7c41ba759ddf:0x8cf9cc6d1cd09711!8m2!3d26.2709184!4d82.102662!16s%2Fg%2F11fx7n6zyk!19sChIJ3511ukF8mjkREZfQHG3M-Yw?authuser=0&hl=en&rclk=1,"26.2709184,82.102662"
JAMA MASJID Salarpur,Mosque,"8592+XVW JAMA MASJID Salarpur, Sultanpur, Amkol, Uttar Pradesh 228125",,8592+XVW,"Sultanpur, Amkol",228125,Uttar Pradesh,IN,https://www.google.com/maps/place/JAMA+MASJID+Salarpur/data=!4m7!3m6!1s0x399a796540aef161:0xf99bfd2e53ef79bf!8m2!3d26.3199965!4d82.1521993!16s%2Fg%2F11fpr49x8n!19sChIJYfGuQGV5mjkRv3nvUy79m_k?authuser=0&hl=en&rclk=1,"26.3199965,82.15219929999999"
Chhapar wali masjid sultanpur,Mosque,"QFM6+6VQ Chhapar wali masjid sultanpur, Sultanpur, Uttar Pradesh 201206",,QFM6+6VQ,Sultanpur,201206,Uttar Pradesh,IN,https://www.google.com/maps/place/Chhapar+wali+masjid+sultanpur/data=!4m7!3m6!1s0x390cf706e0bdc905:0x1f93ff91da848e67!8m2!3d28.7831441!4d77.4622116!16s%2Fg%2F11trxdnwfw!19sChIJBcm94Ab3DDkRZ46E2pH_kx8?authuser=0&hl=en&rclk=1,"28.783144099999998,77.4622116"
"Rahimia Masjid, Sultanpur(Katpuri)",Mosque,"W45R+VWR Rahimia Masjid, Sultanpur(Katpuri), Unnamed Road, Sultanpur Punahana, Haryana 122508",,"W45R+VWR, Unnamed Road",Sultanpur Punahana,122508,Haryana,IN,"https://www.google.com/maps/place/Rahimia+Masjid,+Sultanpur%28Katpuri%29/data=!4m7!3m6!1s0x3972d7cd5cf4216f:0xedccf1b1f6fce663!8m2!3d27.9097326!4d77.1422765!16s%2Fg%2F11h1fpy_g7!19sChIJbyH0XM3XcjkRY-b89rHxzO0?authuser=0&hl=en&rclk=1","27.909732599999998,77.1422765"
Masjid,Mosque,"73FJ+X49 Masjid, Vallipur, Sultanpur, Uttar Pradesh 228118",Vallipur,73FJ+X49,Sultanpur,228118,Uttar Pradesh,IN,https://www.google.com/maps/place/Masjid/data=!4m7!3m6!1s0x399a7defc025533d:0x96e21cfd5fa4dfd!8m2!3d26.2749051!4d82.0803652!16s%2Fg%2F11h71kwq37!19sChIJPVMlwO99mjkR_U361c8hbgk?authuser=0&hl=en&rclk=1,"26.274905099999998,82.0803652"
Hajjin Masjid,Mosque,"734J+P5J Hajjin Masjid, Gharhan Khurd, Sultanpur, Uttar Pradesh 228001",Gharhan Khurd,734J+P5J,Sultanpur,228001,Uttar Pradesh,IN,https://www.google.com/maps/place/Hajjin+Masjid/data=!4m7!3m6!1s0x399a7cf90af30fd7:0x6055e5de36034578!8m2!3d26.2568401!4d82.0804001!16s%2Fg%2F11gb3mcxgt!19sChIJ1w_zCvl8mjkReEUDNt7lVWA?authuser=0&hl=en&rclk=1,"26.256840099999998,82.08040009999999"
Masjid E Sufiya And Dargha Haji Mashuq Ali Sha,Religious destination,"Masjid E Sufiya And Dargha Haji Mashuq Ali Sha, Dargha, Balkhi nagar, Panchopiran, Sultanpur, Uttar Pradesh 228118","Balkhi nagar, Panchopiran",Dargha,Sultanpur,228118,Uttar Pradesh,IN,https://www.google.com/maps/place/Masjid+E+Sufiya+And+Dargha+Haji+Mashuq+Ali+Sha/data=!4m7!3m6!1s0x399a7d2a75100b79:0x6d9476e5b374e180!8m2!3d26.2747463!4d82.0803936!16s%2Fg%2F11fmh84l21!19sChIJeQsQdSp9mjkRgOF0s-V2lG0?authuser=0&hl=en&rclk=1,"26.2747463,82.0803936"
Madrasa Al Jamia Tul qasmia Siddique Nagar,Mosque,"Madrasa Al Jamia Tul qasmia Siddique Nagar, Mahuariya, Sultanpur, Uttar Pradesh 228001",Mahuariya,,Sultanpur,228001,Uttar Pradesh,IN,https://www.google.com/maps/place/Madrasa+Al+Jamia+Tul+qasmia+Siddique+Nagar/data=!4m7!3m6!1s0x399a7d3257c81153:0xfb39ced1440b34d1!8m2!3d26.2503617!4d82.0611319!16s%2Fg%2F11g071snxp!19sChIJUxHIVzJ9mjkR0TQLRNHOOfs?authuser=0&hl=en&rclk=1,"26.2503617,82.06113189999999"
Dargah Gate panchopiran kasba sultanpur,Mosque,"73CG+VRX Dargah Gate panchopiran kasba sultanpur, Vallipur, Sultanpur, Uttar Pradesh 228118",Vallipur,73CG+VRX,Sultanpur,228118,Uttar Pradesh,IN,https://www.google.com/maps/place/Dargah+Gate+panchopiran+kasba+sultanpur/data=!4m7!3m6!1s0x399a7de3ab8ba8ed:0x989fc880cbfed3df!8m2!3d26.2722359!4d82.0771156!16s%2Fg%2F11j09zt_r2!19sChIJ7aiLq-N9mjkR39P-y4DIn5g?authuser=0&hl=en&rclk=1,"26.2722359,82.0771156"
Masjid GuljarBagh,Mosque,"738W+2RM Masjid GuljarBagh, Nakrahi, Lolepur, Uttar Pradesh 228001",,738W+2RM,"Nakrahi, Lolepur",228001,Uttar Pradesh,IN,https://www.google.com/maps/place/Masjid+GuljarBagh/data=!4m7!3m6!1s0x399a7c44ed1d8941:0xfb72e87e91636a8!8m2!3d26.2650915!4d82.0970526!16s%2Fg%2F11c6m3kypm!19sChIJQYkd7UR8mjkRqDYW6Ycutw8?authuser=0&hl=en&rclk=1,"26.2650915,82.0970526"
Madina masjid,Mosque,"P837+589 Madina masjid, Sambhal - Hasanpur Rd, Sultanpur Viran, Uttar Pradesh 244242",,"P837+589, Sambhal - Hasanpur Rd",Sultanpur Viran,244242,Uttar Pradesh,IN,https://www.google.com/maps/place/Madina+masjid/data=!4m7!3m6!1s0x390b13260b0a69f1:0x9a4c8206613a9047!8m2!3d28.7029079!4d78.3133689!16s%2Fg%2F11j5s8ptng!19sChIJ8WkKCyYTCzkRR5A6YQaCTJo?authuser=0&hl=en&rclk=1,"28.7029079,78.3133689"
Basheer Nager Masjid,Mosque,"7338+X43 Basheer Nager Masjid, Gabhariya, Mahuariya, Sultanpur, Uttar Pradesh 228001","Gabhariya, Mahuariya",7338+X43,Sultanpur,228001,Uttar Pradesh,IN,https://www.google.com/maps/place/Basheer+Nager+Masjid/data=!4m7!3m6!1s0x399a7ce6e1b1f8bb:0x75de0011b2fb2292!8m2!3d26.2548762!4d82.0653032!16s%2Fg%2F11c6qdsrgw!19sChIJu_ix4eZ8mjkRkiL7shEA3nU?authuser=0&hl=en&rclk=1,"26.254876199999998,82.0653032"
Masjid bechupurwa,Mosque,"73HG+CWM Masjid bechupurwa, Sultanpur - Kadipur Rd, Piri, Vallipur, Sultanpur, Uttar Pradesh 228118","Piri, Vallipur","73HG+CWM, Sultanpur - Kadipur Rd",Sultanpur,228118,Uttar Pradesh,IN,https://www.google.com/maps/place/Masjid+bechupurwa/data=!4m7!3m6!1s0x399a7dcc36fec65b:0x956d38aa71a3697a!8m2!3d26.2785939!4d82.0773038!16s%2Fg%2F11h3mvggpm!19sChIJW8b-Nsx9mjkRemmjcao4bZU?authuser=0&hl=en&rclk=1,"26.278593899999997,82.0773038"
Moiniya Masjid,Mosque,"736X+G5X Moiniya Masjid, Nakrahi, Uttar Pradesh 228001",,736X+G5X,Nakrahi,228001,Uttar Pradesh,IN,https://www.google.com/maps/place/Moiniya+Masjid/data=!4m7!3m6!1s0x399a7de08a306843:0xef2ed9fca4d81779!8m2!3d26.2613682!4d82.0979913!16s%2Fg%2F11g4lknmxj!19sChIJQ2gwiuB9mjkReRfYpPzZLu8?authuser=0&hl=en&rclk=1,"26.2613682,82.09799129999999"
Angnakol juma masjid,Mosque,"8462+6HM Angnakol juma masjid, Faizabad - Sultanpur Rd, Anganakol, Uttar Pradesh 228118",,"8462+6HM, Faizabad - Sultanpur Rd",Anganakol,228118,Uttar Pradesh,IN,https://www.google.com/maps/place/Angnakol+juma+masjid/data=!4m7!3m6!1s0x399a7b45ab54ffc5:0xca11dc554eaf21f0!8m2!3d26.3105795!4d82.1014247!16s%2Fg%2F11hj8b1npn!19sChIJxf9Uq0V7mjkR8CGvTlXcEco?authuser=0&hl=en&rclk=1,"26.3105795,82.1014247"
Hera Masjid,Mosque,"Hera Masjid, 98 g n roed city, faition gali, Khairabad, Sultanpur, Uttar Pradesh 228001",Khairabad,"98 g n roed city, faition gali",Sultanpur,228001,Uttar Pradesh,IN,https://www.google.com/maps/place/Hera+Masjid/data=!4m7!3m6!1s0x399a7d3746a07391:0xbc5e3c89b3dec199!8m2!3d26.2562846!4d82.070326!16s%2Fg%2F11q286vblh!19sChIJkXOgRjd9mjkRmcHes4k8Xrw?authuser=0&hl=en&rclk=1,"26.256284599999997,82.070326"
Gausiya Masjid,Mosque,"734G+XH7 Gausiya Masjid, Lala Ka Purwa, Sultanpur, Uttar Pradesh 228001",Lala Ka Purwa,734G+XH7,Sultanpur,228001,Uttar Pradesh,IN,https://www.google.com/maps/place/Gausiya+Masjid/data=!4m7!3m6!1s0x399a7dbf66b2f811:0x90b10d162a038f51!8m2!3d26.2574244!4d82.0764164!16s%2Fg%2F11ghnh0cvf!19sChIJEfiyZr99mjkRUY8DKhYNsZA?authuser=0&hl=en&rclk=1,"26.257424399999998,82.0764164"
MASJID-E-AQSA,Mosque,"7323+387 MASJID-E-AQSA, Gabhariya, Gorabarik, Sultanpur, Uttar Pradesh 228001","Gabhariya, Gorabarik",7323+387,Sultanpur,228001,Uttar Pradesh,IN,https://www.google.com/maps/place/MASJID-E-AQSA/data=!4m7!3m6!1s0x399a7d781f830391:0x78e8448106c8f1c9!8m2!3d26.2501572!4d82.053298!16s%2Fg%2F11qq35hjty!19sChIJkQODH3h9mjkRyfHIBoFE6Hg?authuser=0&hl=en&rclk=1,"26.2501572,82.053298"
Masjid E Taufeeq Dariyapur,Mosque,"732C+X35 Masjid E Taufeeq Dariyapur, Dariyapur, Khairabad, Sultanpur, Uttar Pradesh 228001","Dariyapur, Khairabad",732C+X35,Sultanpur,228001,Uttar Pradesh,IN,https://www.google.com/maps/place/Masjid+E+Taufeeq+Dariyapur/data=!4m7!3m6!1s0x399a7ce39bda25ed:0xd99da37472e59c92!8m2!3d26.2523862!4d82.0702317!16s%2Fg%2F11f121zcy8!19sChIJ7SXam-N8mjkRkpzlcnSjndk?authuser=0&hl=en&rclk=1,"26.2523862,82.0702317"
Noori Masjid,Mosque,"73GQ+V4J Noori Masjid, Kasba Sultanpur, Uttar Pradesh 228118",,73GQ+V4J,Kasba Sultanpur,228118,Uttar Pradesh,IN,https://www.google.com/maps/place/Noori+Masjid/data=!4m7!3m6!1s0x399a7c61656806ab:0xc66f2f13f8c337fd!8m2!3d26.2772146!4d82.0877798!16s%2Fg%2F11fx8h8937!19sChIJqwZoZWF8mjkR_TfD-BMvb8Y?authuser=0&hl=en&rclk=1,"26.277214599999997,82.08777979999999"
HUSAINIYA BAKHSHI KHAN TALLUKEDAR,Mosque,"722V+P6W HUSAINIYA BAKHSHI KHAN TALLUKEDAR, Amhat, Sultanpur, Uttar Pradesh 228001",Amhat,722V+P6W,Sultanpur,228001,Uttar Pradesh,IN,https://www.google.com/maps/place/HUSAINIYA+BAKHSHI+KHAN+TALLUKEDAR/data=!4m7!3m6!1s0x399a7d8540256eb1:0xe6b6bf966dd10e63!8m2!3d26.251873!4d82.0430744!16s%2Fg%2F11h1ygxqb9!19sChIJsW4lQIV9mjkRYw7RbZa_tuY?authuser=0&hl=en&rclk=1,"26.251873,82.0430744"
saabrii msjid,Mosque,"8XRR+265 saabrii msjid, Sultanpur, Uttar Pradesh 228155",,8XRR+265,Sultanpur,,Uttar Pradesh,IN,https://www.google.com/maps/place/%E0%A4%B8%E0%A4%BE%E0%A4%AC%E0%A4%B0%E0%A5%80+%E0%A4%AE%E0%A4%B8%E0%A5%8D%E0%A4%9C%E0%A4%BF%E0%A4%A6/data=!4m7!3m6!1s0x399a65f52edcfa27:0xe26e1ce0433bbc30!8m2!3d26.340005!4d81.9906229!16s%2Fg%2F11qntkxfnw!19sChIJJ_rcLvVlmjkRMLw7Q-AcbuI?authuser=0&hl=en&rclk=1,"26.340004999999998,81.99062289999999"
Usmani masjid,Mosque,"Usmani masjid, Ousmani masjid, Sultanpur Mollvi, Uttar Pradesh 244235",,Ousmani masjid,Sultanpur Mollvi,244235,Uttar Pradesh,IN,https://www.google.com/maps/place/Usmani+masjid/data=!4m7!3m6!1s0x390b757f8309d631:0x82cfa1a2e10371f7!8m2!3d28.8254474!4d78.2707687!16s%2Fg%2F11hq2dzq28!19sChIJMdYJg391CzkR93ED4aKhz4I?authuser=0&hl=en&rclk=1,"28.825447399999998,78.27076869999999"
Masjid Sultanpur,Mosque,"VV7R+8FG Masjid Sultanpur, Sultanpur, Mahuari, Uttar Pradesh 272125",,VV7R+8FG,"Sultanpur, Mahuari",272125,Uttar Pradesh,IN,https://www.google.com/maps/place/Masjid+Sultanpur/data=!4m7!3m6!1s0x3990d7096d66082f:0x4f071662ecef91ac!8m2!3d26.8633037!4d82.8912094!16s%2Fg%2F11hz768c98!19sChIJLwhmbQnXkDkRrJHv7GIWB08?authuser=0&hl=en&rclk=1,"26.8633037,82.8912094"
Khajoor masjid,Mosque,"735H+M8X Khajoor masjid, Paltan Bazar, Pyarepatti, Sultanpur, Uttar Pradesh 228001","Paltan Bazar, Pyarepatti",735H+M8X,Sultanpur,228001,Uttar Pradesh,IN,https://www.google.com/maps/place/Khajoor+masjid/data=!4m7!3m6!1s0x399a7d93af022d41:0xdff1615c36faccd7!8m2!3d26.2592362!4d82.0783699!16s%2Fg%2F11fll1vzxc!19sChIJQS0Cr5N9mjkR18z6Nlxh8d8?authuser=0&hl=en&rclk=1,"26.2592362,82.0783699"
Shabri Masjid,Mosque,"Shabri Masjid, Karoudiya, Sultanpur, Uttar Pradesh 228001",Karoudiya,,Sultanpur,228001,Uttar Pradesh,IN,https://www.google.com/maps/place/Shabri+Masjid/data=!4m7!3m6!1s0x399a7d3a194e4bb7:0x356e07b7d1404d9c!8m2!3d26.274766!4d82.064461!16s%2Fg%2F11q8rtlm7f!19sChIJt0tOGTp9mjkRnE1A0bcHbjU?authuser=0&hl=en&rclk=1,"26.274766,82.064461"
Bahadurpur Masjid (Masjid-e-gousiya),Mosque,"725W+QVW Bahadurpur Masjid (Masjid-e-gousiya), Bahadurpur, Sultanpur, Aphalepur, Uttar Pradesh 228001",Bahadurpur,725W+QVW,"Sultanpur, Aphalepur",228001,Uttar Pradesh,IN,https://www.google.com/maps/place/Bahadurpur+Masjid+%28Masjid-e-gousiya%29/data=!4m7!3m6!1s0x399a7d89091f9bdb:0x25bfd0ebbcf8f8c6!8m2!3d26.2594872!4d82.0472063!16s%2Fg%2F11smtgzf1c!19sChIJ25sfCYl9mjkRxvj4vOvQvyU?authuser=0&hl=en&rclk=1,"26.2594872,82.0472063"
Masjid e Imam Raza (shia ithna asheri),Mosque,"734H+PC2 Masjid e Imam Raza (shia ithna asheri), Lala Ka Purwa, Sultanpur, Uttar Pradesh 228001",Lala Ka Purwa,734H+PC2,Sultanpur,228001,Uttar Pradesh,IN,https://www.google.com/maps/place/Masjid+e+Imam+Raza+%28shia+ithna+asheri%29/data=!4m7!3m6!1s0x399a7d6544f0414f:0x7423c3a82147db!8m2!3d26.2567607!4d82.0785139!16s%2Fg%2F11h77qgbt6!19sChIJT0HwRGV9mjkR20chqMMjdAA?authuser=0&hl=en&rclk=1,"26.256760699999997,82.07851389999999"
msjd Madarsa Masjid,Mosque,"735V+22F msjd Madarsa Masjid, Pyarepatti, Nakrahi, Sultanpur, Uttar Pradesh 228001",Pyarepatti,735V+22F,"Nakrahi, Sultanpur",228001,Uttar Pradesh,IN,https://www.google.com/maps/place/%D9%85%D8%B3%D8%AC%D8%AF+Madarsa+Masjid%E2%80%AD/data=!4m7!3m6!1s0x399a7c51aac09b27:0xee588161b19d293e!8m2!3d26.2575553!4d82.0925582!16s%2Fg%2F12cph243l!19sChIJJ5vAqlF8mjkRPimdsWGBWO4?authuser=0&hl=en&rclk=1,"26.2575553,82.0925582"
Masjid E Abubakr Siddiq,Mosque,"73H3+WQ3 Masjid E Abubakr Siddiq, Sultanpur, Uttar Pradesh 228001",,73H3+WQ3,Sultanpur,,Uttar Pradesh,IN,https://www.google.com/maps/place/Masjid+E+Abubakr+Siddiq/data=!4m7!3m6!1s0x399a7cbb1d378e61:0xc09b34ad5ffdeece!8m2!3d26.279766!4d82.0544262!16s%2Fg%2F11gfm89254!19sChIJYY43Hbt8mjkRzu79X600m8A?authuser=0&hl=en&rclk=1,"26.279766,82.0544262"
Masjid msjd,Mosque,"8X3R+WG4 Masjid msjd, Sultanpur, Uttar Pradesh 228155",,8X3R+WG4,Sultanpur,228155,Uttar Pradesh,IN,https://www.google.com/maps/place/Masjid+%D9%85%D8%B3%D8%AC%D8%AF%E2%80%AD/data=!4m7!3m6!1s0x399a646480acc385:0x24be409d92b13091!8m2!3d26.3047703!4d81.9913219!16s%2Fg%2F11f159yqhf!19sChIJhcOsgGRkmjkRkTCxkp1AviQ?authuser=0&hl=en&rclk=1,"26.304770299999998,81.9913219"
Masjid railway station,Mosque,"Masjid railway station, Junction, Sultanpur Railway Station Rd, Majar Ganj, Sultanpur, Uttar Pradesh 228001",Majar Ganj,"Junction, Sultanpur Railway Station Rd",Sultanpur,228001,Uttar Pradesh,IN,https://www.google.com/maps/place/Masjid+railway+station/data=!4m7!3m6!1s0x399a7d71a192960b:0x3d1ba3be535dbe47!8m2!3d26.2642317!4d82.0678165!16s%2Fg%2F11s0jphx16!19sChIJC5aSoXF9mjkRR75dU76jGz0?authuser=0&hl=en&rclk=1,"26.2642317,82.06781649999999"
Mehandi Bagh Masjid,Mosque,"7337+WHV Mehandi Bagh Masjid, Mehandi Bagh, Gabhariya, Mahuariya, Sultanpur, Uttar Pradesh 228001","Gabhariya, Mahuariya","7337+WHV, Mehandi Bagh",Sultanpur,228001,Uttar Pradesh,IN,https://www.google.com/maps/place/Mehandi+Bagh+Masjid/data=!4m7!3m6!1s0x399a7d749274f495:0x4580aefe508f641!8m2!3d26.2548512!4d82.0639315!16s%2Fg%2F11sy1hw8qz!19sChIJlfR0knR9mjkRQfYI5e8KWAQ?authuser=0&hl=en&rclk=1,"26.254851199999997,82.0639315"
Masjid e kuba bechu kha ka purwa,Mosque,"73GG+QGV Masjid e kuba bechu kha ka purwa, Vallipur, Sultanpur, Uttar Pradesh 228118",Vallipur,73GG+QGV,Sultanpur,228118,Uttar Pradesh,IN,https://www.google.com/maps/place/Masjid+e+kuba+bechu+kha+ka+purwa/data=!4m7!3m6!1s0x399a7d6a4d3898dd:0x7732db3bc7129b1a!8m2!3d26.2769985!4d82.0762989!16s%2Fg%2F11j09z1xbf!19sChIJ3Zg4TWp9mjkRGpsSxzvbMnc?authuser=0&hl=en&rclk=1,"26.276998499999998,82.0762989"
Masjid,Religious destination,"735V+HXH Masjid, Pyarepatti, Nakrahi, Sultanpur, Uttar Pradesh 228001",Pyarepatti,735V+HXH,"Nakrahi, Sultanpur",228001,Uttar Pradesh,IN,https://www.google.com/maps/place/Masjid/data=!4m7!3m6!1s0x399a7c5021255929:0xa23dc94cc5cb001b!8m2!3d26.2589467!4d82.094981!16s%2Fg%2F11g5_4ss7g!19sChIJKVklIVB8mjkRGwDLxUzJPaI?authuser=0&hl=en&rclk=1,"26.2589467,82.09498099999999"
Usra Bahadurpur Masjid,Religious destination,"7353+4RX Usra Bahadurpur Masjid, Bahadurpur, Sultanpur, Uttar Pradesh 228001",Bahadurpur,7353+4RX,Sultanpur,228001,Uttar Pradesh,IN,https://www.google.com/maps/place/Usra+Bahadurpur+Masjid/data=!4m7!3m6!1s0x399a7da971afba79:0x39d534892af46d2b!8m2!3d26.2586243!4d82.0541853!16s%2Fg%2F11q407xbx3!19sChIJebqvcal9mjkRK230Kok01Tk?authuser=0&hl=en&rclk=1,"26.258624299999997,82.0541853"
Chotti masque lollepur,Mosque,"734P+8G9 Chotti masque lollepur, Loleypur-Pyarepatti Rd, Pyarepatti, Sultanpur, Uttar Pradesh 228001",Pyarepatti,"734P+8G9, Loleypur-Pyarepatti Rd",Sultanpur,228001,Uttar Pradesh,IN,https://www.google.com/maps/place/Chotti+masque+lollepur/data=!4m7!3m6!1s0x399a7dd3faf93e85:0x12513f2cfe0ffb08!8m2!3d26.2557798!4d82.0863586!16s%2Fg%2F11r7t_2p60!19sChIJhT75-tN9mjkRCPsP_iw_URI?authuser=0&hl=en&rclk=1,"26.2557798,82.0863586"
Msjid,Mosque,"63CJ+PHX Msjid, Unnamed Road, Ghasipur, Uttar Pradesh 228001",,"63CJ+PHX, Unnamed Road",Ghasipur,228001,Uttar Pradesh,IN,https://www.google.com/maps/place/Msjid/data=!4m7!3m6!1s0x399a7d187935bd2f:0xa3617d7aa8e41c77!8m2!3d26.221862!4d82.0814778!16s%2Fg%2F11mpdt01tk!19sChIJL701eRh9mjkRdxzkqHp9YaM?authuser=0&hl=en&rclk=1,"26.221861999999998,82.0814778"
Masjid E Saleem,Mosque,"7493+9PH Masjid E Saleem, Kamangarh, Uttar Pradesh 228001",,7493+9PH,Kamangarh,228001,Uttar Pradesh,IN,https://www.google.com/maps/place/Masjid+E+Saleem/data=!4m7!3m6!1s0x399a7c40c2269155:0x90caee34de86c448!8m2!3d26.2684266!4d82.1043553!16s%2Fg%2F11fzb1813r!19sChIJVZEmwkB8mjkRSMSG3jTuypA?authuser=0&hl=en&rclk=1,"26.268426599999998,82.1043553"
Hussaini masjid karbala Hasanpur,Mosque,"72F3+MR9 Hussaini masjid karbala Hasanpur, Sultanpur, Lodhepur, Uttar Pradesh 227808",,72F3+MR9,"Sultanpur, Lodhepur",,Uttar Pradesh,IN,https://www.google.com/maps/place/Hussaini+masjid+karbala+Hasanpur/data=!4m7!3m6!1s0x399a63735ca648e7:0x335470714174481c!8m2!3d26.2741733!4d82.0046175!16s%2Fg%2F11l28xhz_5!19sChIJ50imXHNjmjkRHEh0QXFwVDM?authuser=0&hl=en&rclk=1,"26.274173299999998,82.0046175"
Masjid,Mosque,"72RX+V78 Masjid, Paigapur, Uttar Pradesh 228001",,72RX+V78,Paigapur,,Uttar Pradesh,IN,https://www.google.com/maps/place/Masjid/data=!4m7!3m6!1s0x399a7de933dbf2dd:0x77f74a486b20661c!8m2!3d26.2921522!4d82.0482123!16s%2Fg%2F11kgp8zcgt!19sChIJ3fLbM-l9mjkRHGYga0hK93c?authuser=0&hl=en&rclk=1,"26.2921522,82.0482123"
Sultanpur masjid,Mosque,"QFM6+6WC Sultanpur masjid, Sultanpur, Uttar Pradesh 201206",,QFM6+6WC,Sultanpur,201206,Uttar Pradesh,IN,https://www.google.com/maps/place/Sultanpur+masjid/data=!4m7!3m6!1s0x390cf7314c5f696b:0x1b9e1325b3c53220!8m2!3d28.7830569!4d77.4622755!16s%2Fg%2F11sslbs7zs!19sChIJa2lfTDH3DDkRIDLFsyUTnhs?authuser=0&hl=en&rclk=1,"28.7830569,77.46227549999999"
shia jama masjid chunha sultanpur,Place of worship,"73H6+Q7C shia jama masjid chunha sultanpur, Karoudiya, Sultanpur, Uttar Pradesh 228001",Karoudiya,73H6+Q7C,Sultanpur,228001,Uttar Pradesh,IN,https://www.google.com/maps/place/shia+jama+masjid+chunha+sultanpur/data=!4m7!3m6!1s0x399a7d923cb2cdb1:0x1b7ed88693cbffa9!8m2!3d26.2794333!4d82.0606496!16s%2Fg%2F11rkq30vwc!19sChIJsc2yPJJ9mjkRqf_Lk4bYfhs?authuser=0&hl=en&rclk=1,"26.279433299999997,82.06064959999999"
"Madinah Masjid, Paushala, Pyarepatti Road, Sultanpur",Mosque,"733J+FPM Madinah Masjid, Paushala, Pyarepatti Road, Sultanpur, Paushala, Pyarepatti, Sultanpur, Uttar Pradesh 228001","Paushala, Pyarepatti",733J+FPM,Sultanpur,228001,Uttar Pradesh,IN,"https://www.google.com/maps/place/Madinah+Masjid,+Paushala,+Pyarepatti+Road,+Sultanpur/data=!4m7!3m6!1s0x399a7d7b70531ed9:0xa43914b8a8298d62!8m2!3d26.2537134!4d82.0818016!16s%2Fg%2F11stgsqs7r!19sChIJ2R5TcHt9mjkRYo0pqLgUOaQ?authuser=0&hl=en&rclk=1","26.2537134,82.08180159999999"
Haji Abdul Wahid Masjid ( Khajoor Masjid),Mosque,"7339+PH6 Haji Abdul Wahid Masjid ( Khajoor Masjid), Dariyapur Rd, Khairabad, Sultanpur, Uttar Pradesh 228001",Khairabad,"7339+PH6, Dariyapur Rd",Sultanpur,228001,Uttar Pradesh,IN,https://www.google.com/maps/place/Haji+Abdul+Wahid+Masjid+%28+Khajoor+Masjid%29/data=!4m7!3m6!1s0x399a7de09a9cd815:0xc2b793df66b704c!8m2!3d26.2542847!4d82.068899!16s%2Fg%2F11tkb214fm!19sChIJFdicmuB9mjkRTHBr9j15Kww?authuser=0&hl=en&rclk=1,"26.2542847,82.068899"
Masjid-e-Javed,Mosque,"7377+5P4 Masjid-e-Javed, Senani Vihar, Didenagar, Sultanpur, Uttar Pradesh 228001","Senani Vihar, Didenagar",7377+5P4,Sultanpur,228001,Uttar Pradesh,IN,https://www.google.com/maps/place/Masjid-e-Javed/data=!4m7!3m6!1s0x399a7d1a794c6b6b:0xf7b02ba2be14f02!8m2!3d26.2628796!4d82.0643432!16s%2Fg%2F11g2tpfgjz!19sChIJa2tMeRp9mjkRAk_hK7oCew8?authuser=0&hl=en&rclk=1,"26.262879599999998,82.0643432"
"Sarayein Masjid, Badh Mandi",Mosque,"735F+27V Sarayein Masjid, Badh Mandi, Dadupur, Sultanpur, Uttar Pradesh 228001",Dadupur,735F+27V,Sultanpur,228001,Uttar Pradesh,IN,"https://www.google.com/maps/place/Sarayein+Masjid,+Badh+Mandi/data=!4m7!3m6!1s0x399a7dcc3e4855b5:0x99fb93f316985290!8m2!3d26.2576032!4d82.0731691!16s%2Fg%2F11tdp53__b!19sChIJtVVIPsx9mjkRkFKYFvOT-5k?authuser=0&hl=en&rclk=1","26.2576032,82.0731691"
Masjid-E-Gause Azam,Mosque,"7377+38G Masjid-E-Gause Azam, Senani Vihar, Didenagar, Sultanpur, Uttar Pradesh 228001","Senani Vihar, Didenagar",7377+38G,Sultanpur,228001,Uttar Pradesh,IN,https://www.google.com/maps/place/Masjid-E-Gause+Azam/data=!4m7!3m6!1s0x399a7dd1ba21f14f:0xc22106db87865154!8m2!3d26.2626993!4d82.0633368!16s%2Fg%2F11fk3_v4x1!19sChIJT_EhutF9mjkRVFGGh9sGIcI?authuser=0&hl=en&rclk=1,"26.262699299999998,82.0633368"
Sunni Masjid,Mosque,"73J5+4F4 Sunni Masjid, Chunaha, Karoudiya, Sultanpur, Uttar Pradesh 228001",Karoudiya,"73J5+4F4, Chunaha",Sultanpur,,Uttar Pradesh,IN,https://www.google.com/maps/place/Sunni+Masjid/data=!4m7!3m6!1s0x399a7d49ec10425b:0xd15e18e70b9cabcb!8m2!3d26.2802573!4d82.0586937!16s%2Fg%2F11rzrvqnnk!19sChIJW0IQ7El9mjkRy6ucC-cYXtE?authuser=0&hl=en&rclk=1,"26.2802573,82.05869369999999"
Jama Masjid Lolepur,Mosque,"734P+2FG Jama Masjid Lolepur, Pyarepatti, Lolepur, Sultanpur, Uttar Pradesh 228001",Pyarepatti,734P+2FG,"Lolepur, Sultanpur",228001,Uttar Pradesh,IN,https://www.google.com/maps/place/Jama+Masjid+Lolepur/data=!4m7!3m6!1s0x399a7d3f8161326b:0xfc7c94249bb019fc!8m2!3d26.2550692!4d82.0862015!16s%2Fg%2F11stnzp0xt!19sChIJazJhgT99mjkR_BmwmySUfPw?authuser=0&hl=en&rclk=1,"26.255069199999998,82.0862015"
Delhupur Jama masjid,Mosque,"7357+3XH Delhupur Jama masjid, Gabhariya, Vaishnav Nager, Didenagar, Delhupur, Sultanpur, Uttar Pradesh 228001","Gabhariya, Vaishnav Nager, Didenagar",7357+3XH,"Delhupur, Sultanpur",,Uttar Pradesh,IN,https://www.google.com/maps/place/Delhupur+Jama+masjid/data=!4m7!3m6!1s0x399a7d61c6e6eecd:0x24cf856072731ae4!8m2!3d26.2576973!4d82.0649924!16s%2Fg%2F11sjvzcbk5!19sChIJze7mxmF9mjkR5BpzcmCFzyQ?authuser=0&hl=en&rclk=1,"26.2576973,82.0649924"
Azhari gate pancho,Mosque,"Azhari gate pancho, Azhari gate, Panchopiran, shareef Kasba, Sultanpur, Uttar Pradesh 228118",Panchopiran,Azhari gate,"shareef Kasba, Sultanpur",228118,Uttar Pradesh,IN,https://www.google.com/maps/place/Azhari+gate+pancho/data=!4m7!3m6!1s0x399a7d22151f7275:0x3e78d95be2b26143!8m2!3d26.2818565!4d82.0803102!16s%2Fg%2F11m9x65pvm!19sChIJdXIfFSJ9mjkRQ2Gy4lvZeD4?authuser=0&hl=en&rclk=1,"26.2818565,82.0803102"
Masjid-e-Ayesha,Mosque,"Masjid-e-Ayesha, bazar on, Maulana market Ahmednagar Sultanpur 228001 Near Murli nagar market End of paigapur, Sultanpur Kurwar Rd, Sultanpur, Uttar Pradesh 228001",,"bazar on, Maulana market Ahmednagar Sultanpur 228001 Near Murli nagar market End of paigapur, Sultanpur Kurwar Rd","Sultanpur, Khakhlikhurd",228001,Uttar Pradesh,IN,https://www.google.com/maps/place/Masjid-e-Ayesha/data=!4m7!3m6!1s0x399a7b1667162535:0x25c939d53005d264!8m2!3d26.2975249!4d82.0421276!16s%2Fg%2F11tp3t1bgk!19sChIJNSUWZxZ7mjkRZNIFMNU5ySU?authuser=0&hl=en&rclk=1,"26.2975249,82.0421276"
Goshai ganj Masjid,Mosque,"Goshai ganj Masjid, bazar, Jama masjid goshai ganj, Sultanpur, Uttar Pradesh",,"bazar, Jama masjid goshai ganj","Sultanpur, Denva",,Uttar Pradesh,IN,https://www.google.com/maps/place/Goshai+ganj+Masjid/data=!4m7!3m6!1s0x399a7ffc4a20b6df:0xdb82b03df6198137!8m2!3d26.279315!4d82.1496065!16s%2Fg%2F11q8txrymz!19sChIJ37YgSvx_mjkRN4EZ9j2wgts?authuser=0&hl=en&rclk=1,"26.279315,82.14960649999999"
Masjid Ataganj,Mosque,"7XFX+RQC Masjid Ataganj, Sultanpur, Uttar Pradesh 227808",,7XFX+RQC,Sultanpur,227808,Uttar Pradesh,IN,https://www.google.com/maps/place/Masjid+Ataganj/data=!4m7!3m6!1s0x399a63cb282708c7:0xbb95fd6e7c245b1f!8m2!3d26.274572!4d81.9993834!16s%2Fg%2F11r0xq98w3!19sChIJxwgnKMtjmjkRH1skfG79lbs?authuser=0&hl=en&rclk=1,"26.274572,81.9993834"
Mohammadi masjid pure Ali mulla Sayfullaganj Sultanpur,Mosque,"74VF+2J3 Mohammadi masjid pure Ali mulla Sayfullaganj Sultanpur, Saifulla Ganj, Uttar Pradesh 228119",,74VF+2J3,Saifulla Ganj,228119,Uttar Pradesh,IN,https://www.google.com/maps/place/Mohammadi+masjid+pure+Ali+mulla+Sayfullaganj+Sultanpur/data=!4m7!3m6!1s0x399a7d6fc03e0aff:0x9227f5641629d0bd!8m2!3d26.2925575!4d82.1240908!16s%2Fg%2F11stz1_7b4!19sChIJ_wo-wG99mjkRvdApFmT1J5I?authuser=0&hl=en&rclk=1,"26.292557499999997,82.12409079999999"
Masjid,Mosque,"9482+WFJ Masjid, Sultanpur, Sarai Gokul, Uttar Pradesh 228125",,9482+WFJ,"Sultanpur, Sarai Gokul",228125,Uttar Pradesh,IN,https://www.google.com/maps/place/Masjid/data=!4m7!3m6!1s0x399a7b94a8026d71:0x72d3de21ce084c3!8m2!3d26.3673323!4d82.1011548!16s%2Fg%2F11pz0qpp16!19sChIJcW0CqJR7mjkRw4TgHOI9LQc?authuser=0&hl=en&rclk=1,"26.367332299999998,82.1011548"
