name,main_category,address,address_ward,address_street,address_city,address_postal_code,address_state,address_country_code,link,coordinates
Maqboolbox,Mosque,"Maqboolbox, Mohlla Jhanda shaheed, Amroha, Uttar Pradesh 244221",,Mohlla Jhanda shaheed,Amroha,244221,Uttar Pradesh,IN,https://www.google.com/maps/place/Maqboolbox/data=!4m7!3m6!1s0x390b080c20f36fe9:0x56e827e4cece6554!8m2!3d28.8834878!4d78.4640622!16s%2Fg%2F11c0r4yzt_!19sChIJ6W_zIAwICzkRVGXOzuQn6FY?authuser=0&hl=en&rclk=1,"28.883487799999997,78.4640622"
Masjid Shah Abdul Hadi,Mosque,"WF68+5QX Masjid Shah Abdul Hadi, Fazalpur, Amroha, Uttar Pradesh 244221",Fazalpur,WF68+5QX,Amroha,244221,Uttar Pradesh,IN,https://www.google.com/maps/place/Masjid+Shah+Abdul+Hadi/data=!4m7!3m6!1s0x390b098a2ded2829:0x20c634bd928c7af2!8m2!3d28.9104812!4d78.466983!16s%2Fg%2F11g0lckz7f!19sChIJKSjtLYoJCzkR8nqMkr00xiA?authuser=0&hl=en&rclk=1,"28.9104812,78.466983"
Jama Masjid Amroha,Mosque,"Jama Masjid Amroha, Shahvilayat Rd, Mohalla Satti, Mohalla Mullana, Amroha, Uttar Pradesh 244221","Mohalla Satti, Mohalla Mullana",Shahvilayat Rd,Amroha,244221,Uttar Pradesh,IN,https://www.google.com/maps/place/Jama+Masjid+Amroha/data=!4m7!3m6!1s0x390b09de5ac93205:0x7b952d938a2f4e11!8m2!3d28.9051389!4d78.4653422!16s%2Fg%2F11pbzlr6l9!19sChIJBTLJWt4JCzkREU4vipMtlXs?authuser=0&hl=en&rclk=1,"28.905138899999997,78.4653422"
Tehsil Wali Masjid,Mosque,"WF6C+3W7 Tehsil Wali Masjid, Mohalla Chowk, Vivekanand Nagar, Amroha, Uttar Pradesh 244221",Vivekanand Nagar,"WF6C+3W7, Mohalla Chowk",Amroha,244221,Uttar Pradesh,IN,https://www.google.com/maps/place/Tehsil+Wali+Masjid/data=!4m7!3m6!1s0x390b08062d3acdfb:0xf565d8301d444dc6!8m2!3d28.9101535!4d78.4722991!16s%2Fg%2F1tdm6prr!19sChIJ-806LQYICzkRxk1EHTDYZfU?authuser=0&hl=en&rclk=1,"28.9101535,78.4722991"
Eidgah Masjid,Mosque,"Eidgah Masjid, 26, Islam Nagar, Amroha, Uttar Pradesh 244221",Islam Nagar,26,Amroha,244221,Uttar Pradesh,IN,https://www.google.com/maps/place/Eidgah+Masjid/data=!4m7!3m6!1s0x390b0817e5f202db:0xbc5b954459e89cf0!8m2!3d28.9069913!4d78.452992!16s%2Fg%2F1vzv21jg!19sChIJ2wLy5RcICzkR8JzoWUSVW7w?authuser=0&hl=en&rclk=1,"28.906991299999998,78.452992"
LAL MASJID,Mosque,"VFX9+3GM LAL MASJID, Danishmandan, Amroha, Uttar Pradesh 244221",Danishmandan,VFX9+3GM,Amroha,244221,Uttar Pradesh,IN,https://www.google.com/maps/place/LAL+MASJID/data=!4m7!3m6!1s0x390b08734d58eb07:0xdb1cc6b282fc7375!8m2!3d28.8977069!4d78.4687944!16s%2Fg%2F11ddxhc8md!19sChIJB-tYTXMICzkRdXP8grLGHNs?authuser=0&hl=en&rclk=1,"28.8977069,78.4687944"
"Masjid Gher Munaf,mlohalla gher munaf amroha",Mosque,"Masjid Gher Munaf,mlohalla gher munaf amroha, 11, Amroha Main Market, Mohalla Gher Munaf, Amroha, Uttar Pradesh 244221",Mohalla Gher Munaf,"11, Amroha Main Market",Amroha,244221,Uttar Pradesh,IN,"https://www.google.com/maps/place/Masjid+Gher+Munaf,mlohalla+gher+munaf+amroha/data=!4m7!3m6!1s0x390b08095e318da7:0x3e96990e62f7ed7!8m2!3d28.9039044!4d78.4708005!16s%2Fg%2F124t4052n!19sChIJp40xXgkICzkR134v5pBp6QM?authuser=0&hl=en&rclk=1","28.9039044,78.4708005"
Masjid At-Tawheed (Ahle Hadees),Mosque,"WF3H+94X Masjid At-Tawheed (Ahle Hadees), Chevara, Amroha, Uttar Pradesh 244221",Chevara,WF3H+94X,Amroha,244221,Uttar Pradesh,IN,https://www.google.com/maps/place/Masjid+At-Tawheed+%28Ahle+Hadees%29/data=!4m7!3m6!1s0x390b07e177018743:0x5591f91032d9644a!8m2!3d28.9034758!4d78.47787!16s%2Fg%2F11clq28999!19sChIJQ4cBd-EHCzkRSmTZMhD5kVU?authuser=0&hl=en&rclk=1,"28.9034758,78.47787"
Masjid,Mosque,"WF2C+X5V Masjid, Mohalla Maja Pota, Mohalla Shafat Pota, Amroha, Uttar Pradesh 244221","Mohalla Maja Pota, Mohalla Shafat Pota",WF2C+X5V,Amroha,244221,Uttar Pradesh,IN,https://www.google.com/maps/place/Masjid/data=!4m7!3m6!1s0x390b080bec381733:0xe3fc7115f5968dce!8m2!3d28.9024915!4d78.470423!16s%2Fg%2F1tcy2p26!19sChIJMxc47AsICzkRzo2W9RVx_OM?authuser=0&hl=en&rclk=1,"28.9024915,78.470423"
Masjid Sabzi Mandi Noubat Khana,Mosque,"WF59+324 Masjid Sabzi Mandi Noubat Khana, Fazalpur, Amroha, Uttar Pradesh 244221",Fazalpur,WF59+324,Amroha,244221,Uttar Pradesh,IN,https://www.google.com/maps/place/Masjid+Sabzi+Mandi+Noubat+Khana/data=!4m7!3m6!1s0x390b080f132256bb:0xe1bacf0ba4e01c38!8m2!3d28.907634!4d78.4675895!16s%2Fg%2F11fx91cx0l!19sChIJu1YiEw8ICzkROBzgpAvPuuE?authuser=0&hl=en&rclk=1,"28.907633999999998,78.4675895"
Ikram Masjid,Mosque,"Ikram Masjid, Azad Rd, Sarrafa Bazar Katra, Amroha, Uttar Pradesh 244221",Sarrafa Bazar Katra,Azad Rd,Amroha,244221,Uttar Pradesh,IN,https://www.google.com/maps/place/Ikram+Masjid/data=!4m7!3m6!1s0x390b080a4bdd7341:0x359d42ae36e90747!8m2!3d28.9017497!4d78.4721316!16s%2Fg%2F1pp2ty2d2!19sChIJQXPdSwoICzkRRwfpNq5CnTU?authuser=0&hl=en&rclk=1,"28.9017497,78.4721316"
Masjid Shekh Chand,Mosque,"WF38+76C Masjid Shekh Chand, Mohalla Mullana, Amroha, Uttar Pradesh 244221",Mohalla Mullana,WF38+76C,Amroha,244221,Uttar Pradesh,IN,https://www.google.com/maps/place/Masjid+Shekh+Chand/data=!4m7!3m6!1s0x390b080ddf443f25:0xe755040515da5ecd!8m2!3d28.9031774!4d78.46551!16s%2Fg%2F11c2nc9hbb!19sChIJJT9E3w0ICzkRzV7aFQUEVec?authuser=0&hl=en&rclk=1,"28.903177399999997,78.46551"
Badi Masjid (Kait Wali) Afghanan Amroha,Mosque,"WF7F+96R Badi Masjid (Kait Wali) Afghanan Amroha, Qutab Khan Road, Afghanaan, Katkui, Amroha, Uttar Pradesh 244221","Afghanaan, Katkui","WF7F+96R, Qutab Khan Road",Amroha,244221,Uttar Pradesh,IN,https://www.google.com/maps/place/Badi+Masjid+%28Kait+Wali%29+Afghanan+Amroha/data=!4m7!3m6!1s0x390b080766aaaaab:0x4734a646d372ef43!8m2!3d28.9134914!4d78.4730056!16s%2Fg%2F11dd_vqk26!19sChIJq6qqZgcICzkRQ-9y00amNEc?authuser=0&hl=en&rclk=1,"28.913491399999998,78.4730056"
Masjid Shah Rehmatullah,Mosque,"WF69+H96 Masjid Shah Rehmatullah, Mohalla Qureshi, Fazalpur, Amroha, Uttar Pradesh 244221",Fazalpur,"WF69+H96, Mohalla Qureshi",Amroha,244221,Uttar Pradesh,IN,https://www.google.com/maps/place/Masjid+Shah+Rehmatullah/data=!4m7!3m6!1s0x390b0805c8affc3d:0x37fa2da6cccb2478!8m2!3d28.9114175!4d78.4684026!16s%2Fg%2F11df2xdf_h!19sChIJPfyvyAUICzkReCTLzKYt-jc?authuser=0&hl=en&rclk=1,"28.9114175,78.46840259999999"
Masjid Al Quresh,Mosque,"WF29+JQV Masjid Al Quresh, Mohalla Maja Pota, Kot, Amroha, Uttar Pradesh 244221","Mohalla Maja Pota, Kot",WF29+JQV,Amroha,244221,Uttar Pradesh,IN,https://www.google.com/maps/place/Masjid+Al+Quresh/data=!4m7!3m6!1s0x390b080c76366265:0xae51ae719a3daa2c!8m2!3d28.9016179!4d78.4694332!16s%2Fg%2F11b8078c6b!19sChIJZWI2dgwICzkRLKo9mnGuUa4?authuser=0&hl=en&rclk=1,"28.901617899999998,78.4694332"
Ansariyan Masjid,Mosque,"Ansariyan Masjid, B.I. Qureshi Degree College, Islam Nagar, Amroha, Uttar Pradesh 244221",Islam Nagar,B.I. Qureshi Degree College,Amroha,244221,Uttar Pradesh,IN,https://www.google.com/maps/place/Ansariyan+Masjid/data=!4m7!3m6!1s0x390b08043bb4d099:0x4432174897490392!8m2!3d28.9130066!4d78.4685229!16s%2Fg%2F11dd_tkjn9!19sChIJmdC0OwQICzkRkgNJl0gXMkQ?authuser=0&hl=en&rclk=1,"28.9130066,78.4685229"
Hauz wali masjid (sayyed asad ullah naqvi),Mosque,"WF4C+J57 Hauz wali masjid (sayyed asad ullah naqvi), Guzri Rd, Guzri Mohalla, Amroha, Uttar Pradesh 244221",Guzri Mohalla,"WF4C+J57, Guzri Rd",Amroha,244221,Uttar Pradesh,IN,https://www.google.com/maps/place/Hauz+wali+masjid+%28sayyed+asad+ullah+naqvi%29/data=!4m7!3m6!1s0x390b0808d88290fb:0x8fc84e073ab8c570!8m2!3d28.9065275!4d78.470436!16s%2Fg%2F11b6v8n0z0!19sChIJ-5CC2AgICzkRcMW4OgdOyI8?authuser=0&hl=en&rclk=1,"28.9065275,78.47043599999999"
"Madarsa Zia ul uloom, Badi Masjid",Mosque,"WF4C+MP5 Madarsa Zia ul uloom, Badi Masjid, mohalla basawan ganj, Amroha Main Market, Amroha, Uttar Pradesh 244221",Katra Ghulam Ali,"WF4C+MP5, mohalla basawan ganj, Amroha Main Market",Amroha,244221,Uttar Pradesh,IN,"https://www.google.com/maps/place/Madarsa+Zia+ul+uloom,+Badi+Masjid/data=!4m7!3m6!1s0x390b080902782403:0xa148a386c92fd6f8!8m2!3d28.9066402!4d78.471863!16s%2Fg%2F1ptvrqp7j!19sChIJAyR4AgkICzkR-NYvyYajSKE?authuser=0&hl=en&rclk=1","28.9066402,78.471863"
Barahpooti Masjid,Mosque,"WF49+6QW Barahpooti Masjid, Mohalla Maja Pota, Amroha, Uttar Pradesh 244221",Mohalla Maja Pota,WF49+6QW,Amroha,244221,Uttar Pradesh,IN,https://www.google.com/maps/place/Barahpooti+Masjid/data=!4m7!3m6!1s0x390b080ecd3e97e1:0x9047323a4b066b72!8m2!3d28.9056112!4d78.4694389!16s%2Fg%2F11bw3d581n!19sChIJ4Zc-zQ4ICzkRcmsGSzoyR5A?authuser=0&hl=en&rclk=1,"28.9056112,78.4694389"
Masjid Aqsa,Mosque,"WF8H+8FF Masjid Aqsa, Vivekanand Nagar, Amroha, Uttar Pradesh 244221",Vivekanand Nagar,WF8H+8FF,Amroha,244221,Uttar Pradesh,IN,https://www.google.com/maps/place/Masjid+Aqsa/data=!4m7!3m6!1s0x390b07fc28024b3d:0x26bca1331551b64b!8m2!3d28.9158102!4d78.4786761!16s%2Fg%2F11hczz0bqh!19sChIJPUsCKPwHCzkRS7ZRFTOhvCY?authuser=0&hl=en&rclk=1,"28.9158102,78.4786761"
Imli Wali Masjid Darbar E Kalan Amroha,Mosque,"WF5H+65R Imli Wali Masjid Darbar E Kalan Amroha, Bara Darbar, Amroha, Uttar Pradesh 244221",Bara Darbar,WF5H+65R,Amroha,244221,Uttar Pradesh,IN,https://www.google.com/maps/place/Imli+Wali+Masjid+Darbar+E+Kalan+Amroha/data=!4m7!3m6!1s0x390b07e2e24fa361:0xfb45b79f2b391be!8m2!3d28.9081189!4d78.4778959!16s%2Fg%2F11f123hy2h!19sChIJYaNP4uIHCzkRvpGz8nlbtA8?authuser=0&hl=en&rclk=1,"28.908118899999998,78.4778959"
Phatak Wali Masjid,Mosque,"VFRC+M4V Phatak Wali Masjid, Unnamed Road, Subodh Nagar, Amroha, Uttar Pradesh 244221",Subodh Nagar,"VFRC+M4V, Unnamed Road",Amroha,244221,Uttar Pradesh,IN,https://www.google.com/maps/place/Phatak+Wali+Masjid/data=!4m7!3m6!1s0x390b09cfff4e0e43:0x2b471202f2f83749!8m2!3d28.8917483!4d78.4702934!16s%2Fg%2F11f67d9v2d!19sChIJQw5O_88JCzkRSTf48gISRys?authuser=0&hl=en&rclk=1,"28.8917483,78.4702934"
MASJID BEHLOL KHAN,Mosque,"WF6C+6WX MASJID BEHLOL KHAN, Katkui, Amroha, Uttar Pradesh 244221",Katkui,WF6C+6WX,Amroha,244221,Uttar Pradesh,IN,https://www.google.com/maps/place/MASJID+BEHLOL+KHAN/data=!4m7!3m6!1s0x390b080633534587:0x966a88ee952f56e0!8m2!3d28.9106116!4d78.47235!16s%2Fg%2F11c5_fnm9d!19sChIJh0VTMwYICzkR4FYvle6IapY?authuser=0&hl=en&rclk=1,"28.9106116,78.47234999999999"
Ashraful Masjid,Mosque,"Ashraful Masjid, Shia Jama Masjid, Maulana Mohammad Ibadat Rd, Mohalla Maja Pota, Mohalla Shafat Pota, Amroha, Uttar Pradesh 244221","Mohalla Maja Pota, Mohalla Shafat Pota","Shia Jama Masjid, Maulana Mohammad Ibadat Rd",Amroha,244221,Uttar Pradesh,IN,https://www.google.com/maps/place/Ashraful+Masjid/data=!4m7!3m6!1s0x390b080bf9655555:0xd93a05148f9e3139!8m2!3d28.9030123!4d78.4698048!16s%2Fg%2F11fzvcqzqy!19sChIJVVVl-QsICzkROTGejxQFOtk?authuser=0&hl=en&rclk=1,"28.9030123,78.46980479999999"
Masjid Naiyon wali,Mosque,"Masjid Naiyon wali, B.I. Qureshi Degree College, Mohalla Katra Bazar, Islam Nagar, Amroha, Uttar Pradesh 244221","Mohalla Katra Bazar, Islam Nagar",B.I. Qureshi Degree College,Amroha,244221,Uttar Pradesh,IN,https://www.google.com/maps/place/Masjid+Naiyon+wali/data=!4m7!3m6!1s0x390b0805e63f5dbf:0xaa6d4d3af32df34!8m2!3d28.9104461!4d78.4689225!16s%2Fg%2F11dzx5ls2b!19sChIJv10_5gUICzkRNN8yr9PUpgo?authuser=0&hl=en&rclk=1,"28.910446099999998,78.46892249999999"
Nai Masjid,Mosque,"VFX9+F2V Nai Masjid, Kot, Amroha, Uttar Pradesh 244221",Kot,VFX9+F2V,Amroha,244221,Uttar Pradesh,IN,https://www.google.com/maps/place/Nai+Masjid/data=!4m7!3m6!1s0x390b080cc482931f:0x65b1df29046cab1e!8m2!3d28.8987293!4d78.4675328!16s%2Fg%2F1hdzfkr2m!19sChIJH5OCxAwICzkRHqtsBCnfsWU?authuser=0&hl=en&rclk=1,"28.8987293,78.4675328"
Angoor wali masjid,Mosque,"VFX9+VX4 Angoor wali masjid, Danishmandan, Amroha, Uttar Pradesh 244221",Danishmandan,VFX9+VX4,Amroha,244221,Uttar Pradesh,IN,https://www.google.com/maps/place/Angoor+wali+masjid/data=!4m7!3m6!1s0x390b080b669066b3:0x3d2c54817f72e2c5!8m2!3d28.8996469!4d78.4699516!16s%2Fg%2F11dyxtcxkv!19sChIJs2aQZgsICzkRxeJyf4FULD0?authuser=0&hl=en&rclk=1,"28.899646899999997,78.4699516"
MASJID CHILLA,Mosque,"VFX8+HCC MASJID CHILLA, Kot, Amroha, Uttar Pradesh 244221",Kot,VFX8+HCC,Amroha,244221,Uttar Pradesh,IN,https://www.google.com/maps/place/MASJID+CHILLA/data=!4m7!3m6!1s0x390b080d22a8a1df:0xd4de24a49158cab2!8m2!3d28.8989456!4d78.4660022!16s%2Fg%2F11ddxbghgd!19sChIJ36GoIg0ICzkRsspYkaQk3tQ?authuser=0&hl=en&rclk=1,"28.898945599999998,78.46600219999999"
Gosiya Masjid,Mosque,"VFV7+48H Gosiya Masjid, Kalyanpur Rd, Makanpur Syad Kasba, Amroha, Uttar Pradesh 244221",Makanpur Syad Kasba,"VFV7+48H, Kalyanpur Rd",Amroha,244221,Uttar Pradesh,IN,https://www.google.com/maps/place/Gosiya+Masjid/data=!4m7!3m6!1s0x390b086e750478e1:0x5e097acd634c2d4a!8m2!3d28.8928205!4d78.4633691!16s%2Fg%2F11g8ny_x5w!19sChIJ4XgEdW4ICzkRSi1MY816CV4?authuser=0&hl=en&rclk=1,"28.8928205,78.4633691"
Andheria Masjid,Mosque,"WF43+XP9 Andheria Masjid, Islam Nagar, Amroha, Uttar Pradesh 244221",Islam Nagar,WF43+XP9,Amroha,244221,Uttar Pradesh,IN,https://www.google.com/maps/place/Andheria+Masjid/data=!4m7!3m6!1s0x390b0817365ebe5b:0xdf5df958591cf873!8m2!3d28.9074206!4d78.4543516!16s%2Fg%2F1wl4nzzz!19sChIJW75eNhcICzkRc_gcWVj5Xd8?authuser=0&hl=en&rclk=1,"28.9074206,78.4543516"
Qile Wali Masjid,Mosque,"WF58+4J8 Qile Wali Masjid, Bazar Naubat Khana, Mohalla Mullana, Amroha, Uttar Pradesh 244221",Mohalla Mullana,"WF58+4J8, Bazar Naubat Khana",Amroha,244221,Uttar Pradesh,IN,https://www.google.com/maps/place/Qile+Wali+Masjid/data=!4m7!3m6!1s0x390b080f9fb38665:0x32d7bde39fd85b4a!8m2!3d28.9077812!4d78.4665829!16s%2Fg%2F11cs5pj_yf!19sChIJZYaznw8ICzkRSlvYn-O91zI?authuser=0&hl=en&rclk=1,"28.9077812,78.46658289999999"
Imli Wali Masjid,Mosque,"WF28+MX3 Imli Wali Masjid, Kot, Amroha, Uttar Pradesh 244221",Kot,WF28+MX3,Amroha,244221,Uttar Pradesh,IN,https://www.google.com/maps/place/Imli+Wali+Masjid/data=!4m7!3m6!1s0x390b080c460efcfd:0xcb2a0aadab4c0a9!8m2!3d28.9016303!4d78.467436!16s%2Fg%2F11g8vswv21!19sChIJ_fwORgwICzkRqcC02qqgsgw?authuser=0&hl=en&rclk=1,"28.901630299999997,78.46743599999999"
Choti Masjid Bagiya Wali,Mosque,"WF59+WWX Choti Masjid Bagiya Wali, Chowk, Amroha, Uttar Pradesh 244221",Chowk,WF59+WWX,Amroha,244221,Uttar Pradesh,IN,https://www.google.com/maps/place/Choti+Masjid+Bagiya+Wali/data=!4m7!3m6!1s0x390b0806069eefd1:0xc17364b1bfe1481d!8m2!3d28.909856!4d78.4698645!16s%2Fg%2F11gf0dr2_9!19sChIJ0e-eBgYICzkRHUjhv7Fkc8E?authuser=0&hl=en&rclk=1,"28.909855999999998,78.4698645"
A K K Masjid,Mosque,"WF36+VMX A K K Masjid, HIND MARBLE, Islam Nagar, Amroha, Uttar Pradesh 244221",Islam Nagar,WF36+VMX HIND MARBLE,Amroha,,Uttar Pradesh,IN,https://www.google.com/maps/place/A+K+K+Masjid/data=!4m7!3m6!1s0x390b0811bca65639:0xeb1ebcf8e82833b2!8m2!3d28.9047307!4d78.4617281!16s%2Fg%2F11b8v9hyr4!19sChIJOVamvBEICzkRsjMo6Pi8Hus?authuser=0&hl=en&rclk=1,"28.904730699999998,78.4617281"
Masjid -e- Zaifiya (Chaupal),Mosque,"WF6F+P44 Masjid -e- Zaifiya (Chaupal), Katkui, Amroha, Uttar Pradesh 244221",Katkui,WF6F+P44,Amroha,244221,Uttar Pradesh,IN,https://www.google.com/maps/place/Masjid+-e-+Zaifiya+%28Chaupal%29/data=!4m7!3m6!1s0x390b0807b02553f1:0xc046026344b87733!8m2!3d28.9117669!4d78.472843!16s%2Fg%2F11cs3db6j8!19sChIJ8VMlsAcICzkRM3e4RGMCRsA?authuser=0&hl=en&rclk=1,"28.9117669,78.472843"
Umar Masjid,Mosque,"WF5J+354 Umar Masjid, Vivekanand Nagar, Amroha, Uttar Pradesh 244221",Vivekanand Nagar,WF5J+354,Amroha,244221,Uttar Pradesh,IN,https://www.google.com/maps/place/Umar+Masjid/data=!4m7!3m6!1s0x390b07e37938d9c9:0xebe1a00f57ea6119!8m2!3d28.9076478!4d78.4804588!16s%2Fg%2F11dy1ldx25!19sChIJydk4eeMHCzkRGWHqVw-g4es?authuser=0&hl=en&rclk=1,"28.9076478,78.4804588"
Meer Bhaawan Masjid,Mosque,"WF38+JV4 Meer Bhaawan Masjid, Mohalla Mullana, Amroha, Uttar Pradesh 244221",Mohalla Mullana,WF38+JV4,Amroha,244221,Uttar Pradesh,IN,https://www.google.com/maps/place/Meer+Bhaawan+Masjid/data=!4m7!3m6!1s0x390b080e85742983:0x730a10596d55c410!8m2!3d28.9040245!4d78.4672147!16s%2Fg%2F1wz512j6!19sChIJgyl0hQ4ICzkREMRVbVkQCnM?authuser=0&hl=en&rclk=1,"28.9040245,78.4672147"
Mahal Waali Masjid,Mosque,"WF5G+FXX Mahal Waali Masjid, Bara Darbar, Amroha, Uttar Pradesh 244221",Bara Darbar,WF5G+FXX,Amroha,244221,Uttar Pradesh,IN,https://www.google.com/maps/place/Mahal+Waali+Masjid/data=!4m7!3m6!1s0x390b07e2dd013f55:0x3918a45ba76fff3c!8m2!3d28.9087296!4d78.4774866!16s%2Fg%2F11gdjmfvmd!19sChIJVT8B3eIHCzkRPP9vp1ukGDk?authuser=0&hl=en&rclk=1,"28.908729599999997,78.47748659999999"
Aaisha Masjid,Mosque,"WF58+J75 Aaisha Masjid, kala kuan, Amroha, Uttar Pradesh 244221",kala kuan,WF58+J75,Amroha,244221,Uttar Pradesh,IN,https://www.google.com/maps/place/Aaisha+Masjid/data=!4m7!3m6!1s0x390b0922f4f14dbb:0xc9b6ed46b215295b!8m2!3d28.9090161!4d78.4657264!16s%2Fg%2F11f62mkrpd!19sChIJu03x9CIJCzkRWykVskbttsk?authuser=0&hl=en&rclk=1,"28.9090161,78.4657264"
Dargah wali Masjid,Mosque,"WF4H+7CM Dargah wali Masjid, Bara Darbar, Amroha, Uttar Pradesh 244221",Bara Darbar,WF4H+7CM,Amroha,244221,Uttar Pradesh,IN,https://www.google.com/maps/place/Dargah+wali+Masjid/data=!4m7!3m6!1s0x390b07e3c9cb7607:0x9aadc18993c3479a!8m2!3d28.9057177!4d78.4785578!16s%2Fg%2F11gdtr59s2!19sChIJB3bLyeMHCzkRmkfDk4nBrZo?authuser=0&hl=en&rclk=1,"28.9057177,78.47855779999999"
Basa Wali Masjid,Mosque,"WF7F+6PQ Basa Wali Masjid, Afghanaan, Katkui, Amroha, Uttar Pradesh 244221","Afghanaan, Katkui",WF7F+6PQ,Amroha,244221,Uttar Pradesh,IN,https://www.google.com/maps/place/Basa+Wali+Masjid/data=!4m7!3m6!1s0x390b080770c14c8d:0x3b2dd13a1580824b!8m2!3d28.9130874!4d78.4743558!16s%2Fg%2F11c56cj59t!19sChIJjUzBcAcICzkRS4KAFTrRLTs?authuser=0&hl=en&rclk=1,"28.9130874,78.4743558"
Masjid haji faizullah Shah,Mosque,"WF3C+GQ7 Masjid haji faizullah Shah, Begum Sara Kalan, Amroha, Uttar Pradesh 244221",Begum Sara Kalan,WF3C+GQ7,Amroha,244221,Uttar Pradesh,IN,https://www.google.com/maps/place/Masjid+haji+faizullah+Shah/data=!4m7!3m6!1s0x390b09ec0f78437d:0x18db97f345c5ddd2!8m2!3d28.9037949!4d78.4719139!16s%2Fg%2F11j0z4stsq!19sChIJfUN4D-wJCzkR0t3FRfOX2xg?authuser=0&hl=en&rclk=1,"28.903794899999998,78.47191389999999"
Masjid Hazrat Ali r.a. takye wali,Mosque,"WF47+5QV Masjid Hazrat Ali r.a. takye wali, Mohalla Nougaza near Panvari, Amroha","Mohalla Satti, Mohalla Mullana","WF47+5QV, Mohalla Nougaza near Panvari",Amroha,,Uttar Pradesh,IN,https://www.google.com/maps/place/Masjid+Hazrat+Ali+r.a.+takye+wali/data=!4m7!3m6!1s0x390b080e2e4ea2bd:0x45f3051bd6d57d97!8m2!3d28.9054909!4d78.4644263!16s%2Fg%2F11b6g9wbj1!19sChIJvaJOLg4ICzkRl33V1hsF80U?authuser=0&hl=en&rclk=1,"28.9054909,78.4644263"
Masjid Kahkahbadi Saddo,Mosque,"WF39+V7H Masjid Kahkahbadi Saddo, Mohalla, Saddo, Amroha, Uttar Pradesh 244221","Mohalla, Saddo",WF39+V7H,Amroha,244221,Uttar Pradesh,IN,https://www.google.com/maps/place/Masjid+Kahkahbadi+Saddo/data=!4m7!3m6!1s0x390b09c2691f80a5:0xe51978ad065c46ad!8m2!3d28.9047036!4d78.4682487!16s%2Fg%2F11rx460zrh!19sChIJpYAfacIJCzkRrUZcBq14GeU?authuser=0&hl=en&rclk=1,"28.904703599999998,78.46824869999999"
Jalaliya Masjid,Mosque,"WF49+V26 Jalaliya Masjid, Jama Masjid Rd, Mohalla Mullana, Amroha, Uttar Pradesh 244221",Mohalla Mullana,"WF49+V26, Jama Masjid Rd",Amroha,244221,Uttar Pradesh,IN,https://www.google.com/maps/place/Jalaliya+Masjid/data=!4m7!3m6!1s0x390b080f104d3b83:0x6581acefdabbb759!8m2!3d28.9071644!4d78.4675054!16s%2Fg%2F11cs5kq3cv!19sChIJgztNEA8ICzkRWbe72u-sgWU?authuser=0&hl=en&rclk=1,"28.9071644,78.4675054"
Masjid Bilal Hiran Walliyan KatKoi Amroha,Mosque,"WF8C+WH2 Masjid Bilal Hiran Walliyan KatKoi Amroha, Bilal Hiran Walliyan KatKoi, Amroha, Uttar Pradesh",Katkui,"WF8C+WH2, Bilal Hiran Walliyan KatKoi",Amroha,,Uttar Pradesh,IN,https://www.google.com/maps/place/Masjid+Bilal+Hiran+Walliyan+KatKoi+Amroha/data=!4m7!3m6!1s0x390b080111be730b:0x320b509947344a70!8m2!3d28.9172633!4d78.4713822!16s%2Fg%2F11dzdwnd1m!19sChIJC3O-EQEICzkRcEo0R5lQCzI?authuser=0&hl=en&rclk=1,"28.9172633,78.4713822"
Qadri Masjid,Mosque,"WF55+RFJ Qadri Masjid, Unnamed Road, Gulariya, Amroha, Uttar Pradesh 244221",Gulariya,"WF55+RFJ, Unnamed Road",Amroha,244221,Uttar Pradesh,IN,https://www.google.com/maps/place/Qadri+Masjid/data=!4m7!3m6!1s0x390b081a19a739b3:0x59206b4adcdc9ccf!8m2!3d28.9095898!4d78.4586474!16s%2Fg%2F11hcv9gcnf!19sChIJszmnGRoICzkRz5zc3EprIFk?authuser=0&hl=en&rclk=1,"28.9095898,78.45864739999999"
Masjid AlHaj Syed Mohd,Mosque,"VFXC+46X Masjid AlHaj Syed Mohd, Danishmandan Rd, Turk Colony, Danishmandan, Amroha, Uttar Pradesh 244221","Turk Colony, Danishmandan","VFXC+46X, Danishmandan Rd",Amroha,244221,Uttar Pradesh,IN,https://www.google.com/maps/place/Masjid+AlHaj+Syed+Mohd/data=!4m7!3m6!1s0x390b09b7b0562215:0x5e771c9f7f3de94c!8m2!3d28.8978609!4d78.4706249!16s%2Fg%2F11qyq7_v76!19sChIJFSJWsLcJCzkRTOk9f58cd14?authuser=0&hl=en&rclk=1,"28.897860899999998,78.47062489999999"
Masjid Abu Hurayra,Mosque,"WF48+983 Masjid Abu Hurayra, Satti Road, near Ali Sweets, Amroha, Uttar Pradesh 244221",Mohalla Mullana,"WF48+983, Satti Road, near Ali Sweets",Amroha,244221,Uttar Pradesh,IN,https://www.google.com/maps/place/Masjid+Abu+Hurayra/data=!4m7!3m6!1s0x390b080e4db35705:0x768289d948321b4d!8m2!3d28.9058765!4d78.4657834!16s%2Fg%2F11bw1_0dmr!19sChIJBVezTQ4ICzkRTRsySNmJgnY?authuser=0&hl=en&rclk=1,"28.905876499999998,78.46578339999999"
"Masjid shakir husain, Amroha",Mosque,"Masjid shakir husain, Amroha, Azakhana Jafri, Mohalla Jafri, Vivekanand Nagar, Amroha, Uttar Pradesh 244221","Mohalla Jafri, Vivekanand Nagar",Azakhana Jafri,Amroha,244221,Uttar Pradesh,IN,"https://www.google.com/maps/place/Masjid+shakir+husain,+Amroha/data=!4m7!3m6!1s0x390b09f21bcc9b05:0x9675b7cb9bbf5dd3!8m2!3d28.9072107!4d78.4685333!16s%2Fg%2F11fj2xq7h4!19sChIJBZvMG_IJCzkR012_m8u3dZY?authuser=0&hl=en&rclk=1","28.9072107,78.46853329999999"
KHAWAJA MASJID,Mosque,"VFWC+VP5 KHAWAJA MASJID, Turk Colony, Danishmandan, Amroha, Uttar Pradesh 244221","Turk Colony, Danishmandan",VFWC+VP5,Amroha,244221,Uttar Pradesh,IN,https://www.google.com/maps/place/KHAWAJA+MASJID/data=!4m7!3m6!1s0x390b0874dbb3dbb7:0xa6e4af8d3ae797e9!8m2!3d28.8971424!4d78.4718548!16s%2Fg%2F11df1fxctr!19sChIJt9uz23QICzkR6ZfnOo2v5KY?authuser=0&hl=en&rclk=1,"28.8971424,78.4718548"
Pakka bag masjid,Mosque,"WF3H+VRX Pakka bag masjid, Bara Darbar, Amroha, Uttar Pradesh 244221",Bara Darbar,WF3H+VRX,Amroha,244221,Uttar Pradesh,IN,https://www.google.com/maps/place/Pakka+bag+masjid/data=!4m7!3m6!1s0x390b07e2ee7338ab:0x87a16bf962e6b4cb!8m2!3d28.9047374!4d78.4796216!16s%2Fg%2F11j8tk351d!19sChIJqzhz7uIHCzkRy7TmYvlroYc?authuser=0&hl=en&rclk=1,"28.9047374,78.4796216"
Masjid Raju Sarai,Mosque,"WF6F+FPJ Masjid Raju Sarai, Jatt Bazar, Amroha, Uttar Pradesh 244221",Jatt Bazar,WF6F+FPJ,Amroha,244221,Uttar Pradesh,IN,https://www.google.com/maps/place/Masjid+Raju+Sarai/data=!4m7!3m6!1s0x390b0807933fb759:0x290200c32dfed3a3!8m2!3d28.9112011!4d78.4742684!16s%2Fg%2F11gdz917rb!19sChIJWbc_kwcICzkRo9P-LcMAAik?authuser=0&hl=en&rclk=1,"28.9112011,78.4742684"
HAJI JI KI MASJID,Mosque,"VFX7+HX7 HAJI JI KI MASJID, Kot, Amroha, Uttar Pradesh 244221",Kot,VFX7+HX7,Amroha,244221,Uttar Pradesh,IN,https://www.google.com/maps/place/HAJI+JI+KI+MASJID/data=!4m7!3m6!1s0x390b080d6a1ac757:0x78e080a451336ff9!8m2!3d28.898919!4d78.4649319!16s%2Fg%2F11c5_jzwxx!19sChIJV8caag0ICzkR-W8zUaSA4Hg?authuser=0&hl=en&rclk=1,"28.898919,78.4649319"
Masjid hazrat middushah,Mosque,"WF8C+2RQ Masjid hazrat middushah, Unnamed Road, Katkui, Amroha, Uttar Pradesh 244221",Katkui,"WF8C+2RQ, Unnamed Road",Amroha,244221,Uttar Pradesh,IN,https://www.google.com/maps/place/Masjid+hazrat+middushah/data=!4m7!3m6!1s0x390b09ce33672621:0x7d0870b0b011502d!8m2!3d28.9150861!4d78.4721125!16s%2Fg%2F11fn77tms2!19sChIJISZnM84JCzkRLVARsLBwCH0?authuser=0&hl=en&rclk=1,"28.9150861,78.4721125"
Madeena masjid,Mosque,"WF7C+774 Madeena masjid, Shivdwara, Katkui, Amroha, Uttar Pradesh 244221","Shivdwara, Katkui",WF7C+774,Amroha,244221,Uttar Pradesh,IN,https://www.google.com/maps/place/Madeena+masjid/data=!4m7!3m6!1s0x390b09c62f7be765:0xe3d7ed7221f002c3!8m2!3d28.9131436!4d78.4707104!16s%2Fg%2F11qh32bypv!19sChIJZed7L8YJCzkRwwLwIXLt1-M?authuser=0&hl=en&rclk=1,"28.913143599999998,78.4707104"
MASZID HAFIZ ABBAS ALI,Mosque,"MASZID HAFIZ ABBAS ALI, Hussaini Chauk, Amroha Main Market, Mohalla Katra Bazar, Katra Ghulam Ali, Amroha, Uttar Pradesh 244221","Mohalla Katra Bazar, Katra Ghulam Ali","Hussaini Chauk, Amroha Main Market",Amroha,244221,Uttar Pradesh,IN,https://www.google.com/maps/place/MASZID+HAFIZ+ABBAS+ALI/data=!4m7!3m6!1s0x390b0806226a098f:0x25f5c91305e49684!8m2!3d28.9098909!4d78.4710077!16s%2Fg%2F11gbp460kb!19sChIJjwlqIgYICzkRhJbkBRPJ9SU?authuser=0&hl=en&rclk=1,"28.909890899999997,78.4710077"
Abdullah Masjid,Mosque,"WF46+CQW Abdullah Masjid, Shahvilayat Rd, Mohalla Satti, Mohalla Mullana, Amroha, Uttar Pradesh 244221","Mohalla Satti, Mohalla Mullana","WF46+CQW, Shahvilayat Rd",Amroha,244221,Uttar Pradesh,IN,https://www.google.com/maps/place/Abdullah+Masjid/data=!4m7!3m6!1s0x390b08104c394575:0x12af3974819fe096!8m2!3d28.9061084!4d78.4619569!16s%2Fg%2F11bw227_rj!19sChIJdUU5TBAICzkRluCfgXQ5rxI?authuser=0&hl=en&rclk=1,"28.906108399999997,78.46195689999999"
Masjid Takiya Makkar Shah,Mosque,"WF38+Q5H Masjid Takiya Makkar Shah, Mohalla Mullana, Amroha, Uttar Pradesh 244221",Mohalla Mullana,WF38+Q5H,Amroha,244221,Uttar Pradesh,IN,https://www.google.com/maps/place/Masjid+Takiya+Makkar+Shah/data=!4m7!3m6!1s0x390b080e6bb09637:0x24f52b875cefcdc4!8m2!3d28.9044404!4d78.4654867!16s%2Fg%2F11bzt7k_2j!19sChIJN5awaw4ICzkRxM3vXIcr9SQ?authuser=0&hl=en&rclk=1,"28.9044404,78.4654867"
Bagh Wali Masjid,Mosque,"WF26+53Q Bagh Wali Masjid, Moti Nagar Colony, Amroha, Uttar Pradesh 244221",Moti Nagar Colony,WF26+53Q,Amroha,244221,Uttar Pradesh,IN,https://www.google.com/maps/place/Bagh+Wali+Masjid/data=!4m7!3m6!1s0x390b0907057d9eaf:0x8949168039f29d52!8m2!3d28.9004645!4d78.4602291!16s%2Fg%2F11nft3nzss!19sChIJr559BQcJCzkRUp3yOYAWSYk?authuser=0&hl=en&rclk=1,"28.9004645,78.46022909999999"
MASJID BABU MIYA,Mosque,"MASJID BABU MIYA, 266, Shahvilayat Rd, Mohalla Satti, Mohalla Mullana, Amroha, Uttar Pradesh 244221","Mohalla Satti, Mohalla Mullana","266, Shahvilayat Rd",Amroha,244221,Uttar Pradesh,IN,https://www.google.com/maps/place/MASJID+BABU+MIYA/data=!4m7!3m6!1s0x390b08102442ed47:0x637e48db25796571!8m2!3d28.9058133!4d78.4629987!16s%2Fg%2F11df80ct70!19sChIJR-1CJBAICzkRcWV5JdtIfmM?authuser=0&hl=en&rclk=1,"28.9058133,78.4629987"
Hajjan Sharifan Masjid,Mosque,"Hajjan Sharifan Masjid, dilli gate, Makanpur Syad Kasba, Amroha, Uttar Pradesh 244221",Makanpur Syad Kasba,dilli gate,Amroha,,Uttar Pradesh,IN,https://www.google.com/maps/place/Hajjan+Sharifan+Masjid/data=!4m7!3m6!1s0x390b094794407841:0x3c80461a1d119b96!8m2!3d28.895319!4d78.4659464!16s%2Fg%2F11hz7zpxt9!19sChIJQXhAlEcJCzkRlpsRHRpGgDw?authuser=0&hl=en&rclk=1,"28.895318999999997,78.46594639999999"
Sufi Masjid,Mosque,"VFX7+CCX Sufi Masjid, Mohalla Nal, Moti Nagar Colony, Amroha, Uttar Pradesh 244221","Mohalla Nal, Moti Nagar Colony",VFX7+CCX,Amroha,244221,Uttar Pradesh,IN,https://www.google.com/maps/place/Sufi+Masjid/data=!4m7!3m6!1s0x390b09c8beadc7ff:0x4eec4751be11e1cd!8m2!3d28.8986078!4d78.4636014!16s%2Fg%2F11r6b8vzgp!19sChIJ_8etvsgJCzkRzeERvlFH7E4?authuser=0&hl=en&rclk=1,"28.898607799999997,78.4636014"
Ambari Masjid (Mosque),Mosque,"Ambari Masjid (Mosque), AMROHA KAILSA PAKBADA ROAD, SH 78, near Bypass Chauraha, Amroha, Uttar Pradesh 244221",Chevara,"AMROHA KAILSA PAKBADA ROAD, SH 78, near Bypass Chauraha",Amroha,244221,Uttar Pradesh,IN,https://www.google.com/maps/place/Ambari+Masjid+%28Mosque%29/data=!4m7!3m6!1s0x390b0797991a3545:0xfbe1a2879c7b92e1!8m2!3d28.9049675!4d78.4830373!16s%2Fg%2F11mqwmpbk3!19sChIJRTUamZcHCzkR4ZJ7nIei4fs?authuser=0&hl=en&rclk=1,"28.904967499999998,78.48303729999999"
Hostel Of Masjid,Mosque,"WF38+W2J Hostel Of Masjid, Shahvilayat Rd, Mohalla Satti, Mohalla Mullana, Amroha, Uttar Pradesh 244221","Mohalla Satti, Mohalla Mullana","WF38+W2J, Shahvilayat Rd",Amroha,244221,Uttar Pradesh,IN,https://www.google.com/maps/place/Hostel+Of+Masjid/data=!4m7!3m6!1s0x390b080e37112029:0x51ab8fa66c9232da!8m2!3d28.9048455!4d78.4650258!16s%2Fg%2F11bw46nm0x!19sChIJKSARNw4ICzkR2jKSbKaPq1E?authuser=0&hl=en&rclk=1,"28.9048455,78.46502579999999"
Noor Masjid Amroha,Mosque,"Noor Masjid Amroha, Mohammadi Sarai, Fazalpur, Mohammadpur Jati, Amroha, Uttar Pradesh 244221",Fazalpur,Mohammadi Sarai,"Mohammadpur Jati, Amroha",244221,Uttar Pradesh,IN,https://www.google.com/maps/place/Noor+Masjid+Amroha/data=!4m7!3m6!1s0x390b09f88199a3b9:0xabac435200d8c54a!8m2!3d28.9116966!4d78.4647555!16s%2Fg%2F11p10l4zw5!19sChIJuaOZgfgJCzkRSsXYAFJDrKs?authuser=0&hl=en&rclk=1,"28.9116966,78.4647555"
Namra Masjid,Mosque,"WF29+FXC Namra Masjid, Mohalla pachdara, Amroha Main Market, Amroha, Uttar Pradesh 244221",Sarrafa Bazar Katra,"WF29+FXC, Mohalla pachdara, Amroha Main Market",Amroha,244221,Uttar Pradesh,IN,https://www.google.com/maps/place/Namra+Masjid/data=!4m7!3m6!1s0x390b080f1f3c49e9:0xda51bd5a6a72be6c!8m2!3d28.9011916!4d78.4698839!16s%2Fg%2F11d_z4m7p4!19sChIJ6Uk8Hw8ICzkRbL5yalq9Udo?authuser=0&hl=en&rclk=1,"28.901191599999997,78.4698839"
Natthe Khan Masjid,Mosque,"VFW6+WMW Natthe Khan Masjid, Awas Vikas Colony, Amroha, Uttar Pradesh 244221",Awas Vikas Colony,VFW6+WMW,Amroha,244221,Uttar Pradesh,IN,https://www.google.com/maps/place/Natthe+Khan+Masjid/data=!4m7!3m6!1s0x390b094be3270b2d:0x410dfcd4ab60c215!8m2!3d28.8973664!4d78.4617116!16s%2Fg%2F11n2pyyd7x!19sChIJLQsn40sJCzkRFcJgq9T8DUE?authuser=0&hl=en&rclk=1,"28.8973664,78.4617116"
Hamza Masjid,Mosque,"WF27+FF6 Hamza Masjid, Mohalla Mullana, Amroha, Uttar Pradesh 244221",Mohalla Mullana,WF27+FF6,Amroha,244221,Uttar Pradesh,IN,https://www.google.com/maps/place/Hamza+Masjid/data=!4m7!3m6!1s0x390b0979c118e389:0xae5951b49900997e!8m2!3d28.9011679!4d78.4636346!16s%2Fg%2F11r69yvt_y!19sChIJieMYwXkJCzkRfpkAmbRRWa4?authuser=0&hl=en&rclk=1,"28.901167899999997,78.46363459999999"
Masjid e namra,Mosque,"WF49+J5R Masjid e namra, Naubat Khana Rd, Mohalla pachdara, Mohalla Mullana, Amroha, Uttar Pradesh 244221","Mohalla pachdara, Mohalla Mullana","WF49+J5R, Naubat Khana Rd",Amroha,244221,Uttar Pradesh,IN,https://www.google.com/maps/place/Masjid+e+namra/data=!4m7!3m6!1s0x390b093d6dc73027:0xfa6ecbf0997a0120!8m2!3d28.9066135!4d78.4678859!16s%2Fg%2F11rflvkc_w!19sChIJJzDHbT0JCzkRIAF6mfDLbvo?authuser=0&hl=en&rclk=1,"28.9066135,78.4678859"
Masjid Syed Abul Majeed Urf Maja,Mosque,"WF28+7PX Masjid Syed Abul Majeed Urf Maja, Anwar Ali Rd, Mohalla Maja Pota, Kot, Amroha, Uttar Pradesh 244221","Mohalla Maja Pota, Kot","WF28+7PX, Anwar Ali Rd",Amroha,244221,Uttar Pradesh,IN,https://www.google.com/maps/place/Masjid+Syed+Abul+Majeed+Urf+Maja/data=!4m7!3m6!1s0x390b091e1a39ae3b:0xb5c7bd66876e0d87!8m2!3d28.9007481!4d78.4668642!16s%2Fg%2F11fj9nmnf0!19sChIJO645Gh4JCzkRhw1uh2a9x7U?authuser=0&hl=en&rclk=1,"28.900748099999998,78.4668642"
Hadvi Masjid,Mosque,"WF47+9R5 Hadvi Masjid, Qureshi Mohalla, Mohalla Mullana, Amroha, Uttar Pradesh 244221","Qureshi Mohalla, Mohalla Mullana",WF47+9R5,Amroha,,Uttar Pradesh,IN,https://www.google.com/maps/place/Hadvi+Masjid/data=!4m7!3m6!1s0x390b080e3291b603:0xb518337f135e8f4d!8m2!3d28.9058815!4d78.4646092!16s%2Fg%2F11hbk5_35b!19sChIJA7aRMg4ICzkRTY9eE38zGLU?authuser=0&hl=en&rclk=1,"28.9058815,78.4646092"
Masjid Faiyyaz Ali,Mosque,"WF27+6JG Masjid Faiyyaz Ali, Moti Nagar Colony, Amroha, Uttar Pradesh 244221",Moti Nagar Colony,WF27+6JG,Amroha,244221,Uttar Pradesh,IN,https://www.google.com/maps/place/Masjid+Faiyyaz+Ali/data=!4m7!3m6!1s0x390b080d81306833:0x4734d20f6981f24!8m2!3d28.9005636!4d78.4640649!16s%2Fg%2F11g9vpwgpv!19sChIJM2gwgQ0ICzkRJB-Y9iBNcwQ?authuser=0&hl=en&rclk=1,"28.900563599999998,78.4640649"
"Takiya wale masjid, niyaziyan",Mosque,"WF5F+QCJ Takiya wale masjid, niyaziyan, Unnamed Road, Katkui, Amroha, Uttar Pradesh 244221",Katkui,"WF5F+QCJ, Unnamed Road",Amroha,244221,Uttar Pradesh,IN,"https://www.google.com/maps/place/Takiya+wale+masjid,+niyaziyan/data=!4m7!3m6!1s0x390b095cc4e422dd:0x4349eacfbdc5659b!8m2!3d28.9094713!4d78.4735129!16s%2Fg%2F11j85qlpc7!19sChIJ3SLkxFwJCzkRm2XFvc_qSUM?authuser=0&hl=en&rclk=1","28.9094713,78.4735129"
stteshn vaalii msjid,Mosque,"VFVF+6VR stteshn vaalii msjid, Jai Om Nagar, Amroha, Uttar Pradesh 244221",Jai Om Nagar,VFVF+6VR,Amroha,244221,Uttar Pradesh,IN,https://www.google.com/maps/place/%E0%A4%B8%E0%A5%8D%E0%A4%9F%E0%A5%87%E0%A4%B6%E0%A4%A8+%E0%A4%B5%E0%A4%BE%E0%A4%B2%E0%A5%80+%E0%A4%AE%E0%A4%B8%E0%A5%8D%E0%A4%9C%E0%A4%BF%E0%A4%A6/data=!4m7!3m6!1s0x390b092a817fe245:0xbda4a9fbf1dae2f!8m2!3d28.8931103!4d78.4746263!16s%2Fg%2F11gmyvhqbz!19sChIJReJ_gSoJCzkRL64dv59K2gs?authuser=0&hl=en&rclk=1,"28.8931103,78.4746263"
Bilal masjid,Mosque,"WF43+7XC Bilal masjid, Islam Nagar, Amroha, Uttar Pradesh",Islam Nagar,"WF43+7XC, Islam Nagar",Amroha,,Uttar Pradesh,IN,https://www.google.com/maps/place/Bilal+masjid/data=!4m7!3m6!1s0x390b098f84452305:0x9140e4aeee6c698f!8m2!3d28.9056946!4d78.4548802!16s%2Fg%2F11q4jwknzb!19sChIJBSNFhI8JCzkRj2ls7q7kQJE?authuser=0&hl=en&rclk=1,"28.9056946,78.45488019999999"
Bahadar Masjid,Mosque,"WF27+F74 Bahadar Masjid, Mohalla Mullana, Amroha, Uttar Pradesh 244221",Mohalla Mullana,WF27+F74,Amroha,244221,Uttar Pradesh,IN,https://www.google.com/maps/place/Bahadar+Masjid/data=!4m7!3m6!1s0x390b09166ceb70a5:0xb2baaaffcb22d40c!8m2!3d28.9011259!4d78.4632157!16s%2Fg%2F11pgt16f83!19sChIJpXDrbBYJCzkRDNQiy_-qurI?authuser=0&hl=en&rclk=1,"28.9011259,78.46321569999999"
Anar Wali Masjid,Mosque,"WF28+P9Q Anar Wali Masjid, Mohalla Mullana, Amroha, Uttar Pradesh 244221",Mohalla Mullana,WF28+P9Q,Amroha,244221,Uttar Pradesh,IN,https://www.google.com/maps/place/Anar+Wali+Masjid/data=!4m7!3m6!1s0x390b09ae546f2fa5:0x13e673525c8e92a7!8m2!3d28.9018409!4d78.4659771!16s%2Fg%2F11n2py_d_h!19sChIJpS9vVK4JCzkRp5KOXFJz5hM?authuser=0&hl=en&rclk=1,"28.9018409,78.4659771"
Firdous Masjid,Mosque,"WF2F+JQJ Firdous Masjid, Nai Basti, Begum Sara Khurd, Amroha, Uttar Pradesh 244221","Nai Basti, Begum Sara Khurd",WF2F+JQJ,Amroha,,Uttar Pradesh,IN,https://www.google.com/maps/place/Firdous+Masjid/data=!4m7!3m6!1s0x390b09d275694d37:0x80cdd8da5144f6b4!8m2!3d28.9015835!4d78.4743967!16s%2Fg%2F11s1plhsql!19sChIJN01pddIJCzkRtPZEUdrYzYA?authuser=0&hl=en&rclk=1,"28.901583499999997,78.4743967"
SITARA MASJID,Mosque,"WF6C+MJ4 SITARA MASJID, Chowk, Shivdwara, Katkui, Amroha, Uttar Pradesh 244221","Shivdwara, Katkui","WF6C+MJ4, Chowk",Amroha,244221,Uttar Pradesh,IN,https://www.google.com/maps/place/SITARA+MASJID/data=!4m7!3m6!1s0x390b09ee3c487fff:0xafbbffe1e49d5d15!8m2!3d28.9116241!4d78.4716088!16s%2Fg%2F11v0gjsj7k!19sChIJ_39IPO4JCzkRFV2d5OH_u68?authuser=0&hl=en&rclk=1,"28.911624099999997,78.4716088"
Zubeda Masjid,Mosque,"WF6G+H79 Zubeda Masjid, Vivekanand Nagar, Amroha, Uttar Pradesh 244221",Vivekanand Nagar,WF6G+H79,Amroha,244221,Uttar Pradesh,IN,https://www.google.com/maps/place/Zubeda+Masjid/data=!4m7!3m6!1s0x390b0790ba7fa045:0x590b4a47c89c7d9!8m2!3d28.9114097!4d78.4757207!16s%2Fg%2F11gyyzyvj8!19sChIJRaB_upAHCzkR2ceJfKS0kAU?authuser=0&hl=en&rclk=1,"28.9114097,78.4757207"
Masjid Chah Shor,Mosque,"WF48+6XF Masjid Chah Shor, Mohalla Maja Pota, Mohalla Mullana, Amroha, Uttar Pradesh 244221","Mohalla Maja Pota, Mohalla Mullana",WF48+6XF,Amroha,244221,Uttar Pradesh,IN,https://www.google.com/maps/place/Masjid+Chah+Shor/data=!4m7!3m6!1s0x390b092ce2999aab:0x4cd307b28bd8c43d!8m2!3d28.9055508!4d78.4674211!16s%2Fg%2F11gy24vd9k!19sChIJq5qZ4iwJCzkRPcTYi7IH00w?authuser=0&hl=en&rclk=1,"28.9055508,78.4674211"
Khanqah Masjid,Mosque,"WF38+WP3 Khanqah Masjid, Mohalla Mullana, Amroha, Uttar Pradesh 244221",Mohalla Mullana,WF38+WP3,Amroha,244221,Uttar Pradesh,IN,https://www.google.com/maps/place/Khanqah+Masjid/data=!4m7!3m6!1s0x390b080e8acc2d9b:0x770fddbf8c230100!8m2!3d28.9047538!4d78.4667906!16s%2Fg%2F11ckqhy03t!19sChIJmy3Mig4ICzkRAAEjjL_dD3c?authuser=0&hl=en&rclk=1,"28.904753799999998,78.4667906"
Masjid Imli Wali,Mosque,"WF39+GF7 Masjid Imli Wali, Mohalla Maja Pota, Bara Darbar, Amroha, Uttar Pradesh 244221","Mohalla Maja Pota, Bara Darbar",WF39+GF7,Amroha,244221,Uttar Pradesh,IN,https://www.google.com/maps/place/Masjid+Imli+Wali/data=!4m7!3m6!1s0x390b080ea66eadf5:0x83756379dcfb7b16!8m2!3d28.9037944!4d78.4686869!16s%2Fg%2F11f122y_r6!19sChIJ9a1upg4ICzkRFnv73HljdYM?authuser=0&hl=en&rclk=1,"28.9037944,78.4686869"
Sunahri Masjid,Mosque,"WF2F+V38 Sunahri Masjid, Azad Rd, Begum Sara Kalan, Amroha, Uttar Pradesh 244221",Begum Sara Kalan,"WF2F+V38, Azad Rd",Amroha,244221,Uttar Pradesh,IN,https://www.google.com/maps/place/Sunahri+Masjid/data=!4m7!3m6!1s0x390b098c4311b0cd:0xdb171fc61a71a39f!8m2!3d28.9021721!4d78.4727049!16s%2Fg%2F11qbq4k7g9!19sChIJzbARQ4wJCzkRn6NxGsYfF9s?authuser=0&hl=en&rclk=1,"28.902172099999998,78.4727049"
Masjid Hakeem Ji Wali,Mosque,"WF7C+9JG Masjid Hakeem Ji Wali, Shivdwara, Katkui, Amroha, Uttar Pradesh 244221","Shivdwara, Katkui",WF7C+9JG,Amroha,244221,Uttar Pradesh,IN,https://www.google.com/maps/place/Masjid+Hakeem+Ji+Wali/data=!4m7!3m6!1s0x390b0962a643e98b:0x4aa29316c1f02582!8m2!3d28.9134327!4d78.4715721!16s%2Fg%2F11hyj9bt1s!19sChIJi-lDpmIJCzkRgiXwwRaToko?authuser=0&hl=en&rclk=1,"28.913432699999998,78.4715721"
Zaid kirana store Tamizan Masjid,Mosque,"WF28+F9V Zaid kirana store Tamizan Masjid, Mangal Bazar Rd, Kot, Amroha, Uttar Pradesh 244221",Kot,"WF28+F9V, Mangal Bazar Rd",Amroha,244221,Uttar Pradesh,IN,https://www.google.com/maps/place/Zaid+kirana+store+Tamizan+Masjid/data=!4m7!3m6!1s0x390b0910b1825061:0xdf51a4416d90f56f!8m2!3d28.9012494!4d78.4659178!16s%2Fg%2F11r8fw8yk5!19sChIJYVCCsRAJCzkRb_WQbUGkUd8?authuser=0&hl=en&rclk=1,"28.901249399999998,78.4659178"
Madeena Masjid,Mosque,"Madeena Masjid, Nai Basti Begum Saray Khurd, Amroha, Uttar Pradesh 244221",Jai Om Nagar,Nai Basti Begum Saray Khurd,Amroha,244221,Uttar Pradesh,IN,https://www.google.com/maps/place/Madeena+Masjid/data=!4m7!3m6!1s0x390b09d743fa2aed:0xc621aa0b5aff4e95!8m2!3d28.9004375!4d78.4739375!16s%2Fg%2F11s1klc5p5!19sChIJ7Sr6Q9cJCzkRlU7_WguqIcY?authuser=0&hl=en&rclk=1,"28.9004375,78.47393749999999"
Masjid E Aijaz,Mosque,"WF8F+6JX Masjid E Aijaz, Afghanaan, Katkui, Amroha, Uttar Pradesh 244221","Afghanaan, Katkui",WF8F+6JX,Amroha,244221,Uttar Pradesh,IN,https://www.google.com/maps/place/Masjid+E+Aijaz/data=!4m7!3m6!1s0x390b09b439c2e03d:0xecfed08f3d3dcfa3!8m2!3d28.9156082!4d78.4741246!16s%2Fg%2F11rwy7km6h!19sChIJPeDCObQJCzkRo889PY_Q_uw?authuser=0&hl=en&rclk=1,"28.915608199999998,78.4741246"
Jamia Mosque,Mosque,"VFVF+73M Jamia Mosque, Station Rd Amroha, Jai Om Nagar, Amroha, Uttar Pradesh 244221",Jai Om Nagar,"VFVF+73M, Station Rd Amroha",Amroha,244221,Uttar Pradesh,IN,https://www.google.com/maps/place/Jamia+Mosque/data=!4m7!3m6!1s0x390b09dad2477abf:0x8faa222c09f3ea1c!8m2!3d28.8932091!4d78.4726866!16s%2Fg%2F11hxrlt1_1!19sChIJv3pH0toJCzkRHOrzCSwiqo8?authuser=0&hl=en&rclk=1,"28.8932091,78.4726866"
Masjid Bilal .,Mosque,"VFV7+RVW Masjid Bilal ., Makanpur Syad Kasba, Amroha, Uttar Pradesh 244221",Makanpur Syad Kasba,VFV7+RVW,Amroha,244221,Uttar Pradesh,IN,https://www.google.com/maps/place/Masjid+Bilal+./data=!4m7!3m6!1s0x390b094e8f750989:0x7049096b60af47b4!8m2!3d28.8946151!4d78.4647166!16s%2Fg%2F11pzfpbmk3!19sChIJiQl1j04JCzkRtEevYGsJSXA?authuser=0&hl=en&rclk=1,"28.8946151,78.4647166"
msjid baazaar tripoliyaa,Mosque,"WF49+QJV msjid baazaar tripoliyaa, Mohalla Jafri, Vivekanand Nagar, Amroha, Uttar Pradesh 244221","Mohalla Jafri, Vivekanand Nagar",WF49+QJV,Amroha,244221,Uttar Pradesh,IN,https://www.google.com/maps/place/%E0%A4%AE%E0%A4%B8%E0%A5%8D%E0%A4%9C%E0%A4%BF%E0%A4%A6+%E0%A4%AC%E0%A4%BE%E0%A5%9B%E0%A4%BE%E0%A4%B0+%E0%A4%A4%E0%A5%8D%E0%A4%B0%E0%A4%BF%E0%A4%AA%E0%A5%8B%E0%A4%B2%E0%A4%BF%E0%A4%AF%E0%A4%BE/data=!4m7!3m6!1s0x390b09937d892285:0x8fd24873346d9b03!8m2!3d28.9069859!4d78.4690537!16s%2Fg%2F11jylgt91j!19sChIJhSKJfZMJCzkRA5ttNHNI0o8?authuser=0&hl=en&rclk=1,"28.9069859,78.4690537"
Masjid E Roza,Mosque,"VFVC+Q6X Masjid E Roza, Jai Om Nagar, Amroha, Uttar Pradesh 244221",Jai Om Nagar,VFVC+Q6X,Amroha,244221,Uttar Pradesh,IN,https://www.google.com/maps/place/Masjid+E+Roza/data=!4m7!3m6!1s0x390b098576a75adf:0x11338924496fea31!8m2!3d28.894492!4d78.4706104!16s%2Fg%2F11n59nlnnf!19sChIJ31qndoUJCzkRMepvSSSJMxE?authuser=0&hl=en&rclk=1,"28.894492,78.4706104"
Mushtari Masjid,Mosque,"790, Mushtari Masjid, 13, Moti Nagar Colony, Amroha, Uttar Pradesh 244221",Moti Nagar Colony,"790, 13",Amroha,244221,Uttar Pradesh,IN,https://www.google.com/maps/place/Mushtari+Masjid/data=!4m7!3m6!1s0x390b09fc847ddc73:0x5412048ed42e415!8m2!3d28.900021!4d78.4627212!16s%2Fg%2F11n2pdzn0y!19sChIJc9x9hPwJCzkRFeRC7UggQQU?authuser=0&hl=en&rclk=1,"28.900021,78.46272119999999"
mosque,Mosque,"mosque, 82/D, Kot, Amroha, Uttar Pradesh 244221",Kot,82/D,Amroha,244221,Uttar Pradesh,IN,https://www.google.com/maps/place/mosque/data=!4m7!3m6!1s0x390b09cba6250b99:0x56177a385d45979f!8m2!3d28.8968838!4d78.4673089!16s%2Fg%2F11snwt8f8n!19sChIJmQslpssJCzkRn5dFXTh6F1Y?authuser=0&hl=en&rclk=1,"28.896883799999998,78.46730889999999"
Mustufa Masjid,Mosque,"WF27+GX2 Mustufa Masjid, Moti Nagar Colony, Amroha, Uttar Pradesh 244221",Moti Nagar Colony,WF27+GX2,Amroha,244221,Uttar Pradesh,IN,https://www.google.com/maps/place/Mustufa+Masjid/data=!4m7!3m6!1s0x390b09b473cff4fb:0xf7255f51cdcd101e!8m2!3d28.9012542!4d78.4648977!16s%2Fg%2F11n2pyvgm9!19sChIJ-_TPc7QJCzkRHhDNzVFfJfc?authuser=0&hl=en&rclk=1,"28.9012542,78.4648977"
Masjid Mohalla Gashtiyan,Mosque,"WF5G+J7V Masjid Mohalla Gashtiyan, Gashthiyan near masjid, Bara Darbar, Amroha, Uttar Pradesh 244221",Bara Darbar,WF5G+J7V Gashthiyan near masjid,Amroha,244221,Uttar Pradesh,IN,https://www.google.com/maps/place/Masjid+Mohalla+Gashtiyan/data=!4m7!3m6!1s0x390b07d1d1918401:0x4a74d372d5ce92b2!8m2!3d28.9092221!4d78.4756938!16s%2Fg%2F11s4fn_sq4!19sChIJAYSR0dEHCzkRspLO1XLTdEo?authuser=0&hl=en&rclk=1,"28.909222099999997,78.4756938"
Masjid Usman-e-Gani,Mosque,"WF48+R74 Masjid Usman-e-Gani, Haqqani Rd, Mohalla Naugaza, Mohalla Haqqani, Amroha, Uttar Pradesh 244221","Mohalla Naugaza, Mohalla Haqqani","WF48+R74, Haqqani Rd",Amroha,244221,Uttar Pradesh,IN,https://www.google.com/maps/place/Masjid+Usman-e-Gani/data=!4m7!3m6!1s0x390b0932b85f2ad3:0xac6ebfe7e6f58ca7!8m2!3d28.9070223!4d78.465705!16s%2Fg%2F11td8fbx_5!19sChIJ0ypfuDIJCzkRp4z15ue_bqw?authuser=0&hl=en&rclk=1,"28.907022299999998,78.465705"
Hiran Wali Masjid (Nal ki Badi Masjid),Mosque,"WF27+3P8 Hiran Wali Masjid (Nal ki Badi Masjid), Mohalla Nal, Moti Nagar Colony, Amroha, Uttar Pradesh 244221","Mohalla Nal, Moti Nagar Colony",WF27+3P8,Amroha,244221,Uttar Pradesh,IN,https://www.google.com/maps/place/Hiran+Wali+Masjid+%28Nal+ki+Badi+Masjid%29/data=!4m7!3m6!1s0x390b093dc573ac2f:0x6d8c3587ea2e461a!8m2!3d28.9001628!4d78.4643208!16s%2Fg%2F11nft4zsgm!19sChIJL6xzxT0JCzkRGkYu6oc1jG0?authuser=0&hl=en&rclk=1,"28.9001628,78.4643208"
Masjid usmania,Mosque,"WF5C+387 Masjid usmania, Mohalla Kalipagre, Vivekanand Nagar, Amroha, Uttar Pradesh 244221","Mohalla Kalipagre, Vivekanand Nagar",WF5C+387,Amroha,244221,Uttar Pradesh,IN,https://www.google.com/maps/place/Masjid+usmania/data=!4m7!3m6!1s0x390b09c537550c8b:0xe93d8c4f8241f8ba!8m2!3d28.9076597!4d78.4707846!16s%2Fg%2F11t0pb6xzs!19sChIJiwxVN8UJCzkRuvhBgk-MPek?authuser=0&hl=en&rclk=1,"28.9076597,78.4707846"
Sabz Gumbad Masjid,Mosque,"Sabz Gumbad Masjid, 271/U, Mangal Bazar Rd, Kot, Amroha, Uttar Pradesh 244221",Kot,"271/U, Mangal Bazar Rd",Amroha,244221,Uttar Pradesh,IN,https://www.google.com/maps/place/Sabz+Gumbad+Masjid/data=!4m7!3m6!1s0x390b090123e9a22d:0x2f9ec95b8042105f!8m2!3d28.8996073!4d78.4654731!16s%2Fg%2F11pgszv4g5!19sChIJLaLpIwEJCzkRXxBCgFvJni8?authuser=0&hl=en&rclk=1,"28.8996073,78.4654731"
Loharan masjid,Mosque,"VFW9+R5C Loharan masjid, Danishmandan, Amroha, Uttar Pradesh 244221",Danishmandan,VFW9+R5C,Amroha,244221,Uttar Pradesh,IN,https://www.google.com/maps/place/Loharan+masjid/data=!4m7!3m6!1s0x390b09b05941dffb:0x27e8c9fca3d9dae3!8m2!3d28.8970533!4d78.4678846!16s%2Fg%2F11n044hf3f!19sChIJ-99BWbAJCzkR49rZo_zJ6Cc?authuser=0&hl=en&rclk=1,"28.8970533,78.46788459999999"
Jawwadiya Masjid,Mosque,"WF4C+G46 Jawwadiya Masjid, Mohalla Maja Pota, Amroha, Uttar Pradesh 244221",Mohalla Maja Pota,WF4C+G46,Amroha,244221,Uttar Pradesh,IN,https://www.google.com/maps/place/Jawwadiya+Masjid/data=!4m7!3m6!1s0x390b09978172bc73:0x18bc422affc4bec2!8m2!3d28.9062778!4d78.4702752!16s%2Fg%2F11s2ngvgbw!19sChIJc7xygZcJCzkRwr7E_ypCvBg?authuser=0&hl=en&rclk=1,"28.906277799999998,78.4702752"
Masjid Farooq E Azam,Mosque,"WF2G+MCR Masjid Farooq E Azam, Colony Farooqe Azam Mohalla, Chevara, Amroha, Uttar Pradesh 244221",Chevara,"WF2G+MCR, Colony Farooqe Azam Mohalla",Amroha,244221,Uttar Pradesh,IN,https://www.google.com/maps/place/Masjid+Farooq+E+Azam/data=!4m7!3m6!1s0x390b07b53e0b56cd:0xdf7c4f80f4e6bb88!8m2!3d28.901747!4d78.4760048!16s%2Fg%2F11q955xj41!19sChIJzVYLPrUHCzkRiLvm9IBPfN8?authuser=0&hl=en&rclk=1,"28.901747,78.4760048"
Masjid qazi gali,Mosque,"WF49+CHW Masjid qazi gali, Unnamed Road, Mohalla Maja Pota, Amroha, Uttar Pradesh 244221",Mohalla Maja Pota,"WF49+CHW, Unnamed Road",Amroha,244221,Uttar Pradesh,IN,https://www.google.com/maps/place/Masjid+qazi+gali/data=!4m7!3m6!1s0x390b09572ac15519:0xb1486ed39716f202!8m2!3d28.9061071!4d78.4689667!16s%2Fg%2F11h2g23llq!19sChIJGVXBKlcJCzkRAvIWl9NuSLE?authuser=0&hl=en&rclk=1,"28.9061071,78.4689667"
MASJID UPER WALE,Mosque,"MASJID UPER WALE, MUNAF (UPER WALE, MASJID GHER, Mohalla Maja Pota, Amroha, Uttar Pradesh 244221",Mohalla Maja Pota,"MUNAF (UPER WALE, MASJID GHER",Amroha,244221,Uttar Pradesh,IN,https://www.google.com/maps/place/MASJID+UPER+WALE/data=!4m7!3m6!1s0x390b08095e5a81b3:0xcf76ad5d044e402e!8m2!3d28.9039079!4d78.4707884!16s%2Fg%2F11c5xlk8hs!19sChIJs4FaXgkICzkRLkBOBF2tds8?authuser=0&hl=en&rclk=1,"28.9039079,78.4707884"
Rahmatullah Masjid,Mosque,"WF2J+GCM Rahmatullah Masjid, Kailsa by pass rood, near mantri petrol pump, Jai Om Nagar, Amroha, Uttar Pradesh 244221",Jai Om Nagar,"WF2J+GCM, Kailsa by pass rood, near mantri petrol pump",Amroha,244221,Uttar Pradesh,IN,https://www.google.com/maps/place/Rahmatullah+Masjid/data=!4m7!3m6!1s0x390b07f75cb8a6d7:0x70420bbd1ec687!8m2!3d28.9013318!4d78.4810522!16s%2Fg%2F11tn_673n5!19sChIJ16a4XPcHCzkRh8YevQtCcAA?authuser=0&hl=en&rclk=1,"28.901331799999998,78.4810522"
Niyaryan Masjid,Mosque,"Niyaryan Masjid, opp. Municipal Office, Niyaryan, Amroha, Uttar Pradesh 244221",Niyaryan,opp. Municipal Office,Amroha,244221,Uttar Pradesh,IN,https://www.google.com/maps/place/Niyaryan+Masjid/data=!4m7!3m6!1s0x390b09d30cc9f47d:0x5e0979bcc81f93d8!8m2!3d28.9008254!4d78.4705158!16s%2Fg%2F11t1g02bb7!19sChIJffTJDNMJCzkR2JMfyLx5CV4?authuser=0&hl=en&rclk=1,"28.9008254,78.4705158"
Masjid Abdul Kareem khan,Mosque,"WF36+PQ8 Masjid Abdul Kareem khan, Bijnor Rd, near AKK Inter College, Islam Nagar, Amroha, Uttar Pradesh 244221",Islam Nagar,"WF36+PQ8, Bijnor Rd, near AKK Inter College",Amroha,244221,Uttar Pradesh,IN,https://www.google.com/maps/place/Masjid+Abdul+Kareem+khan/data=!4m7!3m6!1s0x390b09c807d7c159:0xb07be25977934100!8m2!3d28.9042804!4d78.4619578!16s%2Fg%2F11kqrxm480!19sChIJWcHXB8gJCzkRAEGTd1nie7A?authuser=0&hl=en&rclk=1,"28.904280399999998,78.4619578"
Bilal Masjid,Mosque,"Bilal Masjid, Manihar Gali, Danishmandan, Amroha, Uttar Pradesh 244221",Danishmandan,Manihar Gali,Amroha,244221,Uttar Pradesh,IN,https://www.google.com/maps/place/Bilal+Masjid/data=!4m7!3m6!1s0x390b09267a8704dd:0x9b5dfe956db6f4e7!8m2!3d28.8993241!4d78.4730359!16s%2Fg%2F11s_5vmnr2!19sChIJ3QSHeiYJCzkR5_S2bZX-XZs?authuser=0&hl=en&rclk=1,"28.899324099999998,78.4730359"
Masjid Akk inter college,Mosque,"WF36+MVR Masjid Akk inter college, Bijnor Rd, near AKK Inter College, Islam Nagar, Amroha, Uttar Pradesh 244221",Islam Nagar,"WF36+MVR, Bijnor Rd, near AKK Inter College",Amroha,244221,Uttar Pradesh,IN,https://www.google.com/maps/place/Masjid+Akk+inter+college/data=!4m7!3m6!1s0x390b094435363701:0x14d2de706bc10b5!8m2!3d28.9042443!4d78.462151!16s%2Fg%2F11sv_fzf35!19sChIJATc2NUQJCzkRtRC8BuctTQE?authuser=0&hl=en&rclk=1,"28.9042443,78.46215099999999"
Choti masjid,Mosque,"WF48+2H2 Choti masjid, Shahvilayat Rd, Mohalla Mullana, Amroha, Uttar Pradesh 244221",Mohalla Mullana,"WF48+2H2, Shahvilayat Rd",Amroha,244221,Uttar Pradesh,IN,https://www.google.com/maps/place/Choti+masjid/data=!4m7!3m6!1s0x390b0989f4241143:0xd572dc56aa5911fb!8m2!3d28.9049603!4d78.4663787!16s%2Fg%2F11s1rkd1bt!19sChIJQxEk9IkJCzkR-xFZqlbcctU?authuser=0&hl=en&rclk=1,"28.9049603,78.46637869999999"
Mustaqeem Masjid,Mosque,"WF3F+8H6 Mustaqeem Masjid, Azad Rd, Begum Sara Kalan, Amroha, Uttar Pradesh 244221",Begum Sara Kalan,"WF3F+8H6, Azad Rd",Amroha,244221,Uttar Pradesh,IN,https://www.google.com/maps/place/Mustaqeem+Masjid/data=!4m7!3m6!1s0x390b09cd1446bba5:0x5b51601650f45e7e!8m2!3d28.9032766!4d78.473884!16s%2Fg%2F11sz9thmk9!19sChIJpbtGFM0JCzkRfl70UBZgUVs?authuser=0&hl=en&rclk=1,"28.903276599999998,78.473884"
SITARA MASJID SHIVDUWARA,Mosque,"WF6C+JJW SITARA MASJID SHIVDUWARA, Shivdwara, Katkui, Amroha, Uttar Pradesh 244221","Shivdwara, Katkui",WF6C+JJW,Amroha,244221,Uttar Pradesh,IN,https://www.google.com/maps/place/SITARA+MASJID+SHIVDUWARA/data=!4m7!3m6!1s0x390b09e283cb7a37:0x81c53b5f552efed1!8m2!3d28.9116218!4d78.471572!16s%2Fg%2F11sv557566!19sChIJN3rLg-IJCzkR0f4uVV87xYE?authuser=0&hl=en&rclk=1,"28.9116218,78.471572"
Sheere Wali Masjid,Mosque,"Sheere Wali Masjid, 3/129, Begum Sara Kalan, Amroha, Uttar Pradesh 244221",Begum Sara Kalan,3/129,Amroha,244221,Uttar Pradesh,IN,https://www.google.com/maps/place/Sheere+Wali+Masjid/data=!4m7!3m6!1s0x390b0928fa81249f:0xca7fe2d88bad5204!8m2!3d28.9050767!4d78.4730299!16s%2Fg%2F11twg_rhw0!19sChIJnySB-igJCzkRBFKti9jif8o?authuser=0&hl=en&rclk=1,"28.9050767,78.4730299"
Basawan gaunj badi masjid,Mosque,"WF4F+89W Basawan gaunj badi masjid, Unnamed Road, Begum Sara Kalan, Amroha, Uttar Pradesh 244221",Begum Sara Kalan,"WF4F+89W, Unnamed Road",Amroha,244221,Uttar Pradesh,IN,https://www.google.com/maps/place/Basawan+gaunj+badi+masjid/data=!4m7!3m6!1s0x390b09e7a9f066d3:0x18239d98ba3ab7ec!8m2!3d28.9058607!4d78.4734626!16s%2Fg%2F11k1j7m8fn!19sChIJ02bwqecJCzkR7Lc6upidIxg?authuser=0&hl=en&rclk=1,"28.905860699999998,78.47346259999999"
