name,main_category,address,address_ward,address_street,address_city,address_postal_code,address_state,address_country_code,link,coordinates
Masjid Sarai Khalil,Mosque,"Masjid Sarai Khalil, 2733, Idgah Rd D.D.A FLAT SARAI KHALIL, Narain Market, Sadar Bazaar, New Delhi, Delhi 110006","Narain Market, Sadar Bazaar","2733, Idgah Rd D.D.A FLAT SARAI KHALIL","New Delhi, Delhi",110006,Delhi,IN,https://www.google.com/maps/place/Masjid+Sarai+Khalil/data=!4m7!3m6!1s0x390cfd6dca84d497:0xf96841361b10a0e2!8m2!3d28.6547095!4d77.2134842!16s%2Fg%2F11cn6htrcd!19sChIJl9SEym39DDkR4qAQGzZBaPk?authuser=0&hl=en&rclk=1,"28.6547095,77.2134842"
Saeediya Masjid,Mosque,"Saeediya Masjid, 45, New Silampur Gali, Block A, Chauhan Banger, Shahdara, Delhi, 110031","Block A, Chauhan Banger, Shahdara","45, New Silampur Gali",Delhi,110031,Delhi,IN,https://www.google.com/maps/place/Saeediya+Masjid/data=!4m7!3m6!1s0x390cfc61230920b1:0xd4902005e34cb106!8m2!3d28.678415!4d77.2672561!16s%2Fg%2F11c6qcjmhv!19sChIJsSAJI2H8DDkRBrFM4wUgkNQ?authuser=0&hl=en&rclk=1,"28.678414999999998,77.2672561"
Sunehari Bagh Masjid msjd,Mosque,"J666+5R2 Sunehari Bagh Masjid msjd, Motilal Nehru Marg, Rajpath Area, Central Secretariat, New Delhi, Delhi 110011","Rajpath Area, Central Secretariat","J666+5R2, Motilal Nehru Marg",New Delhi,110011,Delhi,IN,https://www.google.com/maps/place/Sunehari+Bagh+Masjid+%D9%85%D8%B3%D8%AC%D8%AF%E2%80%AD/data=!4m7!3m6!1s0x390ce2b9f7ae5b25:0x9e058e770ffa962f!8m2!3d28.610384!4d77.212024!16s%2Fg%2F124ycq4lc!19sChIJJVuu97niDDkRL5b6D3eOBZ4?authuser=0&hl=en&rclk=1,"28.610384,77.212024"
Puliya Wali Masjid,Mosque,"J6R9+Q48 Puliya Wali Masjid, Main Bazar Rd, Ratan Lal Market, Aram Bagh, Paharganj, New Delhi, Delhi, 110055","Ratan Lal Market, Aram Bagh, Paharganj","J6R9+Q48, Main Bazar Rd","New Delhi, Delhi",110055,Delhi,IN,https://www.google.com/maps/place/Puliya+Wali+Masjid/data=!4m7!3m6!1s0x390cfd3f5dcc4137:0x1ed0072a0c155076!8m2!3d28.6419015!4d77.2178423!16s%2Fg%2F12q4q_hw8!19sChIJN0HMXT_9DDkRdlAVDCoH0B4?authuser=0&hl=en&rclk=1,"28.6419015,77.2178423"
Masjid Dai-Wali,Mosque,"Shop No, Masjid Dai-Wali, 3136, Delhi Gate Bazar, Kucha Alam, Khabas Pura, Daryaganj, New Delhi, Delhi, 110002","Kucha Alam, Khabas Pura, Daryaganj","Shop No, 3136, Delhi Gate Bazar","New Delhi, Delhi",110002,Delhi,IN,https://www.google.com/maps/place/Masjid+Dai-Wali/data=!4m7!3m6!1s0x390cfd20da360d31:0x7e303aff50cc4c2b!8m2!3d28.6435772!4d77.2380546!16s%2Fg%2F1jky_pbsw!19sChIJMQ022iD9DDkRK0zMUP86MH4?authuser=0&hl=en&rclk=1,"28.6435772,77.2380546"
Masjid Bawli Wali,Mosque,"Masjid Bawli Wali, Shop No:921/13, Gali Number 1, Nai Walan, Sewak Chember, Block 49A, Nai Walan, Karol Bagh, Delhi, 110005","Nai Walan, Sewak Chember, Block 49A, Nai Walan, Karol Bagh","Shop No:921/13, Gali Number 1",Delhi,110005,Delhi,IN,https://www.google.com/maps/place/Masjid+Bawli+Wali/data=!4m7!3m6!1s0x390cfd613f8e033b:0x60fed6bb157588e7!8m2!3d28.648882!4d77.1989608!16s%2Fg%2F12q4yp2sd!19sChIJOwOOP2H9DDkR54h1FbvW_mA?authuser=0&hl=en&rclk=1,"28.648882,77.1989608"
Masjid Sabeel Wali,Mosque,"J6WP+93F Masjid Sabeel Wali, Chittli Qabar Bazar Rd, Bazar Chitli Qabar, Kalan Mehal, Old Delhi, Delhi, 110002","Bazar Chitli Qabar, Kalan Mehal, Old Delhi","J6WP+93F, Chittli Qabar Bazar Rd",Delhi,110002,Delhi,IN,https://www.google.com/maps/place/Masjid+Sabeel+Wali/data=!4m7!3m6!1s0x390cfd218f4865b9:0x8392357b25cb3df8!8m2!3d28.6459304!4d77.2351802!16s%2Fg%2F11fxb41y92!19sChIJuWVIjyH9DDkR-D3LJXs1koM?authuser=0&hl=en&rclk=1,"28.645930399999997,77.2351802"
Fakhrul Masjid msjd,Mosque,"Fakhrul Masjid msjd, 1268, Bara Bazar Rd, Chabi Ganj, Kashmere Gate, New Delhi, Delhi, 110006","Chabi Ganj, Kashmere Gate","1268, Bara Bazar Rd","New Delhi, Delhi",110006,Delhi,IN,https://www.google.com/maps/place/Fakhrul+Masjid+%D9%85%D8%B3%D8%AC%D8%AF%E2%80%AD/data=!4m7!3m6!1s0x390cfd060683b301:0xc9d92074bb420992!8m2!3d28.665012!4d77.2295583!16s%2Fg%2F11cmytc3k3!19sChIJAbODBgb9DDkRkglCu3Qg2ck?authuser=0&hl=en&rclk=1,"28.665011999999997,77.2295583"
Masjid Teliyan,Mosque,"J6VP+9JM Masjid Teliyan, Bazar Chitli Qabar, Rakab Ganj, Chandni Mahal, Chandni Chowk, New Delhi, Delhi, 110006","Bazar Chitli Qabar, Rakab Ganj, Chandni Mahal, Chandni Chowk",J6VP+9JM,"New Delhi, Delhi",110006,Delhi,IN,https://www.google.com/maps/place/Masjid+Teliyan/data=!4m7!3m6!1s0x390cfd214be94f43:0x2cda7c5aeb3a5464!8m2!3d28.6434733!4d77.2365384!16s%2Fg%2F11bzzlszqp!19sChIJQ0_pSyH9DDkRZFQ661p82iw?authuser=0&hl=en&rclk=1,"28.6434733,77.2365384"
Ghausiya Masjid-Ahle Sunnat,Mosque,"P754+C9V Ghausiya Masjid-Ahle Sunnat, Shriram Colony, Block A, Rajiv Nagar, Sonia Vihar, Delhi, 110094","Shriram Colony, Block A, Rajiv Nagar, Sonia Vihar",P754+C9V,Delhi,110094,Delhi,IN,https://www.google.com/maps/place/Ghausiya+Masjid-Ahle+Sunnat/data=!4m7!3m6!1s0x390cfc24c230725f:0x1f4267f592f4dcc4!8m2!3d28.7086023!4d77.25591!16s%2Fg%2F11g8ktyrzr!19sChIJX3IwwiT8DDkRxNz0kvVnQh8?authuser=0&hl=en&rclk=1,"28.7086023,77.25591"
Maszid Saifiyaan,Mosque,"Maszid Saifiyaan, A56, Deoli, Block C, Khanpur, New Delhi, Delhi 110080","Deoli, Block C, Khanpur",A56,New Delhi,110080,Delhi,IN,https://www.google.com/maps/place/Maszid+Saifiyaan/data=!4m7!3m6!1s0x390ce1e22fbf3cbf:0x7bb4134d107773d0!8m2!3d28.504321!4d77.226911!16s%2Fg%2F11ngbqm772!19sChIJvzy_L-LhDDkR0HN3EE0TtHs?authuser=0&hl=en&rclk=1,"28.504320999999997,77.226911"
Masjid Madarsay Wali msjd mdrsh wly,Mosque,"Masjid Madarsay Wali msjd mdrsh wly, 9/4062 Street Number 15 Ajeet Nagar, Gandhi Nagar, Seelampur, Shahdara, Delhi, 110031","Gandhi Nagar, Seelampur, Shahdara",9/4062 Street Number 15 Ajeet Nagar,Delhi,110031,Delhi,IN,https://www.google.com/maps/place/Masjid+Madarsay+Wali+%D9%85%D8%B3%D8%AC%D8%AF+%D9%85%D8%AF%D8%B1%D8%B3%DB%81+%D9%88%D8%A7%D9%84%DB%8C%E2%80%AD/data=!4m7!3m6!1s0x390cfd30c19695f1:0x56b150c51a56e61e!8m2!3d28.6682086!4d77.2644022!16s%2Fg%2F11g071sw7v!19sChIJ8ZWWwTD9DDkRHuZWGsVQsVY?authuser=0&hl=en&rclk=1,"28.6682086,77.26440219999999"
Masjid Mashal Chiyan,Mosque,"Masjid Mashal Chiyan, 2100, Pahari Bhojla Rd, Pahari Bhojla, Sita Ram Bazar, Old Delhi, Delhi, 110006","Pahari Bhojla, Sita Ram Bazar, Old Delhi","2100, Pahari Bhojla Rd",Delhi,110006,Delhi,IN,https://www.google.com/maps/place/Masjid+Mashal+Chiyan/data=!4m7!3m6!1s0x390cfd225b6ed379:0x9d5cccd781f0a815!8m2!3d28.6454716!4d77.232231!16s%2Fg%2F11f1211zsv!19sChIJedNuWyL9DDkRFajwgdfMXJ0?authuser=0&hl=en&rclk=1,"28.6454716,77.232231"
Masjid Badi msjd,Mosque,"Masjid Badi msjd, 893,, Chittli Qabar Bazar Rd, Jama Masjid, Chandni Chowk, New Delhi, Delhi 110006","Bazar Chitli Qabar, Kucha Chelan, Jama Masjid, Chandni Chowk","893,, Chittli Qabar Bazar Rd","New Delhi, Delhi",110006,Delhi,IN,https://www.google.com/maps/place/Masjid+Badi+%D9%85%D8%B3%D8%AC%D8%AF%E2%80%AD/data=!4m7!3m6!1s0x390cfd219cfec1f3:0x93ccacb281d71709!8m2!3d28.645321!4d77.2357133!16s%2Fg%2F12m98gjn5!19sChIJ88H-nCH9DDkRCRfXgbKszJM?authuser=0&hl=en&rclk=1,"28.645321,77.2357133"
Garahaiya Wali Masjid msjd ghrrhy wly,Mosque,"M645+P9X Garahaiya Wali Masjid msjd ghrrhy wly, Qureshnagar, Sadar Bazaar, Delhi, 110006","Sarai Khalil, Sadar Bazaar","M645+P9X, Qureshnagar, Sadar Bazaar",Delhi,110006,Delhi,IN,https://www.google.com/maps/place/Garahaiya+Wali+Masjid+%D9%85%D8%B3%D8%AC%D8%AF+%DA%AF%DA%BE%DA%91%DA%BE%DB%8C%D8%A7+%D9%88%D8%A7%D9%84%DB%8C%E2%80%AD/data=!4m7!3m6!1s0x390cfd6fd6004367:0xfebc1f26322235da!8m2!3d28.6568604!4d77.2084973!16s%2Fg%2F11c3w0w7y_!19sChIJZ0MA1m_9DDkR2jUiMiYfvP4?authuser=0&hl=en&rclk=1,"28.6568604,77.20849729999999"
Jahtari Wali Masjid,Mosque,"Jahtari Wali Masjid, 5077, Main Bazar Rd, Bharat Nagar, Main Bazar, Aram Bagh, Paharganj, New Delhi, Delhi 110055","Bharat Nagar, Main Bazar, Aram Bagh, Paharganj","5077, Main Bazar Rd",New Delhi,110055,Delhi,IN,https://www.google.com/maps/place/Jahtari+Wali+Masjid/data=!4m7!3m6!1s0x390cfd815a030b8b:0xe18350aa13859d7a!8m2!3d28.6406795!4d77.2115511!16s%2Fg%2F11gjxtbc0j!19sChIJiwsDWoH9DDkRep2FE6pQg-E?authuser=0&hl=en&rclk=1,"28.640679499999997,77.2115511"
MASJID GOUSUL WARA,Mosque,"G79M+8MW MASJID GOUSUL WARA, Tekhand, Okhla Phase I, Okhla Industrial Estate, New Delhi, Delhi 110020","Tekhand, Okhla Phase I, Okhla Industrial Estate",G79M+8MW,New Delhi,110020,Delhi,IN,https://www.google.com/maps/place/MASJID+GOUSUL+WARA/data=!4m7!3m6!1s0x390ce15f4f8ec11b:0x9d50897d641b8031!8m2!3d28.5183625!4d77.2842054!16s%2Fg%2F11sy5qrxj3!19sChIJG8GOT1_hDDkRMYAbZH2JUJ0?authuser=0&hl=en&rclk=1,"28.5183625,77.28420539999999"
Subhanallah masjid,Mosque,"P77J+M63 Subhanallah masjid, Indra Vihar II, Phase 1, Indra Vihar, New Mustafabad, Delhi, 110094","Indra Vihar II, Phase 1, Indra Vihar, New Mustafabad",P77J+M63,Delhi,110094,Delhi,IN,https://www.google.com/maps/place/Subhanallah+masjid/data=!4m7!3m6!1s0x390cfd73e42a428d:0x9775315c361b368f!8m2!3d28.7141446!4d77.280536!16s%2Fg%2F11q1r51bwh!19sChIJjUIq5HP9DDkRjzYbNlwxdZc?authuser=0&hl=en&rclk=1,"28.714144599999997,77.280536"
SHAHI JAMA MASJID jm` msjd shhy,Mosque,"SHAHI JAMA MASJID jm` msjd shhy, 22, foot road, Shram Vihar, Pocket N, Madanpur Khadar, New Delhi, Delhi 110025","Shram Vihar, Pocket N, Madanpur Khadar","22, foot road",New Delhi,110025,Delhi,IN,https://www.google.com/maps/place/SHAHI+JAMA+MASJID+%D8%AC%D8%A7%D9%85%D8%B9+%D9%85%D8%B3%D8%AC%D8%AF+%D8%B4%D8%A7%DA%BE%DB%8C%E2%80%AD/data=!4m7!3m6!1s0x390ce5a36ba3a95d:0x7cb7c1435cda3fd2!8m2!3d28.5405938!4d77.3038368!16s%2Fg%2F11n733rllr!19sChIJXamja6PlDDkR0j_aXEPBt3w?authuser=0&hl=en&rclk=1,"28.5405938,77.3038368"
Masjid Musalla,Mosque,"M75F+GMP Masjid Musalla, Jheel Kuranja, Jheel Khurenja, Geeta Colony, Delhi, 110031","Jheel Kuranja, Jheel Khurenja, Geeta Colony",M75F+GMP,Delhi,110031,Delhi,IN,https://www.google.com/maps/place/Masjid+Musalla/data=!4m7!3m6!1s0x390cfdcedfa7fe77:0xfad03951c02d26e8!8m2!3d28.6588293!4d77.2742!16s%2Fg%2F11q4d20g0_!19sChIJd_6n3879DDkR6CYtwFE50Po?authuser=0&hl=en&rclk=1,"28.658829299999997,77.2742"
Baghwali Masjid msjd bG wly,Mosque,"Baghwali Masjid msjd bG wly, 785, Nicholson Rd, Kashmere Gate, New Delhi, Delhi 110006","Ganda Nala Bazar, Kashmere Gate","785, Nicholson Rd","New Delhi, Delhi",110006,Delhi,IN,https://www.google.com/maps/place/Baghwali+Masjid+%D9%85%D8%B3%D8%AC%D8%AF+%D8%A8%D8%A7%D8%BA+%D9%88%D8%A7%D9%84%DB%8C%E2%80%AD/data=!4m7!3m6!1s0x390cfd092767785b:0xd4966cf4d21cbda8!8m2!3d28.6653187!4d77.2261277!16s%2Fg%2F12llwbr4n!19sChIJW3hnJwn9DDkRqL0c0vRsltQ?authuser=0&hl=en&rclk=1,"28.6653187,77.22612769999999"
Saeediya Masjid Road,Mosque,"Saeediya Masjid Road, Gali No.23, Saeediya -110053, Masjid Rd, New Seelampur, Chauhan Banger, Shahdara, Delhi, 110053","New Seelampur Phase II, New Seelampur, Chauhan Banger, Shahdara","Gali No.23, Saeediya -110053, Masjid Rd",Delhi,110053,Delhi,IN,https://www.google.com/maps/place/Saeediya+Masjid+Road/data=!4m7!3m6!1s0x390cfc6050ea77bb:0xd22718f2efe0f06e!8m2!3d28.6762654!4d77.2657631!16s%2Fg%2F11f125nm2g!19sChIJu3fqUGD8DDkRbvDg7_IYJ9I?authuser=0&hl=en&rclk=1,"28.6762654,77.2657631"
Masjid Aashikan-E-Rasool,Mosque,"Masjid Aashikan-E-Rasool, B168A, Block B, Baljit Nagar, Patel Nagar, New Delhi, Delhi, 110008","Block B, Baljit Nagar, Patel Nagar",B168A,"New Delhi, Delhi",110008,Delhi,IN,https://www.google.com/maps/place/Masjid+Aashikan-E-Rasool/data=!4m7!3m6!1s0x390d03568277eb99:0x27959f1a230ab399!8m2!3d28.6610366!4d77.1631945!16s%2Fg%2F11qz5hv88s!19sChIJmet3glYDDTkRmbMKIxqflSc?authuser=0&hl=en&rclk=1,"28.6610366,77.1631945"
"Sunni Muslim Masjid, Sayla",Mosque,"GFXJ+8P3 Sunni Muslim Masjid, Sayla, Sayla, Gujarat 363430",,GFXJ+8P3,Sayla,,Gujarat,IN,"https://www.google.com/maps/place/Sunni+Muslim+Masjid,+Sayla/data=!4m7!3m6!1s0x395917aa443e1e63:0xd4478e9469d56223!8m2!3d22.5482592!4d71.4817889!16s%2Fg%2F11h2394y3w!19sChIJYx4-RKoXWTkRI2LVaZSOR9Q?authuser=0&hl=en&rclk=1","22.5482592,71.4817889"
Allah Wali Masjid allaah vaalii msjid,Mosque,"Allah Wali Masjid allaah vaalii msjid, 655, Block D, Bhalswa Jahangirpuri, Jahangirpuri, JahangirpuriDelhi, Delhi, 110033","Block D, Bhalswa Jahangirpuri, Jahangirpuri",655,"JahangirpuriDelhi, Delhi",110033,Delhi,IN,https://www.google.com/maps/place/Allah+Wali+Masjid+%E0%A4%85%E0%A4%B2%E0%A5%8D%E0%A4%B2%E0%A4%BE%E0%A4%B9+%E0%A4%B5%E0%A4%BE%E0%A4%B2%E0%A5%80+%E0%A4%AE%E0%A4%B8%E0%A5%8D%E0%A4%9C%E0%A4%BF%E0%A4%A6/data=!4m7!3m6!1s0x390d01417ad0e561:0x459974438a39a7fc!8m2!3d28.729919!4d77.1744335!16s%2Fg%2F11syt8fb_7!19sChIJYeXQekEBDTkR_Kc5ikN0mUU?authuser=0&hl=en&rclk=1,"28.729919,77.17443349999999"
Fukrulla Beg Masjid,Mosque,"M62C+Q3V Fukrulla Beg Masjid, Fasil Rd, Chabdi Bazar, Shardhanand Market, Farash Khana, Chandni Chowk, New Delhi, Delhi, 110006","Chabdi Bazar, Shardhanand Market, Farash Khana, Chandni Chowk","M62C+Q3V, Fasil Rd","New Delhi, Delhi",110006,Delhi,IN,https://www.google.com/maps/place/Fukrulla+Beg+Masjid/data=!4m7!3m6!1s0x390cfd1483eebfb7:0xc967bc440a10c6d5!8m2!3d28.6519886!4d77.2201721!16s%2Fg%2F1hm6f2k64!19sChIJt7_ugxT9DDkR1cYQCkS8Z8k?authuser=0&hl=en&rclk=1,"28.6519886,77.2201721"
Masjid Suhailwali,Mosque,"G59P+JVH Masjid Suhailwali, Archeological Pk Trl, Ladha Sarai Village, Mehrauli, New Delhi, Delhi 110030","Ladha Sarai Village, Mehrauli",G59P+JVH Archeological Pk Trl,New Delhi,110030,Delhi,IN,https://www.google.com/maps/place/Masjid+Suhailwali/data=!4m7!3m6!1s0x390d1f7c153e757f:0xd87f61dba133c08f!8m2!3d28.5182244!4d77.1874102!16s%2Fg%2F11k39wfxml!19sChIJf3U-FXwfDTkRj8Azodthf9g?authuser=0&hl=en&rclk=1,"28.518224399999998,77.1874102"
Masjid,Mosque,"Masjid, 2508, Fasil Rd, Gali Sakko Wali, Shah Ganj, Chandni Chowk, New Delhi, Delhi, 110006","Gali Sakko Wali, Shah Ganj, Chandni Chowk","2508, Fasil Rd","New Delhi, Delhi",110006,Delhi,IN,https://www.google.com/maps/place/Masjid/data=!4m7!3m6!1s0x390cfd15c9a8a4b1:0xf975aada141da03e!8m2!3d28.6491552!4d77.2220471!16s%2Fg%2F1hm4gjxkd!19sChIJsaSoyRX9DDkRPqAdFNqqdfk?authuser=0&hl=en&rclk=1,"28.6491552,77.2220471"
Gosiyan masjid msjd,Mosque,"M6C3+6MM Gosiyan masjid msjd, Arya Pura, Sabzi Mandi Old, Delhi, 110007","Arya Pura, Sabzi Mandi Old",M6C3+6MM,Delhi,110007,Delhi,IN,https://www.google.com/maps/place/Gosiyan+masjid+%D9%85%D8%B3%D8%AC%D8%AF%E2%80%AD/data=!4m7!3m6!1s0x390cfd5ef95c48f9:0x4f3b43266a74c420!8m2!3d28.6705759!4d77.2041848!16s%2Fg%2F11g4db0xfq!19sChIJ-Uhc-V79DDkRIMR0aiZDO08?authuser=0&hl=en&rclk=1,"28.6705759,77.2041848"
Masjid,Mosque,"Masjid, 242, Masjid Jheel Pio, Near ITO metro GateNo.3, Bahadur Shah Zafar Marg, Balmiki Basti, Vikram Nagar, Delhi, 110002","Bahadur Shah Zafar Marg, Balmiki Basti, Vikram Nagar","242, Masjid Jheel Pio, Near ITO metro GateNo.3, Bahadur Shah Zafar Marg",Delhi,110002,Delhi,IN,https://www.google.com/maps/place/Masjid/data=!4m7!3m6!1s0x390cfd441769149d:0xa1929f1b4f5921d6!8m2!3d28.6298914!4d77.2415098!16s%2Fg%2F11s2n38r9b!19sChIJnRRpF0T9DDkR1iFZTxufkqE?authuser=0&hl=en&rclk=1,"28.629891399999998,77.2415098"
Masjid Saguwa Wali (Choti Masjid),Mosque,"Masjid Saguwa Wali (Choti Masjid), 1614, Old Dariya Ganj, Daryaganj, New Delhi, Delhi, 110002","Old Dariya Ganj, Daryaganj",1614,"New Delhi, Delhi",110002,Delhi,IN,https://www.google.com/maps/place/Masjid+Saguwa+Wali+%28Choti+Masjid%29/data=!4m7!3m6!1s0x390cfde70c37cfe3:0xcd9ebd43305f88c8!8m2!3d28.6470267!4d77.2382029!16s%2Fg%2F11f7qykm_q!19sChIJ4883DOf9DDkRyIhfMEO9ns0?authuser=0&hl=en&rclk=1,"28.647026699999998,77.23820289999999"
Masjid golar wali,Mosque,"Shop No, Masjid golar wali, 4464, Gali Shahtara, Kaccha Pandit Main Bazar, Lal Kuan Bazar, Ajmeri Gate, New Delhi, Delhi, 110006","Kaccha Pandit Main Bazar, Lal Kuan Bazar, Ajmeri Gate","Shop No, 4464, Gali Shahtara","New Delhi, Delhi",110006,Delhi,IN,https://www.google.com/maps/place/Masjid+golar+wali/data=!4m7!3m6!1s0x390cfd15b3e12a53:0xc55cec9c0a829731!8m2!3d28.6478688!4d77.2247622!16s%2Fg%2F11h94g1jcr!19sChIJUyrhsxX9DDkRMZeCCpzsXMU?authuser=0&hl=en&rclk=1,"28.647868799999998,77.2247622"
Sabeel Wali Masjid,Mosque,"M676+PJQ Sabeel Wali Masjid, Gali Zameer Wali, Nawabganj, Tis Hazari, New Delhi, Delhi, 110055","Nawabganj, Tis Hazari","M676+PJQ, Gali Zameer Wali","New Delhi, Delhi",110055,Delhi,IN,https://www.google.com/maps/place/Sabeel+Wali+Masjid/data=!4m7!3m6!1s0x390cfda2f2270c4d:0x9587bec3bb500c1f!8m2!3d28.6643348!4d77.2116016!16s%2Fg%2F11fpd01gx9!19sChIJTQwn8qL9DDkRHwxQu8O-h5U?authuser=0&hl=en&rclk=1,"28.6643348,77.2116016"
Masjid sadak wali,Mosque,"7992, Masjid sadak wali, 1, Md. Ismail Marg, Chowk Nai Basti, Sadar Bazaar, New Delhi, Delhi, 110006","Chowk Nai Basti, Sadar Bazaar","7992, 1, Md. Ismail Marg","New Delhi, Delhi",110006,Delhi,IN,https://www.google.com/maps/place/Masjid+sadak+wali/data=!4m7!3m6!1s0x390cfd2020037aed:0xf4109e03947cf68f!8m2!3d28.6602926!4d77.2062804!16s%2Fg%2F11jz7vcbwz!19sChIJ7XoDICD9DDkRj_Z8lAOeEPQ?authuser=0&hl=en&rclk=1,"28.6602926,77.2062804"
Syed Hasan Masjid,Mosque,"Syed Hasan Masjid, 124, Sector C, Gole Market, New Delhi, Delhi 110001","Sector C, Gole Market",124,New Delhi,110001,Delhi,IN,https://www.google.com/maps/place/Syed+Hasan+Masjid/data=!4m7!3m6!1s0x390cfd263f536697:0x174e102183d9d2d1!8m2!3d28.63939!4d77.2065116!16s%2Fg%2F11pvclr7q6!19sChIJl2ZTPyb9DDkR0dLZgyEQThc?authuser=0&hl=en&rclk=1,"28.63939,77.2065116"
Masjid Sumbul Islam,Mosque,"Masjid Sumbul Islam, 2176, Tilak Bazar, Naya Bazar, Khari Baoli, Chandni Chowk, New Delhi, Delhi, 110006","Tilak Bazar, Naya Bazar, Khari Baoli, Chandni Chowk","2176, Tilak Bazar","New Delhi, Delhi",110006,Delhi,IN,https://www.google.com/maps/place/Masjid+Sumbul+Islam/data=!4m7!3m6!1s0x390cfd0d9b001377:0xd7847d9de7a9acbd!8m2!3d28.6588039!4d77.2208348!16s%2Fg%2F11cncrfn0v!19sChIJdxMAmw39DDkRvayp5519hNc?authuser=0&hl=en&rclk=1,"28.6588039,77.22083479999999"
Musalla Masjid,Mosque,"Musalla Masjid, A84, Gali Number 19, Block B, Bharat Vihar, Madhu Vihar, New Delhi, Delhi, 110059","Block B, Bharat Vihar, Madhu Vihar","A84, Gali Number 19","New Delhi, Delhi",110059,Delhi,IN,https://www.google.com/maps/place/Musalla+Masjid/data=!4m7!3m6!1s0x390d1b5228eab2b5:0x4c225624c80dfd40!8m2!3d28.6062216!4d77.0614438!16s%2Fg%2F11t6nng3_f!19sChIJtbLqKFIbDTkRQP0NyCRWIkw?authuser=0&hl=en&rclk=1,"28.606221599999998,77.06144379999999"
Masjid Shatoot Wali,Mosque,"M67H+G5Q Masjid Shatoot Wali, Chhota Bazar, Mori Gate, New Delhi, Delhi, 110006","Chhota Bazar, Mori Gate",M67H+G5Q,"New Delhi, Delhi",110006,Delhi,IN,https://www.google.com/maps/place/Masjid+Shatoot+Wali/data=!4m7!3m6!1s0x390cfdd8114d08fd:0x326042596014276a!8m2!3d28.663827!4d77.2279973!16s%2Fg%2F11g4h_zjtj!19sChIJ_QhNEdj9DDkRaicUYFlCYDI?authuser=0&hl=en&rclk=1,"28.663826999999998,77.2279973"
Masjid quwwatul islam,Mosque,"Masjid quwwatul islam, 357, Block T, Chowk Nai Basti, Sadar Bazaar, Delhi, 110006","Block T, Chowk Nai Basti, Sadar Bazaar",357,Delhi,110006,Delhi,IN,https://www.google.com/maps/place/Masjid+quwwatul+islam/data=!4m7!3m6!1s0x390cfd9c705c4e2b:0x298cefbe95121ef1!8m2!3d28.657458!4d77.206855!16s%2Fg%2F11vk_pyptp!19sChIJK05ccJz9DDkR8R4Slb7vjCk?authuser=0&hl=en&rclk=1,"28.657458,77.20685499999999"
Masjid,Mosque,"Masjid, Gali No 19, Gali Number 1, Mustafabad Extn, New Mustafabad, Delhi, 110094","E2 Block, Mustafabad Extn, New Mustafabad","Gali No 19, Gali Number 1",Delhi,110094,Delhi,IN,https://www.google.com/maps/place/Masjid/data=!4m7!3m6!1s0x390cfc1b020b0e91:0xb48a3c3233e41cbd!8m2!3d28.711773!4d77.272563!16s%2Fg%2F12hpqnhjr!19sChIJkQ4LAhv8DDkRvRzkMzI8irQ?authuser=0&hl=en&rclk=1,"28.711772999999997,77.27256299999999"
nazra Jama Masjid,Mosque,"M644+2QH nazra Jama Masjid, Sarai Khalil, Sadar Bazaar, Delhi, 847102","Sarai Khalil, Sadar Bazaar",M644+2QH,Delhi,847102,Delhi,IN,https://www.google.com/maps/place/nazra+Jama+Masjid/data=!4m7!3m6!1s0x390cfd87a2b947df:0xc5eef572a3787906!8m2!3d28.6550711!4d77.2069937!16s%2Fg%2F11h03dscpw!19sChIJ30e5oof9DDkRBnl4o3L17sU?authuser=0&hl=en&rclk=1,"28.655071099999997,77.2069937"
Masjid thele wali,Mosque,"Masjid thele wali, 2368, Mithai Pul, Teliwara, Sadar Bazaar, New Delhi, Delhi, 110006","Mithai Pul, Teliwara, Sadar Bazaar",2368,"New Delhi, Delhi",110006,Delhi,IN,https://www.google.com/maps/place/Masjid+thele+wali/data=!4m7!3m6!1s0x390cfdf491fa79e5:0x292287159b28d9f5!8m2!3d28.6609791!4d77.2150425!16s%2Fg%2F11tjffgg0_!19sChIJ5Xn6kfT9DDkR9dkomxWHIik?authuser=0&hl=en&rclk=1,"28.6609791,77.2150425"
Masjid Takiya Mandal Shah,Mosque,"M67G+92V Masjid Takiya Mandal Shah, Ganda Nala Bazar, Mori Gate, New Delhi, Delhi, 110006","Ganda Nala Bazar, Mori Gate",M67G+92V,"New Delhi, Delhi",110006,Delhi,IN,https://www.google.com/maps/place/Masjid+Takiya+Mandal+Shah/data=!4m7!3m6!1s0x390cfd1bda0aca8d:0xbeac265651a56e0f!8m2!3d28.6634877!4d77.2250615!16s%2Fg%2F11fd4g34bx!19sChIJjcoK2hv9DDkRD26lUVYmrL4?authuser=0&hl=en&rclk=1,"28.663487699999997,77.2250615"
Masjid,Mosque,"M794+RG5 Masjid, Block A, Shastri Park, Shahdara, Delhi, 110053","Block A, Shastri Park, Shahdara",M794+RG5,Delhi,,Delhi,IN,https://www.google.com/maps/place/Masjid/data=!4m7!3m6!1s0x390cfd74b6378221:0x2da5c9212f831088!8m2!3d28.6695164!4d77.2563643!16s%2Fg%2F11tb42z9g0!19sChIJIYI3tnT9DDkRiBCDLyHJpS0?authuser=0&hl=en&rclk=1,"28.6695164,77.2563643"
Masjid Ya Rasulullah,Mosque,"Masjid Ya Rasulullah, Masjid Ya Rasulullah nai basti Gauri patti, Nithora Rd, near rashid ali gate, Loni, Ghaziabad, Uttar Pradesh 201102",Loni,"Masjid Ya Rasulullah nai basti Gauri patti, Nithora Rd, near rashid ali gate",Ghaziabad,201102,Uttar Pradesh,IN,https://www.google.com/maps/place/Masjid+Ya+Rasulullah/data=!4m7!3m6!1s0x390cf9bb8dd690b1:0xc8f519f09e17bc26!8m2!3d28.7517452!4d77.2924957!16s%2Fg%2F11rtlkkxzm!19sChIJsZDWjbv5DDkRJrwXnvAZ9cg?authuser=0&hl=en&rclk=1,"28.7517452,77.2924957"
saadil ttaakiyaavaalii msjid,Mosque,"Q75R+HGV saadil ttaakiyaavaalii msjid, Ashok Vihar, Loni Dehat, Uttar Pradesh 201102","Ashok Vihar, Loni Dehat",Q75R+HGV,,,Uttar Pradesh,IN,https://www.google.com/maps/place/%E0%A4%B8%E0%A4%BE%E0%A4%A6%E0%A4%BF%E0%A4%B2+%E0%A4%9F%E0%A4%BE%E0%A4%95%E0%A4%BF%E0%A4%AF%E0%A4%BE%E0%A4%B5%E0%A4%BE%E0%A4%B2%E0%A5%80+%E0%A4%AE%E0%A4%B8%E0%A5%8D%E0%A4%9C%E0%A4%BF%E0%A4%A6/data=!4m7!3m6!1s0x390cf9fcd618cb27:0xcd23ca5aca08836b!8m2!3d28.7589781!4d77.2912911!16s%2Fg%2F11k4t__qlt!19sChIJJ8sY1vz5DDkRa4MIylrKI80?authuser=0&hl=en&rclk=1,"28.7589781,77.2912911"
Kahaniyan masjid,Mosque,"Kahaniyan masjid, B4/ 28, Inderlok, Delhi, 110035",Inderlok,B4/ 28,Delhi,,Delhi,IN,https://www.google.com/maps/place/Kahaniyan+masjid/data=!4m7!3m6!1s0x390d03ab56103ccb:0xf711afd42501f36e!8m2!3d28.6720745!4d77.1676902!16s%2Fg%2F11k99jw6f8!19sChIJyzwQVqsDDTkRbvMBJdSvEfc?authuser=0&hl=en&rclk=1,"28.672074499999997,77.1676902"
Masjid Bodsawala Wali,Mosque,"Masjid Bodsawala Wali, 2370,Chatta Shahji,Chawri Bazar, Dharam Pura Rd, Nai Wala, Chandni Chowk, New Delhi, Delhi 110006","Nai Wala, Chandni Chowk","2370,Chatta Shahji,Chawri Bazar, Dharam Pura Rd","New Delhi, Delhi",110006,Delhi,IN,https://www.google.com/maps/place/Masjid+Bodsawala+Wali/data=!4m7!3m6!1s0x390cfd19b6b59b81:0x1d0c8dba8ab5b549!8m2!3d28.6509214!4d77.2308029!16s%2Fg%2F1ptx9cfbw!19sChIJgZu1thn9DDkRSbW1irqNDB0?authuser=0&hl=en&rclk=1,"28.650921399999998,77.2308029"
Masjid,Mosque,"Shop No: 5035, Masjid, Netaji Subhash Marg, Daryaganj, New Delhi, Delhi, 110002",Daryaganj,"Shop No: 5035, Netaji Subhash Marg","New Delhi, Delhi",110002,Delhi,IN,https://www.google.com/maps/place/Masjid/data=!4m7!3m6!1s0x390cfdf175041b95:0x8ef57a2bc9f92c1c!8m2!3d28.6480954!4d77.2403964!16s%2Fg%2F11s664lvxh!19sChIJlRsEdfH9DDkRHCz5ySt69Y4?authuser=0&hl=en&rclk=1,"28.6480954,77.2403964"
Masjid,Mosque,"Masjid, I116, DSIIDC Industrial Area, Sector 5, Bawana, New Delhi, Delhi, 110039","DSIIDC Industrial Area, Sector 5, Bawana",I116,"New Delhi, Delhi",110039,Delhi,IN,https://www.google.com/maps/place/Masjid/data=!4m7!3m6!1s0x390da9cb278fea55:0x351e1b7ec09414c4!8m2!3d28.8011996!4d77.0752247!16s%2Fg%2F11vd9vydsd!19sChIJVeqPJ8upDTkRxBSUwH4bHjU?authuser=0&hl=en&rclk=1,"28.8011996,77.07522469999999"
Masjid madarse wali,Mosque,"Masjid madarse wali, A-304, Burari, New Delhi, Delhi, 110084",Burari,A-304,"New Delhi, Delhi",110084,Delhi,IN,https://www.google.com/maps/place/Masjid+madarse+wali/data=!4m7!3m6!1s0x390cff3807730b4f:0x7bd188a37a0cd7ca!8m2!3d28.7262379!4d77.2250131!16s%2Fg%2F11r99r5x99!19sChIJTwtzBzj_DDkRytcMeqOI0Xs?authuser=0&hl=en&rclk=1,"28.726237899999997,77.2250131"
Masjid,Mosque,"J2WM+MXF Masjid, Sunni Masjid Rd, Deep Enclave, Hastsal, Delhi, 110059","Deep Enclave, Hastsal","J2WM+MXF, Sunni Masjid Rd",Delhi,110059,Delhi,IN,https://www.google.com/maps/place/Masjid/data=!4m7!3m6!1s0x390d05267bb46283:0xaef6f06f366d7113!8m2!3d28.6466834!4d77.0349292!16s%2Fg%2F11vl8tpxw1!19sChIJg2K0eyYFDTkRE3FtNm_w9q4?authuser=0&hl=en&rclk=1,"28.646683399999997,77.0349292"
Masjid Sangailya,Mosque,"MW49+G6G Masjid Sangailya, vill Shakarpuri post Doha teh.ferozepur jhiraka, Distt, Shakarpuri, Haryana 122104",,"MW49+G6G, vill Shakarpuri post Doha teh.ferozepur jhiraka, Distt",Shakarpuri,122104,Haryana,IN,https://www.google.com/maps/place/Masjid+Sangailya/data=!4m7!3m6!1s0x3972ebb322031291:0xf71622616d44e0dc!8m2!3d27.6561937!4d76.9179515!16s%2Fg%2F11srhgfsc0!19sChIJkRIDIrPrcjkR3OBEbWEiFvc?authuser=0&hl=en&rclk=1,"27.6561937,76.9179515"
Garib nawaz Masjid Sayala,Mosque,"89F3+6MX Garib nawaz Masjid Sayala, opp. Tehsil office, Sayla, Rajasthan 343022",,"89F3+6MX, opp. Tehsil office",Sayla,,Rajasthan,IN,https://www.google.com/maps/place/Garib+nawaz+Masjid+Sayala/data=!4m7!3m6!1s0x39430bc08d33be9d:0xf1b05a6992399011!8m2!3d25.3231228!4d72.3542249!16s%2Fg%2F11f6y0zrxt!19sChIJnb4zjcALQzkREZA5kmlasPE?authuser=0&hl=en&rclk=1,"25.3231228,72.35422489999999"
Sayla mazar masjid,Mosque,"Sayla mazar masjid, 13, Sayla, Gujarat 363430",,13,Sayla,363430,Gujarat,IN,https://www.google.com/maps/place/Sayla+mazar+masjid/data=!4m7!3m6!1s0x395917092a263f13:0xc80a90de9ab79231!8m2!3d22.5427697!4d71.4825567!16s%2Fg%2F11l59krchg!19sChIJEz8mKgkXWTkRMZK3mt6QCsg?authuser=0&hl=en&rclk=1,"22.542769699999997,71.4825567"
