name,main_category,address,address_ward,address_street,address_city,address_postal_code,address_state,address_country_code,link,coordinates
Jama Masjid,Mosque,"Jama Masjid, Old Delhi, Delhi, 110006","Jama Masjid, Old Delhi",,Delhi,110006,Delhi,IN,https://www.google.com/maps/place/Jama+Masjid/data=!4m7!3m6!1s0x390cfd18df89b215:0xdd57369e29bf9d96!8m2!3d28.6506792!4d77.2334421!16zL20vMDR5emo1!19sChIJFbKJ3xj9DDkRlp2_KZ42V90?authuser=0&hl=en&rclk=1,"28.6506792,77.23344209999999"
Masjid Mujeeb Bagh,Mosque,"H74R+R4J Masjid Mujeeb Bagh, Mujeeb Bagh, Jamia Nagar, Okhla, New Delhi, Delhi 110025","Mujeeb Bagh, Jamia Nagar, Okhla",H74R+R4J,New Delhi,110025,Delhi,IN,https://www.google.com/maps/place/Masjid+Mujeeb+Bagh/data=!4m7!3m6!1s0x390ce40bc79e1ce9:0x18ab01f5fdcf10b3!8m2!3d28.5570856!4d77.2902574!16s%2Fg%2F11hbvrlrnj!19sChIJ6RyexwvkDDkRsxDP_fUBqxg?authuser=0&hl=en&rclk=1,"28.557085599999997,77.2902574"
Masjid Moth,Mosque,"Masjid Moth, 92, Masjid Moth Rd, South Extension II, Masjid Moth Village, New Delhi, Delhi 110049","South Extension II, Masjid Moth Village","92, Masjid Moth Rd",New Delhi,110049,Delhi,IN,https://www.google.com/maps/place/Masjid+Moth/data=!4m7!3m6!1s0x390ce242799950e9:0xb2f0ba5418b140f8!8m2!3d28.562458!4d77.2176906!16s%2Fm%2F05zxh9f!19sChIJ6VCZeULiDDkR-ECxGFS68LI?authuser=0&hl=en&rclk=1,"28.562458,77.2176906"
Masjid Shahab,Mosque,"H78P+VWV Masjid Shahab, Jamia, Batla House, Jamia Nagar, Okhla, New Delhi, Delhi 110025","Jamia, Batla House, Jamia Nagar, Okhla",H78P+VWV,New Delhi,110025,Delhi,IN,https://www.google.com/maps/place/Masjid+Shahab/data=!4m7!3m6!1s0x390ce4760f556f8d:0xc0285f5f2f62012c!8m2!3d28.5672496!4d77.2873032!16s%2Fg%2F1hhm006pz!19sChIJjW9VD3bkDDkRLAFiL19fKMA?authuser=0&hl=en&rclk=1,"28.5672496,77.2873032"
Mohammadi Masjid,Mosque,"G7XX+C4X Mohammadi Masjid, Shaheen Bagh, Block E, Jamia Nagar, Okhla, New Delhi, Delhi 110025","Shaheen Bagh, Block E, Jamia Nagar, Okhla",G7XX+C4X,New Delhi,110025,Delhi,IN,https://www.google.com/maps/place/Mohammadi+Masjid/data=!4m7!3m6!1s0x390ce41acd709b67:0x8df25e5235479b77!8m2!3d28.5486052!4d77.2978715!16s%2Fg%2F11cp1893xh!19sChIJZ5twzRrkDDkRd5tHNVJe8o0?authuser=0&hl=en&rclk=1,"28.548605199999997,77.2978715"
Sabz Masjid,Mosque,"Sabz Masjid, 3571, Lalkuan Bazar Rd, Bazar Sirkiwalan, Lal Kuan Bazar, Chandni Chowk, Delhi, 110006","Bazar Sirkiwalan, Lal Kuan Bazar, Chandni Chowk","3571, Lalkuan Bazar Rd",Delhi,110006,Delhi,IN,https://www.google.com/maps/place/Sabz+Masjid/data=!4m7!3m6!1s0x390cfd16a94877a7:0x7b35bb653cd42e20!8m2!3d28.652163!4d77.223599!16s%2Fm%2F04q247t!19sChIJp3dIqRb9DDkRIC7UPGW7NXs?authuser=0&hl=en&rclk=1,"28.652162999999998,77.223599"
"Jama Masjid, Khadda Colony jm` msjd",Mosque,"Jama Masjid, Khadda Colony jm` msjd, D-202, near by Jama Masjid Gali, Jaitpur Extension Part II, Khadda Colony, Badarpur, New Delhi, Delhi 110044","Jaitpur Extension Part II, Khadda Colony, Badarpur","D-202, near by Jama Masjid Gali",New Delhi,110044,Delhi,IN,"https://www.google.com/maps/place/Jama+Masjid,+Khadda+Colony+%D8%AC%D8%A7%D9%85%D8%B9+%D9%85%D8%B3%D8%AC%D8%AF%E2%80%AD/data=!4m7!3m6!1s0x390ce65a1cc2d345:0x508d72d241ba7c2f!8m2!3d28.5094725!4d77.3384064!16s%2Fg%2F11b_23cdbd!19sChIJRdPCHFrmDDkRL3y6QdJyjVA?authuser=0&hl=en&rclk=1","28.509472499999998,77.3384064"
Masjid Umar ibn Khattab Ahle Hadees,Mosque,"G8X3+2R4 Masjid Umar ibn Khattab Ahle Hadees, Kalindi Kunj Rd, Shaheen Bagh, Jamia Nagar, Okhla, New Delhi, Delhi 110025","Shaheen Bagh, Jamia Nagar, Okhla","G8X3+2R4, Kalindi Kunj Rd",New Delhi,110025,Delhi,IN,https://www.google.com/maps/place/Masjid+Umar+ibn+Khattab+Ahle+Hadees/data=!4m7!3m6!1s0x390ce4196e33e035:0x7187e898e383e521!8m2!3d28.5475049!4d77.3045864!16s%2Fg%2F11ddwvd6j7!19sChIJNeAzbhnkDDkRIeWD45joh3E?authuser=0&hl=en&rclk=1,"28.5475049,77.30458639999999"
bilal masjid.,Mosque,"P24V+6FG bilal masjid., Durga Mandir Rd, Phase 2, Inder Enclave, Rohini, New Delhi, Delhi, 110086","Phase 2, Inder Enclave, Rohini","P24V+6FG, Durga Mandir Rd","New Delhi, Delhi",110086,Delhi,IN,https://www.google.com/maps/place/bilal+masjid./data=!4m7!3m6!1s0x390d06709583ec61:0x52f266630d1af0ed!8m2!3d28.7055626!4d77.0437043!16s%2Fg%2F11g6r27xpk!19sChIJYeyDlXAGDTkR7fAaDWNm8lI?authuser=0&hl=en&rclk=1,"28.7055626,77.0437043"
Bashiruddin Masjid,Mosque,"Block P, Bashiruddin Masjid, P- 8, Nafees Rd, Block P, Jogabai Extension, Okhla, New Delhi, Delhi 110025","Block P, Jogabai Extension, Okhla","Block P, P- 8, Nafees Rd",New Delhi,110025,Delhi,IN,https://www.google.com/maps/place/Bashiruddin+Masjid/data=!4m7!3m6!1s0x390ce4779a6d69b9:0xbbe58e3a8bb684fe!8m2!3d28.5719539!4d77.2886889!16s%2Fg%2F11ddyd51g2!19sChIJuWltmnfkDDkR_oS2izqO5bs?authuser=0&hl=en&rclk=1,"28.5719539,77.2886889"
Ahle Sunnat wal jamaat RazaeMuhammadi Masjid,Mosque,"J6X8+JC2 Ahle Sunnat wal jamaat RazaeMuhammadi Masjid, Aram Nagar, Paharganj, New Delhi, Delhi 110055","Aram Nagar, Paharganj",J6X8+JC2,New Delhi,110055,Delhi,IN,https://www.google.com/maps/place/Ahle+Sunnat+wal+jamaat+RazaeMuhammadi+Masjid/data=!4m7!3m6!1s0x390cfd6b1c55570b:0xb6cbdaabca9cc6b2!8m2!3d28.6490022!4d77.2160178!16s%2Fg%2F11g6mj_5x9!19sChIJC1dVHGv9DDkRssacyqvay7Y?authuser=0&hl=en&rclk=1,"28.649002199999998,77.2160178"
Masjid Devband,Mosque,"G66Q+44V Masjid Devband, Tigri Colony, Tigri, Sangam Vihar, New Delhi, Delhi 110062","Tigri Colony, Tigri, Sangam Vihar",G66Q+44V,New Delhi,110062,Delhi,IN,https://www.google.com/maps/place/Masjid+Devband/data=!4m7!3m6!1s0x390ce1a02ba173f3:0x74659f41cc7c1b39!8m2!3d28.5103517!4d77.2377863!16s%2Fg%2F11b808708z!19sChIJ83OhK6DhDDkRORt8zEGfZXQ?authuser=0&hl=en&rclk=1,"28.510351699999998,77.2377863"
Masjid Dhobiyan,Mosque,"Masjid Dhobiyan, 3280, Delhi Gate Bazar, Kucha Alam, Old Dariya Ganj, New Delhi, Delhi 110002","Chatta lal Miya, Chandni Mahal, Old Delhi","3280, Delhi Gate Bazar, Kucha Alam, Old Dariya Ganj","New Delhi, Delhi",110002,Delhi,IN,https://www.google.com/maps/place/Masjid+Dhobiyan/data=!4m7!3m6!1s0x390cfd273340d127:0x7d6d2edf4a35f8d9!8m2!3d28.6425263!4d77.2386389!16s%2Fg%2F11cs5s2vzb!19sChIJJ9FAMyf9DDkR2fg1St8ubX0?authuser=0&hl=en&rclk=1,"28.6425263,77.2386389"
Jannatul Firdose Masjid msjd jn@lfrdws,Mosque,"G8J6+H6X Jannatul Firdose Masjid msjd jn@lfrdws, Madanpur Khadar Extension, Block A, Madanpur Khadar, New Delhi, Delhi 110076","Madanpur Khadar Extension, Block A, Madanpur Khadar",G8J6+H6X,New Delhi,110076,Delhi,IN,https://www.google.com/maps/place/Jannatul+Firdose+Masjid+%D9%85%D8%B3%D8%AC%D8%AF+%D8%AC%D9%86%D8%A9%D8%A7%D9%84%D9%81%D8%B1%D8%AF%D9%88%D8%B3%E2%80%AD/data=!4m7!3m6!1s0x390ce698614a56a5:0x1c3fad641cabab20!8m2!3d28.5314784!4d77.3106246!16s%2Fg%2F11dybr1nt3!19sChIJpVZKYZjmDDkRIKurHGStPxw?authuser=0&hl=en&rclk=1,"28.531478399999997,77.3106246"
Masjid Baage Firdous,Mosque,"A, Masjid Baage Firdous, 127, Guru Ravidas Marg, DDA Flats Kalkaji, Harijan Colony, Block A, Govindpuri, New Delhi, Delhi 110019","DDA Flats Kalkaji, Harijan Colony, Block A, Govindpuri","A, 127, Guru Ravidas Marg",New Delhi,110019,Delhi,IN,https://www.google.com/maps/place/Masjid+Baage+Firdous/data=!4m7!3m6!1s0x390ce1613e18823f:0x51daa75b3f4addc8!8m2!3d28.531351!4d77.2587261!16s%2Fg%2F11fxb2b208!19sChIJP4IYPmHhDDkRyN1KP1un2lE?authuser=0&hl=en&rclk=1,"28.531350999999997,77.25872609999999"
Bagh Wali Masjid,Mosque,"G883+6W6 Bagh Wali Masjid, New, Gautampuri Awas, Badarpur, New Delhi, Delhi 110044","Gautampuri Awas, Badarpur","G883+6W6, New",New Delhi,110044,Delhi,IN,https://www.google.com/maps/place/Bagh+Wali+Masjid/data=!4m7!3m6!1s0x390ce6c0b8babe6b:0xc693f6450121cff1!8m2!3d28.5155365!4d77.3047507!16s%2Fg%2F11f_d7rxpt!19sChIJa766uMDmDDkR8c8hAUX2k8Y?authuser=0&hl=en&rclk=1,"28.5155365,77.3047507"
Mohammadi Masjid,Mosque,"Mohammadi Masjid, block - c , gali no. 12 , shiv vihar part 2, Ismailpur Rd, Ekta Vihar, Basantpur, Faridabad, Delhi 121003","Ekta Vihar, Basantpur","block - c , gali no. 12 , shiv vihar part 2, Ismailpur Rd","Faridabad, New Delhi",121003,Delhi,IN,https://www.google.com/maps/place/Mohammadi+Masjid/data=!4m7!3m6!1s0x390ce65691d77451:0x37e5a2edf0d4bd81!8m2!3d28.5035617!4d77.3360423!16s%2Fg%2F12hmr57km!19sChIJUXTXkVbmDDkRgb3U8O2i5Tc?authuser=0&hl=en&rclk=1,"28.5035617,77.3360423"
Masjid Amaniya Jamalu ka Bagh msjd mnyh jmlw kh bG,Mosque,"Masjid Amaniya Jamalu ka Bagh msjd mnyh jmlw kh bG, Main, Maujpur Rd, Shahdara, Delhi, 110053",Shahdara,"Main, Maujpur Rd",Delhi,110053,Delhi,IN,https://www.google.com/maps/place/Masjid+Amaniya+Jamalu+ka+Bagh+%D9%85%D8%B3%D8%AC%D8%AF+%D8%A7%D9%85%D8%A7%D9%86%DB%8C%DB%81+%D8%AC%D9%85%D8%A7%D9%84%D9%88+%DA%A9%D8%A7+%D8%A8%D8%A7%D8%BA%E2%80%AD/data=!4m7!3m6!1s0x390cfc7abcd4bae7:0xe8588606af183e3c!8m2!3d28.6855897!4d77.2762341!16s%2Fg%2F11bxdtk5g1!19sChIJ57rUvHr8DDkRPD4YrwaGWOg?authuser=0&hl=en&rclk=1,"28.685589699999998,77.2762341"
"Budhgaon, Jam E Masjid",Mosque,"Budhgaon, Jam E Masjid, 905, Jam-E-Masjid Road,, Budhgaon, Maharashtra",,"905, Jam-E-Masjid Road,",Budhgaon,,Maharashtra,IN,"https://www.google.com/maps/place/Budhgaon,+Jam+E+Masjid/data=!4m7!3m6!1s0x3bc13d5b969387e9:0x37098832520cacf3!8m2!3d16.9061336!4d74.5989374!16s%2Fg%2F11b824ytjp!19sChIJ6YeTlls9wTsR86wMUjKICTc?authuser=0&hl=en&rclk=1","16.9061336,74.5989374"
EIDGAH & MASJID MANDOLI `ydgh & msjd mndd wly,Mosque,"P837+Q5M EIDGAH & MASJID MANDOLI `ydgh & msjd mndd wly, BUDH BAZAR ROAD BANK COLONY RAJIV NAGAR, Mandoli, Delhi, 110093","Budh Vihar, Mandoli","P837+Q5M, BUDH BAZAR ROAD BANK COLONY RAJIV NAGAR",Delhi,110093,Delhi,IN,https://www.google.com/maps/place/EIDGAH+%26+MASJID+MANDOLI+%D8%B9%DB%8C%D8%AF%DA%AF%D8%A7%DB%81+%26+%D9%85%D8%B3%D8%AC%D8%AF+%D9%85%D9%86%DA%88+%D9%88%D9%84%DB%8C%E2%80%AD/data=!4m7!3m6!1s0x390cfbc103a082b5:0x7e3fa7e11bedab2b!8m2!3d28.7044533!4d77.3129223!16s%2Fg%2F11cmzzb_k5!19sChIJtYKgA8H7DDkRK6vtG-GnP34?authuser=0&hl=en&rclk=1,"28.704453299999997,77.3129223"
Masjid Baghdad,Mosque,"H6RV+437 Masjid Baghdad, Nizamuddin, Nizammudin West Slum, Nizamuddin West, New Delhi, Delhi 110013","Nizamuddin, Nizammudin West Slum, Nizamuddin West",H6RV+437,New Delhi,110013,Delhi,IN,https://www.google.com/maps/place/Masjid+Baghdad/data=!4m7!3m6!1s0x390ce302db557bd3:0x79242b75b684b4c7!8m2!3d28.5902911!4d77.2426803!16s%2Fg%2F11f4l8_l87!19sChIJ03tV2wLjDDkRx7SEtnUrJHk?authuser=0&hl=en&rclk=1,"28.590291099999998,77.2426803"
IMAM AHMAD RAZA JAMA MASJID,Mosque,"IMAM AHMAD RAZA JAMA MASJID, B 665, Pocket 4, B Block, JJ Colony, Uttam Nagar, New Delhi, Delhi, 110059","Pocket 4, B Block, JJ Colony, Uttam Nagar",B 665,"New Delhi, Delhi",110059,Delhi,IN,https://www.google.com/maps/place/IMAM+AHMAD+RAZA+JAMA+MASJID/data=!4m7!3m6!1s0x390d052171654883:0xcbc2bc8f49e66da2!8m2!3d28.6253214!4d77.0630461!16s%2Fg%2F11n5gz54q_!19sChIJg0hlcSEFDTkRom3mSY-8wss?authuser=0&hl=en&rclk=1,"28.625321399999997,77.0630461"
Masjid Badi msjd,Mosque,"Masjid Badi msjd, 893,, Chittli Qabar Bazar Rd, Jama Masjid, Chandni Chowk, New Delhi, Delhi 110006","Bazar Chitli Qabar, Kucha Chelan, Jama Masjid, Chandni Chowk","893,, Chittli Qabar Bazar Rd","New Delhi, Delhi",110006,Delhi,IN,https://www.google.com/maps/place/Masjid+Badi+%D9%85%D8%B3%D8%AC%D8%AF%E2%80%AD/data=!4m7!3m6!1s0x390cfd219cfec1f3:0x93ccacb281d71709!8m2!3d28.645321!4d77.2357133!16s%2Fg%2F12m98gjn5!19sChIJ88H-nCH9DDkRCRfXgbKszJM?authuser=0&hl=en&rclk=1,"28.645321,77.2357133"
gosiiyaa msjid,Mosque,"gosiiyaa msjid, 02, New Delhi Main Rd, D Block, Madanpur Khadar, New Delhi, Delhi 110076, New Delhi Main Rd, D Block, Madanpur Khadar, New Delhi, Delhi 110076","D Block, Madanpur Khadar","02, New Delhi Main Rd, D Block, Madanpur Khadar, New Delhi, Delhi 110076, New Delhi Main Rd",New Delhi,110076,Delhi,IN,https://www.google.com/maps/place/%E0%A4%97%E0%A5%8B%E0%A4%B8%E0%A5%80%E0%A4%AF%E0%A4%BE+%E0%A4%AE%E0%A4%B8%E0%A5%8D%E0%A4%9C%E0%A4%BF%E0%A4%A6/data=!4m7!3m6!1s0x390ce69a677df04b:0x404fbe46be663e7f!8m2!3d28.5310436!4d77.317571!16s%2Fg%2F11g6rfnfc8!19sChIJS_B9Z5rmDDkRfz5mvka-T0A?authuser=0&hl=en&rclk=1,"28.5310436,77.317571"
Masjid,Mosque,"H769+P87 Masjid, Block A, Friends Colony East, New Friends Colony, New Delhi, Delhi 110025","Block A, Friends Colony East, New Friends Colony",H769+P87,New Delhi,110025,Delhi,IN,https://www.google.com/maps/place/Masjid/data=!4m7!3m6!1s0x390ce3a3874c1a6d:0x3777b5148e43553a!8m2!3d28.5617917!4d77.2683072!16s%2Fg%2F11grc87l61!19sChIJbRpMh6PjDDkROlVDjhS1dzc?authuser=0&hl=en&rclk=1,"28.561791699999997,77.2683072"
Masjid Phatak Dhobiyan,Mosque,"M639+4W9 Masjid Phatak Dhobiyan, Phatak Dhobiyan, Farash Khana, Chandni Chowk, Delhi, 110006","Chabdi Bazar, Shardhanand Market, Farash Khana, Chandni Chowk","M639+4W9, Phatak Dhobiyan",Delhi,110006,Delhi,IN,https://www.google.com/maps/place/Masjid+Phatak+Dhobiyan/data=!4m7!3m6!1s0x390cfd137ba86047:0x6315b181c3dabea9!8m2!3d28.6527816!4d77.2198509!16s%2Fg%2F11gcqww2w6!19sChIJR2CoexP9DDkRqb7aw4GxFWM?authuser=0&hl=en&rclk=1,"28.652781599999997,77.2198509"
Subhaniya Masjid,Mosque,"Subhaniya Masjid, F-3, Gali Number 4, Block C, Devli, Sangam Vihar, New Delhi, Delhi 110080, Gali Number 4, Block C, Devli, Sangam Vihar, New Delhi, Delhi 110080","Block C, Devli, Sangam Vihar","F-3, Gali Number 4, Block C, Devli, Sangam Vihar, New Delhi, Delhi 110080, Gali Number 4",New Delhi,110080,Delhi,IN,https://www.google.com/maps/place/Subhaniya+Masjid/data=!4m7!3m6!1s0x390ce107cf98c8e9:0x7387f695087ffa88!8m2!3d28.4986983!4d77.2427538!16s%2Fg%2F11g8wd8z83!19sChIJ6ciYzwfhDDkRiPp_CJX2h3M?authuser=0&hl=en&rclk=1,"28.498698299999997,77.2427538"
Haji Ishaque Wali Masjid,Mosque,"428W+XWM Haji Ishaque Wali Masjid, Unnamed Road,, Salamba, Haryana 122103",,"428W+XWM, Unnamed Road,",Salamba,122103,Haryana,IN,https://www.google.com/maps/place/Haji+Ishaque+Wali+Masjid/data=!4m7!3m6!1s0x390d2db11b0d2e41:0xfbad7e6785ccf9fe!8m2!3d28.1174603!4d77.047294!16s%2Fg%2F11c1w0q4sg!19sChIJQS4NG7EtDTkR_vnMhWd-rfs?authuser=0&hl=en&rclk=1,"28.117460299999998,77.047294"
JAMA MASJID UMAR BIN KHATTAB,Mosque,"G8W3+XWV JAMA MASJID UMAR BIN KHATTAB, Kalindi Kunj Rd, Block H, Jamia Nagar, Okhla, New Delhi, Delhi 110025","Block H, Jamia Nagar, Okhla","G8W3+XWV, Kalindi Kunj Rd",New Delhi,110025,Delhi,IN,https://www.google.com/maps/place/JAMA+MASJID+UMAR+BIN+KHATTAB/data=!4m7!3m6!1s0x390ce51eb7ea0bfd:0xe968824c610cc265!8m2!3d28.5474867!4d77.3047909!16s%2Fg%2F11h7p6jtqd!19sChIJ_Qvqtx7lDDkRZcIMYUyCaOk?authuser=0&hl=en&rclk=1,"28.5474867,77.3047909"
Mehbube Ilahi Masjid msjd mHbwbi lhy,Mosque,"Mehbube Ilahi Masjid msjd mHbwbi lhy, 200, Gali Number 12, Block G, Talimabad, Sangam Vihar, New Delhi, Delhi 110044","Block G, Talimabad, Sangam Vihar","200, Gali Number 12",New Delhi,110044,Delhi,IN,https://www.google.com/maps/place/Mehbube+Ilahi+Masjid+%D9%85%D8%B3%D8%AC%D8%AF+%D9%85%D8%AD%D8%A8%D9%88%D8%A8%D9%90+%D8%A7%D9%84%D9%B0%DB%81%DB%8C%E2%80%AD/data=!4m7!3m6!1s0x390ce11192f7083f:0xae0dbbdbeca67b2c!8m2!3d28.5053455!4d77.2535063!16s%2Fg%2F11c618mbkp!19sChIJPwj3khHhDDkRLHum7Nu7Da4?authuser=0&hl=en&rclk=1,"28.505345499999997,77.2535063"
Masjid Aisha Gubradi,Mosque,"W6M3+X8G Masjid Aisha Gubradi, Gubradi, Raniala Khurd, Haryana 121103",,W6M3+X8G,"Gubradi, Raniala Khurd",,Haryana,IN,https://www.google.com/maps/place/Masjid+Aisha+Gubradi/data=!4m7!3m6!1s0x3973282c6aaaaaab:0x7538430783a1906f!8m2!3d27.934949!4d77.2033175!16s%2Fg%2F11f32f8r9b!19sChIJq6qqaiwoczkRb5ChgwdDOHU?authuser=0&hl=en&rclk=1,"27.934949,77.2033175"
Masjid Hanfia,Mosque,"Masjid Hanfia, 2782, Kinari Bazar Rd, Dariba Kalan, Chandni Chowk, New Delhi, Delhi, 110006","Dariba Kalan, Chandni Chowk","2782, Kinari Bazar Rd","New Delhi, Delhi",110006,Delhi,IN,https://www.google.com/maps/place/Masjid+Hanfia/data=!4m7!3m6!1s0x390cfd1bb62b3d41:0xf6fbda834003d153!8m2!3d28.6548812!4d77.2324217!16s%2Fg%2F12ll5bm71!19sChIJQT0rthv9DDkRU9EDQIPa-_Y?authuser=0&hl=en&rclk=1,"28.6548812,77.2324217"
Masjid Badal Beig,Mosque,"Masjid Badal Beig, 5005, Lalkuan Bazar Rd, Bazar Sirkiwalan, Kaccha Pandit Main Bazar, Lal Kuan Bazar, Chandni Chowk, Delhi, 110006","Bazar Sirkiwalan, Kaccha Pandit Main Bazar, Lal Kuan Bazar, Chandni Chowk","5005, Lalkuan Bazar Rd",Delhi,110006,Delhi,IN,https://www.google.com/maps/place/Masjid+Badal+Beig/data=!4m7!3m6!1s0x390cfd16f0b0654b:0xb1cce8d6fe259090!8m2!3d28.6503682!4d77.2254128!16s%2Fg%2F1hm2fcyvw!19sChIJS2Ww8Bb9DDkRkJAl_tbozLE?authuser=0&hl=en&rclk=1,"28.6503682,77.2254128"
MASJID GOUSUL WARA,Mosque,"G79M+8MW MASJID GOUSUL WARA, Tekhand, Okhla Phase I, Okhla Industrial Estate, New Delhi, Delhi 110020","Tekhand, Okhla Phase I, Okhla Industrial Estate",G79M+8MW,New Delhi,110020,Delhi,IN,https://www.google.com/maps/place/MASJID+GOUSUL+WARA/data=!4m7!3m6!1s0x390ce15f4f8ec11b:0x9d50897d641b8031!8m2!3d28.5183625!4d77.2842054!16s%2Fg%2F11sy5qrxj3!19sChIJG8GOT1_hDDkRMYAbZH2JUJ0?authuser=0&hl=en&rclk=1,"28.5183625,77.28420539999999"
Ghaziuddin's Mosque,Mosque,"J6WC+27Q Ghaziuddin's Mosque, Desh Bandhu Gupta Rd, Ajmeri Gate, New Delhi, Delhi, 110006",Ajmeri Gate,"J6WC+27Q, Desh Bandhu Gupta Rd","New Delhi, Delhi",110006,Delhi,IN,https://www.google.com/maps/place/Ghaziuddin%27s+Mosque/data=!4m7!3m6!1s0x390cfd3e4a23a085:0xc3158b353abd92f2!8m2!3d28.6450762!4d77.2207416!16s%2Fg%2F12hmk812x!19sChIJhaAjSj79DDkR8pK9OjWLFcM?authuser=0&hl=en&rclk=1,"28.6450762,77.2207416"
Masjid Sanauji,Mosque,"Masjid Sanauji, Shop No. 1630, Lal Kuan, Lalkuan Bazar Rd, Baradari, Chandni Chowk, New Delhi, Delhi 110006","Bazar Sirkiwalan, Baradari, Chandni Chowk","Shop No. 1630, Lal Kuan, Lalkuan Bazar Rd","New Delhi, Delhi",110006,Delhi,IN,https://www.google.com/maps/place/Masjid+Sanauji/data=!4m7!3m6!1s0x390cfd13fe3ea72d:0x27ea23bc5f650202!8m2!3d28.6529317!4d77.2232485!16s%2Fg%2F12hplq4pp!19sChIJLac-_hP9DDkRAgJlX7wj6ic?authuser=0&hl=en&rclk=1,"28.6529317,77.2232485"
Baghwali Masjid msjd bG wly,Mosque,"Baghwali Masjid msjd bG wly, 785, Nicholson Rd, Kashmere Gate, New Delhi, Delhi 110006","Ganda Nala Bazar, Kashmere Gate","785, Nicholson Rd","New Delhi, Delhi",110006,Delhi,IN,https://www.google.com/maps/place/Baghwali+Masjid+%D9%85%D8%B3%D8%AC%D8%AF+%D8%A8%D8%A7%D8%BA+%D9%88%D8%A7%D9%84%DB%8C%E2%80%AD/data=!4m7!3m6!1s0x390cfd092767785b:0xd4966cf4d21cbda8!8m2!3d28.6653187!4d77.2261277!16s%2Fg%2F12llwbr4n!19sChIJW3hnJwn9DDkRqL0c0vRsltQ?authuser=0&hl=en&rclk=1,"28.6653187,77.22612769999999"
Hazrat Bilaal Masjid,Mosque,"Hazrat Bilaal Masjid, 33, Futta Rd, Nikhil Vihar Colony, Ismailpur Extension, Faridabad, Haryana 121009","Nikhil Vihar Colony, Ismailpur Extension","33, Futta Rd",Faridabad,121009,Haryana,IN,https://www.google.com/maps/place/Hazrat+Bilaal+Masjid/data=!4m7!3m6!1s0x390ce7adfd62a999:0xb3d1176ee847a0f9!8m2!3d28.491861!4d77.3433433!16s%2Fg%2F11c619zjy9!19sChIJmali_a3nDDkR-aBH6G4X0bM?authuser=0&hl=en&rclk=1,"28.491861,77.3433433"
Madarsa Rashidiya Masjid,Mosque,"J6MR+85P Madarsa Rashidiya Masjid, Bahadur Shah Zafar Marg, Maulana Azad Medical College Campus, Balmiki Basti, Vikram Nagar, New Delhi, Delhi, 110002","Maulana Azad Medical College Campus, Balmiki Basti, Vikram Nagar","J6MR+85P, Bahadur Shah Zafar Marg","New Delhi, Delhi",110002,Delhi,IN,https://www.google.com/maps/place/Madarsa+Rashidiya+Masjid/data=!4m7!3m6!1s0x390cfdeb4ab5bc19:0x53a0d804e40e1e9e!8m2!3d28.6333351!4d77.2404638!16s%2Fg%2F11sq1jxmjs!19sChIJGby1Suv9DDkRnh4O5ATYoFM?authuser=0&hl=en&rclk=1,"28.6333351,77.2404638"
khastagul Masjid,Mosque,"M7X5+VPJ khastagul Masjid, Street No. 17, Block C, Goutampuri, Shahdara, Delhi, 110053","Block C, Goutampuri, Shahdara","M7X5+VPJ, Street No. 17",Delhi,110053,Delhi,IN,https://www.google.com/maps/place/khastagul+Masjid/data=!4m7!3m6!1s0x390cfc3ee7e64d6b:0x2eaf347ee8a2fd14!8m2!3d28.6997085!4d77.2592707!16s%2Fg%2F11f2w6w5kj!19sChIJa03m5z78DDkRFP2i6H40ry4?authuser=0&hl=en&rclk=1,"28.6997085,77.2592707"
Eidgaah masjid,Mosque,"6V4Q+WVR Eidgaah masjid, Haryana 122015",,6V4Q+WVR,,122015,Haryana,IN,https://www.google.com/maps/place/Eidgaah+masjid/data=!4m7!3m6!1s0x390d3769558e25e3:0x41b2327e9c7d82fd!8m2!3d28.2073643!4d76.8896302!16s%2Fg%2F11g71y0lyz!19sChIJ4yWOVWk3DTkR_YJ9nH4yskE?authuser=0&hl=en&rclk=1,"28.2073643,76.8896302"
Masjid,Mosque,"H77Q+868 Masjid, Okhla Village, Okhla, New Delhi, Delhi 110025","Okhla Village, Okhla",H77Q+868,New Delhi,110025,Delhi,IN,https://www.google.com/maps/place/Masjid/data=!4m7!3m6!1s0x390ce47512f7aa2b:0x544337a9b9e5d7a2!8m2!3d28.5632814!4d77.2880932!16s%2Fg%2F11gbtpj5td!19sChIJK6r3EnXkDDkRotfluak3Q1Q?authuser=0&hl=en&rclk=1,"28.563281399999997,77.28809319999999"
Ishaq Masjid,Mosque,"Ishaq Masjid, Ishaq Masjid Wali Gali, Block C, Sarai Kale Khan, New Delhi, Delhi 110013","Block C, Sarai Kale Khan",Ishaq Masjid Wali Gali,New Delhi,110013,Delhi,IN,https://www.google.com/maps/place/Ishaq+Masjid/data=!4m7!3m6!1s0x390ce376f8a80f59:0x43d242dbd3376818!8m2!3d28.5849571!4d77.2565889!16s%2Fg%2F11q2tx_6x1!19sChIJWQ-o-HbjDDkRGGg309tC0kM?authuser=0&hl=en&rclk=1,"28.5849571,77.2565889"
Masjid-e-Umar Bagh Basti,Mosque,"22WV+6WP Masjid-e-Umar Bagh Basti, Unnamed Road, Malab, Haryana 122107",,"22WV+6WP, Unnamed Road",Malab,122107,Haryana,IN,https://www.google.com/maps/place/Masjid-e-Umar+Bagh+Basti/data=!4m7!3m6!1s0x3972d30b007df7b5:0x629bbe17c2aeb435!8m2!3d28.045592!4d77.0448298!16s%2Fg%2F11h04lsvxp!19sChIJtfd9AAvTcjkRNbSuwhe-m2I?authuser=0&hl=en&rclk=1,"28.045592,77.0448298"
Madina Masjid,Mosque,"WJ52+MJ3 Madina Masjid, Budhgaon, Maharashtra 416304",,WJ52+MJ3,Budhgaon,,Maharashtra,IN,https://www.google.com/maps/place/Madina+Masjid/data=!4m7!3m6!1s0x3bc13d5daf44a439:0xcc5e8fcc1acbcf11!8m2!3d16.9091277!4d74.6015447!16s%2Fg%2F11hbq95sbc!19sChIJOaREr109wTsREc_LGsyPXsw?authuser=0&hl=en&rclk=1,"16.9091277,74.60154469999999"
Juber Masjid,Mosque,"WH6X+F5W Juber Masjid, Budhgaon, Maharashtra 416304",,WH6X+F5W,Budhgaon,,Maharashtra,IN,https://www.google.com/maps/place/Juber+Masjid/data=!4m7!3m6!1s0x3bc13d60a6d5a087:0x65fe7bf4957aba3d!8m2!3d16.9112367!4d74.597963!16s%2Fg%2F11f3x560b0!19sChIJh6DVpmA9wTsRPbp6lfR7_mU?authuser=0&hl=en&rclk=1,"16.9112367,74.597963"
Fukrulla Beg Masjid,Mosque,"M62C+Q3V Fukrulla Beg Masjid, Fasil Rd, Chabdi Bazar, Shardhanand Market, Farash Khana, Chandni Chowk, New Delhi, Delhi, 110006","Chabdi Bazar, Shardhanand Market, Farash Khana, Chandni Chowk","M62C+Q3V, Fasil Rd","New Delhi, Delhi",110006,Delhi,IN,https://www.google.com/maps/place/Fukrulla+Beg+Masjid/data=!4m7!3m6!1s0x390cfd1483eebfb7:0xc967bc440a10c6d5!8m2!3d28.6519886!4d77.2201721!16s%2Fg%2F1hm6f2k64!19sChIJt7_ugxT9DDkR1cYQCkS8Z8k?authuser=0&hl=en&rclk=1,"28.6519886,77.2201721"
Ijaba Masjid,Mosque,"Ijaba Masjid, 1489/16, Block D, Chand Vihar, New Mustafabad, Delhi, 110094","Block D, Chand Vihar, New Mustafabad",1489/16,Delhi,110094,Delhi,IN,https://www.google.com/maps/place/Ijaba+Masjid/data=!4m7!3m6!1s0x390cfd4112cff819:0x124578cf76e8540b!8m2!3d28.7086594!4d77.2713446!16s%2Fg%2F11j08711wr!19sChIJGfjPEkH9DDkRC1Tods94RRI?authuser=0&hl=en&rclk=1,"28.7086594,77.27134459999999"
Mr.SAHEEM MALIK,Mosque,"Mr.SAHEEM MALIK, Gali no. 3 - Tirpal Factory Mustafabad, near Ayisha masjid, 25 Futa Rd, near by Aisha Masjid, chowk, Delhi 110094","Shakti Vihar, Old Mustafabad, chowk","Gali no. 3 - Tirpal Factory Mustafabad, near Ayisha masjid, 25 Futa Rd, near by Aisha Masjid",Delhi,110094,Delhi,IN,https://www.google.com/maps/place/Mr.SAHEEM+MALIK/data=!4m7!3m6!1s0x390cfd9a44cd4997:0xffdc8860c53e3f2b!8m2!3d28.7159667!4d77.272238!16s%2Fg%2F11h3cwgc8y!19sChIJl0nNRJr9DDkRKz8-xWCI3P8?authuser=0&hl=en&rclk=1,"28.7159667,77.272238"
Masjid,Mosque,"Q6MJ+5H5 Masjid, Badarpur, Madanpur Khadar, New Delhi, 110084",Madanpur Khadar,"Q6MJ+5H5, Badarpur","New Delhi, Delhi",110084,Delhi,IN,https://www.google.com/maps/place/Masjid/data=!4m7!3m6!1s0x390cffb780460377:0x9fe224e9c653e965!8m2!3d28.7828891!4d77.2314704!16s%2Fg%2F11qn790lvq!19sChIJdwNGgLf_DDkRZelTxukk4p8?authuser=0&hl=en&rclk=1,"28.7828891,77.23147039999999"
Masjid -ul- Huda,Mosque,"Masjid -ul- Huda, Ghaffar Manzil Colony, Jamia Nagar, Okhla, New Delhi, Delhi 110025","Ghaffar Manzil Colony, Jamia Nagar, Okhla",,New Delhi,110025,Delhi,IN,https://www.google.com/maps/place/Masjid+-ul-+Huda/data=!4m7!3m6!1s0x390ce366343059d7:0xa0f02fd58939dd8c!8m2!3d28.5570011!4d77.2828061!16s%2Fg%2F11rqhr3cqm!19sChIJ11kwNGbjDDkRjN05idUv8KA?authuser=0&hl=en&rclk=1,"28.557001099999997,77.2828061"
Idegha Masjid,Mosque,"Idegha Masjid, near Idegha Mamudiya Mohhalla, Roopraka, Haryana 121103",,near Idegha Mamudiya Mohhalla,Roopraka,121103,Haryana,IN,https://www.google.com/maps/place/Idegha+Masjid/data=!4m7!3m6!1s0x39732b19066edaad:0xe86bdf15ee9be6cc!8m2!3d27.9996264!4d77.2019309!16s%2Fg%2F11hdws4wtw!19sChIJrdpuBhkrczkRzOab7hXfa-g?authuser=0&hl=en&rclk=1,"27.9996264,77.2019309"
Masjid,Mosque,"Masjid, 191/1, JJ Colony, New Krishna Park, Vikaspuri, New Delhi, Delhi, 110018","JJ Colony, New Krishna Park, Vikaspuri",191/1,"New Delhi, Delhi",110018,Delhi,IN,https://www.google.com/maps/place/Masjid/data=!4m7!3m6!1s0x390d0523e13f6ebf:0xcf430f5986189794!8m2!3d28.6318645!4d77.0776203!16s%2Fg%2F11kq3krq6c!19sChIJv24_4SMFDTkRlJcYhlkPQ88?authuser=0&hl=en&rclk=1,"28.6318645,77.07762029999999"
Masjid,Mosque,"Masjid, 2508, Fasil Rd, Gali Sakko Wali, Shah Ganj, Chandni Chowk, New Delhi, Delhi, 110006","Gali Sakko Wali, Shah Ganj, Chandni Chowk","2508, Fasil Rd","New Delhi, Delhi",110006,Delhi,IN,https://www.google.com/maps/place/Masjid/data=!4m7!3m6!1s0x390cfd15c9a8a4b1:0xf975aada141da03e!8m2!3d28.6491552!4d77.2220471!16s%2Fg%2F1hm4gjxkd!19sChIJsaSoyRX9DDkRPqAdFNqqdfk?authuser=0&hl=en&rclk=1,"28.6491552,77.2220471"
msjid,Mosque,"msjid, 249, Swami Amardev Marg, Bara Bazar, Maharam Mohalla, Shahdara, Delhi, 110032","Bara Bazar, Maharam Mohalla, Shahdara","249, Swami Amardev Marg",Delhi,110032,Delhi,IN,https://www.google.com/maps/place/%E0%A4%AE%E0%A4%B8%E0%A5%8D%E0%A4%9C%E0%A4%BF%E0%A4%A6/data=!4m7!3m6!1s0x390cfb490b84c709:0x30ecad58f89bafaa!8m2!3d28.6687399!4d77.2917355!16s%2Fg%2F11n03hfp8k!19sChIJCceEC0n7DDkRqq-b-Fit7DA?authuser=0&hl=en&rclk=1,"28.6687399,77.2917355"
Masjid,Mosque,"Masjid, 42C, Central Auto Market, Block B, Sector 16, Noida, Uttar Pradesh 201301","Central Auto Market, Block B, Sector 16",42C,Noida,201301,Uttar Pradesh,IN,https://www.google.com/maps/place/Masjid/data=!4m7!3m6!1s0x390ce45b6e8b8d05:0x1c6debc04866e60!8m2!3d28.577362!4d77.31624!16s%2Fg%2F11c6rj0f0y!19sChIJBY2LblvkDDkRYG6GBLzexgE?authuser=0&hl=en&rclk=1,"28.577361999999997,77.31624"
Aqsha masjid Buchabas,Mosque,"R5Q2+782 Aqsha masjid Buchabas, Badli, Haryana 122508",,R5Q2+782,Badli,122508,Haryana,IN,https://www.google.com/maps/place/Aqsha+masjid+Buchabas/data=!4m7!3m6!1s0x3972d95d559ce0d5:0xbbf77f4a0bccba31!8m2!3d27.83813!4d77.150754!16s%2Fg%2F11qn6sksp_!19sChIJ1eCcVV3ZcjkRMbrMC0p_97s?authuser=0&hl=en&rclk=1,"27.83813,77.15075399999999"
Jama masjid pashchim tola majgawan,Mosque,"G7XW+HWR Jama masjid pashchim tola majgawan, Majgawan Rusabari road, Block A, Okhla, New Delhi, Delhi 854330","Block A, Okhla","G7XW+HWR, Majgawan Rusabari road",New Delhi,854330,Delhi,IN,https://www.google.com/maps/place/Jama+masjid+pashchim+tola+majgawan/data=!4m7!3m6!1s0x390ce5c344741e49:0x19361e47376049f7!8m2!3d28.5489767!4d77.2972779!16s%2Fg%2F11rbkss609!19sChIJSR50RMPlDDkR90lgN0ceNhk?authuser=0&hl=en&rclk=1,"28.548976699999997,77.2972779"
Masjid,Mosque,"Masjid, Molarband, Badarpur, New Delhi, Delhi 110044","Molarband, Badarpur",,New Delhi,110044,Delhi,IN,https://www.google.com/maps/place/Masjid/data=!4m7!3m6!1s0x390ce75604c9317b:0x95388f2bb1f0f9b2!8m2!3d28.5063324!4d77.3130947!16s%2Fg%2F11rkpbdy5r!19sChIJezHJBFbnDDkRsvnwsSuPOJU?authuser=0&hl=en&rclk=1,"28.506332399999998,77.3130947"
Masjid,Mosque,"9M74+66G Masjid, Hirnoti, Uttar Pradesh 203203",,9M74+66G,Hirnoti,203203,Uttar Pradesh,IN,https://www.google.com/maps/place/Masjid/data=!4m7!3m6!1s0x390cbbdfa6584727:0x4a1e67c0bd32dfaf!8m2!3d28.36306!4d77.6555641!16s%2Fg%2F11dzwm3m09!19sChIJJ0dYpt-7DDkRr98yvcBnHko?authuser=0&hl=en&rclk=1,"28.363059999999997,77.65556409999999"
Masjid,Mosque,"RX4J+M39 Masjid, Rajoli, Sulela, Haryana 122104",,RX4J+M39,"Rajoli, Sulela",122104,Haryana,IN,https://www.google.com/maps/place/Masjid/data=!4m7!3m6!1s0x3972c534275ef4ab:0xdc27d3a7ace97738!8m2!3d27.8066544!4d76.9802205!16s%2Fg%2F11j3xmhg73!19sChIJq_ReJzTFcjkROHfprKfTJ9w?authuser=0&hl=en&rclk=1,"27.8066544,76.9802205"
Masjid Raza_E_Mustafa,Mosque,"77FJ+2H8 Masjid Raza_E_Mustafa, Bhindora, Mindora, Uttar Pradesh 243401",,77FJ+2H8,"Bhindora, Mindora",,Uttar Pradesh,IN,https://www.google.com/maps/place/Masjid+Raza_E_Mustafa/data=!4m7!3m6!1s0x390aadae8ae639a3:0xe6c36b718094c2c3!8m2!3d28.2725493!4d79.2814653!16s%2Fg%2F11jz49pmk_!19sChIJoznmiq6tCjkRw8KUgHFrw-Y?authuser=0&hl=en&rclk=1,"28.272549299999998,79.2814653"
Palikha Bhawan masjid,Mosque,"H5CM+CR Palikha Bhawan masjid, Block B, Sector 13, Rama Krishna Puram, New Delhi, Delhi 110023","Block B, Sector 13, Rama Krishna Puram",H5CM+CR,New Delhi,,Delhi,IN,https://www.google.com/maps/place/Palikha+Bhawan+masjid/data=!4m7!3m6!1s0x390d1d225eb0fc93:0xd02146e38fc68bbc!8m2!3d28.5711007!4d77.1846199!16s%2Fg%2F11tjs4v4h2!19sChIJk_ywXiIdDTkRvIvGj-NGIdA?authuser=0&hl=en&rclk=1,"28.5711007,77.1846199"
Masjid,Mosque,"Masjid, 8/2, Budh Bazar, Block L 1, Devli, Sangam Vihar, New Delhi, Delhi 110062","Budh Bazar, Block L 1, Devli, Sangam Vihar",8/2,New Delhi,110062,Delhi,IN,https://www.google.com/maps/place/Masjid/data=!4m7!3m6!1s0x390ce1dde82b3bc3:0x4d3537cacd38aec4!8m2!3d28.4940769!4d77.2261653!16s%2Fg%2F11rk33_10p!19sChIJwzsr6N3hDDkRxK44zco3NU0?authuser=0&hl=en&rclk=1,"28.4940769,77.22616529999999"
Masjid Bagheechey Wali,Mosque,"Masjid Bagheechey Wali, 5200, Kucha Rehman Gali, New Krishna Cloth Market, Katra Rathi, Chandni Chowk, New Delhi, Delhi, 110006","New Krishna Cloth Market, Katra Rathi, Chandni Chowk","5200, Kucha Rehman Gali","New Delhi, Delhi",110006,Delhi,IN,https://www.google.com/maps/place/Masjid+Bagheechey+Wali/data=!4m7!3m6!1s0x390cfd369091dc93:0x980e7cf6a2accc8a!8m2!3d28.6548146!4d77.2267999!16s%2Fg%2F11jgxc_zvm!19sChIJk9yRkDb9DDkRisysovZ8Dpg?authuser=0&hl=en&rclk=1,"28.654814599999998,77.2267999"
Mohommdi masjid,Mosque,"gali no 17Dariy, Mohommdi masjid, Prem Vihar Nagali, A-31, Prem Vihar Colony, Ghasipura, Nangli Vihar, Delhi, 110043","Prem Vihar Colony, Ghasipura, Nangli Vihar","gali no 17Dariy, Prem Vihar Nagali, A-31",Delhi,110043,Delhi,IN,https://www.google.com/maps/place/Mohommdi+masjid/data=!4m7!3m6!1s0x390d05caf0ec8929:0x16273277b0fd0b7e!8m2!3d28.6253681!4d77.0186624!16s%2Fg%2F11q3n7zwcr!19sChIJKYns8MoFDTkRfgv9sHcyJxY?authuser=0&hl=en&rclk=1,"28.6253681,77.0186624"
Masjid Shatoot Wali,Mosque,"M67H+G5Q Masjid Shatoot Wali, Chhota Bazar, Mori Gate, New Delhi, Delhi, 110006","Chhota Bazar, Mori Gate",M67H+G5Q,"New Delhi, Delhi",110006,Delhi,IN,https://www.google.com/maps/place/Masjid+Shatoot+Wali/data=!4m7!3m6!1s0x390cfdd8114d08fd:0x326042596014276a!8m2!3d28.663827!4d77.2279973!16s%2Fg%2F11g4h_zjtj!19sChIJ_QhNEdj9DDkRaicUYFlCYDI?authuser=0&hl=en&rclk=1,"28.663826999999998,77.2279973"
Masjid Kaddan Wali,Mosque,"Masjid Kaddan Wali, 3800,, Charkhiwalan Gali, Khush Dil, Chandni Chowk, New Delhi, Delhi 110006","Khush Dil, Chandni Chowk","3800,, Charkhiwalan Gali","New Delhi, Delhi",110006,Delhi,IN,https://www.google.com/maps/place/Masjid+Kaddan+Wali/data=!4m7!3m6!1s0x390cfd19d610452b:0xf81efc1a357adee8!8m2!3d28.6506731!4d77.2290561!16s%2Fg%2F12hkbxr_7!19sChIJK0UQ1hn9DDkR6N56NRr8Hvg?authuser=0&hl=en&rclk=1,"28.6506731,77.2290561"
Masjid,Mosque,"Masjid, Gali No 19, Gali Number 1, Mustafabad Extn, New Mustafabad, Delhi, 110094","E2 Block, Mustafabad Extn, New Mustafabad","Gali No 19, Gali Number 1",Delhi,110094,Delhi,IN,https://www.google.com/maps/place/Masjid/data=!4m7!3m6!1s0x390cfc1b020b0e91:0xb48a3c3233e41cbd!8m2!3d28.711773!4d77.272563!16s%2Fg%2F12hpqnhjr!19sChIJkQ4LAhv8DDkRvRzkMzI8irQ?authuser=0&hl=en&rclk=1,"28.711772999999997,77.27256299999999"
Budha bas majid,Mosque,"5324+J65 Budha bas majid, Rethora, Haryana 122103",,5324+J65,Rethora,122103,Haryana,IN,https://www.google.com/maps/place/Budha+bas+majid/data=!4m7!3m6!1s0x390d2f4e4aab2e67:0x8f0fd9b4ad627a12!8m2!3d28.151511!4d77.0556025!16s%2Fg%2F11sb32mf2j!19sChIJZy6rSk4vDTkREnpirbTZD48?authuser=0&hl=en&rclk=1,"28.151511,77.05560249999999"
bddii Masjid,Mosque,"RX2Q+789 bddii Masjid, Nangli, Haryana 122104",,RX2Q+789,Nangli,122104,Haryana,IN,https://www.google.com/maps/place/%E0%A4%AC%E0%A4%A1%E0%A5%80+Masjid/data=!4m7!3m6!1s0x3972c500392e894d:0x43f090ddfa522d83!8m2!3d27.8006528!4d76.9883551!16s%2Fg%2F11rrpyygxd!19sChIJTYkuOQDFcjkRgy1S-t2Q8EM?authuser=0&hl=en&rclk=1,"27.800652799999998,76.98835509999999"
Jamia Masjid Bhakroji,Mosque,"MXW6+PH Jamia Masjid Bhakroji, Bhakroji, Haryana 122104",,MXW6+PH,Bhakroji,,Haryana,IN,https://www.google.com/maps/place/Jamia+Masjid+Bhakroji/data=!4m7!3m6!1s0x3972c312b9d05ed5:0x19648d772add1126!8m2!3d27.6967987!4d76.9613936!16s%2Fg%2F11q3qw458d!19sChIJ1V7QuRLDcjkRJhHdKneNZBk?authuser=0&hl=en&rclk=1,"27.6967987,76.9613936"
Jamah Masjid Badi,Mosque,"G8J7+7F5 Jamah Masjid Badi, JJ Colony, Madanpur Khadar, New Delhi, Delhi 110076","JJ Colony, Madanpur Khadar",G8J7+7F5,New Delhi,110076,Delhi,IN,https://www.google.com/maps/place/Jamah+Masjid+Badi/data=!4m7!3m6!1s0x390ce7b78eb036b1:0x8f6236080c1ca163!8m2!3d28.5306406!4d77.3137464!16s%2Fg%2F11kk081p_j!19sChIJsTawjrfnDDkRY6EcDAg2Yo8?authuser=0&hl=en&rclk=1,"28.530640599999998,77.3137464"
Broze Goldeh,Mosque,"Broze Goldeh, masjid Broze Goldeh Bala, Jamia, Batla House, Jamia Nagar, Okhla, New Delhi, Delhi 110025","Jamia, Batla House, Jamia Nagar, Okhla",masjid Broze Goldeh Bala,New Delhi,,Delhi,IN,https://www.google.com/maps/place/Broze+Goldeh/data=!4m7!3m6!1s0x390ce5041badef83:0xb41b020fcc58af6f!8m2!3d28.5665154!4d77.286847!16s%2Fg%2F11qbghsb2l!19sChIJg--tGwTlDDkRb69YzA8CG7Q?authuser=0&hl=en&rclk=1,"28.5665154,77.286847"
Masjid,Mosque,"Masjid, 20, Masjid Rd, Pervesh Nagar, Mubarakpur Dabas, New Delhi, Delhi, 110081","Pervesh Nagar, Mubarakpur Dabas","20, Masjid Rd","New Delhi, Delhi",110081,Delhi,IN,https://www.google.com/maps/place/Masjid/data=!4m7!3m6!1s0x390d075632dea237:0xe707b406c4cff64!8m2!3d28.7098866!4d77.0310854!16s%2Fg%2F11kq2cq2_1!19sChIJN6LeMlYHDTkRZP9MbEB7cA4?authuser=0&hl=en&rclk=1,"28.709886599999997,77.0310854"
Masjid,Mosque,"J2WM+MXF Masjid, Sunni Masjid Rd, Deep Enclave, Hastsal, Delhi, 110059","Deep Enclave, Hastsal","J2WM+MXF, Sunni Masjid Rd",Delhi,110059,Delhi,IN,https://www.google.com/maps/place/Masjid/data=!4m7!3m6!1s0x390d05267bb46283:0xaef6f06f366d7113!8m2!3d28.6466834!4d77.0349292!16s%2Fg%2F11vl8tpxw1!19sChIJg2K0eyYFDTkRE3FtNm_w9q4?authuser=0&hl=en&rclk=1,"28.646683399999997,77.0349292"
Masjid Bodsawala Wali,Mosque,"Masjid Bodsawala Wali, 2370,Chatta Shahji,Chawri Bazar, Dharam Pura Rd, Nai Wala, Chandni Chowk, New Delhi, Delhi 110006","Nai Wala, Chandni Chowk","2370,Chatta Shahji,Chawri Bazar, Dharam Pura Rd","New Delhi, Delhi",110006,Delhi,IN,https://www.google.com/maps/place/Masjid+Bodsawala+Wali/data=!4m7!3m6!1s0x390cfd19b6b59b81:0x1d0c8dba8ab5b549!8m2!3d28.6509214!4d77.2308029!16s%2Fg%2F1ptx9cfbw!19sChIJgZu1thn9DDkRSbW1irqNDB0?authuser=0&hl=en&rclk=1,"28.650921399999998,77.2308029"
Masjid,Mosque,"Masjid, L385, Block L, JJ Colony No 3, Nangloi, New Delhi, Delhi, 110041","Block L, JJ Colony No 3, Nangloi",L385,"New Delhi, Delhi",110041,Delhi,IN,https://www.google.com/maps/place/Masjid/data=!4m7!3m6!1s0x390d0530462f99ad:0xf47aa8290ce093fa!8m2!3d28.6842352!4d77.0742041!16s%2Fg%2F11smtj7p27!19sChIJrZkvRjAFDTkR-pPgDCmoevQ?authuser=0&hl=en&rclk=1,"28.6842352,77.0742041"
Masjid,Mosque,"Shop No: 5035, Masjid, Netaji Subhash Marg, Daryaganj, New Delhi, Delhi, 110002",Daryaganj,"Shop No: 5035, Netaji Subhash Marg","New Delhi, Delhi",110002,Delhi,IN,https://www.google.com/maps/place/Masjid/data=!4m7!3m6!1s0x390cfdf175041b95:0x8ef57a2bc9f92c1c!8m2!3d28.6480954!4d77.2403964!16s%2Fg%2F11s664lvxh!19sChIJlRsEdfH9DDkRHCz5ySt69Y4?authuser=0&hl=en&rclk=1,"28.6480954,77.2403964"
Masjid,Mosque,"M794+RG5 Masjid, Block A, Shastri Park, Shahdara, Delhi, 110053","Block A, Shastri Park, Shahdara",M794+RG5,Delhi,,Delhi,IN,https://www.google.com/maps/place/Masjid/data=!4m7!3m6!1s0x390cfd74b6378221:0x2da5c9212f831088!8m2!3d28.6695164!4d77.2563643!16s%2Fg%2F11tb42z9g0!19sChIJIYI3tnT9DDkRiBCDLyHJpS0?authuser=0&hl=en&rclk=1,"28.6695164,77.2563643"
Masjid,Mosque,"Masjid, I116, DSIIDC Industrial Area, Sector 5, Bawana, New Delhi, Delhi, 110039","DSIIDC Industrial Area, Sector 5, Bawana",I116,"New Delhi, Delhi",110039,Delhi,IN,https://www.google.com/maps/place/Masjid/data=!4m7!3m6!1s0x390da9cb278fea55:0x351e1b7ec09414c4!8m2!3d28.8011996!4d77.0752247!16s%2Fg%2F11vd9vydsd!19sChIJVeqPJ8upDTkRxBSUwH4bHjU?authuser=0&hl=en&rclk=1,"28.8011996,77.07522469999999"
"Masjid Allah hu mohalla Dhobi bagh, tauru",Mosque,"Masjid Allah hu mohalla Dhobi bagh, tauru, Bharangpur, Tauru, Haryana 122015",,,"Bharangpur, Tauru",,Haryana,IN,"https://www.google.com/maps/place/Masjid+Allah+hu+mohalla+Dhobi+bagh,+tauru/data=!4m7!3m6!1s0x390d31f22f1b441b:0xfd12f26303df0521!8m2!3d28.2040633!4d76.9498415!16s%2Fg%2F11t_zh4pz0!19sChIJG0QbL_IxDTkRIQXfA2PyEv0?authuser=0&hl=en&rclk=1","28.204063299999998,76.94984149999999"
Masjid E umar bin khathab,Mosque,"HRJW+76 Masjid E umar bin khathab, Poothi, Rajasthan 301026",,HRJW+76,Poothi,,Rajasthan,IN,https://www.google.com/maps/place/Masjid+E+umar+bin+khathab/data=!4m7!3m6!1s0x3972eb6136c48aab:0xbfc00915ff08ffd0!8m2!3d27.5807071!4d76.845576!16s%2Fg%2F11twhrhn_7!19sChIJq4rENmHrcjkR0P8I_xUJwL8?authuser=0&hl=en&rclk=1,"27.580707099999998,76.845576"
Sirat Masjid,Mosque,"WH4X+MG6 Sirat Masjid, Budhgaon, Maharashtra 416406",,WH4X+MG6,Budhgaon,,Maharashtra,IN,https://www.google.com/maps/place/Sirat+Masjid/data=!4m7!3m6!1s0x3bc13d5ea1983123:0xd37616ac4ce2aa77!8m2!3d16.9066721!4d74.5987652!16s%2Fg%2F11f3x55ds8!19sChIJIzGYoV49wTsRd6riTKwWdtM?authuser=0&hl=en&rclk=1,"16.906672099999998,74.5987652"
Makaa Masjid,Mosque,"WJ42+8XJ Makaa Masjid, Budhgaon, Maharashtra 416406",,WJ42+8XJ,Budhgaon,416406,Maharashtra,IN,https://www.google.com/maps/place/Makaa+Masjid/data=!4m7!3m6!1s0x3bc13df3aae6b8af:0xdf42a330a9fb7c32!8m2!3d16.905991!4d74.601909!16s%2Fg%2F11pyk0kvc1!19sChIJr7jmqvM9wTsRMnz7qTCjQt8?authuser=0&hl=en&rclk=1,"16.905991,74.60190899999999"
