name,main_category,address,address_ward,address_street,address_city,address_postal_code,address_state,address_country_code,link,coordinates
Masjid Ali R.A,Mosque,"Masjid Ali R.A, 15, Knowledge Park I, Greater Noida, Uttar Pradesh 201310",Knowledge Park I,15,Greater Noida,201310,Uttar Pradesh,IN,https://www.google.com/maps/place/Masjid+Ali+R.A/data=!4m7!3m6!1s0x390cea712b4acbfb:0xc448f9c2a131d33c!8m2!3d28.4721947!4d77.501467!16s%2Fg%2F11cks1l7jj!19sChIJ-8tKK3HqDDkRPNMxocL5SMQ?authuser=0&hl=en&rclk=1,"28.4721947,77.50146699999999"
Eid Gah Jama Masjid Kasna,Mosque,"CGVJ+8WV Eid Gah Jama Masjid Kasna, Ebony Estate, Phi IV, Greater Noida, Uttar Pradesh 201310","Ebony Estate, Phi IV",CGVJ+8WV,Greater Noida,201310,Uttar Pradesh,IN,https://www.google.com/maps/place/Eid+Gah+Jama+Masjid+Kasna/data=!4m7!3m6!1s0x390cc046df4b7faf:0x26fe9a467488383e!8m2!3d28.4433663!4d77.5322942!16s%2Fg%2F11bbx18l4k!19sChIJr39L30bADDkRPjiIdEaa_iY?authuser=0&hl=en&rclk=1,"28.443366299999997,77.5322942"
Masjid Gejha,Mosque,"Masjid Gejha, Masjid, Gejha, Sector 93, Noida, Uttar Pradesh 201304","Gejha, Sector 93",Masjid,Noida,201304,Uttar Pradesh,IN,https://www.google.com/maps/place/Masjid+Gejha/data=!4m7!3m6!1s0x390ce89f6928d40d:0x7bdcb893bd8c4e49!8m2!3d28.5240911!4d77.3822085!16s%2Fg%2F11c2nt4mg4!19sChIJDdQoaZ_oDDkRSU6MvZO43Hs?authuser=0&hl=en&rclk=1,"28.5240911,77.38220849999999"
Shia Jama Masjid & Imambargh,Mosque,"Shia Jama Masjid & Imambargh, 36, Knowledge Park II, Greater Noida, Uttar Pradesh 201308",Knowledge Park II,36,Greater Noida,201308,Uttar Pradesh,IN,https://www.google.com/maps/place/Shia+Jama+Masjid+%26+Imambargh/data=!4m7!3m6!1s0x390cea725c73a4df:0xdb2bd2383fbd3fb4!8m2!3d28.4754052!4d77.4964325!16s%2Fg%2F11y88zmtv!19sChIJ36RzXHLqDDkRtD-9PzjSK9s?authuser=0&hl=en&rclk=1,"28.475405199999997,77.4964325"
Mosque,Mosque,"FGF2+5FX Mosque, Knowledge Park I, Greater Noida, Uttar Pradesh 201310",Knowledge Park I,FGF2+5FX,Greater Noida,201310,Uttar Pradesh,IN,https://www.google.com/maps/place/Mosque/data=!4m7!3m6!1s0x390cea70d0ea3afd:0x97facef92256ca21!8m2!3d28.4729822!4d77.5012262!16s%2Fg%2F11gdrf0s5d!19sChIJ_Trq0HDqDDkRIcpWIvnO-pc?authuser=0&hl=en&rclk=1,"28.472982199999997,77.50122619999999"
Accher Kabristaan Masjid,Mosque,"Accher Kabristaan Masjid, Masjid, Masjid Rd, Accher, Pi I & II, Greater Noida, Uttar Pradesh 201310","Accher, Pi I & II","Masjid, Masjid Rd",Greater Noida,201310,Uttar Pradesh,IN,https://www.google.com/maps/place/Accher+Kabristaan+Masjid/data=!4m7!3m6!1s0x390ce982deef0b0b:0xc0898927475ae73c!8m2!3d28.4671021!4d77.5380385!16s%2Fg%2F1tn0451r!19sChIJCwvv3oLpDDkRPOdaRyeJicA?authuser=0&hl=en&rclk=1,"28.467102099999998,77.5380385"
Masjid Umar,Mosque,"Masjid Umar, Noida-Greater Noida Expy, Raipur Khadar, Sector 126, near Akansha Stationary Store, Noida, Uttar Pradesh 201313","Raipur Khadar, Sector 126","Noida-Greater Noida Expy, Raipur Khadar, Sector 126, near Akansha Stationary Store",Noida,201313,Uttar Pradesh,IN,https://www.google.com/maps/place/Masjid+Umar/data=!4m7!3m6!1s0x390ce678bd924cf9:0x4ecd946c6faa6ec6!8m2!3d28.5423387!4d77.3395738!16s%2Fg%2F11bxk9qkr9!19sChIJ-UySvXjmDDkRxm6qb2yUzU4?authuser=0&hl=en&rclk=1,"28.5423387,77.3395738"
Noor Masjid,Mosque,"GF5G+QCJ Noor Masjid, Surajpur, Greater Noida, Uttar Pradesh 201306",Surajpur,GF5G+QCJ,Greater Noida,201306,Uttar Pradesh,IN,https://www.google.com/maps/place/Noor+Masjid/data=!4m7!3m6!1s0x390cea2ca850b333:0x919796c885527f47!8m2!3d28.5094516!4d77.4760217!16s%2Fg%2F1tggrxc6!19sChIJM7NQqCzqDDkRR39ShciWl5E?authuser=0&hl=en&rclk=1,"28.5094516,77.47602169999999"
Hazrat Bilal Masjid,Mosque,"FG84+53Q Hazrat Bilal Masjid, Tugalpur, Greater Noida, Uttar Pradesh 201310",Tugalpur,FG84+53Q,Greater Noida,201310,Uttar Pradesh,IN,https://www.google.com/maps/place/Hazrat+Bilal+Masjid/data=!4m7!3m6!1s0x390cc1d7eca46917:0x810329113ce589ec!8m2!3d28.4654667!4d77.5052444!16s%2Fg%2F11c382x7v2!19sChIJF2mk7NfBDDkR7InlPBEpA4E?authuser=0&hl=en&rclk=1,"28.4654667,77.5052444"
Masjid Bilal R.A,Mosque,"FG84+348 Masjid Bilal R.A, Tugalpur, Greater Noida, Uttar Pradesh 201310",Tugalpur,FG84+348,Greater Noida,201310,Uttar Pradesh,IN,https://www.google.com/maps/place/Masjid+Bilal+R.A/data=!4m7!3m6!1s0x390cc1d78d879979:0x66c1562e4bc675b3!8m2!3d28.4651559!4d77.5053226!16s%2Fg%2F11cn0sbymf!19sChIJeZmHjdfBDDkRs3XGSy5WwWY?authuser=0&hl=en&rclk=1,"28.4651559,77.5053226"
MADINA MASJID,Mosque,"MADINA MASJID, near by Madina Masjid, Surajpur, Greater Noida, Uttar Pradesh 201306",Surajpur,near by Madina Masjid,Greater Noida,201306,Uttar Pradesh,IN,https://www.google.com/maps/place/MADINA+MASJID/data=!4m7!3m6!1s0x390cebd4a2cfcd5d:0xef254ab0e006d281!8m2!3d28.5113552!4d77.4752262!16s%2Fg%2F11csqzc253!19sChIJXc3PotTrDDkRgdIG4LBKJe8?authuser=0&hl=en&rclk=1,"28.511355199999997,77.4752262"
Abu-Bakr Masjid,Mosque,"FCRH+CF4 Abu-Bakr Masjid, Sector 144, Noida, Uttar Pradesh 201306",Sector 144,FCRH+CF4,Noida,201306,Uttar Pradesh,IN,https://www.google.com/maps/place/Abu-Bakr+Masjid/data=!4m7!3m6!1s0x390ce9c820c71173:0xcad169eb0df56d22!8m2!3d28.4910076!4d77.4287138!16s%2Fg%2F11gj0tpxz7!19sChIJcxHHIMjpDDkRIm31Detp0co?authuser=0&hl=en&rclk=1,"28.4910076,77.4287138"
Alivardipur Masjid,Mosque,"GCPQ+55R Alivardipur Masjid, Kulesara, Noida, Greater Noida, Uttar Pradesh 201306",Kulesara,GCPQ+55R,"Noida, Greater Noida",201306,Uttar Pradesh,IN,https://www.google.com/maps/place/Alivardipur+Masjid/data=!4m7!3m6!1s0x390ce93b63454b07:0x55a00fd129bd3d7!8m2!3d28.5354898!4d77.4378761!16s%2Fg%2F11f15dmk8s!19sChIJB0tFYzvpDDkR19ObEv0AWgU?authuser=0&hl=en&rclk=1,"28.535489799999997,77.4378761"
Madina Masjid Rashid,Mosque,"Madina Masjid Rashid, GSG Apartment, Dadri Main Rd, near Salarpur Khadar, Goyal Colony, Salarpur Khadar, Sector 107, Noida, Uttar Pradesh 201304","Goyal Colony, Salarpur Khadar, Sector 107","GSG Apartment, Dadri Main Rd, near Salarpur Khadar",Noida,201304,Uttar Pradesh,IN,https://www.google.com/maps/place/Madina+Masjid+Rashid/data=!4m7!3m6!1s0x390ce8aadf47c639:0x3a6080bd75ddc9c!8m2!3d28.5459251!4d77.3811889!16s%2Fg%2F11c6z084v0!19sChIJOcZH36roDDkRnNxd1wsIpgM?authuser=0&hl=en&rclk=1,"28.545925099999998,77.3811889"
Masjid And Eidgah,Mosque,"FGF2+5FQ Masjid And Eidgah, Knowledge Park I, Greater Noida, Uttar Pradesh 201308",Knowledge Park I,FGF2+5FQ,Greater Noida,201308,Uttar Pradesh,IN,https://www.google.com/maps/place/Masjid+And+Eidgah/data=!4m7!3m6!1s0x390cea709a5e459f:0xcd0a0e5f7c6737c7!8m2!3d28.4729673!4d77.5012318!16s%2Fg%2F11b_3fwwyy!19sChIJn0VemnDqDDkRxzdnfF8OCs0?authuser=0&hl=en&rclk=1,"28.472967299999997,77.5012318"
Begumpur Masjid,Mosque,"GF45+CRC Begumpur Masjid, Lakhnawali, Greater Noida, Uttar Pradesh 201308",Lakhnawali,GF45+CRC,Greater Noida,201308,Uttar Pradesh,IN,https://www.google.com/maps/place/Begumpur+Masjid/data=!4m7!3m6!1s0x390ce982deef0b0b:0x8bb16641f6c64b3a!8m2!3d28.5060688!4d77.4595307!16s%2Fg%2F1thnm4r1!19sChIJCwvv3oLpDDkROkvG9kFmsYs?authuser=0&hl=en&rclk=1,"28.506068799999998,77.4595307"
Shershah Masjid,Mosque,"GCPR+5G5 Shershah Masjid, Village, Haldoni, Greater Noida, Uttar Pradesh 201306",Haldoni,"GCPR+5G5, Village",Greater Noida,,Uttar Pradesh,IN,https://www.google.com/maps/place/Shershah+Masjid/data=!4m7!3m6!1s0x390ce93bffe298f9:0x5c23a70843f2e089!8m2!3d28.5353928!4d77.4413614!16s%2Fg%2F11bcdlrbmv!19sChIJ-Zji_zvpDDkRieDyQwinI1w?authuser=0&hl=en&rclk=1,"28.5353928,77.44136139999999"
"Old Jama Masjid, Kasna Village",Mosque,"CGQP+4PG Old Jama Masjid, Kasna Village, Unnamed Road, Kasna Village, Greater Noida, Uttar Pradesh 201310",Kasna Village,"CGQP+4PG, Unnamed Road",Greater Noida,201310,Uttar Pradesh,IN,"https://www.google.com/maps/place/Old+Jama+Masjid,+Kasna+Village/data=!4m7!3m6!1s0x390cc042f9e35129:0x798a169eb0586c52!8m2!3d28.4378193!4d77.5368419!16s%2Fg%2F11g8d90f0j!19sChIJKVHj-ULADDkRUmxYsJ4Wink?authuser=0&hl=en&rclk=1","28.437819299999997,77.5368419"
Huda Masjid_Islam nager,Mosque,"GCRQ+JHG Huda Masjid_Islam nager, Jalpura, Greater Noida, Uttar Pradesh 201306",Jalpura,"GCRQ+JHG, Jalpura",Greater Noida,201306,Uttar Pradesh,IN,https://www.google.com/maps/place/Huda+Masjid_Islam+nager/data=!4m7!3m6!1s0x390ce9308662e2bf:0x11b609f8730df804!8m2!3d28.5415668!4d77.4389486!16s%2Fg%2F11cs4cyq9p!19sChIJv-JihjDpDDkRBPgNc_gJthE?authuser=0&hl=en&rclk=1,"28.5415668,77.4389486"
Madina Masjid Haldoni,Mosque,"GCQR+WJ6 Madina Masjid Haldoni, Jalpura, Greater Noida, Uttar Pradesh 201306",Jalpura,GCQR+WJ6,Greater Noida,201306,Uttar Pradesh,IN,https://www.google.com/maps/place/Madina+Masjid+Haldoni/data=!4m7!3m6!1s0x390ce93a2007c659:0xf9004ae02b98b65!8m2!3d28.5397813!4d77.4415041!16s%2Fg%2F11g8xdmg4d!19sChIJWcYHIDrpDDkRZYu5Aq4EkA8?authuser=0&hl=en&rclk=1,"28.539781299999998,77.4415041"
Salmaan Farsi Mosque,Mosque,"GCVM+PP4 Salmaan Farsi Mosque, Vyapari Gali, Jalpura, Greater Noida, Uttar Pradesh 201306","Vyapari Gali, Jalpura",GCVM+PP4,Greater Noida,201306,Uttar Pradesh,IN,https://www.google.com/maps/place/Salmaan+Farsi+Mosque/data=!4m7!3m6!1s0x390ce92e38797747:0x3d20ce50f671c219!8m2!3d28.5442746!4d77.4343347!16s%2Fg%2F11dxf0qz9m!19sChIJR3d5OC7pDDkRGcJx9lDOID0?authuser=0&hl=en&rclk=1,"28.544274599999998,77.4343347"
Qadri Masjid Surajpur,Mosque,"GF6G+2P2 Qadri Masjid Surajpur, Surajpur, Greater Noida, Uttar Pradesh 201306",Surajpur,GF6G+2P2,Greater Noida,201306,Uttar Pradesh,IN,https://www.google.com/maps/place/Qadri+Masjid+Surajpur/data=!4m7!3m6!1s0x390ceb6e3c3152f3:0x76a62e2b4ad6a076!8m2!3d28.5100181!4d77.4767648!16s%2Fg%2F11gw1v7l82!19sChIJ81IxPG7rDDkRdqDWSisupnY?authuser=0&hl=en&rclk=1,"28.5100181,77.4767648"
Madina Masjid,Mosque,"Madina Masjid, 201306, Bisrakh Rd, Jalpura, Greater Noida, Uttar Pradesh 201009",Jalpura,"201306, Bisrakh Rd",Greater Noida,201009,Uttar Pradesh,IN,https://www.google.com/maps/place/Madina+Masjid/data=!4m7!3m6!1s0x390ce9310072b0f3:0x1e5e3e71c6858c64!8m2!3d28.5438856!4d77.4387029!16s%2Fg%2F11c6z02b40!19sChIJ87ByADHpDDkRZIyFxnE-Xh4?authuser=0&hl=en&rclk=1,"28.5438856,77.4387029"
Behind Masjid Area,Agricultural association,"GCVW+6V8 Behind Masjid Area, Khera, Choganpur Main Rd, behind Masjid Area, Jalpura, Greater Noida, Uttar Pradesh 201306",Jalpura,"GCVW+6V8 Khera, Choganpur Main Rd, behind Masjid Area",Greater Noida,201306,Uttar Pradesh,IN,https://www.google.com/maps/place/Behind+Masjid+Area/data=!4m7!3m6!1s0x390ce9481a4768dd:0xb759dc6dd6b5c674!8m2!3d28.5428329!4d77.4478479!16s%2Fg%2F11c5626s36!19sChIJ3WhHGkjpDDkRdMa11m3cWbc?authuser=0&hl=en&rclk=1,"28.542832899999997,77.4478479"
Noor Masjid,Mosque,"Noor Masjid, Noor Colony, Jalpura, Greater Noida, Uttar Pradesh 201306","Noor Colony, Jalpura",Noor Masjid,Greater Noida,201306,Uttar Pradesh,IN,https://www.google.com/maps/place/Noor+Masjid/data=!4m7!3m6!1s0x390ce937650f3ad9:0x15ba5a0d0b8a84a4!8m2!3d28.5419486!4d77.4434913!16s%2Fg%2F11hb43fhp4!19sChIJ2ToPZTfpDDkRpISKCw1auhU?authuser=0&hl=en&rclk=1,"28.541948599999998,77.44349129999999"
madina masjid,Mosque,"GCHX+JF9 madina masjid, Gali Number 2, Suthiyana, Greater Noida, Habibpur, Uttar Pradesh 201306",Suthiyana,"GCHX+JF9, Gali Number 2","Greater Noida, Habibpur",201306,Uttar Pradesh,IN,https://www.google.com/maps/place/madina+masjid/data=!4m7!3m6!1s0x390ce96a955241e7:0x52498bbcf576e3fe!8m2!3d28.5290296!4d77.4487229!16s%2Fg%2F11f3m943zp!19sChIJ50FSlWrpDDkR_uN29byLSVI?authuser=0&hl=en&rclk=1,"28.529029599999998,77.44872289999999"
"Shahi Masjid, Tughlaqi Masjid",Mosque,"CGPP+9CP Shahi Masjid, Tughlaqi Masjid, Kasna Village, Greater Noida, Uttar Pradesh 201310",Kasna Village,CGPP+9CP,Greater Noida,201310,Uttar Pradesh,IN,"https://www.google.com/maps/place/Shahi+Masjid,+Tughlaqi+Masjid/data=!4m7!3m6!1s0x390cc1fd567656b1:0x3495ea54a861ad84!8m2!3d28.4359502!4d77.5360903!16s%2Fg%2F11rh816jjf!19sChIJsVZ2Vv3BDDkRhK1hqFTqlTQ?authuser=0&hl=en&rclk=1","28.435950199999997,77.5360903"
Khodna Masjid,Mosque,"GGW3+872 Khodna Masjid, Khodna Khurd, Greater Noida, Uttar Pradesh 203207",Khodna Khurd,GGW3+872,Greater Noida,203207,Uttar Pradesh,IN,https://www.google.com/maps/place/Khodna+Masjid/data=!4m7!3m6!1s0x390ceb903e2cc62f:0x4c5c7b5bcb6c56cd!8m2!3d28.5457638!4d77.5031469!16s%2Fg%2F11c5wq16f2!19sChIJL8YsPpDrDDkRzVZsy1t7XEw?authuser=0&hl=en&rclk=1,"28.5457638,77.50314689999999"
Tayyeba masjid Jamia Colony Jalpura,Mosque,"GCRP+WCH Tayyeba masjid Jamia Colony Jalpura, Jalpura, Greater Noida, Uttar Pradesh 201306",Jalpura,GCRP+WCH,Greater Noida,201306,Uttar Pradesh,IN,https://www.google.com/maps/place/Tayyeba+masjid+Jamia+Colony+Jalpura/data=!4m7!3m6!1s0x390ce930218eec93:0x2ee641583dda166f!8m2!3d28.5423049!4d77.4361028!16s%2Fg%2F11cls6xccv!19sChIJk-yOITDpDDkRbxbaPVhB5i4?authuser=0&hl=en&rclk=1,"28.542304899999998,77.4361028"
"Gausiya Masjid,Madarsa Faizan-a-Gausul Wara",Mosque,"GCXH+338 Gausiya Masjid,Madarsa Faizan-a-Gausul Wara, Jalpura, Greater Noida, Uttar Pradesh 201306",Jalpura,GCXH+338,Greater Noida,201306,Uttar Pradesh,IN,"https://www.google.com/maps/place/Gausiya+Masjid,Madarsa+Faizan-a-Gausul+Wara/data=!4m7!3m6!1s0x390ce9523f17c343:0xd9135eb8080a0f9b!8m2!3d28.5476625!4d77.4277177!16s%2Fg%2F11f61t307l!19sChIJQ8MXP1LpDDkRmw8KCLheE9k?authuser=0&hl=en&rclk=1","28.547662499999998,77.4277177"
JAMA MASJID BIRAUNDI,Mosque,"JAMA MASJID BIRAUNDI, Unnamed Road, Advocate Society, Pi 2, Pi I & II, Greater Noida, Uttar Pradesh 201310","Advocate Society, Pi 2, Pi I & II",Unnamed Road,Greater Noida,201310,Uttar Pradesh,IN,https://www.google.com/maps/place/JAMA+MASJID+BIRAUNDI/data=!4m7!3m6!1s0x390ceb399df31a4b:0x5baee30aab43ea33!8m2!3d28.4751541!4d77.5411431!16s%2Fg%2F11flgfz8mp!19sChIJSxrznTnrDDkRM-pDqwrjrls?authuser=0&hl=en&rclk=1,"28.475154099999997,77.5411431"
Chand Masjid,Mosque,"GCMM+3WV Chand Masjid, Greater Noida, Uttar Pradesh 201306",,GCMM+3WV,Greater Noida,201306,Uttar Pradesh,IN,https://www.google.com/maps/place/Chand+Masjid/data=!4m7!3m6!1s0x390ce92324caa475:0xc2f0c29b03b8b852!8m2!3d28.5327308!4d77.4347895!16s%2Fg%2F11g8yk8t2x!19sChIJdaTKJCPpDDkRUri4A5vC8MI?authuser=0&hl=en&rclk=1,"28.5327308,77.4347895"
ritthorii msjid,Mosque,"ritthorii msjid, Greater Noida, Uttar Pradesh 201310",,,Greater Noida,201310,Uttar Pradesh,IN,https://www.google.com/maps/place/%E0%A4%B0%E0%A4%BF%E0%A4%A0%E0%A5%8B%E0%A4%B0%E0%A5%80+%E0%A4%AE%E0%A4%B8%E0%A5%8D%E0%A4%9C%E0%A4%BF%E0%A4%A6/data=!4m7!3m6!1s0x390cbfd7917ebb35:0xe92b872cd62e1686!8m2!3d28.4588688!4d77.6029828!16s%2Fg%2F11jqg4css7!19sChIJNbt-kde_DDkRhhYu1iyHK-k?authuser=0&hl=en&rclk=1,"28.458868799999998,77.60298279999999"
Masjid E Firdous,Mosque,"CFHF+JVX Masjid E Firdous, Garhi Samastpur, Noida, Uttar Pradesh 201310",,CFHF+JVX,"Garhi Samastpur, Noida",201310,Uttar Pradesh,IN,https://www.google.com/maps/place/Masjid+E+Firdous/data=!4m7!3m6!1s0x390cc18619302b23:0x94ffd97a8cd371fb!8m2!3d28.4291024!4d77.4747243!16s%2Fg%2F11fzf6tmjj!19sChIJIyswGYbBDDkR-3HTjHrZ_5Q?authuser=0&hl=en&rclk=1,"28.429102399999998,77.47472429999999"
Jama Masjid,Mosque,"GF36+887 Jama Masjid, Lakhnawali, Greater Noida, Uttar Pradesh 201306",Lakhnawali,GF36+887,Greater Noida,201306,Uttar Pradesh,IN,https://www.google.com/maps/place/Jama+Masjid/data=!4m7!3m6!1s0x390ce9836579980d:0xc1d59511384dfabd!8m2!3d28.5032771!4d77.4607919!16s%2Fg%2F11hbc46k89!19sChIJDZh5ZYPpDDkRvfpNOBGV1cE?authuser=0&hl=en&rclk=1,"28.5032771,77.46079189999999"
BAGH WALI MASJID NEAR K K FOODS HABIBPUR,Mosque,"GCXQ+RFJ BAGH WALI MASJID NEAR K K FOODS HABIBPUR, Jalpura, Greater Noida, Uttar Pradesh 201306",Jalpura,GCXQ+RFJ,Greater Noida,201306,Uttar Pradesh,IN,https://www.google.com/maps/place/BAGH+WALI+MASJID+NEAR+K+K+FOODS+HABIBPUR/data=!4m7!3m6!1s0x390ce913b50d09db:0x9773adb35340e76b!8m2!3d28.5496!4d77.4386429!16s%2Fg%2F11fl3220l_!19sChIJ2wkNtRPpDDkRa-dAU7Otc5c?authuser=0&hl=en&rclk=1,"28.549599999999998,77.43864289999999"
Noori Masjid,Mosque,"GF6H+4FJ Noori Masjid, Surajpur, Greater Noida, Uttar Pradesh 201306",Surajpur,GF6H+4FJ,Greater Noida,201306,Uttar Pradesh,IN,https://www.google.com/maps/place/Noori+Masjid/data=!4m7!3m6!1s0x390cebbcbbc26e95:0x711a06a9cccf5bc5!8m2!3d28.5103409!4d77.4786469!16s%2Fg%2F11g0bmwnxr!19sChIJlW7Cu7zrDDkRxVvPzKkGGnE?authuser=0&hl=en&rclk=1,"28.5103409,77.4786469"
Masjid priyadarshni,Mosque,"FGF2+4FM Masjid priyadarshni, Knowledge Park I, Greater Noida, Uttar Pradesh 201310",Knowledge Park I,FGF2+4FM,Greater Noida,201310,Uttar Pradesh,IN,https://www.google.com/maps/place/Masjid+priyadarshni/data=!4m7!3m6!1s0x390ceb14dbc4b8d1:0x2cb2d408c517c808!8m2!3d28.4728499!4d77.5011779!16s%2Fg%2F11j0bj_cvx!19sChIJ0bjE2xTrDDkRCMgXxQjUsiw?authuser=0&hl=en&rclk=1,"28.4728499,77.5011779"
Haji Naseem Masjid,Mosque,"Haji Naseem Masjid, Vill No -232, Lotus Villa Rd, Sector -1, Jalpura, Greater Noida, Uttar Pradesh 201306","Sector -1, Jalpura","Vill No -232, Lotus Villa Rd",Greater Noida,201306,Uttar Pradesh,IN,https://www.google.com/maps/place/Haji+Naseem+Masjid/data=!4m7!3m6!1s0x390ceff9c3da8971:0x54fe7050446c2933!8m2!3d28.5532116!4d77.440224!16s%2Fg%2F11k9gmyvnz!19sChIJcYnaw_nvDDkRMylsRFBw_lQ?authuser=0&hl=en&rclk=1,"28.553211599999997,77.440224"
Aaishah Masjid,Mosque,"GF79+W8V Aaishah Masjid, Main Rd, Lakhnawali, Malakpur, Greater Noida, Uttar Pradesh 201306",Lakhnawali,"GF79+W8V, Main Rd","Malakpur, Greater Noida",201306,Uttar Pradesh,IN,https://www.google.com/maps/place/Aaishah+Masjid/data=!4m7!3m6!1s0x390ce97e76f6de41:0x20472409df1beb33!8m2!3d28.514853!4d77.4682823!16s%2Fg%2F11c1s1_0wn!19sChIJQd72dn7pDDkRM-sb3wkkRyA?authuser=0&hl=en&rclk=1,"28.514853,77.4682823"
Jama Masjid Haldoni,Mosque,"GCQQ+RQH Jama Masjid Haldoni, Jalpura, Greater Noida, Uttar Pradesh 201306",Jalpura,GCQQ+RQH,Greater Noida,,Uttar Pradesh,IN,https://www.google.com/maps/place/Jama+Masjid+Haldoni/data=!4m7!3m6!1s0x390ce95e6f987e7d:0x956b660498b5aaa!8m2!3d28.5395627!4d77.4394969!16s%2Fg%2F11kqvkbwjl!19sChIJfX6Yb17pDDkRqlqLSWC2Vgk?authuser=0&hl=en&rclk=1,"28.539562699999998,77.4394969"
Baag Wali Masjid,Mosque,"Baag Wali Masjid, Habibpur Rd, near KK Food, Chauganpur, Jalpura, Greater Noida, Uttar Pradesh 201306","Chauganpur, Jalpura","Habibpur Rd, near KK Food",Greater Noida,201306,Uttar Pradesh,IN,https://www.google.com/maps/place/Baag+Wali+Masjid/data=!4m7!3m6!1s0x390ce961dcab6475:0xa3c9a9f1ed6ee256!8m2!3d28.5439872!4d77.4484235!16s%2Fg%2F11lq253v3z!19sChIJdWSr3GHpDDkRVuJu7fGpyaM?authuser=0&hl=en&rclk=1,"28.5439872,77.44842349999999"
Knowledge Park Masjid,Mosque,"FGF2+4G4 Knowledge Park Masjid, Knowledge Park I, Greater Noida, Uttar Pradesh 201310",Knowledge Park I,FGF2+4G4,Greater Noida,201310,Uttar Pradesh,IN,https://www.google.com/maps/place/Knowledge+Park+Masjid/data=!4m7!3m6!1s0x390cea712f3aaaab:0x9ca2be33c0ceb6cd!8m2!3d28.4727649!4d77.5013395!16s%2Fg%2F11txmzdc10!19sChIJq6o6L3HqDDkRzbbOwDO-opw?authuser=0&hl=en&rclk=1,"28.472764899999998,77.5013395"
MUNSHI MASJID,Mosque,"MUNSHI MASJID, Thapkhera Village, Greater Noida, Thapkhera, Uttar Pradesh 201310",Thapkhera Village,,"Greater Noida, Thapkhera",201310,Uttar Pradesh,IN,https://www.google.com/maps/place/MUNSHI+MASJID/data=!4m7!3m6!1s0x390ceb6550d44aa9:0x9efbbeb7c46be174!8m2!3d28.5072538!4d77.5530016!16s%2Fg%2F11jr2dqjh3!19sChIJqUrUUGXrDDkRdOFrxLe--54?authuser=0&hl=en&rclk=1,"28.507253799999997,77.5530016"
Ishaq Masjid,Mosque,"GCMQ+W5V Ishaq Masjid, Jalpura, Greater Noida, Uttar Pradesh 201306",Jalpura,GCMQ+W5V,Greater Noida,201306,Uttar Pradesh,IN,https://www.google.com/maps/place/Ishaq+Masjid/data=!4m7!3m6!1s0x390ce944cfc267ef:0x99aeab8220b21ddd!8m2!3d28.5348681!4d77.4379284!16s%2Fg%2F11rrncs1d9!19sChIJ72fCz0TpDDkR3R2yIIKrrpk?authuser=0&hl=en&rclk=1,"28.534868099999997,77.43792839999999"
UMAR FARUK TAKYA MASJID,Mosque,"GCRJ+WVM UMAR FARUK TAKYA MASJID, Jalpura, Greater Noida, Uttar Pradesh 201306",Jalpura,GCRJ+WVM,Greater Noida,201306,Uttar Pradesh,IN,https://www.google.com/maps/place/UMAR+FARUK+TAKYA+MASJID/data=!4m7!3m6!1s0x390ce9c587ba9925:0x5009ad427a3ab288!8m2!3d28.5423485!4d77.4321803!16s%2Fg%2F11gjj2yghn!19sChIJJZm6h8XpDDkRiLI6ekKtCVA?authuser=0&hl=en&rclk=1,"28.5423485,77.4321803"
Madina masjid,Mosque,"Madina masjid, Chaudhary street, Datawali, Uttar Pradesh 203207",,Chaudhary street,Datawali,203207,Uttar Pradesh,IN,https://www.google.com/maps/place/Madina+masjid/data=!4m7!3m6!1s0x390c9559fd69b657:0x1d2cd4f1bdd5b76b!8m2!3d28.5107989!4d77.5692425!16s%2Fg%2F11fqbfrbf6!19sChIJV7Zp_VmVDDkRa7fVvfHULB0?authuser=0&hl=en&rclk=1,"28.510798899999998,77.5692425"
Makka masjid,Mosque,"Makka masjid, Jamaal Colony, Barahi Road, Surajpur, Greater Noida, Uttar Pradesh 201306",Surajpur,"Jamaal Colony, Barahi Road",Greater Noida,201306,Uttar Pradesh,IN,https://www.google.com/maps/place/Makka+masjid/data=!4m7!3m6!1s0x390ceba4310824b1:0xe46a0a55577c81cd!8m2!3d28.5163974!4d77.484871!16s%2Fg%2F11rs9xr6cy!19sChIJsSQIMaTrDDkRzYF8V1UKauQ?authuser=0&hl=en&rclk=1,"28.5163974,77.484871"
Masjid noida,Mosque,"G9PQ+969 Masjid noida, Goyal Colony, Salarpur Khadar, Sector 102, Noida, Uttar Pradesh 201304","Goyal Colony, Salarpur Khadar, Sector 102",G9PQ+969,Noida,201304,Uttar Pradesh,IN,https://www.google.com/maps/place/Masjid+noida/data=!4m7!3m6!1s0x390ce968566589ad:0x1fac7bfd6dcedf31!8m2!3d28.535909!4d77.3881125!16s%2Fg%2F11snqfjj9_!19sChIJrYllVmjpDDkRMd_Obf17rB8?authuser=0&hl=en&rclk=1,"28.535909,77.38811249999999"
Masjid Tauheed,Place of worship,"HC2Q+H9 Masjid Tauheed, Jalpura, Greater Noida, Uttar Pradesh 201306",Jalpura,HC2Q+H9,Greater Noida,,Uttar Pradesh,IN,https://www.google.com/maps/place/Masjid+Tauheed/data=!4m7!3m6!1s0x390ce9792083cd4d:0x289d6976967de556!8m2!3d28.551498!4d77.438438!16s%2Fg%2F11rq9hfhnm!19sChIJTc2DIHnpDDkRVuV9lnZpnSg?authuser=0&hl=en&rclk=1,"28.551498,77.43843799999999"
Juma Masjid,Mosque,"Juma Masjid, Shiv Mandir Choraha, Jama Masjid, Surajpur, Greater Noida, Uttar Pradesh 201306",Surajpur,"Shiv Mandir Choraha, Jama Masjid",Greater Noida,201306,Uttar Pradesh,IN,https://www.google.com/maps/place/Juma+Masjid/data=!4m7!3m6!1s0x390ceb02d0de8ad7:0x156fbd4e7ecd50c5!8m2!3d28.5116169!4d77.4776868!16s%2Fg%2F11frqzlyk9!19sChIJ14re0ALrDDkRxVDNfk69bxU?authuser=0&hl=en&rclk=1,"28.5116169,77.4776868"
Rahamani Masque (rhmaan msjid),Mosque,"GCRR+35W Rahamani Masque (rhmaan msjid), Haldoni, Jalpura, Greater Noida, Uttar Pradesh 201306",Jalpura,"GCRR+35W, Haldoni",Greater Noida,201306,Uttar Pradesh,IN,https://www.google.com/maps/place/Rahamani+Masque+%28%E0%A4%B0%E0%A4%B9%E0%A4%AE%E0%A4%BE%E0%A4%A8+%E0%A4%AE%E0%A4%B8%E0%A4%9C%E0%A4%BF%E0%A4%A6%29/data=!4m7!3m6!1s0x390ce9714503046b:0xfd877977863992b3!8m2!3d28.5402317!4d77.44045!16s%2Fg%2F11j7c1wxp8!19sChIJawQDRXHpDDkRs5I5hnd5h_0?authuser=0&hl=en&rclk=1,"28.5402317,77.44045"
Mosque,Mosque,"Mosque, Amanhind education and health awareness society, Gejha, Sector 93, Noida, Uttar Pradesh 201304","Gejha, Sector 93",Amanhind education and health awareness society,Noida,,Uttar Pradesh,IN,https://www.google.com/maps/place/Mosque/data=!4m7!3m6!1s0x390ce9964deb9f61:0x807c799f66ec290e!8m2!3d28.5233186!4d77.3823954!16s%2Fg%2F11k9glswy4!19sChIJYZ_rTZbpDDkRDinsZp95fIA?authuser=0&hl=en&rclk=1,"28.5233186,77.3823954"
Moshin saifi,Mosque,"GF6F+5WV Moshin saifi, Unnamed Road, Surajpur, Greater Noida, Uttar Pradesh 201306",Surajpur,"GF6F+5WV, Unnamed Road",Greater Noida,201306,Uttar Pradesh,IN,https://www.google.com/maps/place/Moshin+saifi/data=!4m7!3m6!1s0x390ceb8bf8c7c019:0x2abb179972e76552!8m2!3d28.5104789!4d77.4747864!16s%2Fg%2F11qnjq7gxx!19sChIJGcDH-IvrDDkRUmXncpkXuyo?authuser=0&hl=en&rclk=1,"28.5104789,77.4747864"
Shan e Mustafa Masjid Surajpur,Place of worship,"GFCG+2XF Shan e Mustafa Masjid Surajpur, UPSIDC Site A, Surajpur, Greater Noida, Uttar Pradesh 201306","UPSIDC Site A, Surajpur",GFCG+2XF,Greater Noida,201306,Uttar Pradesh,IN,https://www.google.com/maps/place/Shan+e+Mustafa+Masjid+Surajpur/data=!4m7!3m6!1s0x390ceb9f3b288c5f:0xee535f4eae6179ad!8m2!3d28.5200524!4d77.4774118!16s%2Fg%2F11p654g27m!19sChIJX4woO5_rDDkRrXlhrk5fU-4?authuser=0&hl=en&rclk=1,"28.520052399999997,77.4774118"
Jafar Nagar Masjid,Mosque,"GCPW+CX Jafar Nagar Masjid, Kulesara, Greater Noida, Uttar Pradesh 201306",Kulesara,GCPW+CX,Greater Noida,,Uttar Pradesh,IN,https://www.google.com/maps/place/Jafar+Nagar+Masjid/data=!4m7!3m6!1s0x390ce9ad38dcdb91:0x2d6a8e92f67c00d1!8m2!3d28.5360757!4d77.4474791!16s%2Fg%2F11swrzhqlk!19sChIJkdvcOK3pDDkR0QB89pKOai0?authuser=0&hl=en&rclk=1,"28.536075699999998,77.4474791"
Nafeesa masjid,Mosque,"GCQM+93R Nafeesa masjid, Kulesara, Greater Noida, Uttar Pradesh 201306",Kulesara,GCQM+93R,Greater Noida,201306,Uttar Pradesh,IN,https://www.google.com/maps/place/Nafeesa+masjid/data=!4m7!3m6!1s0x390ce932962d275b:0x13691d14129c594!8m2!3d28.5382482!4d77.4334602!16s%2Fg%2F11tn83dl0x!19sChIJWyctljLpDDkRlMUpQdGRNgE?authuser=0&hl=en&rclk=1,"28.538248199999998,77.4334602"
Namaz -E- masjid,Mosque,"GCWG+54Q Namaz -E- masjid, Jalpura, Greater Noida, Uttar Pradesh 201306",Jalpura,GCWG+54Q,Greater Noida,201306,Uttar Pradesh,IN,https://www.google.com/maps/place/Namaz+-E-+masjid/data=!4m7!3m6!1s0x390ce94566dc71a5:0x967fe65a0c517875!8m2!3d28.5454625!4d77.4253633!16s%2Fg%2F11j8p29n_l!19sChIJpXHcZkXpDDkRdXhRDFrmf5Y?authuser=0&hl=en&rclk=1,"28.5454625,77.4253633"
Masjid abubakar Mulla colony,School,"GCFQ+GGW Masjid abubakar Mulla colony, Mulla colony, Kanchan Vihar, Kulesara, Greater Noida, Uttar Pradesh 201306","Mulla colony, Kanchan Vihar, Kulesara",GCFQ+GGW,Greater Noida,201306,Uttar Pradesh,IN,https://www.google.com/maps/place/Masjid+abubakar+Mulla+colony/data=!4m7!3m6!1s0x390ce98c4ded3807:0x13f0c58eab77ee1a!8m2!3d28.5238597!4d77.4388267!16s%2Fg%2F11p0zf4rdc!19sChIJBzjtTYzpDDkRGu53q47F8BM?authuser=0&hl=en&rclk=1,"28.5238597,77.43882669999999"
Hasan Raza Jama Masjid (Barelvi),Mosque,"Hasan Raza Jama Masjid (Barelvi), phase_2 kakrala khwaspur, Noida, sec. 80",Jalpura,phase_2 kakrala khwaspur,"Noida, Greater Noida",sec. 80,Uttar Pradesh,IN,https://www.google.com/maps/place/Hasan+Raza+Jama+Masjid+%28Barelvi%29/data=!4m7!3m6!1s0x390ce94eb14b7b3f:0x84815a16733cf3cb!8m2!3d28.5467268!4d77.4251939!16s%2Fg%2F11h64z0k9l!19sChIJP3tLsU7pDDkRy_M8cxZagYQ?authuser=0&hl=en&rclk=1,"28.5467268,77.4251939"
Masjid-e-Noor un Nisaa,Mosque,"GCMR+HPP Masjid-e-Noor un Nisaa, Kulesara, Noida, Greater Noida, Uttar Pradesh 201306",Kulesara,GCMR+HPP,"Noida, Greater Noida",201306,Uttar Pradesh,IN,https://www.google.com/maps/place/Masjid-e-Noor+un+Nisaa/data=!4m7!3m6!1s0x390ce9b1fb0b84f5:0xbf5e88a3749f1e2!8m2!3d28.5339759!4d77.4417965!16s%2Fg%2F11kqrxwqv6!19sChIJ9YQL-7HpDDkR4vFJN4ro9Qs?authuser=0&hl=en&rclk=1,"28.533975899999998,77.4417965"
New Huda Masjid Aliverdipur G.B.N,Mosque,"GCPP+J8R New Huda Masjid Aliverdipur G.B.N, Chotpur Rd, Jalpura, Greater Noida, Uttar Pradesh 201306",Jalpura,"GCPP+J8R, Chotpur Rd",Greater Noida,201306,Uttar Pradesh,IN,https://www.google.com/maps/place/New+Huda+Masjid+Aliverdipur+G.B.N/data=!4m7!3m6!1s0x390ce949e177cefd:0x4c105cebae293223!8m2!3d28.5366171!4d77.4357516!16s%2Fg%2F11nz0xzwg9!19sChIJ_c534UnpDDkRIzIprutcEEw?authuser=0&hl=en&rclk=1,"28.536617099999997,77.4357516"
Nakeeb Shaikh saab,Mosque,"CHGQ+63V Nakeeb Shaikh saab, Ladpura, Uttar Pradesh 203202",,CHGQ+63V,Ladpura,,Uttar Pradesh,IN,https://www.google.com/maps/place/Nakeeb+Shaikh+saab/data=!4m7!3m6!1s0x390cbffa06e1d1a9:0x35576b88085e72ca!8m2!3d28.4256124!4d77.5876721!16s%2Fg%2F11k54bhxpp!19sChIJqdHhBvq_DDkRynJeCIhrVzU?authuser=0&hl=en&rclk=1,"28.4256124,77.58767209999999"
Badi Masjid,Mosque,"GCQP+HFM Badi Masjid, Kulesara, Noida, Greater Noida, Uttar Pradesh 201306",Kulesara,GCQP+HFM,"Noida, Greater Noida",201306,Uttar Pradesh,IN,https://www.google.com/maps/place/Badi+Masjid/data=!4m7!3m6!1s0x390ce9b27647bdd7:0x8d61f35560f66757!8m2!3d28.5389716!4d77.436138!16s%2Fg%2F11khvq7fy4!19sChIJ171HdrLpDDkRV2f2YFXzYY0?authuser=0&hl=en&rclk=1,"28.5389716,77.436138"
Noor masjid haldoni,Housing society,"GCMQ+PJQ Noor masjid haldoni, village haldoni, Kulesara, Greater Noida, Uttar Pradesh 201306",Kulesara,"GCMQ+PJQ, village haldoni",Greater Noida,201306,Uttar Pradesh,IN,https://www.google.com/maps/place/Noor+masjid+haldoni/data=!4m7!3m6!1s0x390ce9ecdc98ba89:0x5c3525f5d363614a!8m2!3d28.5343311!4d77.4391165!16s%2Fg%2F11tdb9hy8q!19sChIJibqY3OzpDDkRSmFj0_UlNVw?authuser=0&hl=en&rclk=1,"28.5343311,77.4391165"
Eidgah Khodna,Mosque,"GGQ2+76 Eidgah Khodna, Surajpur, Greater Noida, Uttar Pradesh 201306",Surajpur,GGQ2+76,Greater Noida,,Uttar Pradesh,IN,https://www.google.com/maps/place/Eidgah+Khodna/data=!4m7!3m6!1s0x390ceb55efcd22eb:0xbe279a6fee6f575d!8m2!3d28.538149!4d77.5005576!16s%2Fg%2F11t_q446gg!19sChIJ6yLN71XrDDkRXVdv7m-aJ74?authuser=0&hl=en&rclk=1,"28.538148999999997,77.5005576"
Masjid,Mosque,"G9MX+RQ2 Masjid, Block A, Noida Phase-2, Yakubpur, Noida, Uttar Pradesh 201305","Block A, Noida Phase-2, Yakubpur",G9MX+RQ2,Noida,201305,Uttar Pradesh,IN,https://www.google.com/maps/place/Masjid/data=!4m7!3m6!1s0x390ce93564d6afa9:0x71370e5feda9885e!8m2!3d28.5345054!4d77.3993601!16s%2Fg%2F11v09236yp!19sChIJqa_WZDXpDDkRXoip7V8ON3E?authuser=0&hl=en&rclk=1,"28.5345054,77.3993601"
MADINA MASJID,Mosque,"MADINA MASJID, India Yamaha Motor, UPSIDC Site A, Surajpur, Greater Noida, Uttar Pradesh 201306","UPSIDC Site A, Surajpur",India Yamaha Motor,Greater Noida,201306,Uttar Pradesh,IN,https://www.google.com/maps/place/MADINA+MASJID/data=!4m7!3m6!1s0x390ceb969fb26b17:0xfc39d8ed2cd3f5e2!8m2!3d28.520453!4d77.4723483!16s%2Fg%2F11smlksdlg!19sChIJF2uyn5brDDkR4vXTLO3YOfw?authuser=0&hl=en&rclk=1,"28.520453,77.4723483"
Ayesha masjid,Mosque,"GCMR+GPW Ayesha masjid, Dadri Main Rd, Jalpura, Greater Noida, Uttar Pradesh 201306",Jalpura,"GCMR+GPW, Dadri Main Rd",Greater Noida,201306,Uttar Pradesh,IN,https://www.google.com/maps/place/Ayesha+masjid/data=!4m7!3m6!1s0x390ce9809b7b452b:0x64770af6f9f8a3d2!8m2!3d28.5338748!4d77.4418357!16s%2Fg%2F11tf7_vjl1!19sChIJK0V7m4DpDDkR0qP4-fYKd2Q?authuser=0&hl=en&rclk=1,"28.5338748,77.4418357"
Haji nurani masjid,Mosque,"GC9P+JCJ Haji nurani masjid, Kulesara, Greater Noida, Uttar Pradesh 201306",Kulesara,GC9P+JCJ,Greater Noida,201306,Uttar Pradesh,IN,https://www.google.com/maps/place/Haji+nurani+masjid/data=!4m7!3m6!1s0x390ce9d066166781:0xea970d1f2424f10a!8m2!3d28.5190867!4d77.4360026!16s%2Fg%2F11kjm5n9dl!19sChIJgWcWZtDpDDkRCvEkJB8Nl-o?authuser=0&hl=en&rclk=1,"28.5190867,77.4360026"
drgaah hjrt khvaajaa bhuure shaah rh0alai0,Mosque,"GF6H+25M drgaah hjrt khvaajaa bhuure shaah rh0alai0, Surajpur, Greater Noida, Uttar Pradesh 201306",Surajpur,GF6H+25M,Greater Noida,201306,Uttar Pradesh,IN,https://www.google.com/maps/place/%E0%A4%A6%E0%A4%B0%E0%A4%97%E0%A4%BE%E0%A4%B9+%E0%A4%B9%E0%A4%9C%E0%A4%B0%E0%A4%A4+%E0%A4%96%E0%A5%8D%E0%A4%B5%E0%A4%BE%E0%A4%9C%E0%A4%BE+%E0%A4%AD%E0%A5%82%E0%A4%B0%E0%A5%87+%E0%A4%B6%E0%A4%BE%E0%A4%B9+%E0%A4%B0%E0%A4%B9%E0%A5%A6%E0%A4%85%E0%A4%B2%E0%A5%88%E0%A5%A6/data=!4m7!3m6!1s0x390ceb7a88c23455:0xa56fe63d4610311b!8m2!3d28.5100768!4d77.4779079!16s%2Fg%2F11j8lrcz70!19sChIJVTTCiHrrDDkRGzEQRj3mb6U?authuser=0&hl=en&rclk=1,"28.5100768,77.47790789999999"
NAFEESA MOSQUE IN HALDONI,Mosque,"GCMQ+PJQ NAFEESA MOSQUE IN HALDONI, Haldoni, Greater Noida, Uttar Pradesh 201306",Haldoni,GCMQ+PJQ,Greater Noida,201306,Uttar Pradesh,IN,https://www.google.com/maps/place/NAFEESA+MOSQUE+IN+HALDONI/data=!4m7!3m6!1s0x390ce9cb5351e2e7:0x56d075f568f110d9!8m2!3d28.5343311!4d77.4391165!16s%2Fg%2F11scy999sq!19sChIJ5-JRU8vpDDkR2RDxaPV10FY?authuser=0&hl=en&rclk=1,"28.5343311,77.4391165"
Kulesra kabristan,Mosque,"GCMQ+CX2 Kulesra kabristan, Peer Baba Wali Gali, Kulesara, Greater Noida, Uttar Pradesh 201306",Kulesara,"GCMQ+CX2, Peer Baba Wali Gali",Greater Noida,201306,Uttar Pradesh,IN,https://www.google.com/maps/place/Kulesra+kabristan/data=!4m7!3m6!1s0x390ce9db52e23f3b:0x27380d0001c4dd24!8m2!3d28.5335113!4d77.4398978!16s%2Fg%2F11q227cxb1!19sChIJOz_iUtvpDDkRJN3EAQANOCc?authuser=0&hl=en&rclk=1,"28.533511299999997,77.4398978"
habibpur jalpura rd,Mosque,"GCJX+RR9 habibpur jalpura rd, Habibpur Rd, Ecotech III, Greater Noida, Habibpur, Uttar Pradesh 201306",Ecotech III,"GCJX+RR9, Habibpur Rd","Greater Noida, Habibpur",201306,Uttar Pradesh,IN,https://www.google.com/maps/place/habibpur+jalpura+rd/data=!4m7!3m6!1s0x390ce9c93b3b3feb:0xbc64f1d771a3a174!8m2!3d28.5320339!4d77.4496021!16s%2Fg%2F11sr6k9zbk!19sChIJ6z87O8npDDkRdKGjcdfxZLw?authuser=0&hl=en&rclk=1,"28.5320339,77.44960209999999"
bhdddhbhuje vaalii msjid,Mosque,"GF8P+QX2 bhdddhbhuje vaalii msjid, Surajpur, Greater Noida, Uttar Pradesh 201306",Surajpur,GF8P+QX2,Greater Noida,,Uttar Pradesh,IN,https://www.google.com/maps/place/%E0%A4%AD%E0%A5%9C%E0%A4%AD%E0%A5%81%E0%A4%9C%E0%A5%87+%E0%A4%B5%E0%A4%BE%E0%A4%B2%E0%A5%80+%E0%A4%AE%E0%A4%B8%E0%A5%8D%E0%A4%9C%E0%A4%BF%E0%A4%A6/data=!4m7!3m6!1s0x390cebfdbac90d91:0x61253470c508aca1!8m2!3d28.5168839!4d77.4873835!16s%2Fg%2F11g0bpk5n6!19sChIJkQ3Juv3rDDkRoawIxXA0JWE?authuser=0&hl=en&rclk=1,"28.5168839,77.48738349999999"
Hajrat Khawaja Muneer Shah Peer Baba,Mosque,"GF2F+569 Hajrat Khawaja Muneer Shah Peer Baba, Ecotech-II, Udyog Vihar, Greater Noida, Uttar Pradesh 201306","Ecotech-II, Udyog Vihar",GF2F+569,Greater Noida,201306,Uttar Pradesh,IN,https://www.google.com/maps/place/Hajrat+Khawaja+Muneer+Shah+Peer+Baba/data=!4m7!3m6!1s0x390cebc380c001db:0xd6c1d641f4d0ee4!8m2!3d28.5004187!4d77.4731186!16s%2Fg%2F11h336qst6!19sChIJ2wHAgMPrDDkR5A5NH2QdbA0?authuser=0&hl=en&rclk=1,"28.500418699999997,77.47311859999999"
New ayesha masjid,Mosque,"GCQQ+M9V New ayesha masjid, Bisrakh Rd, Jalpura, Greater Noida, Uttar Pradesh 201306",Jalpura,"GCQQ+M9V, Bisrakh Rd",Greater Noida,201306,Uttar Pradesh,IN,https://www.google.com/maps/place/New+ayesha+masjid/data=!4m7!3m6!1s0x390ce946fe5dd613:0x4814a97f7a8d5659!8m2!3d28.5392339!4d77.4384143!16s%2Fg%2F11tf805qj6!19sChIJE9Zd_kbpDDkRWVaNen-pFEg?authuser=0&hl=en&rclk=1,"28.5392339,77.43841429999999"
Hajrat Bilal masjid Barlwye,Education center,"GF79+MH7 Hajrat Bilal masjid Barlwye, Darin khuban, Lakhnawali, Greater Noida, Uttar Pradesh 201306","Darin khuban, Lakhnawali",GF79+MH7,Greater Noida,,Uttar Pradesh,IN,https://www.google.com/maps/place/Hajrat+Bilal+masjid+Barlwye/data=!4m7!3m6!1s0x390ce93c99910bf3:0x6f3a7de9757b8c3d!8m2!3d28.5141667!4d77.468912!16s%2Fg%2F11n16z2378!19sChIJ8wuRmTzpDDkRPYx7del9Om8?authuser=0&hl=en&rclk=1,"28.514166699999997,77.468912"
