name,main_category,address,address_ward,address_street,address_city,address_postal_code,address_state,address_country_code,link,coordinates
Domjur Bus Stand Masjid,Mosque,"J6MC+MG9 Domjur Bus Stand Masjid, Howrah - Bargachia - Amta Rd, Hajrapara, Domjur, Howrah, West Bengal 711405","Hajrapara, Domjur","J6MC+MG9, Howrah - Bargachia - Amta Rd",Howrah,711405,West Bengal,IN,https://www.google.com/maps/place/Domjur+Bus+Stand+Masjid/data=!4m7!3m6!1s0x39f881b8a913e14f:0x91f4851946a05104!8m2!3d22.634174!4d88.2213623!16s%2Fg%2F11g7zg_739!19sChIJT-ETqbiB-DkRBFGgRhmF9JE?authuser=0&hl=en&rclk=1,"22.634173999999998,88.2213623"
Baitul Aman Zame Masijd,Mosque,"J726+XQ7 Baitul Aman Zame Masijd, Munshidanga, Bankra, Howrah, Nibra, West Bengal 711403","Munshidanga, Bankra",J726+XQ7,"Howrah, Nibra",711403,West Bengal,IN,https://www.google.com/maps/place/Baitul+Aman+Zame+Masijd/data=!4m7!3m6!1s0x3a0278a3983cdfe7:0x39ace7f4e5b56ac0!8m2!3d22.6024178!4d88.2619208!16s%2Fg%2F11bw1qr6f2!19sChIJ5988mKN4AjoRwGq15fTnrDk?authuser=0&hl=en&rclk=1,"22.602417799999998,88.2619208"
Kolorah Baro Masjid,Mosque,"J54V+F4C Kolorah Baro Masjid, Unnamed Road, Howrah, West Bengal 711411",,"J54V+F4C, Unnamed Road","Howrah, Kalara",711411,West Bengal,IN,https://www.google.com/maps/place/Kolorah+Baro+Masjid/data=!4m7!3m6!1s0x3a027f897cf426c9:0x1f9f2709e2180a56!8m2!3d22.6061769!4d88.1927651!16s%2Fg%2F11c327wjkq!19sChIJySb0fIl_AjoRVgoY4gknnx8?authuser=0&hl=en&rclk=1,"22.606176899999998,88.1927651"
Iztama markaz,Mosque,"J726+XXX Iztama markaz, Munshidanga, Bankra, Howrah, Nibra, West Bengal 711409","Munshidanga, Bankra",J726+XXX,"Howrah, Nibra",711409,West Bengal,IN,https://www.google.com/maps/place/Iztama+markaz/data=!4m7!3m6!1s0x3a0278a3ba8962c9:0xdd3f8c8c01cc1332!8m2!3d22.6024915!4d88.2624868!16s%2Fg%2F11d_ykn8rg!19sChIJyWKJuqN4AjoRMhPMAYyMP90?authuser=0&hl=en&rclk=1,"22.6024915,88.26248679999999"
Mothur-dangi Jumma Masjid,Mosque,"M7FP+52F Mothur-dangi Jumma Masjid, Mothur dangi, Mrigala, Station Pally, Dankuni, West Bengal 712311","Mrigala, Station Pally","M7FP+52F, Mothur dangi",Dankuni,712311,West Bengal,IN,https://www.google.com/maps/place/Mothur-dangi+Jumma+Masjid/data=!4m7!3m6!1s0x39f883a780aae2df:0x26d2b774c0fb2389!8m2!3d22.672942!4d88.2850331!16s%2Fg%2F11g9ng6f7y!19sChIJ3-KqgKeD-DkRiSP7wHS30iY?authuser=0&hl=en&rclk=1,"22.672942,88.28503309999999"
Dharsa Jame Masjid,Mosque,"J72R+4H7 Dharsa Jame Masjid, Dharsa, Balitikuri, Howrah, West Bengal 711113","Dharsa, Balitikuri",J72R+4H7,Howrah,711113,West Bengal,IN,https://www.google.com/maps/place/Dharsa+Jame+Masjid/data=!4m7!3m6!1s0x3a02787b3e74f75f:0x87dc84cf1bfa7c1a!8m2!3d22.600291!4d88.2914127!16s%2Fg%2F11f50j4m40!19sChIJX_d0Pnt4AjoRGnz6G8-E3Ic?authuser=0&hl=en&rclk=1,"22.600291,88.2914127"
Eksara Choto Masjid,Mosque,"J7HQ+4HV Eksara Choto Masjid, Eksara, West Bengal 711114",,J7HQ+4HV,Eksara,711114,West Bengal,IN,https://www.google.com/maps/place/Eksara+Choto+Masjid/data=!4m7!3m6!1s0x39f8828943407021:0x871aa694b5c8770c!8m2!3d22.6278577!4d88.2889144!16s%2Fg%2F11bbyhjsx3!19sChIJIXBAQ4mC-DkRDHfItZSmGoc?authuser=0&hl=en&rclk=1,"22.6278577,88.2889144"
Malipara Masjid,Mosque,"Malipara Masjid, 48/1, S Buxarah Ln, Shibpur, Howrah, West Bengal 711109",Shibpur,"48/1, S Buxarah Ln",Howrah,711109,West Bengal,IN,https://www.google.com/maps/place/Malipara+Masjid/data=!4m7!3m6!1s0x3a027855b047224d:0x84b8c57a32d2e1d0!8m2!3d22.5668994!4d88.2869789!16s%2Fg%2F11cs60cz0z!19sChIJTSJHsFV4AjoR0OHSMnrFuIQ?authuser=0&hl=en&rclk=1,"22.5668994,88.2869789"
HIL-FUL-FAZAL MASJID,Mosque,"H7XF+F5R HIL-FUL-FAZAL MASJID, Bankra, Nibra, West Bengal 711403",Bankra,H7XF+F5R,Nibra,711403,West Bengal,IN,https://www.google.com/maps/place/HIL-FUL-FAZAL+MASJID/data=!4m7!3m6!1s0x3a02789a800948a7:0x1388aaed9b76e282!8m2!3d22.5987453!4d88.2728887!16s%2Fg%2F11cs4hh2b9!19sChIJp0gJgJp4AjoRguJ2m-2qiBM?authuser=0&hl=en&rclk=1,"22.598745299999997,88.2728887"
Munshidanga Gazi Para Notun Masjid,Mosque,"J738+PMG Munshidanga Gazi Para Notun Masjid, Bankra, Nibra, West Bengal 711409",Bankra,J738+PMG,Nibra,,West Bengal,IN,https://www.google.com/maps/place/Munshidanga+Gazi+Para+Notun+Masjid/data=!4m7!3m6!1s0x3a027898b5db1ca9:0xc5b8173b85651bdd!8m2!3d22.6043011!4d88.2666967!16s%2Fg%2F11f38f0hqy!19sChIJqRzbtZh4AjoR3RtlhTsXuMU?authuser=0&hl=en&rclk=1,"22.6043011,88.2666967"
Salap JUMMA Masjid,Mosque,"J786+86W Salap JUMMA Masjid, Howrah - Munshirhat - Amta Rd, Paikandashi, Howrah, West Bengal 711409",Paikandashi,"J786+86W, Howrah - Munshirhat - Amta Rd",Howrah,711409,West Bengal,IN,https://www.google.com/maps/place/Salap+JUMMA+Masjid/data=!4m7!3m6!1s0x39f8820957028805:0x7ba6a67b485be289!8m2!3d22.6158536!4d88.2605892!16s%2Fg%2F11f094_j5c!19sChIJBYgCVwmC-DkRieJbSHumpns?authuser=0&hl=en&rclk=1,"22.615853599999998,88.2605892"
Minara Masjid,Mosque,"H5RG+GC8 Minara Masjid, Munshirhat - Sankrail Rd, Dhulagori, Kusadanga, West Bengal 711302",Dhulagori,"H5RG+GC8, Munshirhat - Sankrail Rd",Kusadanga,711302,West Bengal,IN,https://www.google.com/maps/place/Minara+Masjid/data=!4m7!3m6!1s0x3a027fe67a017d51:0xe5b4ede640b42fcf!8m2!3d22.5912992!4d88.176071!16s%2Fg%2F11c2lqwht_!19sChIJUX0BeuZ_AjoRzy-0QObttOU?authuser=0&hl=en&rclk=1,"22.591299199999998,88.176071"
Khan Para Jama Masjid,Mosque,"J76J+MGG Khan Para Jama Masjid, Bankra Khan Para, Kona, Howrah, West Bengal 711403","Bankra Khan Para, Kona",J76J+MGG,Howrah,711403,West Bengal,IN,https://www.google.com/maps/place/Khan+Para+Jama+Masjid/data=!4m7!3m6!1s0x39f88278a953ce53:0x35f562b01fd2e220!8m2!3d22.611344!4d88.2799748!16s%2Fg%2F11clylymzx!19sChIJU85TqXiC-DkRIOLSH7Bi9TU?authuser=0&hl=en&rclk=1,"22.611344,88.27997479999999"
Ankurhati Uttar Para Mosjid,Mosque,"J66X+Q7J Ankurhati Uttar Para Mosjid, Ankurhati, Howrah, West Bengal 711409",Ankurhati,J66X+Q7J,Howrah,711409,West Bengal,IN,https://www.google.com/maps/place/Ankurhati+Uttar+Para+Mosjid/data=!4m7!3m6!1s0x39f882005db64d67:0xffa9114a054db2c0!8m2!3d22.6119558!4d88.24815!16s%2Fg%2F11bwl3tqw6!19sChIJZ022XQCC-DkRwLJNBUoRqf8?authuser=0&hl=en&rclk=1,"22.6119558,88.24815"
Ankurhati Boro Masjid,Mosque,"J66W+69V Ankurhati Boro Masjid, Ankurhati, Howrah, West Bengal 711409",Ankurhati,J66W+69V,Howrah,711409,West Bengal,IN,https://www.google.com/maps/place/Ankurhati+Boro+Masjid/data=!4m7!3m6!1s0x39f881fffedd5317:0xd36eca5c6ccb9274!8m2!3d22.6106218!4d88.2459213!16s%2Fg%2F11cr_gdk2p!19sChIJF1Pd_v-B-DkRdJLLbFzKbtM?authuser=0&hl=en&rclk=1,"22.6106218,88.24592129999999"
South Kolorah Sardar Para Juma Masjid,Mosque,"J52Q+5XH South Kolorah Sardar Para Juma Masjid, Kalara, West Bengal 711411",,J52Q+5XH,Kalara,711411,West Bengal,IN,https://www.google.com/maps/place/South+Kolorah+Sardar+Para+Juma+Masjid/data=!4m7!3m6!1s0x3a027f8d00cddd61:0xc01934c938cc6e44!8m2!3d22.6004264!4d88.189999!16s%2Fg%2F11g6n_3trz!19sChIJYd3NAI1_AjoRRG7MOMk0GcA?authuser=0&hl=en&rclk=1,"22.6004264,88.189999"
Masjid E Salam msjid i saalaam,Mosque,"Masjid E Salam msjid i saalaam, Bankra, Howrah, West Bengal 711403",Bankra,,Howrah,711403,West Bengal,IN,https://www.google.com/maps/place/Masjid+E+Salam+%E0%A6%AE%E0%A6%B8%E0%A6%9C%E0%A6%BF%E0%A6%A6+%E0%A6%87+%E0%A6%B8%E0%A6%BE%E0%A6%B2%E0%A6%BE%E0%A6%AE/data=!4m7!3m6!1s0x3a02788444ac318d:0x26c9bdb6d12c430f!8m2!3d22.6028364!4d88.2782646!16s%2Fg%2F11gfdfl3w3!19sChIJjTGsRIR4AjoRD0Ms0ba9ySY?authuser=0&hl=en&rclk=1,"22.602836399999997,88.2782646"
Danspara Jumma Masjid,Mosque,"J7H7+FHM Danspara Jumma Masjid, Danspara, West Bengal 711409",,J7H7+FHM,Danspara,711409,West Bengal,IN,https://www.google.com/maps/place/Danspara+Jumma+Masjid/data=!4m7!3m6!1s0x39f882149c648d01:0xad5f79e192f60510!8m2!3d22.6287162!4d88.2639352!16s%2Fg%2F11fyxfrq9w!19sChIJAY1knBSC-DkREAX2kuF5X60?authuser=0&hl=en&rclk=1,"22.6287162,88.26393519999999"
Panchpara Jame Masjid,Mosque,"H784+QVJ Panchpara Jame Masjid, Duillya, Howrah, West Bengal 711317",Duillya,H784+QVJ,Howrah,711317,West Bengal,IN,https://www.google.com/maps/place/Panchpara+Jame+Masjid/data=!4m7!3m6!1s0x3a0278d9bf4421c7:0x2c0ee834ad93f0bd!8m2!3d22.5669625!4d88.2571406!16s%2Fg%2F11bztgxfwr!19sChIJxyFEv9l4AjoRvfCTrTToDiw?authuser=0&hl=en&rclk=1,"22.5669625,88.2571406"
Jagadishpur Old Jumma Masjid,Mosque,"M74M+877 Jagadishpur Old Jumma Masjid, Jagadishpur, Howrah, West Bengal 711115",Jagadishpur,M74M+877,Howrah,711115,West Bengal,IN,https://www.google.com/maps/place/Jagadishpur+Old+Jumma+Masjid/data=!4m7!3m6!1s0x39f8825506433f91:0xc5272d1209a046f6!8m2!3d22.6557787!4d88.2831757!16s%2Fg%2F11dxl3mfmy!19sChIJkT9DBlWC-DkR9kagCRItJ8U?authuser=0&hl=en&rclk=1,"22.6557787,88.2831757"
Bhutai Sekh Masjid,Mosque,"H5WP+GQ7 Bhutai Sekh Masjid, Kalara, West Bengal 711302",,H5WP+GQ7,Kalara,711302,West Bengal,IN,https://www.google.com/maps/place/Bhutai+Sekh+Masjid/data=!4m7!3m6!1s0x3a027fed47819229:0xc48c7b6a355acef6!8m2!3d22.5962959!4d88.1869119!16s%2Fg%2F11c5fzm6k0!19sChIJKZKBR-1_AjoR9s5aNWp7jMQ?authuser=0&hl=en&rclk=1,"22.596295899999998,88.1869119"
Prasastha Jame Masjid,Mosque,"J63W+Q2W Prasastha Jame Masjid, Andul Makardah Rd, Kamrangu, Andul, Prasastha, Howrah, West Bengal 711302","Kamrangu, Andul","J63W+Q2W, Andul Makardah Rd","Prasastha, Howrah",711302,West Bengal,IN,https://www.google.com/maps/place/Prasastha+Jame+Masjid/data=!4m7!3m6!1s0x3a027f54a0c6ec2f:0x237c0c8199f7a857!8m2!3d22.6044763!4d88.2450661!16s%2Fg%2F11c5hkbf20!19sChIJL-zGoFR_AjoRV6j3mYEMfCM?authuser=0&hl=en&rclk=1,"22.604476299999998,88.2450661"
Mouri Halder Para Masjid msjd,Mosque,"Mouri Halder Para Masjid msjd, Kamrangu, Andul, Mahiari, West Bengal 711302","Kamrangu, Andul",,Mahiari,711302,West Bengal,IN,https://www.google.com/maps/place/Mouri+Halder+Para+Masjid+%D9%85%D8%B3%D8%AC%D8%AF%E2%80%AD/data=!4m7!3m6!1s0x3a0278b18798e737:0x368339e2ea764183!8m2!3d22.5960132!4d88.251048!16s%2Fg%2F11d_9g1_qw!19sChIJN-eYh7F4AjoRg0F26uI5gzY?authuser=0&hl=en&rclk=1,"22.596013199999998,88.251048"
Sk Para Notuin Masjid,Mosque,"M66C+WHQ Sk Para Notuin Masjid, Sk Para Masjid Rd,, Parbatipur, West Bengal 711405",,"M66C+WHQ, Sk Para Masjid Rd,","Parbatipur, Mollar Chak",711405,West Bengal,IN,https://www.google.com/maps/place/Sk+Para+Notuin+Masjid/data=!4m7!3m6!1s0x39f881095e5b9397:0xa206c488f120c2c8!8m2!3d22.6623283!4d88.2214753!16s%2Fg%2F11cllpjfw0!19sChIJl5NbXgmB-DkRyMIg8YjEBqI?authuser=0&hl=en&rclk=1,"22.6623283,88.2214753"
BAITUL MUKARROM JAME MASJID,Mosque,"BAITUL MUKARROM JAME MASJID, vill.joyramur mallikpara post.gongadharpur ps.panchla dist.howrah pin.711302, 34/6, Dr Gangadhar Mukherjee Rd, Dhulagori, Jayrampur, West Bengal 711302",Dhulagori,"vill.joyramur mallikpara post.gongadharpur ps.panchla dist.howrah pin.711302, 34/6, Dr Gangadhar Mukherjee Rd",Jayrampur,711302,West Bengal,IN,https://www.google.com/maps/place/BAITUL+MUKARROM+JAME+MASJID/data=!4m7!3m6!1s0x3a027fe3acc78975:0x19db956c1aaf3235!8m2!3d22.5941371!4d88.170649!16s%2Fg%2F11c5s5m4s3!19sChIJdYnHrON_AjoRNTKvGmyV2xk?authuser=0&hl=en&rclk=1,"22.594137099999998,88.170649"
Natibpur SekPara Jumma Masjid,Mosque,"J52P+W76 Natibpur SekPara Jumma Masjid, Natibpur, West Bengal 711411",,J52P+W76,Natibpur,711411,West Bengal,IN,https://www.google.com/maps/place/Natibpur+SekPara+Jumma+Masjid/data=!4m7!3m6!1s0x3a027ff373197c3f:0x9192f05c763836fd!8m2!3d22.6022861!4d88.1856436!16s%2Fg%2F11f15k4bql!19sChIJP3wZc_N_AjoR_TY4dlzwkpE?authuser=0&hl=en&rclk=1,"22.6022861,88.18564359999999"
HAJI SAHEB PARA MASJID,Mosque,"HAJI SAHEB PARA MASJID, Uttar Dhulagori Haji Saheb Para, Sankrail, Howrah, West Bengal 711302",Sankrail,Uttar Dhulagori Haji Saheb Para,"Howrah, Dhulagari",711302,West Bengal,IN,https://www.google.com/maps/place/HAJI+SAHEB+PARA+MASJID/data=!4m7!3m6!1s0x3a027febd6916023:0x1ac12705534218bd!8m2!3d22.5902415!4d88.1834894!16s%2Fg%2F11g0kdw_wk!19sChIJI2CR1ut_AjoRvRhCUwUnwRo?authuser=0&hl=en&rclk=1,"22.590241499999998,88.1834894"
DAXIN NIBRA JAMMA MASZID,Mosque,"J743+4WC DAXIN NIBRA JAMMA MASZID, Kamrangu, Andul, Nibra, West Bengal 711302","Kamrangu, Andul",J743+4WC,Nibra,711302,West Bengal,IN,https://www.google.com/maps/place/DAXIN+NIBRA+JAMMA+MASZID/data=!4m7!3m6!1s0x3a0278a8b8487f3d:0x6e3ce3bed78ce0b!8m2!3d22.6053189!4d88.2547503!16s%2Fg%2F11dxdzdhcr!19sChIJPX9IuKh4AjoRC8547TvO4wY?authuser=0&hl=en&rclk=1,"22.6053189,88.2547503"
TALPUKUR NEW MASJID,Mosque,"J6M5+VVF TALPUKUR NEW MASJID, New Domjur Railway, Jhapardah, West Bengal 711405","Hajrapara, Domjur","J6M5+VVF, New Domjur Railway","Jhapardah, Howrah",711405,West Bengal,IN,https://www.google.com/maps/place/TALPUKUR+NEW+MASJID/data=!4m7!3m6!1s0x39f881ca834258d5:0x736f418731b1cb2a!8m2!3d22.6346776!4d88.2096785!16s%2Fg%2F11cp7868yv!19sChIJ1VhCg8qB-DkRKsuxMYdBb3M?authuser=0&hl=en&rclk=1,"22.6346776,88.2096785"
Mallick Para New Masjid,Mosque,"J7V3+683 Mallick Para New Masjid, Mallick, Shaik Para Lane, Khan Para, Mallickpara, Near, Domjur, Howrah, West Bengal 711409","Khan Para, Mallickpara, Near, Domjur","J7V3+683, Mallick, Shaik Para Lane",Howrah,711409,West Bengal,IN,https://www.google.com/maps/place/Mallick+Para+New+Masjid/data=!4m7!3m6!1s0x39f8822454570e89:0x7fc379608143e112!8m2!3d22.6430159!4d88.2532982!16s%2Fg%2F11c31nr63n!19sChIJiQ5XVCSC-DkREuFDgWB5w38?authuser=0&hl=en&rclk=1,"22.643015899999998,88.25329819999999"
Baitul aman zame masjid,Mosque,"H7W9+HJ2 Baitul aman zame masjid, Bankra, Nibra, West Bengal 711403",Bankra,H7W9+HJ2,Nibra,711403,West Bengal,IN,https://www.google.com/maps/place/Baitul+aman+zame+masjid/data=!4m7!3m6!1s0x3a02789719e823b7:0xa05bcc79f192bd6!8m2!3d22.5963791!4d88.2690039!16s%2Fg%2F11c0xpxkdn!19sChIJtyPoGZd4AjoR1isZn8e8BQo?authuser=0&hl=en&rclk=1,"22.5963791,88.2690039"
Munshi Para Jama Masjid,Mosque,"H5RP+37M Munshi Para Jama Masjid, Dhulagori, Dhulagari, West Bengal 711302",Dhulagori,H5RP+37M,Dhulagari,711302,West Bengal,IN,https://www.google.com/maps/place/Munshi+Para+Jama+Masjid/data=!4m7!3m6!1s0x3a027fc67dfdaab1:0xbe0ca884273a626b!8m2!3d22.5902066!4d88.1856657!16s%2Fg%2F11gjt6gc3s!19sChIJsar9fcZ_AjoRa2I6J4SoDL4?authuser=0&hl=en&rclk=1,"22.5902066,88.1856657"
Jagadishpur New Jama Mashjid jgdiishpur ntun jaame msjid,Mosque,"Jagadishpur New Jama Mashjid jgdiishpur ntun jaame msjid, Unnamed Road, Jagadishpur, Howrah, West Bengal 711205",Jagadishpur,Unnamed Road,Howrah,711205,West Bengal,IN,https://www.google.com/maps/place/Jagadishpur+New+Jama+Mashjid+%E0%A6%9C%E0%A6%97%E0%A6%A6%E0%A7%80%E0%A6%B6%E0%A6%AA%E0%A7%81%E0%A6%B0+%E0%A6%A8%E0%A6%A4%E0%A7%81%E0%A6%A8+%E0%A6%9C%E0%A6%BE%E0%A6%AE%E0%A7%87+%E0%A6%AE%E0%A6%B8%E0%A6%9C%E0%A6%BF%E0%A6%A6/data=!4m7!3m6!1s0x39f883eb52af6d2f:0xb87df978e846bd59!8m2!3d22.6531833!4d88.283409!16s%2Fg%2F11lggh03q4!19sChIJL22vUuuD-DkRWb1G6Hj5fbg?authuser=0&hl=en&rclk=1,"22.6531833,88.28340899999999"
Dharsa kazipara Sabuj Masjid,Mosque,"Dharsa kazipara Sabuj Masjid, Dharsa Kazipara Sabuj Masjid Rd, DHARSA, KAZIPARA, Howrah, West Bengal 711112","DHARSA, KAZIPARA",Dharsa Kazipara Sabuj Masjid Rd,Howrah,711112,West Bengal,IN,https://www.google.com/maps/place/Dharsa+kazipara+Sabuj+Masjid/data=!4m7!3m6!1s0x3a02795480876a83:0x975da18f6686c4ed!8m2!3d22.5955208!4d88.2915861!16s%2Fg%2F11f659wqqd!19sChIJg2qHgFR5AjoR7cSGZo-hXZc?authuser=0&hl=en&rclk=1,"22.5955208,88.29158609999999"
Shaikh Para Jama Masjid,Mosque,"J742+6MF Shaikh Para Jama Masjid, Kamrangu, Andul, Nibra, West Bengal 711302","Kamrangu, Andul",J742+6MF,Nibra,,West Bengal,IN,https://www.google.com/maps/place/Shaikh+Para+Jama+Masjid/data=!4m7!3m6!1s0x3a0278a9436047fd:0xac262b6544b9cb81!8m2!3d22.6055604!4d88.2516772!16s%2Fg%2F11gdl0fvs3!19sChIJ_UdgQ6l4AjoRgcu5RGUrJqw?authuser=0&hl=en&rclk=1,"22.605560399999998,88.25167719999999"
Baniara Jamia masjid,Mosque,"J645+245 Baniara Jamia masjid, Sankharidaha Lichutala, Domjur, Baniara, Sankharidaha, West Bengal 711411","Sankharidaha Lichutala, Domjur",J645+245,"Baniara, Sankharidaha",711411,West Bengal,IN,https://www.google.com/maps/place/Baniara+Jamia+masjid/data=!4m7!3m6!1s0x3a027f466f8a826b:0xa37e69e04b61b46!8m2!3d22.60501!4d88.2078733!16s%2Fg%2F11h70rx397!19sChIJa4KKb0Z_AjoRRhu2BJ7mNwo?authuser=0&hl=en&rclk=1,"22.60501,88.2078733"
Baitul Jannat Masjid,Mosque,"J56W+2PJ Baitul Jannat Masjid, Kesabpur, West Bengal 711411",,J56W+2PJ,Kesabpur,711411,West Bengal,IN,https://www.google.com/maps/place/Baitul+Jannat+Masjid/data=!4m7!3m6!1s0x39f88027f75d3253:0x1972c00b39b4162!8m2!3d22.610078!4d88.1967683!16s%2Fg%2F11dxf1sbk8!19sChIJUzJd9yeA-DkRYkGbswAslwE?authuser=0&hl=en&rclk=1,"22.610077999999998,88.1967683"
Masjid-A-Akhsha,Mosque,"Masjid-A-Akhsha, Unnamed Road, Dhulagori, Howrah, Dhulagari, West Bengal 711302",Dhulagori,Unnamed Road,"Howrah, Dhulagari",711302,West Bengal,IN,https://www.google.com/maps/place/Masjid-A-Akhsha/data=!4m7!3m6!1s0x3a027fb63e5bea43:0x166b68a8f891608b!8m2!3d22.5889314!4d88.1893!16s%2Fg%2F11gnpkt6rt!19sChIJQ-pbPrZ_AjoRi2CR-KhoaxY?authuser=0&hl=en&rclk=1,"22.5889314,88.1893"
AL AKSA JUMMA MASZID,Mosque,"J744+Q5C AL AKSA JUMMA MASZID, laskar para, Nibra, West Bengal 711409",laskar para,J744+Q5C,Nibra,711409,West Bengal,IN,https://www.google.com/maps/place/AL+AKSA+JUMMA+MASZID/data=!4m7!3m6!1s0x3a0278a885ad3d25:0x452c53cd92e4e483!8m2!3d22.6069315!4d88.2553898!16s%2Fg%2F11bxdy5cbr!19sChIJJT2thah4AjoRg-Tkks1TLEU?authuser=0&hl=en&rclk=1,"22.606931499999998,88.25538979999999"
Kushadanga Jumma Masjid msjd,Mosque,"H5RH+G4H Kushadanga Jumma Masjid msjd, Dhulagori, Kusadanga, West Bengal 711302",Dhulagori,H5RH+G4H,Kusadanga,711302,West Bengal,IN,https://www.google.com/maps/place/Kushadanga+Jumma+Masjid+%D9%85%D8%B3%D8%AC%D8%AF%E2%80%AD/data=!4m7!3m6!1s0x3a027fe8a614822d:0xd64b1fe90388d62!8m2!3d22.5913177!4d88.1778648!16s%2Fg%2F11fxz4yt9m!19sChIJLYIUpuh_AjoRYo04kP6xZA0?authuser=0&hl=en&rclk=1,"22.591317699999998,88.1778648"
Quba Masjid,Mosque,"J6GR+46P Quba Masjid, Joychanditala, Makardah, Howrah, West Bengal 711409","Joychanditala, Makardah",J6GR+46P,Howrah,711409,West Bengal,IN,https://www.google.com/maps/place/Quba+Masjid/data=!4m7!3m6!1s0x39f881f0d81edd53:0x74588073d082ab28!8m2!3d22.6253405!4d88.2405729!16s%2Fg%2F11dxdctllz!19sChIJU90e2PCB-DkRKKuC0HOAWHQ?authuser=0&hl=en&rclk=1,"22.6253405,88.24057289999999"
Masjide Baitul Mamur,Mosque,"Masjide Baitul Mamur, 711302, Majher Para, Kamrangu, Andul, Howrah, West Bengal 711302","Majher Para, Kamrangu, Andul",711302,Howrah,711302,West Bengal,IN,https://www.google.com/maps/place/Masjide+Baitul+Mamur/data=!4m7!3m6!1s0x3a0278b0d2a00b23:0xa8757a13bda28ed0!8m2!3d22.592651!4d88.25403!16s%2Fg%2F11f123rl_2!19sChIJIwug0rB4AjoR0I6ivRN6dag?authuser=0&hl=en&rclk=1,"22.592651,88.25403"
Pairatungi Jumma Masjid,Mosque,"J7V5+6FW Pairatungi Jumma Masjid, Baluhati - Chanditala Rd, Pairatungi, Howrah, West Bengal 711409",Pairatungi,"J7V5+6FW, Baluhati - Chanditala Rd",Howrah,711409,West Bengal,IN,https://www.google.com/maps/place/Pairatungi+Jumma+Masjid/data=!4m7!3m6!1s0x39f8823bacf5526d:0x38ec2f7771c87e3b!8m2!3d22.6431053!4d88.2587143!16s%2Fg%2F11c6zk8jlg!19sChIJbVL1rDuC-DkRO37IcXcv7Dg?authuser=0&hl=en&rclk=1,"22.6431053,88.2587143"
Gayespur Jumma Masjid,Mosque,"J7W7+XWF Gayespur Jumma Masjid, Gayespur, West Bengal 711409",,J7W7+XWF,Gayespur,711409,West Bengal,IN,https://www.google.com/maps/place/Gayespur+Jumma+Masjid/data=!4m7!3m6!1s0x39f88237ee51341b:0xe9bc6a37482b51a1!8m2!3d22.6474424!4d88.2648027!16s%2Fg%2F11c7064btl!19sChIJGzRR7jeC-DkRoVErSDdqvOk?authuser=0&hl=en&rclk=1,"22.6474424,88.26480269999999"
Ankurhati Danga Para Masjid,Mosque,"J67V+37X Ankurhati Danga Para Masjid, Ankurhati, Howrah, West Bengal 711302",Ankurhati,J67V+37X,Howrah,711302,West Bengal,IN,https://www.google.com/maps/place/Ankurhati+Danga+Para+Masjid/data=!4m7!3m6!1s0x39f881fe50fdd189:0x4e1a031fbb8251bf!8m2!3d22.612749!4d88.2432198!16s%2Fg%2F11gflyn0bf!19sChIJidH9UP6B-DkRv1GCux8DGk4?authuser=0&hl=en&rclk=1,"22.612748999999997,88.24321979999999"
Pairatuing Hasnati Masjid,Mosque,"J7V6+93P Pairatuing Hasnati Masjid, pairatuing, Howrah, West Bengal 711409",Pairatungi,"J7V6+93P, pairatuing",Howrah,711409,West Bengal,IN,https://www.google.com/maps/place/Pairatuing+Hasnati+Masjid/data=!4m7!3m6!1s0x39f8823a2da8f385:0x247604d2e68d5ff8!8m2!3d22.6434699!4d88.2602067!16s%2Fg%2F11ddzqfsp1!19sChIJhfOoLTqC-DkR-F-N5tIEdiQ?authuser=0&hl=en&rclk=1,"22.6434699,88.2602067"
KATLIA MOSZID,Mosque,"J773+X44 KATLIA MOSZID, Ankurhati, Howrah, West Bengal 711409",Ankurhati,J773+X44,Howrah,711409,West Bengal,IN,https://www.google.com/maps/place/KATLIA+MOSZID/data=!4m7!3m6!1s0x39f88356027f35b1:0x5a62249e6e6600c5!8m2!3d22.6148782!4d88.2528333!16s%2Fg%2F11gj71lt41!19sChIJsTV_AlaD-DkRxQBmbp4kYlo?authuser=0&hl=en&rclk=1,"22.6148782,88.25283329999999"
Kristorampur Jame Masjid,Mosque,"J66R+JFM Kristorampur Jame Masjid, kristorampur, Howrah, West Bengal 711409",kristorampur,J66R+JFM,Howrah,711409,West Bengal,IN,https://www.google.com/maps/place/Kristorampur+Jame+Masjid/data=!4m7!3m6!1s0x39f881fde04a9f71:0x120b433208c258c8!8m2!3d22.61159!4d88.2411736!16s%2Fg%2F11hdc2z_n4!19sChIJcZ9K4P2B-DkRyFjCCDJDCxI?authuser=0&hl=en&rclk=1,"22.61159,88.2411736"
NIBRA PURATON MASJID,Mosque,"NIBRA PURATON MASJID, Nibra, masjid para, Howrah, West Bengal 711409","Kamrangu, masjid para",Nibra,"Howrah, Nibra",711409,West Bengal,IN,https://www.google.com/maps/place/NIBRA+PURATON+MASJID/data=!4m7!3m6!1s0x3a0278a5f3c9de65:0x3dc3d0a3b30ba4e0!8m2!3d22.6032725!4d88.2563406!16s%2Fg%2F11g9jmn_lq!19sChIJZd7J86V4AjoR4KQLs6PQwz0?authuser=0&hl=en&rclk=1,"22.6032725,88.2563406"
Masjid a Baitur Rehman,Mosque,"H7P4+R4F Masjid a Baitur Rehman, Kamrangu, Andul, Howrah, West Bengal 711302","Kamrangu, Andul",H7P4+R4F,Howrah,711302,West Bengal,IN,https://www.google.com/maps/place/Masjid+a+Baitur+Rehman/data=!4m7!3m6!1s0x3a0278b7fb488257:0xf729605a03e1284a!8m2!3d22.587072!4d88.2552823!16s%2Fg%2F11cp7fffgh!19sChIJV4JI-7d4AjoRSijhA1pgKfc?authuser=0&hl=en&rclk=1,"22.587072,88.25528229999999"
Domjur Eidgah,Mosque,"J6JF+7X5 Domjur Eidgah, Baruipara Rd, Fokor Dokan, Baruipara, Domjur, Howrah, West Bengal 711405","Fokor Dokan, Baruipara, Domjur","J6JF+7X5, Baruipara Rd",Howrah,711405,West Bengal,IN,https://www.google.com/maps/place/Domjur+Eidgah/data=!4m7!3m6!1s0x39f881c100a52745:0xf3144cc3f29fb680!8m2!3d22.6306362!4d88.2249731!16s%2Fg%2F11g65gm5w3!19sChIJRSelAMGB-DkRgLaf8sNMFPM?authuser=0&hl=en&rclk=1,"22.630636199999998,88.2249731"
Dakshin Kolorah Maddha Para Jama Masjid (Green Masjid),Mosque,"H5XQ+827 Dakshin Kolorah Maddha Para Jama Masjid (Green Masjid), Natibpur, West Bengal 711302",,H5XQ+827,Natibpur,711302,West Bengal,IN,https://www.google.com/maps/place/Dakshin+Kolorah+Maddha+Para+Jama+Masjid+%28Green+Masjid%29/data=!4m7!3m6!1s0x3a027ff2acf0a6eb:0xc7f8d99c776608ef!8m2!3d22.5982834!4d88.1875375!16s%2Fg%2F11f24wy8xc!19sChIJ66bwrPJ_AjoR7whmd5zZ-Mc?authuser=0&hl=en&rclk=1,"22.5982834,88.18753749999999"
JOLA NOTUN MASJID,Mosque,"JOLA NOTUN MASJID, Unnamed Road, Ankurhati, Howrah, West Bengal 711409",Ankurhati,Unnamed Road,Howrah,711409,West Bengal,IN,https://www.google.com/maps/place/JOLA+NOTUN+MASJID/data=!4m7!3m6!1s0x39f883bf9844da01:0xa918450d3c0cf9ae!8m2!3d22.613784!4d88.2463721!16s%2Fg%2F11f9zc557f!19sChIJAdpEmL-D-DkRrvkMPA1FGKk?authuser=0&hl=en&rclk=1,"22.613784,88.2463721"
Kushadanga Madhyam Para Jam-E Masjid,Mosque,"Kushadanga Madhyam Para Jam-E Masjid, Kushadanga, Dhulagori, Howrah, Kusadanga, West Bengal 711302",Dhulagori,Kushadanga,"Howrah, Kusadanga",711302,West Bengal,IN,https://www.google.com/maps/place/Kushadanga+Madhyam+Para+Jam-E+Masjid/data=!4m7!3m6!1s0x3a027fefad9e0b6f:0x950944b1661b3731!8m2!3d22.5908819!4d88.1781652!16s%2Fg%2F11f5dz49fx!19sChIJbwuere9_AjoRMTcbZrFECZU?authuser=0&hl=en&rclk=1,"22.5908819,88.1781652"
Chandni Masjid korola,Mosque,"J56V+224 Chandni Masjid korola, Kalara, West Bengal 711411",,J56V+224,Kalara,711411,West Bengal,IN,https://www.google.com/maps/place/Chandni+Masjid+korola/data=!4m7!3m6!1s0x39f881b78bad2bbd:0x196559d131a7149c!8m2!3d22.6100141!4d88.192573!16s%2Fg%2F11mvw4lrcj!19sChIJvSuti7eB-DkRnBSnMdFZZRk?authuser=0&hl=en&rclk=1,"22.610014099999997,88.192573"
Jangalpur masjid,Mosque,"H6RG+JP3 Jangalpur masjid, Unnamed Road, Kamrangu, Andul, Howrah, Jangalpur, West Bengal 711302","Kamrangu, Andul","H6RG+JP3, Unnamed Road","Howrah, Jangalpur",711302,West Bengal,IN,https://www.google.com/maps/place/Jangalpur+masjid/data=!4m7!3m6!1s0x3a027f8d94eef9fb:0xac162edd4e12adc7!8m2!3d22.5915169!4d88.226785!16s%2Fg%2F11fm4r23f7!19sChIJ-_nulI1_AjoRx60STt0uFqw?authuser=0&hl=en&rclk=1,"22.5915169,88.22678499999999"
Ankurhati Gazi Para Jama Masjid,Mosque,"Ankurhati Gazi Para Jama Masjid, Ankurhati, Howrah, West Bengal 711302",Ankurhati,,Howrah,711302,West Bengal,IN,https://www.google.com/maps/place/Ankurhati+Gazi+Para+Jama+Masjid/data=!4m7!3m6!1s0x3a027f8cc2d1f821:0x2e5cfe5e90941eb1!8m2!3d22.6085745!4d88.2459392!16s%2Fg%2F11fqd7dfd4!19sChIJIfjRwox_AjoRsR6UkF7-XC4?authuser=0&hl=en&rclk=1,"22.6085745,88.2459392"
Sardar Para Jumma Masjid,Mosque,"H5MF+C5W Sardar Para Jumma Masjid, Paschimpara, Dhulagori, Howrah, Dhulagari, West Bengal 711302","Paschimpara, Dhulagori",H5MF+C5W,"Howrah, Dhulagari",711302,West Bengal,IN,https://www.google.com/maps/place/Sardar+Para+Jumma+Masjid/data=!4m7!3m6!1s0x3a027f1318266045:0xe232131a495d57f1!8m2!3d22.5836175!4d88.1729466!16s%2Fg%2F11h4gtpyv0!19sChIJRWAmGBN_AjoR8VddSRoTMuI?authuser=0&hl=en&rclk=1,"22.5836175,88.1729466"
sulati.Mosque Quba,Mosque,"H5HC+3WH sulati.Mosque Quba, Dhulagori, Howrah, West Bengal 711302",Dhulagori,"H5HC+3WH, Dhulagori","Howrah, Sulati",711302,West Bengal,IN,https://www.google.com/maps/place/sulati.Mosque+Quba/data=!4m7!3m6!1s0x3a027fd96f697ba3:0xbbd71834abfe94!8m2!3d22.5776866!4d88.1723576!16s%2Fg%2F11ggb2v1yk!19sChIJo3tpb9l_AjoRlP6rNBjXuwA?authuser=0&hl=en&rclk=1,"22.5776866,88.1723576"
keshabpur mullickpara baitul mamur jame masjid,Mosque,"J57V+W5X keshabpur mullickpara baitul mamur jame masjid, Near by keshabpur oikotan samity p.s Dist-, Domjur, Howrah, Kesabpur, West Bengal 711411",Domjur,"J57V+W5X, Near by keshabpur oikotan samity p.s Dist-","Howrah, Kesabpur",711411,West Bengal,IN,https://www.google.com/maps/place/keshabpur+mullickpara+baitul+mamur+jame+masjid/data=!4m7!3m6!1s0x39f88026b1dd5ef7:0x16a6abaee9412fbd!8m2!3d22.6148511!4d88.1929758!16s%2Fg%2F11g8ybq_q7!19sChIJ917dsSaA-DkRvS9B6a6rphY?authuser=0&hl=en&rclk=1,"22.6148511,88.1929758"
Prasastha Baitul Aman Jame Masjid,Mosque,"J62W+652 Prasastha Baitul Aman Jame Masjid, Andul Makardah Rd, Kamrangu, Domjur, Prasastha, Howrah, West Bengal 711302","Kamrangu, Domjur","J62W+652, Andul Makardah Rd","Prasastha, Howrah",711302,West Bengal,IN,https://www.google.com/maps/place/Prasastha+Baitul+Aman+Jame+Masjid/data=!4m7!3m6!1s0x3a027fd4952be7ed:0xdb4154f18da43774!8m2!3d22.6005196!4d88.2453855!16s%2Fg%2F11qg9vbf8z!19sChIJ7ecrldR_AjoRdDekjfFUQds?authuser=0&hl=en&rclk=1,"22.6005196,88.2453855"
Jummah Masjid,Mosque,"H5HF+FWP Jummah Masjid, Dhulagori, Sulati, Dhulagari, West Bengal 711302",Dhulagori,H5HF+FWP,"Sulati, Dhulagari",711302,West Bengal,IN,https://www.google.com/maps/place/Jummah+Masjid/data=!4m7!3m6!1s0x3a027fd840000001:0x2043474c597d091c!8m2!3d22.5787167!4d88.1748402!16s%2Fg%2F11ggb32prp!19sChIJAQAAQNh_AjoRHAl9WUxHQyA?authuser=0&hl=en&rclk=1,"22.578716699999998,88.17484019999999"
Noorani Jam-e Masjid,Mosque,"H5WG+58G Noorani Jam-e Masjid, Unnamed Road, Dhulagori, Howrah, Kusadanga, West Bengal 711302",Dhulagori,"H5WG+58G, Unnamed Road","Howrah, Kusadanga",711302,West Bengal,IN,https://www.google.com/maps/place/Noorani+Jam-e+Masjid/data=!4m7!3m6!1s0x3a027f5501a3a243:0xc6d0d6655ec73d3d!8m2!3d22.5954415!4d88.1758142!16s%2Fg%2F11mxb5js01!19sChIJQ6KjAVV_AjoRPT3HXmXW0MY?authuser=0&hl=en&rclk=1,"22.5954415,88.17581419999999"
Notib pur aymadar para jame masjid,Mosque,"H5XJ+H59 Notib pur aymadar para jame masjid, Unnamed Road, Howrah, Natibpur, West Bengal 711411",,"H5XJ+H59, Unnamed Road","Howrah, Natibpur",711411,West Bengal,IN,https://www.google.com/maps/place/Notib+pur+aymadar+para+jame+masjid/data=!4m7!3m6!1s0x3a027f1a9e537559:0x6f04912c8c13240f!8m2!3d22.5989152!4d88.1804875!16s%2Fg%2F11q2m79xr1!19sChIJWXVTnhp_AjoRDyQTjCyRBG8?authuser=0&hl=en&rclk=1,"22.5989152,88.1804875"
Mouri sk Para Masjid msjd,Mosque,"H7W2+W66 Mouri sk Para Masjid msjd, Kamrangu, Andul, Mahiari, West Bengal 711302","Kamrangu, Andul",H7W2+W66,Mahiari,711302,West Bengal,IN,https://www.google.com/maps/place/Mouri+sk+Para+Masjid+%D9%85%D8%B3%D8%AC%D8%AF%E2%80%AD/data=!4m7!3m6!1s0x3a0279e78da47bab:0x3c0afd3e47486e04!8m2!3d22.5972969!4d88.2505211!16s%2Fg%2F11fjvzy7t8!19sChIJq3ukjed5AjoRBG5IRz79Cjw?authuser=0&hl=en&rclk=1,"22.5972969,88.2505211"
Argori jumma Masjid,Mosque,"H6PG+XGM Argori jumma Masjid, Argori,, Andul, Howrah, West Bengal 711302","Kamrangu, Andul","H6PG+XGM, Argori,","Howrah, Argari",711302,West Bengal,IN,https://www.google.com/maps/place/Argori+jumma+Masjid/data=!4m7!3m6!1s0x3a027f6db4aec45f:0x5b37ea37bc75f312!8m2!3d22.5874623!4d88.2262961!16s%2Fg%2F11q2tl6qzn!19sChIJX8SutG1_AjoREvN1vDfqN1s?authuser=0&hl=en&rclk=1,"22.5874623,88.2262961"
MASZID -E-GARIB NAWAZ,Mosque,"J733+GV8 MASZID -E-GARIB NAWAZ, Kamrangu, Andul, Nibra, West Bengal 711302","Kamrangu, Andul",J733+GV8,Nibra,711302,West Bengal,IN,https://www.google.com/maps/place/MASZID+-E-GARIB+NAWAZ/data=!4m7!3m6!1s0x3a0278af4810a59b:0xcda86a55b8543a27!8m2!3d22.6037856!4d88.2546946!16s%2Fg%2F11g8cg02c8!19sChIJm6UQSK94AjoRJzpUuFVqqM0?authuser=0&hl=en&rclk=1,"22.6037856,88.2546946"
East kolorah baitur rahman jumma mosjid,Mosque,"J54W+3J4 East kolorah baitur rahman jumma mosjid, Kalara, West Bengal 711411",,J54W+3J4,Kalara,711411,West Bengal,IN,https://www.google.com/maps/place/East+kolorah+baitur+rahman+jumma+mosjid/data=!4m7!3m6!1s0x3a027fd5e1fe73ef:0xe0f514e9096958fa!8m2!3d22.6051438!4d88.1965728!16s%2Fg%2F11rfqmscpd!19sChIJ73P-4dV_AjoR-lhpCekU9eA?authuser=0&hl=en&rclk=1,"22.6051438,88.1965728"
Argori mirday para jama masjid aargorrii middepaarraa jaamaa msjid,Mosque,"H6PJ+JMP Argori mirday para jama masjid aargorrii middepaarraa jaamaa msjid, Kamrangu, Andul, Argari, West Bengal 711302","Kamrangu, Andul",H6PJ+JMP,Argari,711302,West Bengal,IN,https://www.google.com/maps/place/Argori+mirday+para+jama+masjid+%E0%A6%86%E0%A6%B0%E0%A6%97%E0%A7%8B%E0%A7%9C%E0%A7%80+%E0%A6%AE%E0%A6%BF%E0%A6%A6%E0%A7%8D%E0%A6%A6%E0%A7%87%E0%A6%AA%E0%A6%BE%E0%A7%9C%E0%A6%BE+%E0%A6%9C%E0%A6%BE%E0%A6%AE%E0%A6%BE+%E0%A6%AE%E0%A6%B8%E0%A6%9C%E0%A6%BF%E0%A6%A6/data=!4m7!3m6!1s0x3a027f863e64e2c7:0x169f62350be44a93!8m2!3d22.5865977!4d88.2317133!16s%2Fg%2F11r9vpf3gh!19sChIJx-JkPoZ_AjoRk0rkCzVinxY?authuser=0&hl=en&rclk=1,"22.5865977,88.2317133"
Natibpur Laskarpara (Jumma Masjid),Mosque,"J53P+R97 Natibpur Laskarpara (Jumma Masjid), Natibpur, West Bengal 711411",,J53P+R97,Natibpur,711411,West Bengal,IN,https://www.google.com/maps/place/Natibpur+Laskarpara+%28Jumma+Masjid%29/data=!4m7!3m6!1s0x3a027f58fec5a4d9:0x2055d533fbc28772!8m2!3d22.6045337!4d88.1859124!16s%2Fg%2F11gmdqcf2v!19sChIJ2aTF_lh_AjoRcofC-zPVVSA?authuser=0&hl=en&rclk=1,"22.604533699999998,88.18591239999999"
MASJID-E-NOOR MUNSHI DANGA SHEK PARA,Mosque,"J739+85G MASJID-E-NOOR MUNSHI DANGA SHEK PARA, Bankra, Howrah, Nibra, West Bengal 711403",Bankra,J739+85G,"Howrah, Nibra",711403,West Bengal,IN,https://www.google.com/maps/place/MASJID-E-NOOR+MUNSHI+DANGA+SHEK+PARA/data=!4m7!3m6!1s0x3a0279101e633517:0xe447f7796403d78b!8m2!3d22.6032693!4d88.2680883!16s%2Fg%2F11smfy2_81!19sChIJFzVjHhB5AjoRi9cDZHn3R-Q?authuser=0&hl=en&rclk=1,"22.603269299999997,88.2680883"
Ankurhati Laskar para masjid,Mosque,"Ankurhati Laskar para masjid, Ankurhati Rd, Ankurhati, Howrah, West Bengal 711409",Ankurhati,Ankurhati Rd,Howrah,711409,West Bengal,IN,https://www.google.com/maps/place/Ankurhati+Laskar+para+masjid/data=!4m7!3m6!1s0x39f883c1c2330601:0x5baab437992ed45!8m2!3d22.6108162!4d88.2486!16s%2Fg%2F11q1vwlz22!19sChIJAQYzwsGD-DkRRe2SeUOrugU?authuser=0&hl=en&rclk=1,"22.6108162,88.2486"
Masjid E Aaishah maasjid i aayyishaah,Mosque,"Masjid E Aaishah maasjid i aayyishaah, 108, Kamrangu, Andul, Howrah, Argari, West Bengal 711302","Kamrangu, Andul",108,"Howrah, Argari",711302,West Bengal,IN,https://www.google.com/maps/place/Masjid+E+Aaishah+%E0%A6%AE%E0%A6%BE%E0%A6%B8%E0%A6%9C%E0%A6%BF%E0%A6%A6+%E0%A6%87+%E0%A6%86%E0%A7%9F%E0%A6%BF%E0%A6%B6%E0%A6%BE%E0%A6%B9%E0%A7%8D/data=!4m7!3m6!1s0x3a027f7c4b93bc65:0xc67c5f3561a5513a!8m2!3d22.5888949!4d88.223924!16s%2Fg%2F11s5mxk25t!19sChIJZbyTS3x_AjoROlGlYTVffMY?authuser=0&hl=en&rclk=1,"22.5888949,88.223924"
LAL MASJID,Mosque,"LAL MASJID, Panch para mollapara lalmasjid sankril, Howrah, West Bengal 711317",Duillya,Panch para mollapara lalmasjid sankril,Howrah,711317,West Bengal,IN,https://www.google.com/maps/place/LAL+MASJID/data=!4m7!3m6!1s0x3a02794f22fb4fd5:0x5b372a680167a6d5!8m2!3d22.5665571!4d88.2545957!16s%2Fg%2F11j_swg_4y!19sChIJ1U_7Ik95AjoR1aZnAWgqN1s?authuser=0&hl=en&rclk=1,"22.5665571,88.2545957"
Sk Para Notun Masjid,Mosque,"H4VX+FM4 Sk Para Notun Masjid, jujersaha, Sk Para Road, Panchla, 711302",Malipukur,"H4VX+FM4, jujersaha, Sk Para Road","Panchla, Gondalpara",711302,West Bengal,IN,https://www.google.com/maps/place/Sk+Para+Notun+Masjid/data=!4m7!3m6!1s0x3a02818364272a95:0xa079c4b7efc3a6fc!8m2!3d22.5936272!4d88.1491951!16s%2Fg%2F11gphlx58w!19sChIJlSonZIOBAjoR_KbD77fEeaA?authuser=0&hl=en&rclk=1,"22.5936272,88.1491951"
Talpukur old masjid,Mosque,"J6M6+J9R Talpukur old masjid, Hajrapara, Domjur, Jhapardah, Howrah, West Bengal 711405","Hajrapara, Domjur",J6M6+J9R,"Jhapardah, Howrah",711405,West Bengal,IN,https://www.google.com/maps/place/Talpukur+old+masjid/data=!4m7!3m6!1s0x39f881c8ae32849b:0x9e518939f4d8983f!8m2!3d22.6341049!4d88.2109049!16s%2Fg%2F11n0yc4qyh!19sChIJm4QyrsiB-DkRP5jY9DmJUZ4?authuser=0&hl=en&rclk=1,"22.6341049,88.2109049"
Pir Abubaker Siddiqueya jumma maszid,Mosque,"J643+PJ8 Pir Abubaker Siddiqueya jumma maszid, Kolorah High School Rd, Sankharidaha Lichutala, Domjur, Howrah, Sankharidaha, West Bengal 711411","Sankharidaha Lichutala, Domjur","J643+PJ8, Kolorah High School Rd","Howrah, Sankharidaha",711411,West Bengal,IN,https://www.google.com/maps/place/Pir+Abubaker+Siddiqueya+jumma+maszid/data=!4m7!3m6!1s0x3a027fb2c7a66e1f:0x8395b1aadbd7f55a!8m2!3d22.6067899!4d88.2040681!16s%2Fg%2F11jfcbcx61!19sChIJH26mx7J_AjoRWvXX26qxlYM?authuser=0&hl=en&rclk=1,"22.6067899,88.2040681"
Pir Abubaker Siddique jumma masjid,Mosque,"J55X+R4X Pir Abubaker Siddique jumma masjid, Unnamed Road, Howrah, Kesabpur, West Bengal 711411",,"J55X+R4X, Unnamed Road","Howrah, Kesabpur",711411,West Bengal,IN,https://www.google.com/maps/place/Pir+Abubaker+Siddique+jumma+masjid/data=!4m7!3m6!1s0x3a027f9311d37fa7:0xba5120e70a0bc1e!8m2!3d22.6096048!4d88.1977822!16s%2Fg%2F11jfbvywrw!19sChIJp3_TEZN_AjoRHrygcA4SpQs?authuser=0&hl=en&rclk=1,"22.6096048,88.19778219999999"
Joyrampur Jame Masjid,Mosque,"J682+J93 Joyrampur Jame Masjid, Joyrampur Rd, Khanakul, Kesabpur, West Bengal 712417",,"J682+J93, Joyrampur Rd","Khanakul, Kesabpur",712417,West Bengal,IN,https://www.google.com/maps/place/Joyrampur+Jame+Masjid/data=!4m7!3m6!1s0x39f875cba06bcc1d:0xd27d0eebaeda3192!8m2!3d22.6165026!4d88.2009083!16s%2Fg%2F11gl1_zylr!19sChIJHcxroMt1-DkRkjHarusOfdI?authuser=0&hl=en&rclk=1,"22.6165026,88.2009083"
Mosque,Mosque,"J57V+Q52 Mosque, keshaabpur, Mullickpara Ln, Domjur, Howrah, Kesabpur, West Bengal 711411",Domjur,"J57V+Q52 keshaabpur, Mullickpara Ln","Howrah, Kesabpur",711411,West Bengal,IN,https://www.google.com/maps/place/Mosque/data=!4m7!3m6!1s0x39f88026b6629b0f:0x44a9462af5458ba9!8m2!3d22.6143996!4d88.1928908!16s%2Fg%2F11g8y9sp7_!19sChIJD5titiaA-DkRqYtF9SpGqUQ?authuser=0&hl=en&rclk=1,"22.6143996,88.1928908"
MASJID E BILAL,Mosque,"MASJID E BILAL, Kamrangu, Andul, Argari, West Bengal 711302","Kamrangu, Andul",,Argari,711302,West Bengal,IN,https://www.google.com/maps/place/MASJID+E+BILAL/data=!4m7!3m6!1s0x3a027f85555764cf:0x5ea16d0c6bfa0fbd!8m2!3d22.5882118!4d88.2229032!16s%2Fg%2F11tcw105s3!19sChIJz2RXVYV_AjoRvQ_6awxtoV4?authuser=0&hl=en&rclk=1,"22.5882118,88.22290319999999"
Unsani Notun Para Jame masjid,Mosque,"H7X4+223 Unsani Notun Para Jame masjid, Unsani Rd, notun Para, Kamrangu, Andul, Howrah, West Bengal 711302","notun Para, Kamrangu, Andul","H7X4+223, Unsani Rd",Howrah,711302,West Bengal,IN,https://www.google.com/maps/place/Unsani+Notun+Para+Jame+masjid/data=!4m7!3m6!1s0x3a027918ea682821:0x8b3d2bcecfd81039!8m2!3d22.5964471!4d88.2552906!16s%2Fg%2F11j2xs3hcr!19sChIJISho6hh5AjoRORDYz84rPYs?authuser=0&hl=en&rclk=1,"22.5964471,88.2552906"
KUSHADANGA RAHAMANIA JUMMA MADJID,Mosque,"KUSHADANGA RAHAMANIA JUMMA MADJID, munshi, Kusadanga, Dhulagori, Howrah, West Bengal 711302",Dhulagori,"munshi, Kusadanga","Howrah, Kusadanga",711302,West Bengal,IN,https://www.google.com/maps/place/KUSHADANGA+RAHAMANIA+JUMMA+MADJID/data=!4m7!3m6!1s0x3a027f73f5fa63cb:0xd96c1bed9051c26!8m2!3d22.5924083!4d88.1808169!16s%2Fg%2F11ppyy_8hz!19sChIJy2P69XN_AjoRJhwF2b7Blg0?authuser=0&hl=en&rclk=1,"22.5924083,88.1808169"
Domjur Uttarpara Qurania Madrasha,Mosque,"J6MF+M3F Domjur Uttarpara Qurania Madrasha, Baruipara, Domjur, Howrah, West Bengal 711405","Baruipara, Domjur",J6MF+M3F,Howrah,711405,West Bengal,IN,https://www.google.com/maps/place/Domjur+Uttarpara+Qurania+Madrasha/data=!4m7!3m6!1s0x39f8815d5ba2aa23:0x7effb4254f704612!8m2!3d22.6341869!4d88.2226583!16s%2Fg%2F11q3v207q_!19sChIJI6qiW12B-DkREkZwTyW0_34?authuser=0&hl=en&rclk=1,"22.6341869,88.22265829999999"
Bhaskur Jumma Masjid,Mosque,"M726+VH6 Bhaskur Jumma Masjid, Baluhati Village, Baluhati, West Bengal 711405",Baluhati Village,M726+VH6,Baluhati,711405,West Bengal,IN,https://www.google.com/maps/place/Bhaskur+Jumma+Masjid/data=!4m7!3m6!1s0x39f88236a7f4a4cb:0x22f1e4eb7dfff1da!8m2!3d22.6521542!4d88.2613996!16s%2Fg%2F11g8bfzb1t!19sChIJy6T0pzaC-DkR2vH_fevk8SI?authuser=0&hl=en&rclk=1,"22.6521542,88.26139959999999"
Jumma masjid  ,Mosque,"H5M7+9F7 Jumma masjid  , Dhulagori, Gangadharpur, West Bengal 711302",Dhulagori,H5M7+9F7,Gangadharpur,,West Bengal,IN,https://www.google.com/maps/place/Jumma+masjid+%EF%B8%8F+%EF%B8%8F/data=!4m7!3m6!1s0x3a02818b885a09f1:0xb26f3a9a2d73e84a!8m2!3d22.5834146!4d88.1636607!16s%2Fg%2F11pw1kss0n!19sChIJ8QlaiIuBAjoRSuhzLZo6b7I?authuser=0&hl=en&rclk=1,"22.583414599999998,88.1636607"
msjid e kubaa MASJID-A-KUBA,Mosque,"J738+J9Q msjid e kubaa MASJID-A-KUBA, Unnamed Road, Bankra, Howrah, Nibra, West Bengal 711409",Bankra,"J738+J9Q, Unnamed Road","Howrah, Nibra",711409,West Bengal,IN,https://www.google.com/maps/place/%E0%A6%AE%E0%A6%B8%E0%A6%9C%E0%A6%BF%E0%A6%A6+%E0%A6%8F+%E0%A6%95%E0%A7%81%E0%A6%AC%E0%A6%BE+MASJID-A-KUBA/data=!4m7!3m6!1s0x3a02792a7c0722f1:0xf1ac9dc10c370332!8m2!3d22.604098!4d88.265994!16s%2Fg%2F11h4f0kj8m!19sChIJ8SIHfCp5AjoRMgM3DMGdrPE?authuser=0&hl=en&rclk=1,"22.604098,88.26599399999999"
Danspara new madina masjid,Mosque,"J7G8+695 Danspara new madina masjid, Danspara, West Bengal 711409",,J7G8+695,Danspara,711409,West Bengal,IN,https://www.google.com/maps/place/Danspara+new+madina+masjid/data=!4m7!3m6!1s0x39f883e097bc97f5:0x92498b47d3eea5a6!8m2!3d22.6255048!4d88.2659962!16s%2Fg%2F11j947fd76!19sChIJ9Ze8l-CD-DkRpqXu00eLSZI?authuser=0&hl=en&rclk=1,"22.625504799999998,88.26599619999999"
Domjur Zamadarpara Jame Masjid,Mosque,"J6JC+RXR Domjur Zamadarpara Jame Masjid, Domjur Jumma Masjid, Baruipara, Domjur, Howrah, West Bengal 711405","Baruipara, Domjur",J6JC+RXR Domjur Jumma Masjid,Howrah,711405,West Bengal,IN,https://www.google.com/maps/place/Domjur+Zamadarpara+Jame+Masjid/data=!4m7!3m6!1s0x39f881933d025f99:0xdb5f147eeca4ac63!8m2!3d22.6320466!4d88.2225153!16s%2Fg%2F11s9lkxfqq!19sChIJmV8CPZOB-DkRY6yk7H4UX9s?authuser=0&hl=en&rclk=1,"22.6320466,88.2225153"
Al ohud jame masjid,Mosque,"Al ohud jame masjid, Begri, Domjur, Bhandardaha, Howrah, West Bengal 711411","Begri, Domjur",,"Bhandardaha, Howrah",711411,West Bengal,IN,https://www.google.com/maps/place/Al+ohud+jame+masjid/data=!4m7!3m6!1s0x39f881387c227861:0x6ac510c9acd76f51!8m2!3d22.6209883!4d88.2212574!16s%2Fg%2F11s55ssgk0!19sChIJYXgifDiB-DkRUW_XrMkQxWo?authuser=0&hl=en&rclk=1,"22.6209883,88.2212574"
Biprannapara Jama Masjid,Mosque,"J6C9+522 Biprannapara Jama Masjid, Begri, Domjur, Howrah, West Bengal 711411","Begri, Domjur",J6C9+522,Howrah,711411,West Bengal,IN,https://www.google.com/maps/place/Biprannapara+Jama+Masjid/data=!4m7!3m6!1s0x39f8818064680cf1:0xa314cc0d9be7a9ab!8m2!3d22.6210357!4d88.2177603!16s%2Fg%2F11sq_9_8_j!19sChIJ8QxoZICB-DkRq6nnmw3MFKM?authuser=0&hl=en&rclk=1,"22.6210357,88.2177603"
Shankharidaha boro Masjid,Mosque,"J643+53 Shankharidaha boro Masjid, Sankharidaha Lichutala, Domjur, Howrah, Kesabpur, West Bengal 711411","Sankharidaha Lichutala, Domjur",J643+53,"Howrah, Kesabpur",,West Bengal,IN,https://www.google.com/maps/place/Shankharidaha+boro+Masjid/data=!4m7!3m6!1s0x3a027fd9162efa49:0x37cd2883095638a4!8m2!3d22.6054334!4d88.2027721!16s%2Fg%2F11rd_8vk6g!19sChIJSfouFtl_AjoRpDhWCYMozTc?authuser=0&hl=en&rclk=1,"22.6054334,88.20277209999999"
Khantora Masjid. khaattoraa mjid,Mosque,"J6C4+9M5 Khantora Masjid. khaattoraa mjid, Domjur Begri Rd, Dakshin Jhapardah, Domjur, Khantora, Howrah, West Bengal 711411","Dakshin Jhapardah, Domjur","J6C4+9M5, Domjur Begri Rd","Khantora, Howrah",711411,West Bengal,IN,https://www.google.com/maps/place/Khantora+Masjid.+%E0%A6%96%E0%A6%BE%E0%A6%9F%E0%A7%8B%E0%A6%B0%E0%A6%BE+%E0%A6%AE%E0%A6%9C%E0%A6%BF%E0%A6%A6/data=!4m7!3m6!1s0x39f881f63ea06a77:0x36f8e343ec4f245a!8m2!3d22.6208841!4d88.2067227!16s%2Fg%2F11q9fmtf8h!19sChIJd2qgPvaB-DkRWiRP7EPj-DY?authuser=0&hl=en&rclk=1,"22.620884099999998,88.2067227"
KESHABPUR SK PARA JAME MASJID,Mosque,"KESHABPUR SK PARA JAME MASJID, Howrah, Kesabpur, West Bengal 711411",,,"Howrah, Kesabpur",711411,West Bengal,IN,https://www.google.com/maps/place/KESHABPUR+SK+PARA+JAME+MASJID/data=!4m7!3m6!1s0x39f88107ab23e811:0x20c5b45d8cff1236!8m2!3d22.6171023!4d88.1959485!16s%2Fg%2F11l2_g78lw!19sChIJEegjqweB-DkRNhL_jF20xSA?authuser=0&hl=en&rclk=1,"22.6171023,88.1959485"
South Kolorah mullick para _____notun masjid,Mosque,"South Kolorah mullick para _____notun masjid, Kalara, West Bengal 711411",,,Kalara,711411,West Bengal,IN,https://www.google.com/maps/place/South+Kolorah+mullick+para+_____notun+masjid/data=!4m7!3m6!1s0x3a027ff548a1419d:0xba7a1c345a408c52!8m2!3d22.5991875!4d88.1898125!16s%2Fg%2F11sfkqm71m!19sChIJnUGhSPV_AjoRUoxAWjQcero?authuser=0&hl=en&rclk=1,"22.5991875,88.1898125"
Kushadanga Abubakkar Siddique(R.A) Jam-e Masjid,Mosque,"H5WH+WG3 Kushadanga Abubakkar Siddique(R.A) Jam-e Masjid, Dhulagori, Kusadanga, West Bengal 711302",Dhulagori,H5WH+WG3,Kusadanga,711302,West Bengal,IN,https://www.google.com/maps/place/Kushadanga+Abubakkar+Siddique%28R.A%29+Jam-e+Masjid/data=!4m7!3m6!1s0x3a027fb86a0e06e1:0x2640f0432c16dd86!8m2!3d22.5972635!4d88.1788113!16s%2Fg%2F11r3zx65vr!19sChIJ4QYOarh_AjoRht0WLEPwQCY?authuser=0&hl=en&rclk=1,"22.5972635,88.17881129999999"
Dewan para Masjid,Mosque,"H5WM+2V Dewan para Masjid, Howrah, Kalara, West Bengal 711302",,H5WM+2V,"Howrah, Kalara",,West Bengal,IN,https://www.google.com/maps/place/Dewan+para+Masjid/data=!4m7!3m6!1s0x3a027f89d5699a7d:0xb46eb4e560dca55d!8m2!3d22.5951054!4d88.184636!16s%2Fg%2F11s0j6c256!19sChIJfZpp1Yl_AjoRXaXcYOW0brQ?authuser=0&hl=en&rclk=1,"22.595105399999998,88.184636"
paarbtiipur iidgaah,Mosque,"paarbtiipur iidgaah, Krishnanagar, Mollar Chak, West Bengal 711405",Krishnanagar,,Mollar Chak,711405,West Bengal,IN,https://www.google.com/maps/place/%E0%A6%AA%E0%A6%BE%E0%A6%B0%E0%A7%8D%E0%A6%AC%E0%A6%A4%E0%A7%80%E0%A6%AA%E0%A7%81%E0%A6%B0+%E0%A6%88%E0%A6%A6%E0%A6%97%E0%A6%BE%E0%A6%B9%E0%A7%8D/data=!4m7!3m6!1s0x39f881bc6520ae29:0xb7360b7d44a938a9!8m2!3d22.6618772!4d88.2206157!16s%2Fg%2F11rd9xwn21!19sChIJKa4gZbyB-DkRqTipRH0LNrc?authuser=0&hl=en&rclk=1,"22.6618772,88.2206157"
Pathorghata Jumma Masjid,Mosque,"H6CG+WWF Pathorghata Jumma Masjid, Ramchandrapur, Sankrail, Masila, West Bengal 711302","Ramchandrapur, Sankrail",H6CG+WWF,Masila,,West Bengal,IN,https://www.google.com/maps/place/Pathorghata+Jumma+Masjid/data=!4m7!3m6!1s0x3a027f250312c78d:0xa34076da9f773c27!8m2!3d22.5723055!4d88.2272974!16s%2Fg%2F11j48jqpq9!19sChIJjccSAyV_AjoRJzx3n9p2QKM?authuser=0&hl=en&rclk=1,"22.5723055,88.2272974"
Kushadanga Jam-e Masjid,Mosque,"H5WJ+539 Kushadanga Jam-e Masjid, Unnamed Road, Dhulagori, Kusadanga, West Bengal 711302",Dhulagori,"H5WJ+539, Unnamed Road",Kusadanga,711302,West Bengal,IN,https://www.google.com/maps/place/Kushadanga+Jam-e+Masjid/data=!4m7!3m6!1s0x3a027facf504c461:0xb34beae7baf7e753!8m2!3d22.5954063!4d88.1802342!16s%2Fg%2F11pbfm4shc!19sChIJYcQE9ax_AjoRU-f3uufqS7M?authuser=0&hl=en&rclk=1,"22.5954063,88.1802342"
Domjur Molla Para Masjid,Mosque,"J6HF+X56 Domjur Molla Para Masjid, Fokor Dokan, Baruipara, Domjur, Howrah, West Bengal 711405","Fokor Dokan, Baruipara, Domjur",J6HF+X56,Howrah,711405,West Bengal,IN,https://www.google.com/maps/place/Domjur+Molla+Para+Masjid/data=!4m7!3m6!1s0x39f8819801d4f63f:0x29a27fa6e6bb9950!8m2!3d22.629902!4d88.222896!16s%2Fg%2F11n987rcb_!19sChIJP_bUAZiB-DkRUJm75qZ_oik?authuser=0&hl=en&rclk=1,"22.629901999999998,88.22289599999999"
Domjur Hazi Para Jumma Mosjid,Mosque,"J6JF+9FG Domjur Hazi Para Jumma Mosjid, Fokor Dokan, Baruipara, Domjur, Howrah, West Bengal 711405","Fokor Dokan, Baruipara, Domjur",J6JF+9FG,Howrah,711405,West Bengal,IN,https://www.google.com/maps/place/Domjur+Hazi+Para+Jumma+Mosjid/data=!4m7!3m6!1s0x39f881497922a37d:0xa78c6c259f84f653!8m2!3d22.6309366!4d88.2237023!16s%2Fg%2F11k7td3cvm!19sChIJfaMieUmB-DkRU_aEnyVsjKc?authuser=0&hl=en&rclk=1,"22.6309366,88.2237023"
Jamadar Para Masjid,Mosque,"J6F9+H4W Jamadar Para Masjid, Dakshin Jhapardah, Domjur, Howrah, West Bengal 711411","Dakshin Jhapardah, Domjur",J6F9+H4W,Howrah,711411,West Bengal,IN,https://www.google.com/maps/place/Jamadar+Para+Masjid/data=!4m7!3m6!1s0x39f8811b573a60b7:0x3cfe0615d1ff6e65!8m2!3d22.6239804!4d88.2178203!16s%2Fg%2F11j8py8kzf!19sChIJt2A6VxuB-DkRZW7_0RUG_jw?authuser=0&hl=en&rclk=1,"22.6239804,88.2178203"
Jamadar Para Masjid,Mosque,"J6F9+M5W Jamadar Para Masjid, Dakshin Jhapardah, Domjur, Howrah, West Bengal 711411","Dakshin Jhapardah, Domjur",J6F9+M5W,Howrah,711411,West Bengal,IN,https://www.google.com/maps/place/Jamadar+Para+Masjid/data=!4m7!3m6!1s0x39f8818f2ad05c4d:0x73aa75804f67dc28!8m2!3d22.6242452!4d88.2179518!16s%2Fg%2F11j30jgqny!19sChIJTVzQKo-B-DkRKNxnT4B1qnM?authuser=0&hl=en&rclk=1,"22.6242452,88.2179518"
Notibpur Aymadar para Jame masjid,Mosque,"J55X+P73 Notibpur Aymadar para Jame masjid, Natibpur, Kesabpur, West Bengal 711411",,J55X+P73,"Natibpur, Kesabpur",,West Bengal,IN,https://www.google.com/maps/place/Notibpur+Aymadar+para+Jame+masjid/data=!4m7!3m6!1s0x3a027f281ded4e6d:0x75f768ad2d5b17b5!8m2!3d22.609251!4d88.1981778!16s%2Fg%2F11q278k53r!19sChIJbU7tHSh_AjoRtRdbLa1o93U?authuser=0&hl=en&rclk=1,"22.609251,88.1981778"
taalpukur kbr sthaan,Mosque,"J6M5+VVF taalpukur kbr sthaan, New, Railway, Domjur - Bauria Rd, Hajrapara, Domjur, Jhapardah, West Bengal 711405","Hajrapara, Domjur","J6M5+VVF, New, Railway, Domjur - Bauria Rd","Jhapardah, Howrah",711405,West Bengal,IN,https://www.google.com/maps/place/%E0%A6%A4%E0%A6%BE%E0%A6%B2%E0%A6%AA%E0%A7%81%E0%A6%95%E0%A7%81%E0%A6%B0+%E0%A6%95%E0%A6%AC%E0%A6%B0+%E0%A6%B8%E0%A7%8D%E0%A6%A5%E0%A6%BE%E0%A6%A8/data=!4m7!3m6!1s0x39f881d5349af273:0xc7ed75b4d28507ec!8m2!3d22.6348386!4d88.210461!16s%2Fg%2F11tn09204y!19sChIJc_KaNNWB-DkR7AeF0rR17cc?authuser=0&hl=en&rclk=1,"22.6348386,88.210461"
Keshabpur raham box molla para masjid,Mosque,"Keshabpur raham box molla para masjid, Unnamed Road, Howrah, Kesabpur, West Bengal 711411",,Unnamed Road,"Howrah, Kesabpur",711411,West Bengal,IN,https://www.google.com/maps/place/Keshabpur+raham+box+molla+para+masjid/data=!4m7!3m6!1s0x39f88105e447563b:0xd26ee533d4a2aec8!8m2!3d22.613707!4d88.199703!16s%2Fg%2F11rwrw21w_!19sChIJO1ZH5AWB-DkRyK6i1DPlbtI?authuser=0&hl=en&rclk=1,"22.613706999999998,88.199703"
Masjid-e-firdous,Mosque,"H6QJ+WJJ Masjid-e-firdous, Lichu Bgan, Borkon Tola, Andul, Argari, Kamrangu, Andul, Howrah, West Bengal 711302","Kamrangu, Andul","H6QJ+WJJ, Lichu Bgan, Borkon Tola, Andul, Argari","Howrah, Argari",711302,West Bengal,IN,https://www.google.com/maps/place/Masjid-e-firdous/data=!4m7!3m6!1s0x3a027f4d46ea9067:0xd609fe7903b83a69!8m2!3d22.5898396!4d88.2315176!16s%2Fg%2F11t_tsf4vr!19sChIJZ5DqRk1_AjoRaTq4A3n-CdY?authuser=0&hl=en&rclk=1,"22.589839599999998,88.23151759999999"
Ankurhati haat masjid,Mosque,"Ankurhati haat masjid, check, post, near Ankurhati, Ankurhati, Howrah, West Bengal 711302",Ankurhati,"check, post, near Ankurhati",Howrah,,West Bengal,IN,https://www.google.com/maps/place/Ankurhati+haat+masjid/data=!4m7!3m6!1s0x39f883c6524b24dd:0x7e03d3e7216ce8da!8m2!3d22.6133398!4d88.2485521!16s%2Fg%2F11l6j74ww7!19sChIJ3SRLUsaD-DkR2uhsIefTA34?authuser=0&hl=en&rclk=1,"22.6133398,88.2485521"
Mullick bandh Notun para masjid,Mosque,"J73C+8RR Mullick bandh Notun para masjid, Aafia Rd, Bankra, Howrah, West Bengal 711403",Bankra,"J73C+8RR, Aafia Rd",Howrah,711403,West Bengal,IN,https://www.google.com/maps/place/Mullick+bandh+Notun+para+masjid/data=!4m7!3m6!1s0x3a0279012a38b1ff:0x667b0e118f186de!8m2!3d22.6033593!4d88.2720079!16s%2Fg%2F11v58_4rbr!19sChIJ_7E4KgF5AjoR3obxGOGwZwY?authuser=0&hl=en&rclk=1,"22.603359299999997,88.27200789999999"
Baitul Hamd markz Maszid,Mosque,"Baitul Hamd markz Maszid, Domjur Bus Terminus Bldg, Amta Rd, Baruipara, Domjur, Howrah, West Bengal 711405","Baruipara, Domjur","Domjur Bus Terminus Bldg, Amta Rd",Howrah,711405,West Bengal,IN,https://www.google.com/maps/place/Baitul+Hamd+markz+Maszid/data=!4m7!3m6!1s0x39f881a3f20d6b6f:0x39b00c708d4fb198!8m2!3d22.6341547!4d88.2208413!16s%2Fg%2F11shdk0cxj!19sChIJb2sN8qOB-DkRmLFPjXAMsDk?authuser=0&hl=en&rclk=1,"22.6341547,88.22084129999999"
Garbagan Jumma Masjid,Mosque,"J6G9+8FF Garbagan Jumma Masjid, Domjur Begri Rd, Dakshin Jhapardah, Domjur, Howrah, West Bengal 711411","Dakshin Jhapardah, Domjur","J6G9+8FF, Domjur Begri Rd",Howrah,711411,West Bengal,IN,https://www.google.com/maps/place/Garbagan+Jumma+Masjid/data=!4m7!3m6!1s0x39f8812cb9d4a9ed:0xfb6ace38964fe386!8m2!3d22.621187!4d88.2159449!16s%2Fg%2F11tj188xcd!19sChIJ7anUuSyB-DkRhuNPljjOavs?authuser=0&hl=en&rclk=1,"22.621187,88.2159449"
jumaa msjid,Mosque,"J6RC+J6H jumaa msjid, Ganguly Para Ln, sattayapirtala, Domjur, Uttar Jhapardaha, West Bengal 711405","sattayapirtala, Domjur","J6RC+J6H, Ganguly Para Ln",Uttar Jhapardaha,711405,West Bengal,IN,https://www.google.com/maps/place/%E0%A6%9C%E0%A7%81%E0%A6%AE%E0%A6%BE+%E0%A6%AE%E0%A6%B8%E0%A6%9C%E0%A6%BF%E0%A6%A6/data=!4m7!3m6!1s0x39f881c2dc03debb:0x4fe015803f8a10f8!8m2!3d22.6415706!4d88.2206151!16s%2Fg%2F11mqdx7kg6!19sChIJu94D3MKB-DkR-BCKP4AV4E8?authuser=0&hl=en&rclk=1,"22.641570599999998,88.22061509999999"
Shankharidaha Masjid Ul Aksa,Mosque,"J632+662 Shankharidaha Masjid Ul Aksa, Sankharidaha Lichutala, Domjur, Howrah, Kalara, West Bengal 711411","Sankharidaha Lichutala, Domjur",J632+662,"Howrah, Kalara",,West Bengal,IN,https://www.google.com/maps/place/Shankharidaha+Masjid+Ul+Aksa/data=!4m7!3m6!1s0x3a027fae1a1c2415:0x49c0b8643b3a84b9!8m2!3d22.6030136!4d88.2005087!16s%2Fg%2F11svfj00fc!19sChIJFSQcGq5_AjoRuYQ6O2S4wEk?authuser=0&hl=en&rclk=1,"22.6030136,88.2005087"
Zumma Masjid jummaa msjid kaattliy'aa ntun paadd'aa,Mosque,"J67V+VW Zumma Masjid jummaa msjid kaattliy'aa ntun paadd'aa, Ankurhati, Howrah, West Bengal 711409",Ankurhati,J67V+VW,Howrah,711409,West Bengal,IN,https://www.google.com/maps/place/Zumma+Masjid+%E0%A6%9C%E0%A7%81%E0%A6%AE%E0%A7%8D%E0%A6%AE%E0%A6%BE+%E0%A6%AE%E0%A6%B8%E0%A6%9C%E0%A6%BF%E0%A6%A6+%E0%A6%95%E0%A6%BE%E0%A6%9F%E0%A6%B2%E0%A6%BF%E0%A6%AF%E0%A6%BC%E0%A6%BE+%E0%A6%A8%E0%A6%A4%E0%A7%81%E0%A6%A8+%E0%A6%AA%E0%A6%BE%E0%A6%A1%E0%A6%BC%E0%A6%BE/data=!4m7!3m6!1s0x39f8815d20884f23:0xe41a8eb34ee4fd6c!8m2!3d22.6146609!4d88.2448202!16s%2Fg%2F11s2q0mms9!19sChIJI0-IIF2B-DkRbP3kTrOOGuQ?authuser=0&hl=en&rclk=1,"22.6146609,88.24482019999999"
Jagadipur notun jame Masjid,Mosque,"M73J+2GF Jagadipur notun jame Masjid, Jagadishpur, Howrah, West Bengal 711115",Jagadishpur,M73J+2GF,Howrah,711115,West Bengal,IN,https://www.google.com/maps/place/Jagadipur+notun+jame+Masjid/data=!4m7!3m6!1s0x39f883982e8e847f:0xde47119b087d946e!8m2!3d22.6525517!4d88.2812899!16s%2Fg%2F11qrkk40fn!19sChIJf4SOLpiD-DkRbpR9CJsRR94?authuser=0&hl=en&rclk=1,"22.6525517,88.28128989999999"
MASJID-E-UMAR MUNSHIDANGA LASKAR PARA,Mosque,"J73C+Q49 MASJID-E-UMAR MUNSHIDANGA LASKAR PARA, Bankra, Nibra, West Bengal 711403",Bankra,J73C+Q49,Nibra,,West Bengal,IN,https://www.google.com/maps/place/MASJID-E-UMAR+MUNSHIDANGA+LASKAR+PARA/data=!4m7!3m6!1s0x3a0279608eeef475:0xadf160dafba2c108!8m2!3d22.6044046!4d88.2703467!16s%2Fg%2F11vcwfk3ck!19sChIJdfTujmB5AjoRCMGi-9pg8a0?authuser=0&hl=en&rclk=1,"22.6044046,88.27034669999999"
Mollick para Masjid,Mosque,"H5VM+2QR Mollick para Masjid, Dhulagori, Kalara, West Bengal 711302",Dhulagori,H5VM+2QR,Kalara,711302,West Bengal,IN,https://www.google.com/maps/place/Mollick+para+Masjid/data=!4m7!3m6!1s0x3a027fd8f2117c51:0xc12e12435a729816!8m2!3d22.5920449!4d88.1838555!16s%2Fg%2F11rdb0xsyd!19sChIJUXwR8th_AjoRFphyWkMSLsE?authuser=0&hl=en&rclk=1,"22.592044899999998,88.18385549999999"
Saikat Mondal,Mosque,"Saikat Mondal, Sanaidar Para Masjid, Bankra, Muragachha, Nibra, West Bengal 711403",Bankra,Sanaidar Para Masjid,"Muragachha, Nibra",,West Bengal,IN,https://www.google.com/maps/place/Saikat+Mondal/data=!4m7!3m6!1s0x3a0279c20bc18697:0x8599b87dd9b5d6!8m2!3d22.6009324!4d88.2697397!16s%2Fg%2F11rdjt6gwv!19sChIJl4bBC8J5AjoR1rXZfbiZhQA?authuser=0&hl=en&rclk=1,"22.600932399999998,88.2697397"
"Kushadanga, Dakshin Para Jame Masjid, And Eidgah",Mosque,"H5VH+7MJ Kushadanga, Dakshin Para Jame Masjid, And Eidgah, Dhulagori, Kusadanga, West Bengal 711302",Dhulagori,H5VH+7MJ,Kusadanga,,West Bengal,IN,"https://www.google.com/maps/place/Kushadanga,+Dakshin+Para+Jame+Masjid,+And+Eidgah/data=!4m7!3m6!1s0x3a027fcaff39734d:0xaeb55594b6abe1f!8m2!3d22.5932099!4d88.179137!16s%2Fg%2F11l20y4j62!19sChIJTXM5_8p_AjoRH75qS1lV6wo?authuser=0&hl=en&rclk=1","22.593209899999998,88.179137"
