name,main_category,address,address_ward,address_street,address_city,address_postal_code,address_state,address_country_code,link,coordinates
Hazi Patmal Wali Madina Masjid,Mosque,"Hazi Patmal Wali Madina Masjid, Hazi Patmal Wali gali, Dhirdhaunka, Haryana 122103",,Hazi Patmal Wali gali,Dhirdhaunka,122103,Haryana,IN,https://www.google.com/maps/place/Hazi+Patmal+Wali+Madina+Masjid/data=!4m7!3m6!1s0x390d2f13f97952d3:0xb840ab6c66e18f88!8m2!3d28.1903916!4d77.0511492!16s%2Fg%2F11fsvspvhq!19sChIJ01J5-RMvDTkRiI_hZmyrQLg?authuser=0&hl=en&rclk=1,"28.190391599999998,77.0511492"
Madhi Masjid msjd,Mosque,"G57P+X22 Madhi Masjid msjd, Aam Bagh, Ladha Sarai Village, Mehrauli, New Delhi, Delhi 110030","Aam Bagh, Ladha Sarai Village, Mehrauli",G57P+X22,"Mehrauli, New Delhi",110030,Delhi,IN,https://www.google.com/maps/place/Madhi+Masjid+%D9%85%D8%B3%D8%AC%D8%AF%E2%80%AD/data=!4m7!3m6!1s0x390d1e1aefd51b73:0xeb817d5121e0c393!8m2!3d28.5148909!4d77.1850159!16s%2Fg%2F1tnk_stq!19sChIJcxvV7xoeDTkRk8PgIVF9ges?authuser=0&hl=en&rclk=1,"28.514890899999997,77.1850159"
Masjid (Mosque),Mosque,"95FQ+82P Masjid (Mosque), Home, Hisavati, Uttar Pradesh 203390",,"95FQ+82P, Home",Hisavati,,Uttar Pradesh,IN,https://www.google.com/maps/place/Masjid+%28Mosque%29/data=!4m7!3m6!1s0x390b45c4547b6f7f:0x42e22913e5fdee6!8m2!3d28.373339!4d78.1875815!16s%2Fg%2F11hbnvrf22!19sChIJf297VMRFCzkR5t5fPpEiLgQ?authuser=0&hl=en&rclk=1,"28.373338999999998,78.1875815"
Masjid E Balyana,Mosque,"QW5X+W28 Masjid E Balyana, Maholi, Haryana 122104",,QW5X+W28,Maholi,122104,Haryana,IN,https://www.google.com/maps/place/Masjid+E+Balyana/data=!4m7!3m6!1s0x3972c387d5367291:0xbf0962599ba3b736!8m2!3d27.759793!4d76.9475894!16s%2Fg%2F11shfbxz4w!19sChIJkXI21YfDcjkRNrejm1liCb8?authuser=0&hl=en&rclk=1,"27.759793,76.9475894"
Choti Masjid Bilakpur,Mosque,"QWCX+77M Choti Masjid Bilakpur, Maholi, Firozpur Jhirka, Haryana 122104",,QWCX+77M,"Maholi, Firozpur Jhirka",122104,Haryana,IN,https://www.google.com/maps/place/Choti+Masjid+Bilakpur/data=!4m7!3m6!1s0x3972c4761998cbef:0xd306844816f7a11c!8m2!3d27.7707166!4d76.9481855!16s%2Fg%2F11hbkpn78d!19sChIJ78uYGXbEcjkRHKH3FkiEBtM?authuser=0&hl=en&rclk=1,"27.7707166,76.9481855"
Masjid Machhayli.,Mosque,"QJHJ+M44 Masjid Machhayli., Ratupur, Uttar Pradesh 244102",,QJHJ+M44,Ratupur,244102,Uttar Pradesh,IN,https://www.google.com/maps/place/Masjid+Machhayli./data=!4m7!3m6!1s0x390b02eb8ed0900b:0xfaeb8d406f4f70dc!8m2!3d28.779126!4d78.6303178!16s%2Fg%2F11dxlbkm1z!19sChIJC5DQjusCCzkR3HBPb0CN6_o?authuser=0&hl=en&rclk=1,"28.779125999999998,78.6303178"
Badi Masjid Bilakpur,Mosque,"QX93+Q6F Badi Masjid Bilakpur, Maholi, Haryana 122104",,QX93+Q6F,Maholi,122104,Haryana,IN,https://www.google.com/maps/place/Badi+Masjid+Bilakpur/data=!4m7!3m6!1s0x3972c387e1157589:0x161661f7e1c1deba!8m2!3d27.769437!4d76.953049!16s%2Fg%2F11hbkpd2l4!19sChIJiXUV4YfDcjkRut7B4fdhFhY?authuser=0&hl=en&rclk=1,"27.769437,76.953049"
Masjid,Mosque,"Q7JJ+7WC Masjid, Pavi Sadakpur, Uttar Pradesh 201102",,Q7JJ+7WC,Pavi Sadakpur,201102,Uttar Pradesh,IN,https://www.google.com/maps/place/Masjid/data=!4m7!3m6!1s0x390cff3247b3c4d7:0xf1b7407f946dd8cc!8m2!3d28.7806806!4d77.2822504!16s%2Fg%2F11ggz8tfhy!19sChIJ18SzRzL_DDkRzNhtlH9At_E?authuser=0&hl=en&rclk=1,"28.7806806,77.2822504"
Masjid,Mosque,"Q6MJ+5H5 Masjid, Badarpur, Madanpur Khadar, New Delhi, 110084",Madanpur Khadar,"Q6MJ+5H5, Badarpur","New Delhi, Delhi",110084,Delhi,IN,https://www.google.com/maps/place/Masjid/data=!4m7!3m6!1s0x390cffb780460377:0x9fe224e9c653e965!8m2!3d28.7828891!4d77.2314704!16s%2Fg%2F11qn790lvq!19sChIJdwNGgLf_DDkRZelTxukk4p8?authuser=0&hl=en&rclk=1,"28.7828891,77.23147039999999"
Stand masjid Maholi,Mosque,"QW4V+3G4 Stand masjid Maholi, Maholi, Haryana 122104",,QW4V+3G4,Maholi,122104,Haryana,IN,https://www.google.com/maps/place/Stand+masjid+Maholi/data=!4m7!3m6!1s0x3972c37d790241df:0x79bf6bfa42ad2276!8m2!3d27.7551426!4d76.9438279!16s%2Fg%2F11qq1qm6d4!19sChIJ30ECeX3DcjkRdiKtQvprv3k?authuser=0&hl=en&rclk=1,"27.7551426,76.9438279"
Jannatul firdau masjid (Deswaliyan mosque)),Mosque,"Jannatul firdau masjid (Deswaliyan mosque)), Mahalka, Uttar Pradesh 250222",,,Mahalka,250222,Uttar Pradesh,IN,https://www.google.com/maps/place/Jannatul+firdau+masjid+%28Deswaliyan+mosque%29%29/data=!4m7!3m6!1s0x390c735cb53dcc75:0x7becf41f16b561db!8m2!3d29.1527887!4d77.7803222!16s%2Fg%2F11f6384c1f!19sChIJdcw9tVxzDDkR22G1Fh_07Hs?authuser=0&hl=en&rclk=1,"29.1527887,77.7803222"
"Jama Masjid, Rahimpur Behgawan",Mosque,"GR5R+72J Jama Masjid, Rahimpur Behgawan, Unnamed Road, Asfabad Chandpura, Maholi, Uttar Pradesh 203408",,"GR5R+72J, Unnamed Road","Asfabad Chandpura, Maholi",203408,Uttar Pradesh,IN,"https://www.google.com/maps/place/Jama+Masjid,+Rahimpur+Behgawan/data=!4m7!3m6!1s0x390c9f9b4a42e307:0xead55730d8839b5f!8m2!3d28.5082198!4d77.8400093!16s%2Fg%2F11p9w6snsr!19sChIJB-NCSpufDDkRX5uD2DBX1eo?authuser=0&hl=en&rclk=1","28.5082198,77.84000929999999"
Masjid msjid,Mosque,"JFFX+X3F Masjid msjid, Kusaila, Uttar Pradesh 261141",,JFFX+X3F,Kusaila,261141,Uttar Pradesh,IN,https://www.google.com/maps/place/Masjid+%E0%A4%AE%E0%A4%B8%E0%A5%8D%E0%A4%9C%E0%A4%BF%E0%A4%A6/data=!4m7!3m6!1s0x399f205f0981beaf:0xae6d0872833a9067!8m2!3d27.6249393!4d80.4976599!16s%2Fg%2F11g9qgx2nl!19sChIJr76BCV8gnzkRZ5A6g3IIba4?authuser=0&hl=en&rclk=1,"27.624939299999998,80.4976599"
Peer Khana & Masjid,Mosque,"JQF3+XP6 Peer Khana & Masjid, Maholi Kalan, Punjab 141109",,JQF3+XP6,Maholi Kalan,141109,Punjab,IN,https://www.google.com/maps/place/Peer+Khana+%26+Masjid/data=!4m7!3m6!1s0x391062e476c41733:0x45fcd0bb1a8f2f01!8m2!3d30.6249239!4d75.7542725!16s%2Fg%2F11fy2yd7s2!19sChIJMxfEduRiEDkRAS-PGrvQ_EU?authuser=0&hl=en&rclk=1,"30.6249239,75.7542725"
Masjid munira maholi,Mosque,"QW7X+M2 Masjid munira maholi, Maholi, Haryana 122104",,QW7X+M2,Maholi,,Haryana,IN,https://www.google.com/maps/place/Masjid+munira+maholi/data=!4m7!3m6!1s0x3972c388a7a5446d:0x82d16c3fd94f05d7!8m2!3d27.7641326!4d76.9475773!16s%2Fg%2F11swh1bmf2!19sChIJbUSlp4jDcjkR1wVP2T9s0YI?authuser=0&hl=en&rclk=1,"27.7641326,76.94757729999999"
Badi masjid,Mosque,"QW4W+WJ4 Badi masjid, Maholi, Haryana 122104",,QW4W+WJ4,Maholi,122104,Haryana,IN,https://www.google.com/maps/place/Badi+masjid/data=!4m7!3m6!1s0x3972c3ce19bcf4e5:0x56760263bd5f2baf!8m2!3d27.7572605!4d76.9465739!16s%2Fg%2F11txf84xsh!19sChIJ5fS8Gc7DcjkRrytfvWMCdlY?authuser=0&hl=en&rclk=1,"27.757260499999997,76.94657389999999"
Maqqi masjid,Mosque,"Maqqi masjid, khushal park, Chand Market, Main Road, Loni, Ghaziabad, Uttar Pradesh 201102",Loni,"khushal park, Chand Market, Main Road",Ghaziabad,201102,Uttar Pradesh,IN,https://www.google.com/maps/place/Maqqi+masjid/data=!4m7!3m6!1s0x390cff5e0ec94889:0x5f11a2cfa7f2d1f6!8m2!3d28.7591698!4d77.2711527!16s%2Fg%2F11q57z_dlr!19sChIJiUjJDl7_DDkR9tHyp8-iEV8?authuser=0&hl=en&rclk=1,"28.7591698,77.2711527"
Mahmoodiya Masjid,Mosque,"PH6G+MG2 Mahmoodiya Masjid, Muhiddinpur Dabarsi, Uttar Pradesh 245304",,PH6G+MG2,Muhiddinpur Dabarsi,,Uttar Pradesh,IN,https://www.google.com/maps/place/Mahmoodiya+Masjid/data=!4m7!3m6!1s0x390c8d60cff0b153:0xf4243a485eaceadc!8m2!3d28.7116308!4d77.5762703!16s%2Fg%2F11sdn5y0ht!19sChIJU7Hwz2CNDDkR3OqsXkg6JPQ?authuser=0&hl=en&rclk=1,"28.7116308,77.57627029999999"
Masjid Ghousia,Mosque,"MF48+WV4 Masjid Ghousia, Lucknow - Shahjahanpur Rd, Maholi, Uttar Pradesh 261141",,"MF48+WV4, Lucknow - Shahjahanpur Rd",Maholi,261141,Uttar Pradesh,IN,https://www.google.com/maps/place/Masjid+Ghousia/data=!4m7!3m6!1s0x399f21b1b41ef505:0xea429580dfe2af0a!8m2!3d27.6569755!4d80.4672803!16s%2Fg%2F11sd5bc1dr!19sChIJBfUetLEhnzkRCq_i34CVQuo?authuser=0&hl=en&rclk=1,"27.656975499999998,80.4672803"
Maholi,,"Maholi, Haryana",,,Maholi,,Haryana,IN,https://www.google.com/maps/place/Maholi/data=!4m7!3m6!1s0x3973370b28130f6f:0xed582fda480049c4!8m2!3d27.9387712!4d77.5110614!16s%2Fg%2F1hdz92yzn!19sChIJbw8TKAs3czkRxEkASNovWO0?authuser=0&hl=en&rclk=1,"27.938771199999998,77.5110614"
