name,main_category,address,address_ward,address_street,address_city,address_postal_code,address_state,address_country_code,link,coordinates
"Buddha Temple,",Buddhist temple,"Buddha Temple,, New Basti, Clement Town, Dehradun, Bharu Wala Grant, Uttarakhand 248002","New Basti, Clement Town",,"Dehradun, Bharu Wala Grant",248002,Uttarakhand,IN,"https://www.google.com/maps/place/Buddha+Temple,/data=!4m7!3m6!1s0x39092bf2993050c1:0x87aaaea1a401b644!8m2!3d30.2597095!4d77.9967249!16s%2Fg%2F1td31dyk!19sChIJwVAwmfIrCTkRRLYBpKGuqoc?authuser=0&hl=en&rclk=1","30.2597095,77.99672489999999"
Mindrolling Monastery,Monastery,"Mindrolling Monastery, 3, Buddha Temple Road, New Basti, Clement Town, Dehradun, Bharu Wala Grant, Uttarakhand 248002","New Basti, Clement Town","3, Buddha Temple Road","Dehradun, Bharu Wala Grant",248002,Uttarakhand,IN,https://www.google.com/maps/place/Mindrolling+Monastery/data=!4m7!3m6!1s0x39092bf8c1f85db1:0x6c4a0325eba5dd46!8m2!3d30.2615418!4d77.99771!16s%2Fg%2F11c1ljkdqg!19sChIJsV34wfgrCTkRRt2l6yUDSmw?authuser=0&hl=en&rclk=1,"30.2615418,77.99771"
"Army Public School, Clement Town",CBSE School,"7275+R6G Army Public School, Clement Town, Army cant, Bharuwala Colony, Clement Town, Dehradun, Uttarakhand 248002","Bharuwala Colony, Clement Town",7275+R6G Army cant,Dehradun,248002,Uttarakhand,IN,"https://www.google.com/maps/place/Army+Public+School,+Clement+Town/data=!4m7!3m6!1s0x39092bfc0ea410a7:0x360bfc8d9fb4545e!8m2!3d30.2646451!4d78.0083559!16s%2Fg%2F1vr3bk1r!19sChIJpxCkDvwrCTkRXlS0n438CzY?authuser=0&hl=en&rclk=1","30.2646451,78.0083559"
Tashi Kyil Monastery,Buddhist temple,"7X4W+P3Q Tashi Kyil Monastery, Tashi Kyil Monastery ,Tibetan Colony, Selection Board Rd, Clement Town, Dehradun, Uttarakhand 248002","New Basti, Clement Town","7X4W+P3Q, Tashi Kyil Monastery ,Tibetan Colony, Selection Board Rd",Dehradun,248002,Uttarakhand,IN,https://www.google.com/maps/place/Tashi+Kyil+Monastery/data=!4m7!3m6!1s0x39092b8ceac1670d:0xff61c47214548f83!8m2!3d30.2568482!4d77.9952328!16s%2Fg%2F11g_l_rmk!19sChIJDWfB6owrCTkRg49UFHLEYf8?authuser=0&hl=en&rclk=1,"30.2568482,77.9952328"
Green Taxi Service,Taxi service,"Green Taxi Service, Muskan Chowk, Azad Colony Rd, near Sana Masjid, Morowala, Clement Town, Dehradun, Uttarakhand 248001","Morowala, Clement Town","Muskan Chowk, Azad Colony Rd, near Sana Masjid",Dehradun,248001,Uttarakhand,IN,https://www.google.com/maps/place/Green+Taxi+Service/data=!4m7!3m6!1s0x39092b5c4fc2e141:0xdc9980cceb8cff80!8m2!3d30.2876613!4d78.002768!16s%2Fg%2F11p02qp2t1!19sChIJQeHCT1wrCTkRgP-M68yAmdw?authuser=0&hl=en&rclk=1,"30.2876613,78.002768"
Mayfair Avenue,Housing society,"Mayfair Avenue, Morowala, Clement Town, Dehradun, Uttarakhand 248002","Morowala, Clement Town",,Dehradun,248002,Uttarakhand,IN,https://www.google.com/maps/place/Mayfair+Avenue/data=!4m7!3m6!1s0x39092b3837f6c3b9:0xe950c9250615b229!8m2!3d30.2833473!4d78.0055956!16s%2Fg%2F11h76md9gq!19sChIJucP2NzgrCTkRKbIVBiXJUOk?authuser=0&hl=en&rclk=1,"30.2833473,78.00559559999999"
Cantonment Board Clement Town,Government office,"Cantonment Board Clement Town, Bharuwala Colony, Clement Town, Dehradun, Uttarakhand 248002","Bharuwala Colony, Clement Town",,Dehradun,248002,Uttarakhand,IN,https://www.google.com/maps/place/Cantonment+Board+Clement+Town/data=!4m7!3m6!1s0x39092be5958a2b7b:0x540215905839a8bb!8m2!3d30.2658113!4d78.0078914!16s%2Fg%2F1s04f40hz!19sChIJeyuKleUrCTkRu6g5WJAVAlQ?authuser=0&hl=en&rclk=1,"30.2658113,78.00789139999999"
Redcliffe Labs - Collection Center,Diagnostic center,"Redcliffe Labs - Collection Center, House No 90 Majra West, Near, Masjid Wali Gali, Dehradun, Uttarakhand 248171","Sewla Kalan, Majra","House No 90 Majra West, Near, Masjid Wali Gali","Dehradun, Shewala Kala",248171,Uttarakhand,IN,https://www.google.com/maps/place/Redcliffe+Labs+-+Collection+Center/data=!4m7!3m6!1s0x39092b58dcbd3a85:0xece1c8597396550d!8m2!3d30.2942616!4d78.0011742!16s%2Fg%2F11y26jx9r1!19sChIJhTq93FgrCTkRDVWWc1nI4ew?authuser=0&hl=en&rclk=1,"30.2942616,78.0011742"
Makkah masjid (Jama,Mosque,"Makkah masjid (Jama, Anand Vihar, Ajabpur Kalan, Dehradun, Uttarakhand 248001","Anand Vihar, Ajabpur Kalan",,Dehradun,248001,Uttarakhand,IN,https://www.google.com/maps/place/Makkah+masjid+%28Jama/data=!4m7!3m6!1s0x39092994d67ed10b:0x45f0d586c6c3aef!8m2!3d30.295721!4d78.0431853!16s%2Fg%2F11ny3jwrn6!19sChIJC9F-1pQpCTkR7zpsbFgNXwQ?authuser=0&hl=en&rclk=1,"30.295721,78.04318529999999"
"Shiva mandir ,Gorakhpur Chowk,Premnagar , Dehradun.",Hindu temple,"Shiva mandir ,Gorakhpur Chowk,Premnagar , Dehradun., Shahpur, Indian Military Academy, Dehradun, Arcadia Grant, Uttarakhand 248007","Shahpur, Indian Military Academy",,"Dehradun, Arcadia Grant",248007,Uttarakhand,IN,"https://www.google.com/maps/place/Shiva+mandir+,Gorakhpur+Chowk,Premnagar+,+Dehradun./data=!4m7!3m6!1s0x39092a929a61c943:0x4edb67a3de1ba7f5!8m2!3d30.3165279!4d77.9617078!16s%2Fg%2F11gzq4nkc!19sChIJQ8lhmpIqCTkR9acb3qNn204?authuser=0&hl=en&rclk=1","30.316527899999997,77.9617078"
Shiv Mandir,Hindu temple,"72X7+HVF Shiv Mandir, Bharampuri, Niranjanpur, Dehradun, Uttarakhand 248171","Bharampuri, Niranjanpur",72X7+HVF,Dehradun,248171,Uttarakhand,IN,https://www.google.com/maps/place/Shiv+Mandir/data=!4m7!3m6!1s0x39092a2b7b410fab:0xe18180382dd2df4b!8m2!3d30.2989311!4d78.014661!16s%2Fg%2F11c5gbcpfb!19sChIJqw9BeysqCTkRS9_SLTiAgeE?authuser=0&hl=en&rclk=1,"30.298931099999997,78.01466099999999"
Masihi Mandli Church Clement town Dehra Dun,Pentecostal church,"Masihi Mandli Church Clement town Dehra Dun, Grant -1, Bada Bharuwala, Clement Town, Dehradun, Uttarakhand 248002","Grant -1, Bada Bharuwala, Clement Town",,Dehradun,248002,Uttarakhand,IN,https://www.google.com/maps/place/Masihi+Mandli+Church+Clement+town+Dehra+Dun/data=!4m7!3m6!1s0x39092b519f482bfd:0xda1324f325ec205b!8m2!3d30.2716744!4d78.0115772!16s%2Fg%2F11f5k1x64b!19sChIJ_StIn1ErCTkRWyDsJfMkE9o?authuser=0&hl=en&rclk=1,"30.2716744,78.01157719999999"
Mad,Religious institution,"Mad, Rajpur Rd, Kishanpur, Dehradun, Uttarakhand 248001",Kishanpur,Rajpur Rd,Dehradun,248001,Uttarakhand,IN,https://www.google.com/maps/place/Mad/data=!4m7!3m6!1s0x3908d7617e98c601:0x6d9b4359bd4b20d7!8m2!3d30.3682405!4d78.0741034!16s%2Fg%2F11q4chbn3v!19sChIJAcaYfmHXCDkR1yBLvVlDm20?authuser=0&hl=en&rclk=1,"30.3682405,78.0741034"
Shiv Mandir,Hindu temple,"7XMW+284 Shiv Mandir, Ashima Vihar, Subhash Nagar, Dehradun, Sewla Khurd, Uttarakhand 248002","Ashima Vihar, Subhash Nagar",7XMW+284,"Dehradun, Sewla Khurd",248002,Uttarakhand,IN,https://www.google.com/maps/place/Shiv+Mandir/data=!4m7!3m6!1s0x39092bc63c92aae5:0xa5056eff8ccb27a7!8m2!3d30.2825233!4d77.9958425!16s%2Fg%2F11g0lbvx32!19sChIJ5aqSPMYrCTkRpyfLjP9uBaU?authuser=0&hl=en&rclk=1,"30.282523299999998,77.9958425"
Jama Masjid Malukawala,Mosque,"8X89+QM3 Jama Masjid Malukawala, Shahpur, Indian Military Academy, Dehradun, Malukawala, Uttarakhand 248007","Shahpur, Indian Military Academy",8X89+QM3,"Dehradun, Malukawala",248007,Uttarakhand,IN,https://www.google.com/maps/place/Jama+Masjid+Malukawala/data=!4m7!3m6!1s0x39092b7a9efa8035:0x7a1eb0ec55ba92f6!8m2!3d30.316881!4d77.9691615!16s%2Fg%2F11vkcqyfw9!19sChIJNYD6nnorCTkR9pK6VeywHno?authuser=0&hl=en&rclk=1,"30.316881,77.9691615"
Shiv Mandir,Hindu temple,"7XJG+CG6 Shiv Mandir, Saharanpur Road, Chandrabani Rd, Chandrabani, Dehradun, Uttarakhand 248001",Chandrabani,"7XJG+CG6, Saharanpur Road, Chandrabani Rd","Dehradun, Pitthuwala",248001,Uttarakhand,IN,https://www.google.com/maps/place/Shiv+Mandir/data=!4m7!3m6!1s0x39092ba7ce867f9f:0x655705773b2eacf9!8m2!3d30.281035!4d77.976279!16s%2Fg%2F1ptvxtbcr!19sChIJn3-GzqcrCTkR-awuO3cFV2U?authuser=0&hl=en&rclk=1,"30.281035,77.97627899999999"
"Luqmani Ayurveda, Sexology Center In Dehradun Dr.Hakeem.M. Wasil",Herbalist,"Luqmani Ayurveda, Sexology Center In Dehradun Dr.Hakeem.M. Wasil, Azad Colony Rd, near Sana Masjid, Morowala, Clement Town, Dehradun, Uttarakhand 248002","Morowala, Clement Town","Azad Colony Rd, near Sana Masjid",Dehradun,248002,Uttarakhand,IN,"https://www.google.com/maps/place/Luqmani+Ayurveda,+Sexology+Center+In+Dehradun+Dr.Hakeem.M.+Wasil/data=!4m7!3m6!1s0x39092bce8bbb67f3:0xd6300204c260a186!8m2!3d30.2871223!4d78.003402!16s%2Fg%2F11d_8l0bv4!19sChIJ82e7i84rCTkRhqFgwgQCMNY?authuser=0&hl=en&rclk=1","30.2871223,78.003402"
brahman tola,Hindu temple,"73WJ+4GG brahman tola, Bangakhala, Nathupur, Dehradun, Uttarakhand 248005","Bangakhala, Nathupur",73WJ+4GG,Dehradun,248005,Uttarakhand,IN,https://www.google.com/maps/place/brahman+tola/data=!4m7!3m6!1s0x390928f16e4044a3:0xf6f51d1c7e2eefc1!8m2!3d30.2953134!4d78.081336!16s%2Fg%2F12hv2lbgv!19sChIJo0RAbvEoCTkRwe8ufhwd9fY?authuser=0&hl=en&rclk=1,"30.295313399999998,78.081336"
Temple of Gugga Pir Ki Madi guggaa piir kii maaddii mndir,Hindu temple,"8286+M2V Temple of Gugga Pir Ki Madi guggaa piir kii maaddii mndir, Vyomprasth, Kaonli, Dehradun, Uttarakhand 248146","Vyomprasth, Kaonli",8286+M2V,Dehradun,248146,Uttarakhand,IN,https://www.google.com/maps/place/Temple+of+Gugga+Pir+Ki+Madi+%E0%A4%97%E0%A5%81%E0%A4%97%E0%A5%8D%E0%A4%97%E0%A4%BE+%E0%A4%AA%E0%A5%80%E0%A4%B0+%E0%A4%95%E0%A5%80+%E0%A4%AE%E0%A4%BE%E0%A4%A1%E0%A5%80+%E0%A4%AE%E0%A4%A8%E0%A5%8D%E0%A4%A6%E0%A4%BF%E0%A4%B0/data=!4m7!3m6!1s0x39092bc229f19105:0x36ff08aaf3bf6c3a!8m2!3d30.3167278!4d78.0100446!16s%2Fg%2F11gmxb3qwh!19sChIJBZHxKcIrCTkROmy_86oI_zY?authuser=0&hl=en&rclk=1,"30.3167278,78.0100446"
Sai Mandir,Hindu temple,"73C9+424 Sai Mandir, Sai Mandir, Sai Vihar, Majari Mafi, 248005","Haripur, Nawada","73C9+424, Sai Mandir, Sai Vihar","Majari Mafi, Dehradun",248005,Uttarakhand,IN,https://www.google.com/maps/place/Sai+Mandir/data=!4m7!3m6!1s0x390929573716f1a1:0x46da1e9468311a4d!8m2!3d30.2702688!4d78.0675874!16s%2Fg%2F11rsl3_t26!19sChIJofEWN1cpCTkRTRoxaJQe2kY?authuser=0&hl=en&rclk=1,"30.2702688,78.0675874"
Doon Aseel,Poultry farm,"Doon Aseel, Kargi Rd, near Abubakar masjid, Chandchak, Banjarawala, Dehradun, Uttarakhand 248001","Chandchak, Banjarawala","Kargi Rd, near Abubakar masjid",Dehradun,248001,Uttarakhand,IN,https://www.google.com/maps/place/Doon+Aseel/data=!4m7!3m6!1s0x39092b4c4af87ee9:0xfb4d1e112353567!8m2!3d30.2802074!4d78.0168035!16s%2Fg%2F11sd981c7s!19sChIJ6X74SkwrCTkRZzU1EuHRtA8?authuser=0&hl=en&rclk=1,"30.2802074,78.0168035"
Jama Masjid Kanwali,Mosque,"Jama Masjid Kanwali, 23, Narmada Enclave, Shakti Enclave, Kaonli, Dehradun, Uttarakhand 248001","Narmada Enclave, Shakti Enclave, Kaonli",23,Dehradun,248001,Uttarakhand,IN,https://www.google.com/maps/place/Jama+Masjid+Kanwali/data=!4m7!3m6!1s0x39092bd68fa89897:0x57c1141b2804e809!8m2!3d30.3175496!4d78.0107143!16s%2Fg%2F11vhqmn4c9!19sChIJl5ioj9YrCTkRCegEKBsUwVc?authuser=0&hl=en&rclk=1,"30.3175496,78.01071429999999"
Bada Masjid Malukawala,Mosque,"8X89+VXX Bada Masjid Malukawala, Shahpur, Indian Military Academy, Dehradun, Malukawala, Uttarakhand 248007","Shahpur, Indian Military Academy",8X89+VXX,"Dehradun, Malukawala",248007,Uttarakhand,IN,https://www.google.com/maps/place/Bada+Masjid+Malukawala/data=!4m7!3m6!1s0x39092b899a1d5207:0xb1c959685913e8b8!8m2!3d30.3172587!4d77.9698493!16s%2Fg%2F11vlbt93h1!19sChIJB1IdmokrCTkRuOgTWWhZybE?authuser=0&hl=en&rclk=1,"30.3172587,77.96984929999999"
Jogendra morya House jogeNdr mauryaa,Housing society,"Jogendra morya House jogeNdr mauryaa, Sanskrit Lok Colony, Morowala, Clement Town, Dehradun, Uttarakhand 248002","Morowala, Clement Town",Sanskrit Lok Colony,Dehradun,248002,Uttarakhand,IN,https://www.google.com/maps/place/Jogendra+morya+House+%E0%A4%9C%E0%A5%8B%E0%A4%97%E0%A5%87%E0%A4%82%E0%A4%A6%E0%A5%8D%E0%A4%B0+%E0%A4%AE%E0%A5%8C%E0%A4%B0%E0%A5%8D%E0%A4%AF%E0%A4%BE/data=!4m7!3m6!1s0x39092b635862d9bf:0xf4fe54a08fcb90a3!8m2!3d30.28339!4d78.0118616!16s%2Fg%2F11scrhvs8h!19sChIJv9liWGMrCTkRo5DLj6BU_vQ?authuser=0&hl=en&rclk=1,"30.283389999999997,78.0118616"
Azad Bakery,Bakery and Cake Shop,"Azad Bakery, Azad Colony Rd, near Sana Masjid, Morowala, Clement Town, Dehradun, Uttarakhand 248001","Morowala, Clement Town","Azad Colony Rd, near Sana Masjid",Dehradun,248001,Uttarakhand,IN,https://www.google.com/maps/place/Azad+Bakery/data=!4m7!3m6!1s0x39092bd4565e794d:0xcf56c0077c2c79c9!8m2!3d30.287197!4d78.003582!16s%2Fg%2F11tfhj29vn!19sChIJTXleVtQrCTkRyXksfAfAVs8?authuser=0&hl=en&rclk=1,"30.287197,78.003582"
Kali mandir,Hindu temple,"73WW+RWQ Kali mandir, Tunwala Rd, Bangakhala, Nehrugram, Dehradun, Ranjhawala, Uttarakhand 248005","Bangakhala, Nehrugram","73WW+RWQ, Tunwala Rd","Dehradun, Ranjhawala",248005,Uttarakhand,IN,https://www.google.com/maps/place/Kali+mandir/data=!4m7!3m6!1s0x390929627d7fb06d:0xeb1baf5eab8ba356!8m2!3d30.2970755!4d78.0973517!16s%2Fg%2F11kghc02ld!19sChIJbbB_fWIpCTkRVqOLq16vG-s?authuser=0&hl=en&rclk=1,"30.2970755,78.09735169999999"
SANA TRADERS (HP LED LIGHTING),Electronics store,"72P6+M49 SANA TRADERS (HP LED LIGHTING), near Shakuntala Devi Educational Institute, Morowala, Clement Town, Dehradun, Uttarakhand 248002","Morowala, Clement Town","72P6+M49, near Shakuntala Devi Educational Institute",Dehradun,248002,Uttarakhand,IN,https://www.google.com/maps/place/SANA+TRADERS+%28HP+LED+LIGHTING%29/data=!4m7!3m6!1s0x39092ba7f782b91f:0x1bdd011851593a62!8m2!3d30.2866729!4d78.0103441!16s%2Fg%2F11fflttzkp!19sChIJH7mC96crCTkRYjpZURgB3Rs?authuser=0&hl=en&rclk=1,"30.2866729,78.0103441"
Chota bharuwala,Housing society,"Chota bharuwala, St Marys Church Rd, Bharuwala Colony, Subhash Nagar, Bharu Wala Grant, Uttarakhand 248002","Bharuwala Colony, Subhash Nagar",St Marys Church Rd,Bharu Wala Grant,248002,Uttarakhand,IN,https://www.google.com/maps/place/Chota+bharuwala/data=!4m7!3m6!1s0x39092bd24f31266d:0x38cd8ff87f034b90!8m2!3d30.2712807!4d77.9998961!16s%2Fg%2F11szjqcfpq!19sChIJbSYxT9IrCTkRkEsDf_iPzTg?authuser=0&hl=en&rclk=1,"30.2712807,77.9998961"
FUTURE ENTERPRISE,Hardware store,"FUTURE ENTERPRISE, Turner Rd, Morowala, Clement Town, Dehradun, Uttarakhand 248002","Morowala, Clement Town",Turner Rd,Dehradun,248002,Uttarakhand,IN,https://www.google.com/maps/place/FUTURE+ENTERPRISE/data=!4m7!3m6!1s0x39092b1442e46cf9:0x92c8d26366b9659a!8m2!3d30.2867119!4d78.0033976!16s%2Fg%2F11q937vty7!19sChIJ-WzkQhQrCTkRmmW5ZmPSyJI?authuser=0&hl=en&rclk=1,"30.2867119,78.0033976"
Aaliya general Store c-15/4 gupta colony nearest rehmat masid,General store,"Aaliya general Store c-15/4 gupta colony nearest rehmat masid, Morowala, Clement Town, Dehradun, Uttarakhand 248002","Morowala, Clement Town",,Dehradun,248002,Uttarakhand,IN,https://www.google.com/maps/place/Aaliya+general+Store+c-15%2F4+gupta+colony+nearest+rehmat+masid/data=!4m7!3m6!1s0x39092b35da6a2c47:0xaa1d16b79053be8!8m2!3d30.283003!4d78.0032238!16s%2Fg%2F11stqg1lmy!19sChIJRyxq2jUrCTkR6DsFeWvRoQo?authuser=0&hl=en&rclk=1,"30.283002999999997,78.0032238"
AASIF GENERAL STORE,General store,"Gali no. 4, AASIF GENERAL STORE, Azad Colony Rd, near Fatima Masjid, Morowala, Majra, Dehradun, Uttarakhand 248002","Morowala, Majra","Gali no. 4, Azad Colony Rd, near Fatima Masjid",Dehradun,248002,Uttarakhand,IN,https://www.google.com/maps/place/AASIF+GENERAL+STORE/data=!4m7!3m6!1s0x39092bb97c3b085d:0x7e407c7685206950!8m2!3d30.2839839!4d78.0037259!16s%2Fg%2F11kj55jq5d!19sChIJXQg7fLkrCTkRUGkghXZ8QH4?authuser=0&hl=en&rclk=1,"30.2839839,78.00372589999999"
Zainab footwear and general store,General store,"Zainab footwear and general store, Line-5, Azad Colony Rd, near Fatema Masjid, Dehradun, Uttarakhand 248171","Morowala, Clement Town","Line-5, Azad Colony Rd, near Fatema Masjid",Dehradun,248171,Uttarakhand,IN,https://www.google.com/maps/place/Zainab+footwear+and+general+store/data=!4m7!3m6!1s0x39092b8b7cd580bd:0x4423ee4d270685d3!8m2!3d30.2835475!4d78.0039226!16s%2Fg%2F11p_290c0z!19sChIJvYDVfIsrCTkR04UGJ03uI0Q?authuser=0&hl=en&rclk=1,"30.283547499999997,78.0039226"
Jama maszid mohand,Mosque,"5WJ5+G48 Jama maszid mohand, Mohand, Badkala, Uttar Pradesh 247662",,5WJ5+G48,"Mohand, Badkala",,Uttar Pradesh,IN,https://www.google.com/maps/place/Jama+maszid+mohand/data=!4m7!3m6!1s0x390ed3265d31dd3b:0xe5d475f5b06639ae!8m2!3d30.1812933!4d77.9078246!16s%2Fg%2F11jzgy5q1m!19sChIJO90xXSbTDjkRrjlmsPV11OU?authuser=0&hl=en&rclk=1,"30.1812933,77.9078246"
Madina Masjid,Mosque,"Madina Masjid, Madina masjid, Brahmanwala, Dehradun, Uttarakhand 248001",Brahmanwala,Madina masjid,Dehradun,248001,Uttarakhand,IN,https://www.google.com/maps/place/Madina+Masjid/data=!4m7!3m6!1s0x39092baee13f2ea1:0x664d980f857921d5!8m2!3d30.2935119!4d78.0135955!16s%2Fg%2F11vlhfjn7f!19sChIJoS4_4a4rCTkR1SF5hQ-YTWY?authuser=0&hl=en&rclk=1,"30.2935119,78.0135955"
Sana Masjid,Mosque,"72P3+W84 Sana Masjid, Morowala, Clement Town, Dehradun, Uttarakhand 248002","Morowala, Clement Town",72P3+W84,Dehradun,248002,Uttarakhand,IN,https://www.google.com/maps/place/Sana+Masjid/data=!4m7!3m6!1s0x39092bacf03678dd:0x5e3f266fecf18ff5!8m2!3d30.2872655!4d78.0033274!16s%2Fg%2F11vlxg7_1p!19sChIJ3Xg28KwrCTkR9Y_x7G8mP14?authuser=0&hl=en&rclk=1,"30.2872655,78.0033274"
Masjid,Mosque,"Masjid, 400, Niranjanpur, Dehradun, Uttarakhand 248001",Niranjanpur,400,Dehradun,248001,Uttarakhand,IN,https://www.google.com/maps/place/Masjid/data=!4m7!3m6!1s0x39092b003e6b618b:0xf1519a85f2259ee!8m2!3d30.295813!4d78.0165897!16s%2Fg%2F11y26qvzs2!19sChIJi2FrPgArCTkR7lkiX6gZFQ8?authuser=0&hl=en&rclk=1,"30.295813,78.0165897"
Majra Eidgah Masjid,Mosque,"Majra Eidgah Masjid, Eidgah, Saharanpur Rd, Transport Nagar, Subhash Nagar, Dehradun, Sewla Khurd, Uttarakhand 248001","Transport Nagar, Subhash Nagar","Eidgah, Saharanpur Rd","Dehradun, Sewla Khurd",248001,Uttarakhand,IN,https://www.google.com/maps/place/Majra+Eidgah+Masjid/data=!4m7!3m6!1s0x39092b0020504a1f:0xc9ec78f2b36d373e!8m2!3d30.2800853!4d77.9911779!16s%2Fg%2F11vm3v8jlv!19sChIJH0pQIAArCTkRPjdts_J47Mk?authuser=0&hl=en&rclk=1,"30.2800853,77.9911779"
Mastikooo,Religious destination,"8X6J+F2W Mastikooo, Shimla Bypass Rd, Telpur, Mehuwala, Dehradun, Harbanswala, Uttarakhand 248171","Telpur, Mehuwala","8X6J+F2W, Shimla Bypass Rd","Dehradun, Harbanswala",248171,Uttarakhand,IN,https://www.google.com/maps/place/Mastikooo/data=!4m7!3m6!1s0x39092bf22883b49f:0xd8562bdbc5437d99!8m2!3d30.3090056!4d77.9871211!16s%2Fg%2F11stj9vp7r!19sChIJn7SDKPIrCTkRmX1DxdsrVtg?authuser=0&hl=en&rclk=1,"30.3090056,77.9871211"
Masjid e usma,Housing complex,"7XWG+QXC Masjid e usma, Mehuwala, Mehu Wala Mafi, Uttarakhand 248171",Mehuwala,7XWG+QXC,Mehu Wala Mafi,,Uttarakhand,IN,https://www.google.com/maps/place/Masjid+e+usma/data=!4m7!3m6!1s0x39092b0865266ead:0x58de610f32b9b129!8m2!3d30.2969322!4d77.9773927!16s%2Fg%2F11y1z0gd8d!19sChIJrW4mZQgrCTkRKbG5Mg9h3lg?authuser=0&hl=en&rclk=1,"30.296932199999997,77.9773927"
Jamshaid Vegetable Shop,Fruit and vegetable store,"Jamshaid Vegetable Shop, near Madina Masjid, Chaota, Bharuwala Colony, Clement Town, Dehradun, Uttarakhand 248001","Chaota, Bharuwala Colony, Clement Town",near Madina Masjid,Dehradun,248001,Uttarakhand,IN,https://www.google.com/maps/place/Jamshaid+Vegetable+Shop/data=!4m7!3m6!1s0x39092bf207048f49:0xa598956364ff75b7!8m2!3d30.2708557!4d78.014565!16s%2Fg%2F11sv56cbqm!19sChIJSY8EB_IrCTkRt3X_ZGOVmKU?authuser=0&hl=en&rclk=1,"30.2708557,78.01456499999999"
Jamia Milliya Darul Uloom,Religious institution,"8396+FH2 Jamia Milliya Darul Uloom, Adhoiwala Rd, Adhoiwala, Dehradun, Uttarakhand 248001",Adhoiwala,"8396+FH2, Adhoiwala Rd",Dehradun,248001,Uttarakhand,IN,https://www.google.com/maps/place/Jamia+Milliya+Darul+Uloom/data=!4m7!3m6!1s0x390929b47130f393:0x76b948dc1561c389!8m2!3d30.3186334!4d78.06138!16s%2Fg%2F11s8kkz_bp!19sChIJk_MwcbQpCTkRicNhFdxIuXY?authuser=0&hl=en&rclk=1,"30.3186334,78.06138"
Al- Shifa Helth Care Clinic,Doctor,"Al- Shifa Helth Care Clinic, Noor Enclave, Azad Colony, Haridwar Bypass Rd, near Saydia Masjid, Dehradun, Uttarakhand 248002","Morowala, Clement Town","Noor Enclave, Azad Colony, Haridwar Bypass Rd, near Saydia Masjid",Dehradun,248002,Uttarakhand,IN,https://www.google.com/maps/place/Al-+Shifa+Helth+Care+Clinic/data=!4m7!3m6!1s0x39092bca806eb975:0x99dac4edbb7c1e79!8m2!3d30.2866984!4d78.0058564!16s%2Fg%2F11lc9f5v59!19sChIJdblugMorCTkReR58u-3E2pk?authuser=0&hl=en&rclk=1,"30.2866984,78.0058564"
nayab bhai house,Housing society,"82M9+7PX nayab bhai house, Chor Khala, Akashdeep Colony, Khurbura Mohalla, Dehradun, Uttarakhand 248001","Chor Khala, Akashdeep Colony, Khurbura Mohalla",82M9+7PX,Dehradun,248001,Uttarakhand,IN,https://www.google.com/maps/place/nayab+bhai+house/data=!4m7!3m6!1s0x39092b822ba8f61f:0x4e03d337e08fb65a!8m2!3d30.3332456!4d78.0193727!16s%2Fg%2F11t61dpy49!19sChIJH_aoK4IrCTkRWraP4DfTA04?authuser=0&hl=en&rclk=1,"30.333245599999998,78.01937269999999"
Rajiya General Store,General store,"Gate No 1, Rajiya General Store, Chota Bharuwala, near Madina Masjid, Bharuwala Colony, Clement Town, Dehradun, Uttarakhand 248001","Bharuwala Colony, Clement Town","Gate No 1, Chota Bharuwala, near Madina Masjid",Dehradun,248001,Uttarakhand,IN,https://www.google.com/maps/place/Rajiya+General+Store/data=!4m7!3m6!1s0x39092bc5d881f63d:0x8cee060032c0703a!8m2!3d30.2707477!4d78.0145591!16s%2Fg%2F11sv540j9l!19sChIJPfaB2MUrCTkROnDAMgAG7ow?authuser=0&hl=en&rclk=1,"30.270747699999998,78.0145591"
Nasibudin General Store,General store,"Nasibudin General Store, 3, near Madina Masjid, Bharuwala Colony, Clement Town, Dehradun, Uttarakhand 248002","Bharuwala Colony, Clement Town","3, near Madina Masjid",Dehradun,248002,Uttarakhand,IN,https://www.google.com/maps/place/Nasibudin+General+Store/data=!4m7!3m6!1s0x39092bc49719cad3:0x6fd23fdd1e82fe87!8m2!3d30.2708483!4d78.0142453!16s%2Fg%2F11vjc1dpqn!19sChIJ08oZl8QrCTkRh_6CHt0_0m8?authuser=0&hl=en&rclk=1,"30.270848299999997,78.0142453"
Ashok Colth House,General store,"Ashok Colth House, Azad Colony, Road, near Sans Masjid, ISBT, Morowala, Clement Town, Dehradun, Uttarakhand 248001","ISBT, Morowala, Clement Town","Azad Colony, Road, near Sans Masjid",Dehradun,248001,Uttarakhand,IN,https://www.google.com/maps/place/Ashok+Colth+House/data=!4m7!3m6!1s0x39092b30a4090d07:0x81ded918d690bc9b!8m2!3d30.2861046!4d78.0036623!16s%2Fg%2F11svcj15w3!19sChIJBw0JpDArCTkRm7yQ1hjZ3oE?authuser=0&hl=en&rclk=1,"30.286104599999998,78.0036623"
Clement town,Apartment complex,"7XMX+C3R Clement town, Clement Town, Dehradun, Uttarakhand 248002",Clement Town,7XMX+C3R,Dehradun,248002,Uttarakhand,IN,https://www.google.com/maps/place/Clement+town/data=!4m7!3m6!1s0x39092bc25282f5fb:0xce5ed18cf3b8eab4!8m2!3d30.2836109!4d77.9976451!16s%2Fg%2F11v6t0z0vb!19sChIJ-_WCUsIrCTkRtOq484zRXs4?authuser=0&hl=en&rclk=1,"30.2836109,77.9976451"
Clement Town,,"Clement Town, Dehradun, Uttarakhand 248002",Clement Town,,Dehradun,,Uttarakhand,IN,https://www.google.com/maps/place/Clement+Town/data=!4m7!3m6!1s0x39092befa7608ead:0xe723fed2168f7a8d!8m2!3d30.2685607!4d78.0071039!16zL20vMGYxOXB2!19sChIJrY5gp-8rCTkRjXqPFtL-I-c?authuser=0&hl=en&rclk=1,"30.2685607,78.00710389999999"
Gulfam General Store,General store,"Gulfam General Store, Chote, near Madina Masjid, Bharuwala Colony, Clement Town, Dehradun, Uttarakhand 248002","Bharuwala Colony, Clement Town","Chote, near Madina Masjid",Dehradun,248002,Uttarakhand,IN,https://www.google.com/maps/place/Gulfam+General+Store/data=!4m7!3m6!1s0x39092bcb119cf163:0x256567a9d8a3bf9c!8m2!3d30.2711028!4d78.01497!16s%2Fg%2F11kqdwbshw!19sChIJY_GcEcsrCTkRnL-j2KlnZSU?authuser=0&hl=en&rclk=1,"30.271102799999998,78.01496999999999"
Arc communication,Mobile phone repair shop,"Arc communication, 90, near masjid, Bada, Bharuwala Colony, Clement Town, Dehradun, Uttarakhand 248002","Bada, Bharuwala Colony, Clement Town","90, near masjid",Dehradun,248002,Uttarakhand,IN,https://www.google.com/maps/place/Arc+communication/data=!4m7!3m6!1s0x39092bfec6ac0d5b:0xc5dffe5f84950bb9!8m2!3d30.273603!4d78.015201!16s%2Fg%2F11vdhktpvh!19sChIJWw2sxv4rCTkRuQuVhF_-38U?authuser=0&hl=en&rclk=1,"30.273602999999998,78.01520099999999"
Sana J Masjib,Religious destination,"72Q3+G5M Sana J Masjib, Unnamed Road, Sewla Kalan, Majra, Dehradun, Uttarakhand 248171","Sewla Kalan, Majra","72Q3+G5M, Unnamed Road",Dehradun,248171,Uttarakhand,IN,https://www.google.com/maps/place/Sana+J+Masjib/data=!4m7!3m6!1s0x39092b72bba24573:0x2253fa2659ad97e2!8m2!3d30.2888449!4d78.0029202!16s%2Fg%2F11v0bdtxg0!19sChIJc0Wiu3IrCTkR4petWSb6UyI?authuser=0&hl=en&rclk=1,"30.288844899999997,78.00292019999999"
Al Shifa Medical Centre,Medical clinic,"Al Shifa Medical Centre, Azad Colony Rd, near Sana Masjid, Morowala, Clement Town, Dehradun, Uttarakhand 248171","Morowala, Clement Town","Azad Colony Rd, near Sana Masjid",Dehradun,248171,Uttarakhand,IN,https://www.google.com/maps/place/Al+Shifa+Medical+Centre/data=!4m7!3m6!1s0x39092b19dffa4a61:0xbc4c1b4e19777cd6!8m2!3d30.2852923!4d78.0058143!16s%2Fg%2F11s3d4qyhz!19sChIJYUr63xkrCTkR1nx3GU4bTLw?authuser=0&hl=en&rclk=1,"30.2852923,78.0058143"
GK STUDIO And Tattoo Arts,Mobile phone repair shop,"GK STUDIO And Tattoo Arts, Chatta, near Medina Masjid, Bharuwala Colony, Clement Town, Dehradun, Uttarakhand 248001","Bharuwala Colony, Clement Town","Chatta, near Medina Masjid",Dehradun,248001,Uttarakhand,IN,https://www.google.com/maps/place/GK+STUDIO+And+Tattoo+Arts/data=!4m7!3m6!1s0x39092b6e93cb2927:0xb9a2228d4ad4f58e!8m2!3d30.2708853!4d78.014442!16s%2Fg%2F11kpx_9zfd!19sChIJJynLk24rCTkRjvXUSo0iork?authuser=0&hl=en&rclk=1,"30.2708853,78.014442"
Rashid Fast Food,Fast food restaurant,"Rashid Fast Food, near Juma Masjid, Bada, Bharuwala Colony, Clement Town, Dehradun, Uttarakhand 248002","Bada, Bharuwala Colony, Clement Town",near Juma Masjid,Dehradun,248002,Uttarakhand,IN,https://www.google.com/maps/place/Rashid+Fast+Food/data=!4m7!3m6!1s0x39092b12aba19c23:0x6c35282b5d3df080!8m2!3d30.27545!4d78.0114877!16s%2Fg%2F11svbwtx39!19sChIJI5yhqxIrCTkRgPA9XSsoNWw?authuser=0&hl=en&rclk=1,"30.27545,78.0114877"
M.A Electricals,Electronics repair shop,"M.A Electricals, Azad Colony, ROAD, near Sana Masjid, ISBT, Dehradun, Uttarakhand 248002","ISBT, Morowala, Clement Town","Azad Colony, ROAD, near Sana Masjid",Dehradun,248002,Uttarakhand,IN,https://www.google.com/maps/place/M.A+Electricals/data=!4m7!3m6!1s0x39092ba948d32f2d:0xfadf2a97ffd91c6f!8m2!3d30.2854954!4d78.0046403!16s%2Fg%2F11kq3mpwqc!19sChIJLS_TSKkrCTkRbxzZ_5cq3_o?authuser=0&hl=en&rclk=1,"30.2854954,78.00464029999999"
Himnashi Dairy,Dairy store,"Himnashi Dairy, Azad Colony Rd, near Fatima Masjid, Morowala, Clement Town, Dehradun, Uttarakhand 248002","Morowala, Clement Town","Azad Colony Rd, near Fatima Masjid",Dehradun,248002,Uttarakhand,IN,https://www.google.com/maps/place/Himnashi+Dairy/data=!4m7!3m6!1s0x39092ba81bf188e9:0xad3059ba40a5bd98!8m2!3d30.2854934!4d78.0047325!16s%2Fg%2F11tghq2hv8!19sChIJ6YjxG6grCTkRmL2lQLpZMK0?authuser=0&hl=en&rclk=1,"30.2854934,78.0047325"
Marble Textile,Real estate agency,"09, Marble Textile, C15, Turner Rd, Morowala, Azad Colony, Dehradun, Uttarakhand 248002","Morowala, Azad Colony","09, C15, Turner Rd",Dehradun,248002,Uttarakhand,IN,https://www.google.com/maps/place/Marble+Textile/data=!4m7!3m6!1s0x39092bb6704347a9:0xf99d150390e7f51b!8m2!3d30.2869559!4d78.0031896!16s%2Fg%2F11stdlh50k!19sChIJqUdDcLYrCTkRG_XnkAMVnfk?authuser=0&hl=en&rclk=1,"30.2869559,78.0031896"
The Hunger Station,Fast food restaurant,"The Hunger Station, Azad Colony Rd, near by Sana Masjid, Morowala, Clement Town, Dehradun, Uttarakhand 248002","Morowala, Clement Town","Azad Colony Rd, near by Sana Masjid",Dehradun,248002,Uttarakhand,IN,https://www.google.com/maps/place/The+Hunger+Station/data=!4m7!3m6!1s0x39092bb0de3bff33:0x11fc7659c82e344a!8m2!3d30.2860268!4d78.002767!16s%2Fg%2F11y1xl5sg5!19sChIJM_873rArCTkRSjQuyFl2_BE?authuser=0&hl=en&rclk=1,"30.2860268,78.00276699999999"
Annu Cosmetics,Cosmetics store,"Annu Cosmetics, Chhota, near Madina Masjid, Bharuwala Colony, Clement Town, Dehradun, Uttarakhand 248001","Bharuwala Colony, Clement Town","Chhota, near Madina Masjid",Dehradun,248001,Uttarakhand,IN,https://www.google.com/maps/place/Annu+Cosmetics/data=!4m7!3m6!1s0x39092b1737546631:0xad14e5aa0dcafffa!8m2!3d30.2708073!4d78.0150928!16s%2Fg%2F11txpl4g54!19sChIJMWZUNxcrCTkR-v_KDarlFK0?authuser=0&hl=en&rclk=1,"30.270807299999998,78.01509279999999"
Unique Juice Corner,Juice shop,"Unique Juice Corner, Munni Chowk, Azad Colony Rd, near Sana Masjid, Morowala, Clement Town, Dehradun, Uttarakhand 248002","Morowala, Clement Town","Munni Chowk, Azad Colony Rd, near Sana Masjid",Dehradun,248002,Uttarakhand,IN,https://www.google.com/maps/place/Unique+Juice+Corner/data=!4m7!3m6!1s0x39092b8a08fb2799:0x5a4379ca2410e08b!8m2!3d30.2871366!4d78.0034337!16s%2Fg%2F11v0h17nyd!19sChIJmSf7CIorCTkRi-AQJMp5Q1o?authuser=0&hl=en&rclk=1,"30.2871366,78.0034337"
Reena General Store,General store,"Reena General Store, Naam Dav Colony, Haridwar Bypass Rd, near Sana Masjid, Morowala, Clement Town, Dehradun, Uttarakhand 248002","Morowala, Clement Town","Naam Dav Colony, Haridwar Bypass Rd, near Sana Masjid",Dehradun,248002,Uttarakhand,IN,https://www.google.com/maps/place/Reena+General+Store/data=!4m7!3m6!1s0x39092b00fc4902f3:0xa942af22fb4dcd14!8m2!3d30.2870492!4d78.006431!16s%2Fg%2F11v0gzjkkb!19sChIJ8wJJ_AArCTkRFM1N-yKvQqk?authuser=0&hl=en&rclk=1,"30.2870492,78.00643099999999"
Ajabour,Hindu temple,"72WW+3CQ Ajabour, Saket Colony, Ajabpur Kalan, Dehradun, Uttarakhand 248001","Saket Colony, Ajabpur Kalan",72WW+3CQ,Dehradun,248001,Uttarakhand,IN,https://www.google.com/maps/place/Ajabour/data=!4m7!3m6!1s0x390929cd7a39df81:0x8e3a9b9f0147bb05!8m2!3d30.2952237!4d78.0461119!16s%2Fg%2F11t655p0g1!19sChIJgd85es0pCTkRBbtHAZ-bOo4?authuser=0&hl=en&rclk=1,"30.295223699999998,78.0461119"
Sawej Dairy And Sweet Shop,Dairy store,"Sawej Dairy And Sweet Shop, Azad Colony Rd, near Muni Chowk And Sana Masjid, Morowala, Majra, Dehradun, Uttarakhand 248002","Morowala, Majra","Azad Colony Rd, near Muni Chowk And Sana Masjid",Dehradun,248002,Uttarakhand,IN,https://www.google.com/maps/place/Sawej+Dairy+And+Sweet+Shop/data=!4m7!3m6!1s0x39092bf06197bad7:0x7d0c74c22962144c!8m2!3d30.2868301!4d78.0044565!16s%2Fg%2F11v0g__k3_!19sChIJ17qXYfArCTkRTBRiKcJ0DH0?authuser=0&hl=en&rclk=1,"30.2868301,78.0044565"
Tha Waine Sesser Salon,Hair salon,"Tha Waine Sesser Salon, Turner Rd, near Juma Masjid, Morowala, Clement Town, Dehradun, Uttarakhand 248002","Morowala, Clement Town","Turner Rd, near Juma Masjid",Dehradun,248002,Uttarakhand,IN,https://www.google.com/maps/place/Tha+Waine+Sesser+Salon/data=!4m7!3m6!1s0x39092b3e182953a5:0x5db1f28ca0fb6aa3!8m2!3d30.274432!4d78.0118681!16s%2Fg%2F11v0n55tm9!19sChIJpVMpGD4rCTkRo2r7oIzysV0?authuser=0&hl=en&rclk=1,"30.274431999999997,78.0118681"
Kudkawala,Housing society,"5486+396 Kudkawala, Kudkawala Road, Markham Grant, Uttarakhand 248140",,"5486+396, Kudkawala Road",Markham Grant,248140,Uttarakhand,IN,https://www.google.com/maps/place/Kudkawala/data=!4m7!3m6!1s0x39093bc7c22679e3:0x85641f884e5c7d67!8m2!3d30.1651638!4d78.1108802!16s%2Fg%2F11jzxl0_4n!19sChIJ43kmwsc7CTkRZ31cTogfZIU?authuser=0&hl=en&rclk=1,"30.1651638,78.1108802"
Morowala,,"Morowala, Clement Town, Dehradun, Uttarakhand","Morowala, Clement Town",,Dehradun,,Uttarakhand,IN,https://www.google.com/maps/place/Morowala/data=!4m7!3m6!1s0x39092bc4eb8b7839:0x21e33bcb470e96b4!8m2!3d30.2823375!4d78.0109764!16s%2Fg%2F1jkz3hzjs!19sChIJOXiL68QrCTkRtJYOR8s74yE?authuser=0&hl=en&rclk=1,"30.282337499999997,78.01097639999999"
Naushad Chicken,Chicken & Mutton Shop,"Naushad Chicken, Lohiya Nagar, near Masjid, Brahmpuri, Dehradun, Uttarakhand 248001",Brahmpuri,"Lohiya Nagar, near Masjid",Dehradun,248001,Uttarakhand,IN,https://www.google.com/maps/place/Naushad+Chicken/data=!4m7!3m6!1s0x39092bbf05ebe2af:0x645b1d576bb41330!8m2!3d30.2973925!4d78.0159012!16s%2Fg%2F11l74tx6fm!19sChIJr-LrBb8rCTkRMBO0a1cdW2Q?authuser=0&hl=en&rclk=1,"30.297392499999997,78.0159012"
Jamaasjiadarsharulo,Book store,"72H5+C7W Jamaasjiadarsharulo, Morowala, Clement Town, Dehradun, Uttarakhand 248002","Morowala, Clement Town",72H5+C7W,Dehradun,248002,Uttarakhand,IN,https://www.google.com/maps/place/Jamaasjiadarsharulo/data=!4m7!3m6!1s0x39092bbb476c1a77:0x437f70b5b26d80e8!8m2!3d30.2786214!4d78.0082146!16s%2Fg%2F11rv2x3qhn!19sChIJdxpsR7srCTkR6IBtsrVwf0M?authuser=0&hl=en&rclk=1,"30.2786214,78.0082146"
Clement town,Housing society,"Clement town, Velmed hospital, Bharuwala Colony, Clement Town, Dehradun, Uttarakhand 248002","Bharuwala Colony, Clement Town",Velmed hospital,Dehradun,,Uttarakhand,IN,https://www.google.com/maps/place/Clement+town/data=!4m7!3m6!1s0x39092b3d67cf2ed9:0x4f16e77f7426c590!8m2!3d30.2723068!4d78.0077189!16s%2Fg%2F11sq9wsb4b!19sChIJ2S7PZz0rCTkRkMUmdH_nFk8?authuser=0&hl=en&rclk=1,"30.2723068,78.0077189"
Tanuj sanitary store and Tails,Airbrushing supply store,"72P3+JQX Tanuj sanitary store and Tails, Azad Colony Rd, Morowala, Clement Town, Dehradun, Uttarakhand 248002","Morowala, Clement Town","72P3+JQX, Azad Colony Rd",Dehradun,248002,Uttarakhand,IN,https://www.google.com/maps/place/Tanuj+sanitary+store+and+Tails/data=!4m7!3m6!1s0x39092b659fffd57f:0x7c4e4dba8b749e24!8m2!3d30.2866161!4d78.0044778!16s%2Fg%2F11fstmsk0n!19sChIJf9X_n2UrCTkRJJ50i7pNTnw?authuser=0&hl=en&rclk=1,"30.2866161,78.00447779999999"
Anurag Batta Trading,Business to business service,"Anurag Batta Trading, C 15, Turner Rd, near Sana Masjid, Morowala, Clement Town, Dehradun, Uttarakhand 248002","Morowala, Clement Town","C 15, Turner Rd, near Sana Masjid",Dehradun,,Uttarakhand,IN,https://www.google.com/maps/place/Anurag+Batta+Trading/data=!4m7!3m6!1s0x39092b6d05ea9afd:0x67e91f92dfb15fd8!8m2!3d30.2871086!4d78.0036104!16s%2Fg%2F11jvbr1tkj!19sChIJ_ZrqBW0rCTkR2F-x35If6Wc?authuser=0&hl=en&rclk=1,"30.2871086,78.0036104"
KARI MOHD Munaqib Tailor,Boutique,"KARI MOHD Munaqib Tailor, No. 4, Azad Colony Rd, near Fatima Masjid, Morowala, Clement Town, Dehradun, Uttarakhand 248002","Morowala, Clement Town","No. 4, Azad Colony Rd, near Fatima Masjid",Dehradun,248002,Uttarakhand,IN,https://www.google.com/maps/place/KARI+MOHD+Munaqib+Tailor/data=!4m7!3m6!1s0x39092b4cd4ac030d:0x28b5f37887fcb6f3!8m2!3d30.2839482!4d78.0036733!16s%2Fg%2F11txp0x6pb!19sChIJDQOs1EwrCTkR87b8h3jztSg?authuser=0&hl=en&rclk=1,"30.283948199999998,78.0036733"
Raziya General Store,General store,"Gali No 3, Raziya General Store, Fatima Masjid, Azad Colony Rd, Morowala, Majra, Dehradun, Uttarakhand 248002","Morowala, Majra","Gali No 3, Fatima Masjid, Azad Colony Rd",Dehradun,248002,Uttarakhand,IN,https://www.google.com/maps/place/Raziya+General+Store/data=!4m7!3m6!1s0x39092b5f11a0fba7:0x46e2717fa7293d92!8m2!3d30.2842786!4d78.0036482!16s%2Fg%2F11txp06lpp!19sChIJp_ugEV8rCTkRkj0pp39x4kY?authuser=0&hl=en&rclk=1,"30.2842786,78.0036482"
