name,main_category,address,address_ward,address_street,address_city,address_postal_code,address_state,address_country_code,link,coordinates
Masjidur Rahman Mosque (TNTJ),Mosque,"Masjidur Rahman Mosque (TNTJ), No 23, 3rd St, Sornapury Lay Out, Rajiv Nagar, Kombai Thottam, Bavani Nagar, Tiruppur, Tamil Nadu 641604","Sornapury Lay Out, Rajiv Nagar, Kombai Thottam, Bavani Nagar","No 23, 3rd St",Tiruppur,641604,Tamil Nadu,IN,https://www.google.com/maps/place/Masjidur+Rahman+Mosque+%28TNTJ%29/data=!4m7!3m6!1s0x3ba907c7a1bc280d:0xce1debb0af7a32ea!8m2!3d11.1058048!4d77.3569411!16s%2Fg%2F11c5r56j5z!19sChIJDSi8occHqTsR6jJ6r7DrHc4?authuser=0&hl=en&rclk=1,"11.1058048,77.3569411"
Big Masjid,Mosque,"4923+R6H Big Masjid, SH 172, Noyyal, Tiruppur, Tamil Nadu 641602",Noyyal,"4923+R6H, SH 172",Tiruppur,641602,Tamil Nadu,IN,https://www.google.com/maps/place/Big+Masjid/data=!4m7!3m6!1s0x3ba907bf2f02e769:0x7bfe10e75c1530c3!8m2!3d11.1020627!4d77.3531112!16s%2Fg%2F1vhkhz_l!19sChIJaecCL78HqTsRwzAVXOcQ_ns?authuser=0&hl=en&rclk=1,"11.1020627,77.3531112"
Kaderpet Masjid,Mosque,"Kaderpet Masjid, 2, Rangasamy St, Sirupooluvapatti, Khaderpet, Rayapuram, Tiruppur, Tamil Nadu 641601","Sirupooluvapatti, Khaderpet, Rayapuram","2, Rangasamy St",Tiruppur,641601,Tamil Nadu,IN,https://www.google.com/maps/place/Kaderpet+Masjid/data=!4m7!3m6!1s0x3ba907a590772d2f:0xb386432ceab3b0b7!8m2!3d11.1067053!4d77.3403168!16s%2Fg%2F1tg_dh2n!19sChIJLy13kKUHqTsRt7Cz6ixDhrM?authuser=0&hl=en&rclk=1,"11.1067053,77.3403168"
Periya Thottam Masjid,Mosque,"4925+PP8 Periya Thottam Masjid, Tiruppur - Kangayam Rd, Periyathottam, Bavani Nagar, Tiruppur, Pudhukkadu, Tamil Nadu 641604","Periyathottam, Bavani Nagar","4925+PP8, Tiruppur - Kangayam Rd","Tiruppur, Pudhukkadu",641604,Tamil Nadu,IN,https://www.google.com/maps/place/Periya+Thottam+Masjid/data=!4m7!3m6!1s0x3ba907c13b9b15cb:0x56efa0eed986e692!8m2!3d11.101793!4d77.3593128!16s%2Fg%2F1vjdnhkw!19sChIJyxWbO8EHqTsRkuaG2e6g71Y?authuser=0&hl=en&rclk=1,"11.101792999999999,77.3593128"
JAQH Masjid Tiruppur - Masjidhul Islam,Mosque,"JAQH Masjid Tiruppur - Masjidhul Islam, 25/17, Kombai Thottam Main Rd, Rajiv Nagar, Bavani Nagar, Tiruppur, Tamil Nadu 641602","Rajiv Nagar, Bavani Nagar","25/17, Kombai Thottam Main Rd",Tiruppur,641602,Tamil Nadu,IN,https://www.google.com/maps/place/JAQH+Masjid+Tiruppur+-+Masjidhul+Islam/data=!4m7!3m6!1s0x3ba907c6e294955f:0x6cc5e892c854de3a!8m2!3d11.104882!4d77.3583902!16s%2Fg%2F12600hmsx!19sChIJX5WU4sYHqTsROt5UyJLoxWw?authuser=0&hl=en&rclk=1,"11.104882,77.3583902"
Masjid-E-Taqua,Mosque,"4928+2WX Masjid-E-Taqua, Sathyamurthy Nagar, Amarjothi Garden, Bavani Nagar, Tiruppur, Tamil Nadu 641604","Sathyamurthy Nagar, Amarjothi Garden, Bavani Nagar",4928+2WX,Tiruppur,641604,Tamil Nadu,IN,https://www.google.com/maps/place/Masjid-E-Taqua/data=!4m7!3m6!1s0x3ba907dd2913dab7:0x649283c795bdd2f1!8m2!3d11.1001154!4d77.3673648!16s%2Fg%2F11by_l8dkl!19sChIJt9oTKd0HqTsR8dK9lceDkmQ?authuser=0&hl=en&rclk=1,"11.1001154,77.36736479999999"
Masjid-e-Thaha,Mosque,"38RW+6JH Masjid-e-Thaha, Tiruppur Palladam Road (SH-19), near TKT Bus Company, TML Colony, Thottam, Tiruppur, Tamil Nadu 641604","TML Colony, Thottam","38RW+6JH, Tiruppur Palladam Road (SH-19), near TKT Bus Company",Tiruppur,641604,Tamil Nadu,IN,https://www.google.com/maps/place/Masjid-e-Thaha/data=!4m7!3m6!1s0x3ba90790d9f7a62f:0x603ab29609b195ea!8m2!3d11.0905518!4d77.3466096!16s%2Fg%2F1pyqf21kk!19sChIJL6b32ZAHqTsR6pWxCZayOmA?authuser=0&hl=en&rclk=1,"11.0905518,77.3466096"
Masjidus Salam - TNTJ,Mosque,"39W9+W8W Masjidus Salam - TNTJ, KNS Subramaniam Nagar, Tiruppur, Tamil Nadu 641605",KNS Subramaniam Nagar,39W9+W8W,Tiruppur,641605,Tamil Nadu,IN,https://www.google.com/maps/place/Masjidus+Salam+-+TNTJ/data=!4m7!3m6!1s0x3ba907e7f4b5b8fd:0x40afc3d202ab88a5!8m2!3d11.0973708!4d77.3683227!16s%2Fg%2F11h9xlqdj6!19sChIJ_bi19OcHqTsRpYirAtLDr0A?authuser=0&hl=en&rclk=1,"11.0973708,77.3683227"
Masjith-UL- Bakki,Mosque,"48FH+RV8 Masjith-UL- Bakki, Kumar Nagar, Tiruppur, Tamil Nadu 641603",Kumar Nagar,48FH+RV8,Tiruppur,641603,Tamil Nadu,IN,https://www.google.com/maps/place/Masjith-UL-+Bakki/data=!4m7!3m6!1s0x3ba906f8d90f8591:0xb3eb324402edcf83!8m2!3d11.1245356!4d77.3297054!16s%2Fg%2F1tsjc2t6!19sChIJkYUP2fgGqTsRg8_tAkQy67M?authuser=0&hl=en&rclk=1,"11.1245356,77.3297054"
"Masjid e Madina, Sathik Basha Nagar Masjid, College Road,",Mosque,"485J+77J Masjid e Madina, Sathik Basha Nagar Masjid, College Road,, 9th Cross St, Odakkadu, Tiruppur, Tamil Nadu 641602",Odakkadu,"485J+77J, 9th Cross St",Tiruppur,641602,Tamil Nadu,IN,"https://www.google.com/maps/place/Masjid+e+Madina,+Sathik+Basha+Nagar+Masjid,+College+Road,/data=!4m7!3m6!1s0x3ba90707c6b467cb:0x796e0f56f4e4f1ad!8m2!3d11.1082186!4d77.3306336!16s%2Fg%2F1pp2tjxqm!19sChIJy2e0xgcHqTsRrfHk9FYPbnk?authuser=0&hl=en&rclk=1","11.108218599999999,77.3306336"
Madina Masjid,Mosque,"4944+4V6 Madina Masjid, Kombai Thottam Main Rd, Rajiv Nagar, Kombai Thottam, Bavani Nagar, Tiruppur, Tamil Nadu 641604","Rajiv Nagar, Kombai Thottam, Bavani Nagar","4944+4V6, Kombai Thottam Main Rd",Tiruppur,641604,Tamil Nadu,IN,https://www.google.com/maps/place/Madina+Masjid/data=!4m7!3m6!1s0x3ba907c70a3ce1ed:0x364d8b5100ea6155!8m2!3d11.1052972!4d77.3571329!16s%2Fg%2F1ts1l238!19sChIJ7eE8CscHqTsRVWHqAFGLTTY?authuser=0&hl=en&rclk=1,"11.105297199999999,77.3571329"
Masjid,Mosque,"49H2+732 Masjid, KN Palayam, V R P Nagar, MS Nagar, Tiruppur, Tamil Nadu 641607","KN Palayam, V R P Nagar, MS Nagar",49H2+732,Tiruppur,641607,Tamil Nadu,IN,https://www.google.com/maps/place/Masjid/data=!4m7!3m6!1s0x3ba9064d27608cd7:0x9c7d9dcd7ddc003c!8m2!3d11.1281432!4d77.3501467!16s%2Fg%2F1tdxnwsl!19sChIJ14xgJ00GqTsRPADcfc2dfZw?authuser=0&hl=en&rclk=1,"11.1281432,77.3501467"
JUMMA MASJID,Mosque,"587X+9C2 JUMMA MASJID, Pandian Nagar, Tiruppur, Chettipalayam, Tamil Nadu 641602",Pandian Nagar,587X+9C2,"Tiruppur, Chettipalayam",641602,Tamil Nadu,IN,https://www.google.com/maps/place/JUMMA+MASJID/data=!4m7!3m6!1s0x3ba905d8a0a262b3:0xaa4c53ab68478187!8m2!3d11.1633911!4d77.3485072!16s%2Fg%2F11g88tg8ys!19sChIJs2KioNgFqTsRh4FHaKtTTKo?authuser=0&hl=en&rclk=1,"11.1633911,77.3485072"
Masjidhe Madina Ahle Sunnath Jammath,Mosque,"Masjidhe Madina Ahle Sunnath Jammath, 5th St, 8/264, 5th St, Shrinagar, Pitchampalayam Pudur, Tiruppur, Tamil Nadu 641603","Shrinagar, Pitchampalayam Pudur","5th St, 8/264, 5th St","Tiruppur, Chettipalayam",641603,Tamil Nadu,IN,https://www.google.com/maps/place/Masjidhe+Madina+Ahle+Sunnath+Jammath/data=!4m7!3m6!1s0x3ba9065ef2fff1ff:0x5ebe0751f39a61d1!8m2!3d11.1372901!4d77.3364315!16s%2Fg%2F11fy9rlbq7!19sChIJ__H_8l4GqTsR0WGa81EHvl4?authuser=0&hl=en&rclk=1,"11.1372901,77.3364315"
mannarai masjid,Mosque,"4986+PMJ mannarai masjid, Golden Nagar, Surya Colony, Tiruppur, Tamil Nadu 641607","Golden Nagar, Surya Colony",4986+PMJ,Tiruppur,641607,Tamil Nadu,IN,https://www.google.com/maps/place/mannarai+masjid/data=!4m7!3m6!1s0x3ba907cc87745731:0x7d97a8d20037da7!8m2!3d11.1168288!4d77.3616491!16s%2Fg%2F11c5_t5n2v!19sChIJMVd0h8wHqTsRp30DII162Qc?authuser=0&hl=en&rclk=1,"11.116828799999999,77.3616491"
Marakadai Masjid,Mosque,"38XX+VQR Marakadai Masjid, Old Bus Stand Area, Puspa Nagar, Tiruppur, Tamil Nadu 641604","Old Bus Stand Area, Puspa Nagar",38XX+VQR,Tiruppur,641604,Tamil Nadu,IN,https://www.google.com/maps/place/Marakadai+Masjid/data=!4m7!3m6!1s0x3ba907bc2b064795:0x2dc6fb93cb324278!8m2!3d11.0997355!4d77.3493792!16s%2Fg%2F1tcwj_mt!19sChIJlUcGK7wHqTsReEIyy5P7xi0?authuser=0&hl=en&rclk=1,"11.0997355,77.3493792"
Chinnakarai Pallivasal & Kadar Mastan Wali Dargah,Mosque,"383G+MVC Chinnakarai Pallivasal & Kadar Mastan Wali Dargah, Chinnakarai, Tiruppur, Murugampalayam, Tamil Nadu 641604",Chinnakarai,383G+MVC,"Tiruppur, Murugampalayam",641604,Tamil Nadu,IN,https://www.google.com/maps/place/Chinnakarai+Pallivasal+%26+Kadar+Mastan+Wali+Dargah/data=!4m7!3m6!1s0x3ba9a9ca2cae665f:0x8ee3e11db71a1b82!8m2!3d11.0541837!4d77.3271379!16s%2Fg%2F11b7d3jrq_!19sChIJX2auLMqpqTsRghsatx3h444?authuser=0&hl=en&rclk=1,"11.0541837,77.3271379"
Qua_E_De Millath Masjid,Mosque,"4945+HMV Qua_E_De Millath Masjid, Rajiv Nagar, Bavani Nagar, Tiruppur, Tamil Nadu 641602","Rajiv Nagar, Bavani Nagar",4945+HMV,Tiruppur,641602,Tamil Nadu,IN,https://www.google.com/maps/place/Qua_E_De+Millath+Masjid/data=!4m7!3m6!1s0x3ba907c645b479c3:0xe89a77a384ad3714!8m2!3d11.1064789!4d77.3591673!16s%2Fg%2F1tfp0x9g!19sChIJw3m0RcYHqTsRFDethKN3mug?authuser=0&hl=en&rclk=1,"11.106478899999999,77.3591673"
Masjid-E-jainab,Mosque,"Masjid-E-jainab, Fathima Nagar, 2nd Street,, Murugampalayam, Tamil Nadu 641604","March Nagar, Thiru V K Nagar, Kozhi Ponnai Thottam","Fathima Nagar, 2nd Street,","Murugampalayam, Tiruppur",641604,Tamil Nadu,IN,https://www.google.com/maps/place/Masjid-E-jainab/data=!4m7!3m6!1s0x3ba907022ebf875b:0xa4e8f289aa6be184!8m2!3d11.115677!4d77.32626!16s%2Fg%2F1pyqg086v!19sChIJW4e_LgIHqTsRhOFrqony6KQ?authuser=0&hl=en&rclk=1,"11.115677,77.32625999999999"
"Masjid Hazrath Bilal - Venkateshwara Nagar, Kangayam Road, Tiruppur",Mosque,"4936+J7H Masjid Hazrath Bilal - Venkateshwara Nagar, Kangayam Road, Tiruppur, Venkateshwara Main Rd, Venkateshwara Nagar, Bavani Nagar, Tiruppur, Tamil Nadu 641606","Venkateshwara Nagar, Bavani Nagar","4936+J7H, Venkateshwara Main Rd",Tiruppur,641606,Tamil Nadu,IN,"https://www.google.com/maps/place/Masjid+Hazrath+Bilal+-+Venkateshwara+Nagar,+Kangayam+Road,+Tiruppur/data=!4m7!3m6!1s0x3ba907c6a24ea43f:0x762cd4a010fdc7bf!8m2!3d11.1040575!4d77.3607486!16s%2Fg%2F1pp2tk126!19sChIJP6ROosYHqTsRv8f9EKDULHY?authuser=0&hl=en&rclk=1","11.1040575,77.3607486"
Pallivasal Mosque,Mosque,"Pallivasal Mosque, 911, Mettuppalayam First St, Kumar Nagar, Ramaiya Colony, Tiruppur, Tamil Nadu 641602","Kumar Nagar, Ramaiya Colony","911, Mettuppalayam First St",Tiruppur,641602,Tamil Nadu,IN,https://www.google.com/maps/place/Pallivasal+Mosque/data=!4m7!3m6!1s0x3ba907ac8479fe3b:0x435d15ad1f0a1e8b!8m2!3d11.1162504!4d77.338565!16s%2Fg%2F1pyqhq_y3!19sChIJO_55hKwHqTsRix4KH60VXUM?authuser=0&hl=en&rclk=1,"11.1162504,77.338565"
Eid_ka Masjid Afsal,Mosque,"482W+H98 Eid_ka Masjid Afsal, SH 19, Noyyal, Tiruppur, Tamil Nadu 641602",Noyyal,"482W+H98, SH 19",Tiruppur,641602,Tamil Nadu,IN,https://www.google.com/maps/place/Eid_ka+Masjid+Afsal/data=!4m7!3m6!1s0x3ba907bc901e9b5f:0xaa749126163ede55!8m2!3d11.1014214!4d77.3459584!16s%2Fg%2F1tkc0k4m!19sChIJX5sekLwHqTsRVd4-FiaRdKo?authuser=0&hl=en&rclk=1,"11.1014214,77.3459584"
Illmun Nafiya Sunnath Jamath Masjidh & Mathurasa,Mosque,"Illmun Nafiya Sunnath Jamath Masjidh & Mathurasa, 173, Valliammai Nagar 4th St, Valliammai Nagar, Tiruppur, Tamil Nadu 641606",Valliammai Nagar,"173, Valliammai Nagar 4th St",Tiruppur,641606,Tamil Nadu,IN,https://www.google.com/maps/place/Illmun+Nafiya+Sunnath+Jamath+Masjidh+%26+Mathurasa/data=!4m7!3m6!1s0x3ba907d909d7312b:0x93d538a1913456fb!8m2!3d11.1061977!4d77.3745181!16s%2Fg%2F11fxcfjz76!19sChIJKzHXCdkHqTsR-1Y0kaE41ZM?authuser=0&hl=en&rclk=1,"11.1061977,77.3745181"
Masjidul Aqsa,Mosque,"Masjidul Aqsa, Vivekananda Nagar, Thuvaragai Nagar, Tiruppur, Tamil Nadu 641687","Vivekananda Nagar, Thuvaragai Nagar",,Tiruppur,641687,Tamil Nadu,IN,https://www.google.com/maps/place/Masjidul+Aqsa/data=!4m7!3m6!1s0x3ba907049bd5fb73:0x4a43b9232f916807!8m2!3d11.1118208!4d77.3227527!16s%2Fg%2F11c3xk4ypq!19sChIJc_vVmwQHqTsRB2iRLyO5Q0o?authuser=0&hl=en&rclk=1,"11.1118208,77.3227527"
TNTJ - SV Colony,Mosque,"48CW+2V9 TNTJ - SV Colony, 5th St, Appachi Nagar, Kongu Nagar, T.N.K Puram, Tiruppur, Tamil Nadu 641602","Appachi Nagar, Kongu Nagar, T.N.K Puram","48CW+2V9, 5th St",Tiruppur,641602,Tamil Nadu,IN,https://www.google.com/maps/place/TNTJ+-+SV+Colony/data=!4m7!3m6!1s0x3ba9064cde98e651:0x4adf14071adc2a4f!8m2!3d11.1200379!4d77.3472493!16s%2Fg%2F11btxgh269!19sChIJUeaY3kwGqTsRTyrcGgcU30o?authuser=0&hl=en&rclk=1,"11.1200379,77.3472493"
Yasin babu Nagar mosque,Mosque,"Yasin babu Nagar mosque, Yaseen, babu nagar, Kattupalayam, Tiruppur, Tamil Nadu 641606","babu nagar, Kattupalayam",Yaseen,Tiruppur,641606,Tamil Nadu,IN,https://www.google.com/maps/place/Yasin+babu+Nagar+mosque/data=!4m7!3m6!1s0x3ba9091329db0e35:0xbf4a76e779e96e53!8m2!3d11.0790676!4d77.4070939!16s%2Fg%2F11j0vqrwx2!19sChIJNQ7bKRMJqTsRU27peed2Sr8?authuser=0&hl=en&rclk=1,"11.0790676,77.40709389999999"
Hidhayathul Islam Sunnath Jamaath Masjid,Mosque,"Hidhayathul Islam Sunnath Jamaath Masjid, 13, Ramaiya Colony, East First Street, Muniappan Koil St, Tiruppur, Tamil Nadu 641602",Ramaiya Colony,"13, Ramaiya Colony, East First Street, Muniappan Koil St",Tiruppur,641602,Tamil Nadu,IN,https://www.google.com/maps/place/Hidhayathul+Islam+Sunnath+Jamaath+Masjid/data=!4m7!3m6!1s0x3ba907ac847d9051:0x96456a93559434dc!8m2!3d11.1163091!4d77.3385766!16s%2Fg%2F1hc908g8g!19sChIJUZB9hKwHqTsR3DSUVZNqRZY?authuser=0&hl=en&rclk=1,"11.116309099999999,77.3385766"
S.V Colony Mosque,Mosque,"S.V Colony Mosque, S, v, 1st Pasta Ln, Cusrow Baug Colony, Masjid Bandar West, Colaba, Mumbai, Maharashtra 400001","Cusrow Baug Colony, Masjid Bandar West, Colaba","S, v, 1st Pasta Ln","Mumbai, Tiruppur",400001,Maharashtra,IN,https://www.google.com/maps/place/S.V+Colony+Mosque/data=!4m7!3m6!1s0x3ba9064ce27e24f9:0xd5f2455413b6c4d2!8m2!3d11.1208099!4d77.3468144!16s%2Fg%2F11g6mjby34!19sChIJ-SR-4kwGqTsR0sS2E1RF8tU?authuser=0&hl=en&rclk=1,"11.1208099,77.3468144"
Masjid Huda,Mosque,"Masjid Huda, 12, Noyyal River Cross St, Venkateshwara Nagar, Bavani Nagar, Tiruppur, Tamil Nadu 641606","Venkateshwara Nagar, Bavani Nagar","12, Noyyal River Cross St",Tiruppur,641606,Tamil Nadu,IN,https://www.google.com/maps/place/Masjid+Huda/data=!4m7!3m6!1s0x3ba907c6b713e8f5:0x19cbcb0966110b04!8m2!3d11.1052028!4d77.3618053!16s%2Fg%2F1vk6xnh6!19sChIJ9egTt8YHqTsRBAsRZgnLyxk?authuser=0&hl=en&rclk=1,"11.105202799999999,77.3618053"
Sirajul Islam Shafi Masjid,Mosque,"Sirajul Islam Shafi Masjid, 21, 2nd St, K N P Colony, Pudhukkadu, Tiruppur, Tamil Nadu 641604, 2nd St, K N P Colony, Pudhukkadu, Tamil Nadu 641604",K N P Colony,"21, 2nd St, K N P Colony, Pudhukkadu, Tiruppur, Tamil Nadu 641604, 2nd St",Pudhukkadu,641604,Tamil Nadu,IN,https://www.google.com/maps/place/Sirajul+Islam+Shafi+Masjid/data=!4m7!3m6!1s0x3ba907c0a29c4b8d:0xc5a5e8dfee02db30!8m2!3d11.1012851!4d77.3560122!16s%2Fg%2F11csq6v4_h!19sChIJjUucosAHqTsRMNsC7t_opcU?authuser=0&hl=en&rclk=1,"11.1012851,77.3560122"
Masjid- e -Ameeryia,Mosque,"d.no, Masjid- e -Ameeryia, 37, 5th St, Laxmi Nagar, Lakshmi Nagar, Tiruppur, Tamil Nadu 641602","Laxmi Nagar, Lakshmi Nagar","d.no, 37, 5th St",Tiruppur,641602,Tamil Nadu,IN,https://www.google.com/maps/place/Masjid-+e+-Ameeryia/data=!4m7!3m6!1s0x3ba907add1e6ce95:0x8f1ac36ec99b697!8m2!3d11.1139408!4d77.3415637!16s%2Fg%2F11gdqjksz5!19sChIJlc7m0a0HqTsRl7aZ7Das8Qg?authuser=0&hl=en&rclk=1,"11.1139408,77.3415637"
Mathurasa & Masjid Ashura Sunnathval Jamaath,Mosque,"4824+QXF Mathurasa & Masjid Ashura Sunnathval Jamaath, Tiruppur, Tamil Nadu 641687",,4824+QXF,Tiruppur,641687,Tamil Nadu,IN,https://www.google.com/maps/place/Mathurasa+%26+Masjid+Ashura+Sunnathval+Jamaath/data=!4m7!3m6!1s0x3ba9073dc78a3269:0xbb6538206ce7d340!8m2!3d11.1019424!4d77.30742!16s%2Fg%2F11g8pf877k!19sChIJaTKKxz0HqTsRQNPnbCA4Zbs?authuser=0&hl=en&rclk=1,"11.101942399999999,77.30742"
MASJEEDHE SIDHIK SUNNATH JAMATH JUMMA MASJEEDH,Mosque,"MASJEEDHE SIDHIK SUNNATH JAMATH JUMMA MASJEEDH, 6/22, Nethaji Nagar, Velampalayam, Tiruppur, Tamil Nadu 641652","Nethaji Nagar, Velampalayam",6/22,Tiruppur,641652,Tamil Nadu,IN,https://www.google.com/maps/place/MASJEEDHE+SIDHIK+SUNNATH+JAMATH+JUMMA+MASJEEDH/data=!4m7!3m6!1s0x3ba9070252e82091:0xfcfd69ed7f51eb96!8m2!3d11.1397123!4d77.3213277!16s%2Fg%2F11h4qlh8nh!19sChIJkSDoUgIHqTsRlutRf-1p_fw?authuser=0&hl=en&rclk=1,"11.1397123,77.3213277"
"Ahmadiyya Muslim Jamaat, Tiruppur",Mosque,"494J+444 Ahmadiyya Muslim Jamaat, Tiruppur, Jai Nagar, Valliammai Nagar, Tiruppur, Tamil Nadu 641606","Jai Nagar, Valliammai Nagar",494J+444,Tiruppur,641606,Tamil Nadu,IN,"https://www.google.com/maps/place/Ahmadiyya+Muslim+Jamaat,+Tiruppur/data=!4m7!3m6!1s0x3ba909db4813cc87:0xa49b7f79dcc8838a!8m2!3d11.1052715!4d77.3803199!16s%2Fg%2F11f656yhkw!19sChIJh8wTSNsJqTsRioPI3Hl_m6Q?authuser=0&hl=en&rclk=1","11.105271499999999,77.3803199"
THARUTH thowheed Periyakadai Veethi Mosque,Mosque,"4933+8RH THARUTH thowheed Periyakadai Veethi Mosque, Noyyal, Tiruppur, Tamil Nadu 641602",Noyyal,4933+8RH,Tiruppur,641602,Tamil Nadu,IN,https://www.google.com/maps/place/THARUTH+thowheed+Periyakadai+Veethi+Mosque/data=!4m7!3m6!1s0x3ba907b8babe891d:0xb6610dfaa4ba0b3!8m2!3d11.1033229!4d77.3546173!16s%2Fg%2F11gb40rlgb!19sChIJHYm-urgHqTsRs6BLqt8QZgs?authuser=0&hl=en&rclk=1,"11.1033229,77.3546173"
Masjidhe Mahmood,Mosque,"59F2+X85 Masjidhe Mahmood, Anna Nagar, Tiruppur, Tamil Nadu 641666",Anna Nagar,59F2+X85,Tiruppur,641666,Tamil Nadu,IN,https://www.google.com/maps/place/Masjidhe+Mahmood/data=!4m7!3m6!1s0x3ba905c34bde68bd:0xf1e98626557cb5f5!8m2!3d11.1748903!4d77.3508454!16s%2Fg%2F11hcfmzpqy!19sChIJvWjeS8MFqTsR9bV8VSaG6fE?authuser=0&hl=en&rclk=1,"11.1748903,77.3508454"
Mosque,Mosque,"Mosque, S, v, 1st Pasta Ln, Cusrow Baug Colony, Masjid Bandar West, Colaba, Mumbai, Maharashtra 400001","Cusrow Baug Colony, Masjid Bandar West, Colaba","S, v, 1st Pasta Ln","Mumbai, Tiruppur",400001,Maharashtra,IN,https://www.google.com/maps/place/Mosque/data=!4m7!3m6!1s0x3ba9064ce27e24f9:0x52fceb88cda6668d!8m2!3d11.1197885!4d77.3468734!16s%2Fg%2F11c6qcqflj!19sChIJ-SR-4kwGqTsRjWamzYjr_FI?authuser=0&hl=en&rclk=1,"11.1197885,77.34687339999999"
MS NAGAR TNTJ MOSQUE,Mosque,"MS NAGAR TNTJ MOSQUE, 41A, 3rd St, VOC Nagar, MS Nagar, Tiruppur, Tamil Nadu 641607","VOC Nagar, MS Nagar","41A, 3rd St",Tiruppur,641607,Tamil Nadu,IN,https://www.google.com/maps/place/MS+NAGAR+TNTJ+MOSQUE/data=!4m7!3m6!1s0x3ba907e3da29ed69:0xe66a3531010566d1!8m2!3d11.1270988!4d77.35045!16s%2Fg%2F11gtymwz8x!19sChIJae0p2uMHqTsR0WYFATE1auY?authuser=0&hl=en&rclk=1,"11.127098799999999,77.35045"
Tawheed Mosque,Mosque,"3CH4+Q84 Tawheed Mosque, Kattupalayam, Tiruppur, Tamil Nadu 641606",Kattupalayam,3CH4+Q84,Tiruppur,641606,Tamil Nadu,IN,https://www.google.com/maps/place/Tawheed+Mosque/data=!4m7!3m6!1s0x3ba90820dc2d83cd:0x22de490e131afd0c!8m2!3d11.079394!4d77.4058364!16s%2Fg%2F11hb2sxfnz!19sChIJzYMt3CAIqTsRDP0aEw5J3iI?authuser=0&hl=en&rclk=1,"11.079393999999999,77.4058364"
Masjid e badar,Mosque,"Masjid e badar, 13, Pudur Rd, KNS Subramaniam Nagar, Kankeyam Palayam, Tiruppur, Tamil Nadu 641606","KNS Subramaniam Nagar, Kankeyam Palayam","13, Pudur Rd",Tiruppur,641606,Tamil Nadu,IN,https://www.google.com/maps/place/Masjid+e+badar/data=!4m7!3m6!1s0x3ba907dbc1bf5d55:0xa6a1ceb616c10443!8m2!3d11.0943203!4d77.3633749!16s%2Fg%2F11h1hr9yrq!19sChIJVV2_wdsHqTsRQwTBFrbOoaY?authuser=0&hl=en&rclk=1,"11.0943203,77.3633749"
MASJIDE(Pallivasal),Mosque,"488C+W96 MASJIDE(Pallivasal), Priya School Road, Vivekananda Nagar, Saradha Nagar, Tiruppur, Tamil Nadu 641603","Vivekananda Nagar, Saradha Nagar","488C+W96, Priya School Road",Tiruppur,641603,Tamil Nadu,IN,https://www.google.com/maps/place/MASJIDE%28Pallivasal%29/data=!4m7!3m6!1s0x3ba9071d532153f1:0x3c67c326a1add896!8m2!3d11.117289!4d77.320887!16s%2Fg%2F1pyqs3_6z!19sChIJ8VMhUx0HqTsRltitoSbDZzw?authuser=0&hl=en&rclk=1,"11.117289,77.320887"
Masjidhe rahman,Mosque,"Masjidhe rahman, 249, 5th St, Pattukottaiyar Nagar, Tiruppur, Tamil Nadu 641604",Pattukottaiyar Nagar,"249, 5th St",Tiruppur,641604,Tamil Nadu,IN,https://www.google.com/maps/place/Masjidhe+rahman/data=!4m7!3m6!1s0x3ba90708dd6dc177:0xbea3bea70e56ee5c!8m2!3d11.0890678!4d77.3525027!16s%2Fg%2F11h1jn2x01!19sChIJd8Ft3QgHqTsRXO5WDqe-o74?authuser=0&hl=en&rclk=1,"11.089067799999999,77.3525027"
Masjidhe Ahamed Ahle Sunnath Dhakni Jamaath,Mosque,"Masjidhe Ahamed Ahle Sunnath Dhakni Jamaath, 20, 7th St, T.N.K Puram, Tiruppur, Tamil Nadu 641603",T.N.K Puram,"20, 7th St",Tiruppur,641603,Tamil Nadu,IN,https://www.google.com/maps/place/Masjidhe+Ahamed+Ahle+Sunnath+Dhakni+Jamaath/data=!4m7!3m6!1s0x3ba9064cd86225b5:0x544cb73073292110!8m2!3d11.1197964!4d77.3468677!16s%2Fg%2F11fx91cr6l!19sChIJtSVi2EwGqTsRECEpczC3TFQ?authuser=0&hl=en&rclk=1,"11.1197964,77.34686769999999"
MASJITH US SALAM (TNTJ),Mosque,"58FR+MFG MASJITH US SALAM (TNTJ), Unnamed Road, Kaalampalayam, Tiruppur, Tamil Nadu 641603",Kaalampalayam,"58FR+MFG, Unnamed Road",Tiruppur,641603,Tamil Nadu,IN,https://www.google.com/maps/place/MASJITH+US+SALAM+%28TNTJ%29/data=!4m7!3m6!1s0x3ba9059a79ae8f8f:0x4478590444bb277c!8m2!3d11.1741872!4d77.3411955!16s%2Fg%2F11ll810h0b!19sChIJj4-ueZoFqTsRfCe7RARZeEQ?authuser=0&hl=en&rclk=1,"11.174187199999999,77.3411955"
TNTJ MARKAS MASJITHUR RAHEEM,Mosque,"59CP+7VF TNTJ MARKAS MASJITHUR RAHEEM, Unnamed Road, Tiruppur, Kalipalayam, Tamil Nadu 641666",,"59CP+7VF, Unnamed Road","Tiruppur, Kalipalayam",641666,Tamil Nadu,IN,https://www.google.com/maps/place/TNTJ+MARKAS+MASJITHUR+RAHEEM/data=!4m7!3m6!1s0x3ba90f402ffae3d3:0x59c60e8630e90638!8m2!3d11.1706872!4d77.3871628!16s%2Fg%2F11fj9lpfx8!19sChIJ0-P6L0APqTsROAbpMIYOxlk?authuser=0&hl=en&rclk=1,"11.1706872,77.3871628"
Mosque,Mosque,"483R+953 Mosque, Nataraj Theatre Rd, Pethi Chetti Puram, Rayapuram, Tiruppur, Tamil Nadu 641687","Pethi Chetti Puram, Rayapuram","483R+953, Nataraj Theatre Rd",Tiruppur,641687,Tamil Nadu,IN,https://www.google.com/maps/place/Mosque/data=!4m7!3m6!1s0x3ba907a45d5e99c3:0x1209d1929816d4fe!8m2!3d11.1033861!4d77.340421!16s%2Fg%2F1pyqpsz_h!19sChIJw5leXaQHqTsR_tQWmJLRCRI?authuser=0&hl=en&rclk=1,"11.1033861,77.34042099999999"
Masjid(mosque)GK.GARDEN,Mosque,"488C+X8Q Masjid(mosque)GK.GARDEN, GK Garden, South, Priya School Road, Samundipuram, Tiruppur, Tamil Nadu 641603","Vivekananda Nagar, Saradha Nagar, Samundipuram","488C+X8Q, GK Garden, South, Priya School Road",Tiruppur,641603,Tamil Nadu,IN,https://www.google.com/maps/place/Masjid%28mosque%29GK.GARDEN/data=!4m7!3m6!1s0x3ba9071d54a21ea3:0x547b9b048f3bfbf2!8m2!3d11.1174642!4d77.3208701!16s%2Fg%2F11hbntys25!19sChIJox6iVB0HqTsR8vs7jwSbe1Q?authuser=0&hl=en&rclk=1,"11.117464199999999,77.3208701"
JUMMA MASJID,Mosque,"582V+5J8 JUMMA MASJID, 4th St, Palanisamy Nagar, Raja Nagar, Poyampalayam, Tiruppur, Chettipalayam, Tamil Nadu 641603","Palanisamy Nagar, Raja Nagar, Poyampalayam","582V+5J8, 4th St","Tiruppur, Chettipalayam",641603,Tamil Nadu,IN,https://www.google.com/maps/place/JUMMA+MASJID/data=!4m7!3m6!1s0x3ba907fda450db8b:0xd806bfc97579aedd!8m2!3d11.1504016!4d77.3440933!16s%2Fg%2F11h3l81pyz!19sChIJi9tQpP0HqTsR3a55dcm_Btg?authuser=0&hl=en&rclk=1,"11.1504016,77.3440933"
Sunnath Al Ulum Jamath,Mosque,"39WQ+VWW Sunnath Al Ulum Jamath, Ponmuthu Nagar, Cheran Nagar, Nallur, Tiruppur, Tamil Nadu 641606","Ponmuthu Nagar, Cheran Nagar",39WQ+VWW,"Nallur, Tiruppur",641606,Tamil Nadu,IN,https://www.google.com/maps/place/Sunnath+Al+Ulum+Jamath/data=!4m7!3m6!1s0x3ba9080d5fa72a4d:0x756e8ebd503c7e56!8m2!3d11.097248!4d77.3898151!16s%2Fg%2F11f1kfx48z!19sChIJTSqnXw0IqTsRVn48UL2ObnU?authuser=0&hl=en&rclk=1,"11.097247999999999,77.38981509999999"
Masjid e Quba,Mosque,"4C52+2G3 Masjid e Quba, 1st St, Thirunagar, Tiruppur, Tamil Nadu 641606",Thirunagar,"4C52+2G3, 1st St",Tiruppur,641606,Tamil Nadu,IN,https://www.google.com/maps/place/Masjid+e+Quba/data=!4m7!3m6!1s0x3ba90992142c4b3b:0x5f781196feda7b47!8m2!3d11.107513!4d77.4012904!16s%2Fg%2F11q1df_p5p!19sChIJO0ssFJIJqTsRR3va_pYReF8?authuser=0&hl=en&rclk=1,"11.107512999999999,77.4012904"
Masjid Aqsa,Mosque,"485R+9CW Masjid Aqsa, Jeeva Colony, Khaderpet, Rayapuram, Tiruppur, Tamil Nadu 641601","Jeeva Colony, Khaderpet, Rayapuram",485R+9CW,Tiruppur,641601,Tamil Nadu,IN,https://www.google.com/maps/place/Masjid+Aqsa/data=!4m7!3m6!1s0x3ba907af9df5cfe3:0x8307cddc4a9406c9!8m2!3d11.1084999!4d77.3410733!16s%2Fg%2F11f_j3hf1p!19sChIJ48_1na8HqTsRyQaUStzNB4M?authuser=0&hl=en&rclk=1,"11.1084999,77.34107329999999"
Billal Masjid & Madrasa,Mosque,"4C86+6M4 Billal Masjid & Madrasa, Unnamed Road, Tiruppur, Tamil Nadu 641606",,"4C86+6M4, Unnamed Road",Tiruppur,641606,Tamil Nadu,IN,https://www.google.com/maps/place/Billal+Masjid+%26+Madrasa/data=!4m7!3m6!1s0x3ba9085a19777921:0x8d5016ddaa3d72a0!8m2!3d11.1155203!4d77.4117095!16s%2Fg%2F11fx9np40g!19sChIJIXl3GVoIqTsRoHI9qt0WUI0?authuser=0&hl=en&rclk=1,"11.1155203,77.4117095"
TNTJ Masjiid pallivasal,Mosque,"496H+P68 TNTJ Masjiid pallivasal, Kasipalayam Rd, Jai Nagar, Valliammai Nagar, Tiruppur, Tamil Nadu 641606","Jai Nagar, Valliammai Nagar","496H+P68, Kasipalayam Rd",Tiruppur,641606,Tamil Nadu,IN,https://www.google.com/maps/place/TNTJ+Masjiid+pallivasal/data=!4m7!3m6!1s0x3ba9072bb0d1def9:0x12d1c5c7e50aca0c!8m2!3d11.1117914!4d77.3780888!16s%2Fg%2F11ppc9yfd0!19sChIJ-d7RsCsHqTsRDMoK5cfF0RI?authuser=0&hl=en&rclk=1,"11.1117914,77.3780888"
Masjithe Mubarak,Mosque,"59FC+7RW Masjithe Mubarak, Post, Thirumuruganpoondi, Thiyagi Kumaran Colony, Anna Nagar West, Tiruppur, Tamil Nadu 641652","Thiyagi Kumaran Colony, Anna Nagar West","59FC+7RW, Post, Thirumuruganpoondi",Tiruppur,641652,Tamil Nadu,IN,https://www.google.com/maps/place/Masjithe+Mubarak/data=!4m7!3m6!1s0x3ba905fa2f0c88f1:0x5002d1ac37649113!8m2!3d11.173245!4d77.3720743!16s%2Fg%2F11hcz_33h7!19sChIJ8YgML_oFqTsRE5FkN6zRAlA?authuser=0&hl=en&rclk=1,"11.173245,77.3720743"
Sunnath Jamath Mosque,Mosque,"3CH4+65C Sunnath Jamath Mosque, Kattupalayam, Tiruppur, Tamil Nadu 641606",Kattupalayam,3CH4+65C,Tiruppur,641606,Tamil Nadu,IN,https://www.google.com/maps/place/Sunnath+Jamath+Mosque/data=!4m7!3m6!1s0x3ba908209423ab2d:0xde869ec5dfe89460!8m2!3d11.0780618!4d77.4053873!16s%2Fg%2F11gf5qmq0r!19sChIJLasjlCAIqTsRYJTo38Weht4?authuser=0&hl=en&rclk=1,"11.078061799999999,77.4053873"
Masjid Muhammad Jafar,Mosque,"49H2+732 Masjid Muhammad Jafar, KN Palayam, V R P Nagar, MS Nagar, Tiruppur, Tamil Nadu 641607","KN Palayam, V R P Nagar, MS Nagar",49H2+732,Tiruppur,641607,Tamil Nadu,IN,https://www.google.com/maps/place/Masjid+Muhammad+Jafar/data=!4m7!3m6!1s0x3ba907bedf593e01:0x3c4d8daae89bfbc7!8m2!3d11.1281445!4d77.3501444!16s%2Fg%2F11mn02qf_x!19sChIJAT5Z374HqTsRx_ub6KqNTTw?authuser=0&hl=en&rclk=1,"11.1281445,77.35014439999999"
Fauzul islam trust masjid,Mosque,"Fauzul islam trust masjid, 24,renuga nagar ,semmedu, Thottam, Tiruppur, Tamil Nadu 641604","Venkateshwara Nagar, Thottam","24,renuga nagar ,semmedu",Tiruppur,641604,Tamil Nadu,IN,https://www.google.com/maps/place/Fauzul+islam+trust+masjid/data=!4m7!3m6!1s0x3ba907fde352c4d9:0xfbe360e53770ee4a!8m2!3d11.1082821!4d77.3659788!16s%2Fg%2F11gsd4bf59!19sChIJ2cRS4_0HqTsRSu5wN-Vg4_s?authuser=0&hl=en&rclk=1,"11.1082821,77.3659788"
Al-Salihath Madrasa & Masjid,Mosque,"76, Al-Salihath Madrasa & Masjid, 76, 2nd St, Cheran Nagar, Valliammai Nagar, Tiruppur, Tamil Nadu 641606","Cheran Nagar, Valliammai Nagar","76, 76, 2nd St",Tiruppur,641606,Tamil Nadu,IN,https://www.google.com/maps/place/Al-Salihath+Madrasa+%26+Masjid/data=!4m7!3m6!1s0x3ba907257bd07e49:0x23c52e762ede5f31!8m2!3d11.0987767!4d77.3757343!16s%2Fg%2F11p667zrqj!19sChIJSX7QeyUHqTsRMV_eLnYuxSM?authuser=0&hl=en&rclk=1,"11.0987767,77.37573429999999"
"Masjidur Rahman Mosque, Muthanampalayam",Mosque,"39JV+9HF Masjidur Rahman Mosque, Muthanampalayam, Balaji Nagar, Muthanampalayam, Tiruppur, Tamil Nadu 641606",Balaji Nagar,39JV+9HF,"Muthanampalayam, Tiruppur",641606,Tamil Nadu,IN,"https://www.google.com/maps/place/Masjidur+Rahman+Mosque,+Muthanampalayam/data=!4m7!3m6!1s0x3ba9099389adadf7:0xb57379ff613cab7c!8m2!3d11.0809436!4d77.3939178!16s%2Fg%2F11lm1fqy_k!19sChIJ962tiZMJqTsRfKs8Yf95c7U?authuser=0&hl=en&rclk=1","11.0809436,77.3939178"
Masjidhe Ikhlas,Place of worship,"48Q6+72X Masjidhe Ikhlas, MAHALAKSMI NAGAR,, Anna Street, Velampalayam, Tiruppur, Tamil Nadu 641652",Velampalayam,"48Q6+72X, MAHALAKSMI NAGAR,, Anna Street, Velampalayam","Tiruppur, A.Thirumuruganpoondi",641652,Tamil Nadu,IN,https://www.google.com/maps/place/Masjidhe+Ikhlas/data=!4m7!3m6!1s0x3ba906bebeaaaaab:0x2b413afdbb785d64!8m2!3d11.1382398!4d77.3101104!16s%2Fg%2F11bx89khw3!19sChIJq6qqvr4GqTsRZF14u_06QSs?authuser=0&hl=en&rclk=1,"11.1382398,77.3101104"
Kings Garden Masjid,Mosque,"3CV7+VWQ Kings Garden Masjid, Kangayam Rd, Muthalipalayampiruvu, Tiruppur, Tamil Nadu 641606",Muthalipalayampiruvu,"3CV7+VWQ, Kangayam Rd",Tiruppur,641606,Tamil Nadu,IN,https://www.google.com/maps/place/Kings+Garden+Masjid/data=!4m7!3m6!1s0x3ba909ba5f534687:0xc4f7ff59bf037e09!8m2!3d11.0947052!4d77.4148647!16s%2Fg%2F11rfr2mbxn!19sChIJh0ZTX7oJqTsRCX4Dv1n_98Q?authuser=0&hl=en&rclk=1,"11.0947052,77.4148647"
msjit muhmmt pllllivaacl,Mosque,"4944+QHM msjit muhmmt pllllivaacl, Rajiv Nagar, Bavani Nagar, Tiruppur, Tamil Nadu 641602","Rajiv Nagar, Bavani Nagar",4944+QHM,Tiruppur,641602,Tamil Nadu,IN,https://www.google.com/maps/place/%E0%AE%AE%E0%AE%B8%E0%AF%8D%E0%AE%9C%E0%AE%BF%E0%AE%A4%E0%AF%8D+%E0%AE%AE%E0%AF%81%E0%AE%B9%E0%AE%AE%E0%AF%8D%E0%AE%AE%E0%AE%A4%E0%AF%8D+%E0%AE%AA%E0%AE%B3%E0%AF%8D%E0%AE%B3%E0%AE%BF%E0%AE%B5%E0%AE%BE%E0%AE%9A%E0%AE%B2%E0%AF%8D/data=!4m7!3m6!1s0x3ba90745ff3eea65:0xf176ec7d87b3d22!8m2!3d11.1071836!4d77.356466!16s%2Fg%2F11sy7c96zp!19sChIJZeo-_0UHqTsRIj172MduFw8?authuser=0&hl=en&rclk=1,"11.107183599999999,77.356466"
Masjid e Mubarak Sunnath Jamat,Mosque,"58FR+6QG Masjid e Mubarak Sunnath Jamat, Unnamed Road, Kumaran Colony, Kaalampalayam, Tiruppur, Tamil Nadu 641603","Kumaran Colony, Kaalampalayam","58FR+6QG, Unnamed Road",Tiruppur,641603,Tamil Nadu,IN,https://www.google.com/maps/place/Masjid+e+Mubarak+Sunnath+Jamat/data=!4m7!3m6!1s0x3ba9055ff4b635b1:0xf04d425edee2ac24!8m2!3d11.1730508!4d77.3419671!16s%2Fg%2F11rrtwtz8q!19sChIJsTW29F8FqTsRJKzi3l5CTfA?authuser=0&hl=en&rclk=1,"11.173050799999999,77.34196709999999"
Gulam khadar garden masjid,Mosque,"488C+X9P Gulam khadar garden masjid, Saradha Nagar, Samundipuram, Tiruppur, Tamil Nadu 641603","Saradha Nagar, Samundipuram",488C+X9P,Tiruppur,641603,Tamil Nadu,IN,https://www.google.com/maps/place/Gulam+khadar+garden+masjid/data=!4m7!3m6!1s0x3ba907e90ebdc425:0xe88a5321c3c9b2ea!8m2!3d11.1174524!4d77.3209472!16s%2Fg%2F11q4c9f5h2!19sChIJJcS9DukHqTsR6rLJwyFTiug?authuser=0&hl=en&rclk=1,"11.1174524,77.32094719999999"
Masjid E quadir,Mosque,"Masjid E quadir, Balabakiya Nagar 1 st Street, Ponmuthu Nagar, Nallur, Tamil Nadu 641606",Ponmuthu Nagar,Balabakiya Nagar 1 st Street,"Nallur, Tiruppur",641606,Tamil Nadu,IN,https://www.google.com/maps/place/Masjid+E+quadir/data=!4m7!3m6!1s0x3ba9098a157646ed:0x2f983f9b84238db1!8m2!3d11.097734!4d77.3901809!16s%2Fg%2F11n07mvyls!19sChIJ7UZ2FYoJqTsRsY0jhJs_mC8?authuser=0&hl=en&rclk=1,"11.097733999999999,77.39018089999999"
Tamilnadu Thavheedh Jamaad Mastijul Mubeen,Mosque,"484G+X6Q Tamilnadu Thavheedh Jamaad Mastijul Mubeen, Thiru V K Nagar, Vasantham Nagar, Tiruppur, Tamil Nadu 641687","Thiru V K Nagar, Vasantham Nagar",484G+X6Q,Tiruppur,,Tamil Nadu,IN,https://www.google.com/maps/place/Tamilnadu+Thavheedh+Jamaad+Mastijul+Mubeen/data=!4m7!3m6!1s0x3ba90705f225f6b3:0x8938957ee84d4491!8m2!3d11.1074593!4d77.3255958!16s%2Fg%2F11gnn33vpp!19sChIJs_Yl8gUHqTsRkURN6H6VOIk?authuser=0&hl=en&rclk=1,"11.1074593,77.3255958"
"Doomlight pallivasal, tirupur",Mosque,"Doomlight pallivasal, tirupur, 3, 1st St, Periyathottam, Pudhukkadu, Tamil Nadu 641604",Periyathottam,"3, 1st St",Pudhukkadu,641604,Tamil Nadu,IN,"https://www.google.com/maps/place/Doomlight+pallivasal,+tirupur/data=!4m7!3m6!1s0x3ba90727457e50fb:0xf3e633b0608336bf!8m2!3d11.0989844!4d77.3577334!16s%2Fg%2F11sx0gyshf!19sChIJ-1B-RScHqTsRvzaDYLAz5vM?authuser=0&hl=en&rclk=1","11.098984399999999,77.3577334"
Eidka masjid iitkaa msjit,Place of worship,"3CXP+3HQ Eidka masjid iitkaa msjit, Tiruppur, Tamil Nadu 641606",,3CXP+3HQ,Tiruppur,,Tamil Nadu,IN,https://www.google.com/maps/place/Eidka+masjid+%E0%AE%88%E0%AE%A4%E0%AF%8D%E0%AE%95%E0%AE%BE+%E0%AE%AE%E0%AE%B8%E0%AF%8D%E0%AE%9C%E0%AE%BF%E0%AE%A4%E0%AF%8D/data=!4m7!3m6!1s0x3ba9094cac5963f5:0x354653971e3c868e!8m2!3d11.0977216!4d77.4364907!16s%2Fg%2F11s5770xhv!19sChIJ9WNZrEwJqTsRjoY8HpdTRjU?authuser=0&hl=en&rclk=1,"11.0977216,77.4364907"
Dheenul Islam Madarsa Masjid,Mosque,"59F9+3CJ Dheenul Islam Madarsa Masjid, Bharathi Nagar, Samathuvapuram, Nerupperichal, Vavipalayam, Tiruppur, Tamil Nadu 641666","Bharathi Nagar, Vavipalayam","59F9+3CJ, Bharathi Nagar, Samathuvapuram, Nerupperichal",Tiruppur,641666,Tamil Nadu,IN,https://www.google.com/maps/place/Dheenul+Islam+Madarsa+Masjid/data=!4m7!3m6!1s0x3ba9056fd498ff7f:0xf12f034d9f81275f!8m2!3d11.1727196!4d77.3685221!16s%2Fg%2F11s3ryqbym!19sChIJf_-Y1G8FqTsRXyeBn00DL_E?authuser=0&hl=en&rclk=1,"11.172719599999999,77.36852209999999"
Trust Of Islam,Mosque,"Trust Of Islam, 205, Vijayapuram, Bavani Nagar, Tiruppur, Tamil Nadu 641606","Vijayapuram, Bavani Nagar",205,Tiruppur,641606,Tamil Nadu,IN,https://www.google.com/maps/place/Trust+Of+Islam/data=!4m7!3m6!1s0x3ba907d06baaa14d:0xe3029b598f6546f4!8m2!3d11.1099934!4d77.3685172!16s%2Fg%2F11gdyy24w7!19sChIJTaGqa9AHqTsR9EZlj1mbAuM?authuser=0&hl=en&rclk=1,"11.109993399999999,77.3685172"
Masjid,Mosque,"49X6+Q2X Masjid, Vigneshwara Nagar, Poyampalayam, Tiruppur, Tamil Nadu 641603","Vigneshwara Nagar, Poyampalayam",49X6+Q2X,Tiruppur,641603,Tamil Nadu,IN,https://www.google.com/maps/place/Masjid/data=!4m7!3m6!1s0x3ba9072a7e5de091:0x73da5d9497e58e79!8m2!3d11.1496!4d77.360613!16s%2Fg%2F11v0c31ktt!19sChIJkeBdfioHqTsReY7ll5Rd2nM?authuser=0&hl=en&rclk=1,"11.1496,77.360613"
Fathima Nagar Mosque,Mosque,"488G+6F4 Fathima Nagar Mosque, March Nagar, Thiru V K Nagar, Kozhi Ponnai Thottam, Tiruppur, Tamil Nadu 641687","March Nagar, Thiru V K Nagar, Kozhi Ponnai Thottam",488G+6F4,Tiruppur,641687,Tamil Nadu,IN,https://www.google.com/maps/place/Fathima+Nagar+Mosque/data=!4m7!3m6!1s0x3ba907bb1b5ce03f:0xc32e117eb54b210!8m2!3d11.1155153!4d77.3261956!16s%2Fg%2F11kq4x7y97!19sChIJP-BcG7sHqTsRELJU6xfhMgw?authuser=0&hl=en&rclk=1,"11.1155153,77.32619559999999"
"MATHARSATHUL IKHLAS ,TNTJ",Mosque,"MATHARSATHUL IKHLAS ,TNTJ, 73/18, Noyyal Street, Tiruppur - Kangayam Rd, Tiruppur, Tamil Nadu 641604",Noyyal,"73/18, Noyyal Street, Tiruppur - Kangayam Rd",Tiruppur,641604,Tamil Nadu,IN,"https://www.google.com/maps/place/MATHARSATHUL+IKHLAS+,TNTJ/data=!4m7!3m6!1s0x3ba9078cb09e7b7d:0xb3cd49d2ed83ad1e!8m2!3d11.1034216!4d77.3533945!16s%2Fg%2F11tnkt15fr!19sChIJfXuesIwHqTsRHq2D7dJJzbM?authuser=0&hl=en&rclk=1","11.103421599999999,77.3533945"
Masjid,Housing complex,"48V7+M6P Masjid, Velampalayam, Tiruppur, A.Thirumuruganpoondi, Tamil Nadu 641652",Velampalayam,48V7+M6P,"Tiruppur, A.Thirumuruganpoondi",641652,Tamil Nadu,IN,https://www.google.com/maps/place/Masjid/data=!4m7!3m6!1s0x3ba90726972f1a33:0xfb4a15cdbab9fcea!8m2!3d11.1442178!4d77.3130885!16s%2Fg%2F11rfnlgj3v!19sChIJMxovlyYHqTsR6vy5us0VSvs?authuser=0&hl=en&rclk=1,"11.1442178,77.31308849999999"
