name,main_category,address,address_ward,address_street,address_city,address_postal_code,address_state,address_country_code,link,coordinates
"Masjid,Bagh Nawab Kallan - msjd bG nwb khlN",Mosque,"Masjid,Bagh Nawab Kallan - msjd bG nwb khlN, Government hostel, 243, Mirza Ismail Rd, Chauraha, Jaipur, Rajasthan 302001",Chauraha,"Government hostel, 243, Mirza Ismail Rd",Jaipur,302001,Rajasthan,IN,"https://www.google.com/maps/place/Masjid,Bagh+Nawab+Kallan+-+%D9%85%D8%B3%D8%AC%D8%AF+%D8%A8%D8%A7%D8%BA+%D9%86%D9%88%D8%A7%D8%A8+%DA%A9%D9%84%D8%A7%DA%BA%E2%80%AD/data=!4m7!3m6!1s0x396db40764264b0b:0x12e81378d2bfaed0!8m2!3d26.9170283!4d75.8051891!16s%2Fg%2F11f400d20t!19sChIJC0smZAe0bTkR0K6_0ngT6BI?authuser=0&hl=en&rclk=1","26.9170283,75.80518909999999"
Masjid Zaibunnisa,Mosque,"WRHV+G4P Masjid Zaibunnisa, Mohalla Dakotan, Bas Badanpura, Jaipur, Rajasthan 302002",Bas Badanpura,"WRHV+G4P, Mohalla Dakotan",Jaipur,302002,Rajasthan,IN,https://www.google.com/maps/place/Masjid+Zaibunnisa/data=!4m7!3m6!1s0x396db12de439cc7f:0x715080800de0b5c1!8m2!3d26.9288396!4d75.8428142!16s%2Fg%2F11cs0ff1j5!19sChIJf8w55C2xbTkRwbXgDYCAUHE?authuser=0&hl=en&rclk=1,"26.9288396,75.84281419999999"
Shia Jama Masjid Ahle Sadar,Mosque,"Shia Jama Masjid Ahle Sadar, New, Amer Rd, near Doodh Mandi, Subhash Chowk, Pink City, Jaipur, Rajasthan 302002","Subhash Chowk, Pink City","New, Amer Rd, near Doodh Mandi",Jaipur,302002,Rajasthan,IN,https://www.google.com/maps/place/Shia+Jama+Masjid+Ahle+Sadar/data=!4m7!3m6!1s0x396db1366cdae4c5:0xefb5ba8e7ad3700f!8m2!3d26.9307109!4d75.8328481!16s%2Fg%2F11bzt6jbwd!19sChIJxeTabDaxbTkRD3DTeo66te8?authuser=0&hl=en&rclk=1,"26.930710899999998,75.83284809999999"
Jama Masjid - jm` msjd,Mosque,"WRCG+MFF Jama Masjid - jm` msjd, Johari Bazar Rd, Tripolia Bazar, Biseswarji, Jaipur, Rajasthan 302002","Tripolia Bazar, Biseswarji","WRCG+MFF, Johari Bazar Rd",Jaipur,302002,Rajasthan,IN,https://www.google.com/maps/place/Jama+Masjid+-+%D8%AC%D8%A7%D9%85%D8%B9+%D9%85%D8%B3%D8%AC%D8%AF%E2%80%AD/data=!4m7!3m6!1s0x396db6b4cc63986d:0xedf7fe99b654d904!8m2!3d26.9216973!4d75.8261814!16s%2Fg%2F1pp2vf4xl!19sChIJbZhjzLS2bTkRBNlUtpn-9-0?authuser=0&hl=en&rclk=1,"26.921697299999998,75.8261814"
Noorani Masjid,Mosque,"Noorani Masjid, Bharu Marg, Nandpuri Colony, Jagatpura, Jaipur, Rajasthan 302017","Nandpuri Colony, Jagatpura",Bharu Marg,Jaipur,302017,Rajasthan,IN,https://www.google.com/maps/place/Noorani+Masjid/data=!4m7!3m6!1s0x396db60fcd428c23:0x7538f8b802fbdd02!8m2!3d26.8432633!4d75.8177598!16s%2Fg%2F1pp2vcvf2!19sChIJI4xCzQ-2bTkRAt37Arj4OHU?authuser=0&hl=en&rclk=1,"26.8432633,75.81775979999999"
Mansarover Mosque,Mosque,"VQ95+G7R Mansarover Mosque, Mansarovar Sector 3, Mansarovar, Jaipur, Rajasthan 302020","Mansarovar Sector 3, Mansarovar",VQ95+G7R,Jaipur,302020,Rajasthan,IN,https://www.google.com/maps/place/Mansarover+Mosque/data=!4m7!3m6!1s0x396db50029a16e17:0x6af535c1c6efa50!8m2!3d26.868867!4d75.7581384!16s%2Fg%2F11g_1plt1!19sChIJF26hKQC1bTkRUPpuHFxTrwY?authuser=0&hl=en&rclk=1,"26.868866999999998,75.75813839999999"
Noorani Masjid,Mosque,"Noorani Masjid, 60 fit road sanjay nager b, Kalwar Rd, Jaipur, Rajasthan","Laxmi Nagar III, Jagannath Puri, Suraj Nagar, Jhotwara","60 fit road sanjay nager b, Kalwar Rd",Jaipur,,Rajasthan,IN,https://www.google.com/maps/place/Noorani+Masjid/data=!4m7!3m6!1s0x396db310ab658f6f:0x2f3327adb4d808de!8m2!3d26.9476434!4d75.7429547!16s%2Fg%2F1hc6311c7!19sChIJb49lqxCzbTkR3gjYtK0nMy8?authuser=0&hl=en&rclk=1,"26.9476434,75.7429547"
Qidwai Nagar Mosque,Mosque,"Qidwai Nagar Mosque, 53, JP Phatak Under Pass Rd, Chitragupta Nagar-II, Kidwai Nagar, Tonk Phatak, Jaipur, Rajasthan 302015","Chitragupta Nagar-II, Kidwai Nagar, Tonk Phatak","53, JP Phatak Under Pass Rd",Jaipur,302015,Rajasthan,IN,https://www.google.com/maps/place/Qidwai+Nagar+Mosque/data=!4m7!3m6!1s0x396db43ae54360eb:0x9ed402ce8cc2f55c!8m2!3d26.8861982!4d75.7932163!16s%2Fg%2F1tf00wq1!19sChIJ62BD5Tq0bTkRXPXCjM4C1J4?authuser=0&hl=en&rclk=1,"26.8861982,75.7932163"
Kagzi Jama Masjid,Mosque,"Kagzi Jama Masjid, 4, Kagzi Colony, Sanganer, Jaipur, Rajasthan 302029","Kagzi Colony, Sanganer",4,Jaipur,302029,Rajasthan,IN,https://www.google.com/maps/place/Kagzi+Jama+Masjid/data=!4m7!3m6!1s0x396dca12e2e8ea5d:0x2422b680e5cab91c!8m2!3d26.8112278!4d75.7856571!16s%2Fg%2F11btxcst45!19sChIJXero4hLKbTkRHLnK5YC2IiQ?authuser=0&hl=en&rclk=1,"26.811227799999998,75.7856571"
Spoton logistics Pvt Ltd,Mosque,"Spoton logistics Pvt Ltd, Jalupura Main Rd, Jalupura, Jaipur, Rajasthan 302001",Jalupura,Jalupura Main Rd,Jaipur,302001,Rajasthan,IN,https://www.google.com/maps/place/Spoton+logistics+Pvt+Ltd/data=!4m7!3m6!1s0x396db155815a9661:0x4179b11599c07f43!8m2!3d26.9229037!4d75.807309!16s%2Fg%2F1ydpv9xlb!19sChIJYZZagVWxbTkRQ3_AmRWxeUE?authuser=0&hl=en&rclk=1,"26.9229037,75.807309"
Madina Masjid,Mosque,"Madina Masjid, Madina masid, 231, madina nagar, Jhotwara, Jaipur, Rajasthan 302012","Maelinu Nagar, Jagannath Puri, madina nagar, Jhotwara","Madina masid, 231",Jaipur,302012,Rajasthan,IN,https://www.google.com/maps/place/Madina+Masjid/data=!4m7!3m6!1s0x396db30fe927c5b9:0x9e147c4a6f428cbf!8m2!3d26.9475695!4d75.7496942!16s%2Fg%2F1hc3jvrjz!19sChIJucUn6Q-zbTkRv4xCb0p8FJ4?authuser=0&hl=en&rclk=1,"26.9475695,75.7496942"
Raiyan Masjid - ry'yN msjd,Mosque,"WQ4V+7R2 Raiyan Masjid - ry'yN msjd, C Scheme, Ashok Nagar, Jaipur, Rajasthan 302001","C Scheme, Ashok Nagar",WQ4V+7R2,Jaipur,302001,Rajasthan,IN,https://www.google.com/maps/place/Raiyan+Masjid+-+%D8%B1%D8%A7%D8%A6%DB%8C%D8%A7%DA%BA+%D9%85%D8%B3%D8%AC%D8%AF%E2%80%AD/data=!4m7!3m6!1s0x396db4106cc9e5a3:0x6c37f783453cf596!8m2!3d26.9056401!4d75.7945128!16s%2Fg%2F1hjhdqwj4!19sChIJo-XJbBC0bTkRlvU8RYP3N2w?authuser=0&hl=en&rclk=1,"26.9056401,75.79451279999999"
Sushilpura Mosque,Mosque,"VQX7+HQC Sushilpura Mosque, Sodala, Jaipur, Rajasthan 302006",Sushilpura,"VQX7+HQC, Sodala",Jaipur,302006,Rajasthan,IN,https://www.google.com/maps/place/Sushilpura+Mosque/data=!4m7!3m6!1s0x396db463c4cbfb93:0xf93e675f85d4f4cd!8m2!3d26.8989352!4d75.7643948!16s%2Fg%2F1tc_2hg_!19sChIJk_vLxGO0bTkRzfTUhV9nPvk?authuser=0&hl=en&rclk=1,"26.8989352,75.76439479999999"
Masjid e Aqsa,Mosque,"Masjid e Aqsa, 35/327, Sector 35, Sanganer, Bambala, Jaipur, Rajasthan 302022","Sector 35, Sanganer, Bambala",35/327,Jaipur,302022,Rajasthan,IN,https://www.google.com/maps/place/Masjid+e+Aqsa/data=!4m7!3m6!1s0x396dca23b6e8e3c9:0x317431c40fa68fca!8m2!3d26.8003894!4d75.7996164!16s%2Fg%2F11cn0q3zm7!19sChIJyePotiPKbTkRyo-mD8QxdDE?authuser=0&hl=en&rclk=1,"26.8003894,75.79961639999999"
Behlol Khan Masjid - bHlwl khn msjd,Mosque,"WR8M+G92 Behlol Khan Masjid - bHlwl khn msjd, Ghat Gate, Ghat Gate Bazar, Pink City, Jaipur, Rajasthan 302003","Ghat Gate, Ghat Gate Bazar, Pink City",WR8M+G92,Jaipur,302003,Rajasthan,IN,https://www.google.com/maps/place/Behlol+Khan+Masjid+-+%D8%A8%D8%AD%D9%84%D9%88%D9%84+%D8%AE%D8%A7%D9%86+%D9%85%D8%B3%D8%AC%D8%AF%E2%80%AD/data=!4m7!3m6!1s0x396db6c97a1773a3:0x9c8cb22f7fa7078a!8m2!3d26.9162621!4d75.8333965!16s%2Fg%2F1tfpsp63!19sChIJo3MXesm2bTkRigenfy-yjJw?authuser=0&hl=en&rclk=1,"26.916262099999997,75.83339649999999"
Masjid Garib Nawaj,Mosque,"Masjid Garib Nawaj, Nandpuri Colony, Jagatpura, Jaipur, Rajasthan 302017","Nandpuri Colony, Jagatpura",,Jaipur,302017,Rajasthan,IN,https://www.google.com/maps/place/Masjid+Garib+Nawaj/data=!4m7!3m6!1s0x396db790ed9e7083:0x2cdb563c12a2b73d!8m2!3d26.8347155!4d75.8239631!16s%2Fg%2F11kjjhk9ct!19sChIJg3Ce7ZC3bTkRPbeiEjxW2yw?authuser=0&hl=en&rclk=1,"26.834715499999998,75.8239631"
Masjid Bais Godam - msjdi by'ys gwdm,Mosque,"Masjid Bais Godam - msjdi by'ys gwdm, 89, Rd Number 4, Hawa Sadak, Geejgarh Vihar Colony, Bais Godam, Jaipur, Rajasthan 302007","Hawa Sadak, Geejgarh Vihar Colony, Bais Godam","89, Rd Number 4",Jaipur,302007,Rajasthan,IN,https://www.google.com/maps/place/Masjid+Bais+Godam+-+%D9%85%D8%B3%D8%AC%D8%AF%D9%90+%D8%A8%D8%A7%D8%A6%DB%8C%D8%B3+%DA%AF%D9%88%D8%AF%D8%A7%D9%85%E2%80%AD/data=!4m7!3m6!1s0x396db414f05832e3:0xdfc5771a773e79f!8m2!3d26.8984375!4d75.7859805!16s%2Fg%2F11c2pjd8mb!19sChIJ4zJY8BS0bTkRn-dzp3FX_A0?authuser=0&hl=en&rclk=1,"26.8984375,75.7859805"
Kho Nagoriyan Jama Masjid - khw ngwryN jm` msjd,Mosque,"VV84+7RX Kho Nagoriyan Jama Masjid - khw ngwryN jm` msjd, Ghat Ki Guni, Jaipur, Rajasthan 302017",Ghat Ki Guni,VV84+7RX,Jaipur,302017,Rajasthan,IN,https://www.google.com/maps/place/Kho+Nagoriyan+Jama+Masjid+-+%D8%AE%D9%88+%D9%86%DA%AF%D9%88%D8%B1%DB%8C%D8%A7%DA%BA+%D8%AC%D8%A7%D9%85%D8%B9+%D9%85%D8%B3%D8%AC%D8%AF%E2%80%AD/data=!4m7!3m6!1s0x396db7b245e7d46d:0x74edb63ab1a5788e!8m2!3d26.8657254!4d75.8571199!16s%2Fg%2F11csc69hc5!19sChIJbdTnRbK3bTkRjnilsTq27XQ?authuser=0&hl=en&rclk=1,"26.8657254,75.8571199"
Madina Masjid - mdynh msjd,Mosque,"RRMF+R7R Madina Masjid - mdynh msjd, Nandpuri Colony, Jagatpura, Jaipur, Rajasthan 302017","Nandpuri Colony, Jagatpura",RRMF+R7R,Jaipur,302017,Rajasthan,IN,https://www.google.com/maps/place/Madina+Masjid+-+%D9%85%D8%AF%DB%8C%D9%86%DB%81+%D9%85%D8%B3%D8%AC%D8%AF%E2%80%AD/data=!4m7!3m6!1s0x396db61c0c57758d:0x336874baf282673c!8m2!3d26.8346106!4d75.8231253!16s%2Fg%2F11cr_rl23q!19sChIJjXVXDBy2bTkRPGeC8rp0aDM?authuser=0&hl=en&rclk=1,"26.834610599999998,75.8231253"
Masjid Khwaja Garib Nawaz,Mosque,"Masjid Khwaja Garib Nawaz, 176, Hanuman Path, Shiva Colony, Govindpuri, Jaipur, Rajasthan 302019","Hanuman Path, Shiva Colony, Govindpuri",176,Jaipur,302019,Rajasthan,IN,https://www.google.com/maps/place/Masjid+Khwaja+Garib+Nawaz/data=!4m7!3m6!1s0x396db56277ab9f09:0x20ba9526f6136780!8m2!3d26.8829376!4d75.7679742!16s%2Fg%2F11kzvv1bcq!19sChIJCZ-rd2K1bTkRgGcT9iaVuiA?authuser=0&hl=en&rclk=1,"26.882937599999998,75.7679742"
Noorani Masjid - nwrny msjd,Mosque,"WRC5+P3H Noorani Masjid - nwrny msjd, Jalupura Main Rd, Jalupura, Jaipur, Rajasthan 302001",Jalupura,"WRC5+P3H, Jalupura Main Rd",Jaipur,302001,Rajasthan,IN,https://www.google.com/maps/place/Noorani+Masjid+-+%D9%86%D9%88%D8%B1%D8%A7%D9%86%DB%8C+%D9%85%D8%B3%D8%AC%D8%AF%E2%80%AD/data=!4m7!3m6!1s0x396db1555b62f647:0x849e15aa48c64634!8m2!3d26.9211521!4d75.8075488!16s%2Fg%2F1yfdpblrn!19sChIJR_ZiW1WxbTkRNEbGSKoVnoQ?authuser=0&hl=en&rclk=1,"26.9211521,75.80754879999999"
Masjid Meer Ji - msjd myr jy,Mosque,"Masjid Meer Ji - msjd myr jy, 3, Mir Ji Ka Bagh, Sansar Chandra Rd, Jaipur, Rajasthan 302001",Pink City,"3, Mir Ji Ka Bagh, Sansar Chandra Rd",Jaipur,302001,Rajasthan,IN,https://www.google.com/maps/place/Masjid+Meer+Ji+-+%D9%85%D8%B3%D8%AC%D8%AF+%D9%85%DB%8C%D8%B1+%D8%AC%DB%8C%E2%80%AD/data=!4m7!3m6!1s0x396db3ff6701b675:0x80728955af885e66!8m2!3d26.9200339!4d75.8027248!16s%2Fg%2F11f2p1l_jn!19sChIJdbYBZ_-zbTkRZl6Ir1WJcoA?authuser=0&hl=en&rclk=1,"26.9200339,75.8027248"
Makka Masjid - mkhWh msjd,Mosque,"WQX3+H5J Makka Masjid - mkhWh msjd, Factory Area Rd, Bismillah Colony, Makka Colony, Shivaji Nagar, Jhotwara, Jaipur, Rajasthan 302012","Bismillah Colony, Makka Colony, Shivaji Nagar, Jhotwara","WQX3+H5J, Factory Area Rd",Jaipur,302012,Rajasthan,IN,https://www.google.com/maps/place/Makka+Masjid+-+%D9%85%DA%A9%D9%91%DB%81+%D9%85%D8%B3%D8%AC%D8%AF%E2%80%AD/data=!4m7!3m6!1s0x396db30f61d9383d:0x8736f657f4ec7dac!8m2!3d26.9489606!4d75.7528917!16s%2Fg%2F11cs3z209c!19sChIJPTjZYQ-zbTkRrH3s9Ff2Noc?authuser=0&hl=en&rclk=1,"26.9489606,75.75289169999999"
"Jama Masjid, Amer (Akbari Masjid)",Mosque,"XVQ4+HFP Jama Masjid, Amer (Akbari Masjid), Akbari masjid ke samane, Amer, Jaipur, Rajasthan 302028",Amer,"XVQ4+HFP, Akbari masjid ke samane",Jaipur,302028,Rajasthan,IN,"https://www.google.com/maps/place/Jama+Masjid,+Amer+%28Akbari+Masjid%29/data=!4m7!3m6!1s0x396db04b784725cb:0x835653dc15f0ad72!8m2!3d26.9889651!4d75.8562061!16s%2Fg%2F1q5bl9p2t!19sChIJyyVHeEuwbTkRcq3wFdxTVoM?authuser=0&hl=en&rclk=1","26.988965099999998,75.8562061"
Firdous Masjid - frdws msjd,Mosque,"WRX3+8XG Firdous Masjid - frdws msjd, Sanjay Nagar, Shri Lal Bhadur Shastri Bhatta Basti, Shastri Nagar, Jaipur, Rajasthan 302016","Sanjay Nagar, Shri Lal Bhadur Shastri Bhatta Basti, Shastri Nagar",WRX3+8XG,Jaipur,302016,Rajasthan,IN,https://www.google.com/maps/place/Firdous+Masjid+-+%D9%81%D8%B1%D8%AF%D9%88%D8%B3+%D9%85%D8%B3%D8%AC%D8%AF%E2%80%AD/data=!4m7!3m6!1s0x396db3df33b1cbe1:0x6d6b9734f042d944!8m2!3d26.948315!4d75.804943!16s%2Fg%2F1ptwfls9p!19sChIJ4cuxM9-zbTkRRNlC8DSXa20?authuser=0&hl=en&rclk=1,"26.948314999999997,75.804943"
Masjid Jakariya - msjd zkhry,Mosque,"XQ3M+8CH Masjid Jakariya - msjd zkhry, Krishna Colony, Naya Khera, Vidyadhar Nagar, Jaipur, Rajasthan 302023","Krishna Colony, Naya Khera, Vidyadhar Nagar",XQ3M+8CH,Jaipur,302023,Rajasthan,IN,https://www.google.com/maps/place/Masjid+Jakariya+-+%D9%85%D8%B3%D8%AC%D8%AF+%D8%B2%DA%A9%D8%B1%DB%8C%D8%A7%E2%80%AD/data=!4m7!3m6!1s0x396db3b7e1c35d63:0x4853af2f05793055!8m2!3d26.9533149!4d75.7836079!16s%2Fg%2F1pt_f2nzj!19sChIJY13D4bezbTkRVTB5BS-vU0g?authuser=0&hl=en&rclk=1,"26.9533149,75.78360789999999"
Airport Masjid,Mosque,"RQ9W+MRG Airport Masjid, Sanganer Thana,, Jagatpura, Jaipur, Rajasthan 302011","Azad Colony, Jagatpura","RQ9W+MRG, Sanganer Thana,",Jaipur,302011,Rajasthan,IN,https://www.google.com/maps/place/Airport+Masjid/data=!4m7!3m6!1s0x396dca05bbfe0469:0x72ea77adbc77ff5!8m2!3d26.8191895!4d75.7970801!16s%2Fg%2F1pp2tvplw!19sChIJaQT-uwXKbTkR9X_H23qnLgc?authuser=0&hl=en&rclk=1,"26.8191895,75.7970801"
Bhankrota Masjid,Mosque,"Bhankrota Masjid, Bhakrota, Jaipur, Rajasthan 302026",Bhakrota,,Jaipur,302026,Rajasthan,IN,https://www.google.com/maps/place/Bhankrota+Masjid/data=!4m7!3m6!1s0x396c4b24d824c413:0x79a46b001c484825!8m2!3d26.8735612!4d75.6992239!16s%2Fg%2F11c6mcsvpn!19sChIJE8Qk2CRLbDkRJUhIHABrpHk?authuser=0&hl=en&rclk=1,"26.873561199999997,75.69922389999999"
Shahi Masjid,Mosque,"WRM3+RC5 Shahi Masjid, kabristan nahri naka, Hazi Colony, Subhash Nagar, Jaipur, Rajasthan 302032","Hazi Colony, Subhash Nagar","WRM3+RC5, kabristan nahri naka",Jaipur,302032,Rajasthan,IN,https://www.google.com/maps/place/Shahi+Masjid/data=!4m7!3m6!1s0x396db3e3b0c59145:0x1cb581661b07b89c!8m2!3d26.9345009!4d75.8036164!16s%2Fg%2F11b6t3lsm2!19sChIJRZHFsOOzbTkRnLgHG2aBtRw?authuser=0&hl=en&rclk=1,"26.9345009,75.8036164"
Noor Haq Masjid,Mosque,"Noor Haq Masjid, 17, New Sanjay Nagar, Shri Lal Bhadur Shastri Bhatta Basti, Shastri Nagar, Jaipur, Rajasthan 302016","New Sanjay Nagar, Shri Lal Bhadur Shastri Bhatta Basti, Shastri Nagar",17,Jaipur,302016,Rajasthan,IN,https://www.google.com/maps/place/Noor+Haq+Masjid/data=!4m7!3m6!1s0x396db3d8fe57eb99:0x4d059acc381db337!8m2!3d26.951127!4d75.804179!16s%2Fg%2F1jmcj87t0!19sChIJmetX_tizbTkRN7MdOMyaBU0?authuser=0&hl=en&rclk=1,"26.951127,75.80417899999999"
Masjid Mominan,Mosque,"Masjid Mominan, 3461, Amratpuri, Transport Nagar, Jaipur, Rajasthan 302007","Amratpuri, Transport Nagar",3461,Jaipur,302007,Rajasthan,IN,https://www.google.com/maps/place/Masjid+Mominan/data=!4m7!3m6!1s0x396db6c92a18c945:0xde56f85a9f0a182f!8m2!3d26.9143008!4d75.8356257!16s%2Fg%2F11cn0vmqwq!19sChIJRckYKsm2bTkRLxgKn1r4Vt4?authuser=0&hl=en&rclk=1,"26.9143008,75.8356257"
Masjid E Zakir - msjdi dhkhr,Mosque,"WRMV+WFJ Masjid E Zakir - msjdi dhkhr, Masjid E Zakir Naangi Ka Choraha Bas Badanpura Jaipur, Badanpura Rd, Bilo Chan Mohalla, Bas Badanpura, Jaipur, Rajasthan 302002","Bilo Chan Mohalla, Bas Badanpura","WRMV+WFJ, Masjid E Zakir Naangi Ka Choraha Bas Badanpura Jaipur, Badanpura Rd",Jaipur,302002,Rajasthan,IN,https://www.google.com/maps/place/Masjid+E+Zakir+-+%D9%85%D8%B3%D8%AC%D8%AF%D9%90+%D8%B0%D8%A7%DA%A9%D8%B1%E2%80%AD/data=!4m7!3m6!1s0x396db12f8eb32c31:0x4935aa5ff693764c!8m2!3d26.9348447!4d75.8436495!16s%2Fg%2F11g6lw_7pq!19sChIJMSyzji-xbTkRTHaT9l-qNUk?authuser=0&hl=en&rclk=1,"26.9348447,75.8436495"
Rehmania Masjid,Mosque,"Rehmania Masjid, Shree Ram, Sector 35, Sanganer, Pratap Nagar, Jaipur, Rajasthan 302022","Sector 35, Sanganer, Pratap Nagar",Shree Ram,Jaipur,302022,Rajasthan,IN,https://www.google.com/maps/place/Rehmania+Masjid/data=!4m7!3m6!1s0x396dca26b8f5043d:0xfdee41809b215c76!8m2!3d26.7975257!4d75.8024487!16s%2Fg%2F11h9__7r4f!19sChIJPQT1uCbKbTkRdlwhm4BB7v0?authuser=0&hl=en&rclk=1,"26.797525699999998,75.8024487"
Auliya Masjid - wly msjd,Mosque,"Auliya Masjid - wly msjd, 2, Nh-12, Jawahar Nagar, Bajaj Nagar, Jaipur, Rajasthan 302015","Jawahar Nagar, Bajaj Nagar","2, Nh-12",Jaipur,302015,Rajasthan,IN,https://www.google.com/maps/place/Auliya+Masjid+-+%D8%A7%D9%88%D9%84%DB%8C%D8%A7%D8%A1+%D9%85%D8%B3%D8%AC%D8%AF%E2%80%AD/data=!4m7!3m6!1s0x396db42d1c8c4bd3:0xb9a418ba59d7ece!8m2!3d26.8749217!4d75.7979014!16s%2Fg%2F11c3853whh!19sChIJ00uMHC20bTkRzn6dpYtBmgs?authuser=0&hl=en&rclk=1,"26.874921699999998,75.7979014"
Jali Wali Masjid - jly wly msjd,Mosque,"WRF5+5FX Jali Wali Masjid - jly wly msjd, Topkhane Ka Rasta, Chandpole Bazar, Chandpole, Pink City, Jaipur, Rajasthan 302001","Chandpole Bazar, Chandpole, Pink City","WRF5+5FX, Topkhane Ka Rasta",Jaipur,302001,Rajasthan,IN,https://www.google.com/maps/place/Jali+Wali+Masjid+-+%D8%AC%D8%A7%D9%84%DB%8C+%D9%88%D8%A7%D9%84%DB%8C+%D9%85%D8%B3%D8%AC%D8%AF%E2%80%AD/data=!4m7!3m6!1s0x396db155a751dcb1:0x7c95c2778f3e8fb7!8m2!3d26.9229949!4d75.8087241!16s%2Fg%2F1tdzdd6c!19sChIJsdxRp1WxbTkRt48-j3fClXw?authuser=0&hl=en&rclk=1,"26.9229949,75.80872409999999"
Masjid Muhammadi,Mosque,"Masjid Muhammadi, Pinkcity, near Radha Mandir, Char Darwaja, Kanwar Nagar, Jaipur, Rajasthan 302003","Char Darwaja, Kanwar Nagar","Pinkcity, near Radha Mandir",Jaipur,302003,Rajasthan,IN,https://www.google.com/maps/place/Masjid+Muhammadi/data=!4m7!3m6!1s0x396db1313fde1803:0x1f7e022117150396!8m2!3d26.9299285!4d75.8371763!16s%2Fg%2F1tgh1crv!19sChIJAxjePzGxbTkRlgMVFyECfh8?authuser=0&hl=en&rclk=1,"26.9299285,75.8371763"
Muhammadi Masjid,Mosque,"WQW3+F3W Muhammadi Masjid, Shivaji Nagar, Jhotwara, Jaipur, Rajasthan 302012","Shivaji Nagar, Jhotwara",WQW3+F3W,Jaipur,302012,Rajasthan,IN,https://www.google.com/maps/place/Muhammadi+Masjid/data=!4m7!3m6!1s0x396db30f1dc970ed:0x1f1731820e9451c6!8m2!3d26.9462309!4d75.7526975!16s%2Fg%2F11c6f69ss1!19sChIJ7XDJHQ-zbTkRxlGUDoIxFx8?authuser=0&hl=en&rclk=1,"26.9462309,75.7526975"
Masjid Noor-E-Ilahi,Mosque,"WR3J+3HJ Masjid Noor-E-Ilahi, Saket Colony, Adarsh Nagar, Jaipur, Rajasthan 302004","Saket Colony, Adarsh Nagar",WR3J+3HJ,Jaipur,302004,Rajasthan,IN,https://www.google.com/maps/place/Masjid+Noor-E-Ilahi/data=!4m7!3m6!1s0x396db6c08c42b3a7:0x3fac40518a370dfd!8m2!3d26.9027209!4d75.8313788!16s%2Fg%2F11f1pmgj5z!19sChIJp7NCjMC2bTkR_Q03ilFArD8?authuser=0&hl=en&rclk=1,"26.9027209,75.8313788"
Gosiya Masjid,Mosque,"Gosiya Masjid, NH248, delhi by pass road eidgah Jaipur, Panch Rang Patti, Bas Badanpura, Jaipur, Rajasthan 302002","Panch Rang Patti, Bas Badanpura","NH248, delhi by pass road eidgah Jaipur",Jaipur,302002,Rajasthan,IN,https://www.google.com/maps/place/Gosiya+Masjid/data=!4m7!3m6!1s0x396db12e8a0b6a6d:0xfec57f21e2fd97ba!8m2!3d26.9307146!4d75.8446983!16s%2Fg%2F11dxs9pvy7!19sChIJbWoLii6xbTkRupf94iF_xf4?authuser=0&hl=en&rclk=1,"26.930714599999998,75.84469829999999"
Masjid Noor,Mosque,"WQ5F+J6G Masjid Noor, Adil Khan Rd, Jamuna Nagar, Sodala, Jaipur, Rajasthan 302006","Jamuna Nagar, Sodala","WQ5F+J6G, Adil Khan Rd",Jaipur,302006,Rajasthan,IN,https://www.google.com/maps/place/Masjid+Noor/data=!4m7!3m6!1s0x396db470be84be63:0xe755e8e189f7d666!8m2!3d26.9090703!4d75.7730891!16s%2Fg%2F1tqtw8tx!19sChIJY76EvnC0bTkRZtb3ieHoVec?authuser=0&hl=en&rclk=1,"26.9090703,75.77308909999999"
"Auliya Mosque, Madarsa zeenatul uloom",Mosque,"WQ8C+3F5 Auliya Mosque, Madarsa zeenatul uloom, Narayanpuri Colony, Raval Gi Ka Banda, Hasanpura, Jaipur, Rajasthan 302006","Narayanpuri Colony, Raval Gi Ka Banda, Hasanpura",WQ8C+3F5,Jaipur,302006,Rajasthan,IN,"https://www.google.com/maps/place/Auliya+Mosque,+Madarsa+zeenatul+uloom/data=!4m7!3m6!1s0x396db478174154dd:0xe3870c49b171ef81!8m2!3d26.9151388!4d75.7712372!16s%2Fg%2F11hd1rv98p!19sChIJ3VRBF3i0bTkRge9xsUkMh-M?authuser=0&hl=en&rclk=1","26.915138799999998,75.7712372"
Masjid Hamza,Mosque,"WR4H+JWF Masjid Hamza, Fateh Tibba, Adarsh Nagar, Jaipur, Rajasthan 302004","Fateh Tibba, Adarsh Nagar",WR4H+JWF,Jaipur,302004,Rajasthan,IN,https://www.google.com/maps/place/Masjid+Hamza/data=!4m7!3m6!1s0x396db6b8a7177c41:0x8d36975e6f9554e7!8m2!3d26.906562!4d75.8298028!16s%2Fg%2F1q67srcwd!19sChIJQXwXp7i2bTkR51SVb16XNo0?authuser=0&hl=en&rclk=1,"26.906561999999997,75.8298028"
Badi Masjid (Big Mosque),Mosque,"WQ9J+7QR Badi Masjid (Big Mosque), Kamala Nehru Nagar, Hasanpura, Jaipur, Rajasthan 302006","Kamala Nehru Nagar, Hasanpura",WQ9J+7QR,Jaipur,302006,Rajasthan,IN,https://www.google.com/maps/place/Badi+Masjid+%28Big+Mosque%29/data=!4m7!3m6!1s0x396db38f29a0927d:0x28b28bcbc9707312!8m2!3d26.9182467!4d75.7818782!16s%2Fg%2F11f3cdmd92!19sChIJfZKgKY-zbTkREnNwycuLsig?authuser=0&hl=en&rclk=1,"26.918246699999997,75.7818782"
Takiya Yaqeen Shah Mosque,Mosque,"WR7R+C26 Takiya Yaqeen Shah Mosque, Topkhana Hazuri, Jaipur, Rajasthan 302003",Topkhana Hazuri,WR7R+C26,Jaipur,302003,Rajasthan,IN,https://www.google.com/maps/place/Takiya+Yaqeen+Shah+Mosque/data=!4m7!3m6!1s0x396db6cfbeb96f7f:0x8b7e16d317e029c6!8m2!3d26.9135256!4d75.8400302!16s%2Fg%2F11f3854f97!19sChIJf2-5vs-2bTkRxingF9MWfos?authuser=0&hl=en&rclk=1,"26.9135256,75.8400302"
Loharon Ki Masjid,Mosque,"RQ9P+99R Loharon Ki Masjid, RJ SH 12, Dada Gurudev Nagar, Sanganer, Jaipur, Rajasthan 302029","Dada Gurudev Nagar, Sanganer","RQ9P+99R, RJ SH 12",Jaipur,302029,Rajasthan,IN,https://www.google.com/maps/place/Loharon+Ki+Masjid/data=!4m7!3m6!1s0x396dca0c8d62fafd:0xe30c3570445cbde7!8m2!3d26.8184784!4d75.785892!16s%2Fg%2F1yg6nq16q!19sChIJ_fpijQzKbTkR571cRHA1DOM?authuser=0&hl=en&rclk=1,"26.8184784,75.78589199999999"
Golam dazan masjid - gw'lm dz msjd,Mosque,"Golam dazan masjid - gw'lm dz msjd, 3566, Topkhana Hazuri, Jaipur, Rajasthan 302007",Topkhana Hazuri,3566,Jaipur,302007,Rajasthan,IN,https://www.google.com/maps/place/Golam+dazan+masjid+-+%DA%AF%D8%A4%D9%84%D8%A7%D9%85+%D8%AF%D8%B2+%D9%85%D8%B3%D8%AC%D8%AF%E2%80%AD/data=!4m7!3m6!1s0x396db6ce2b7447d3:0x28b6417b4eb88b17!8m2!3d26.9149803!4d75.8414863!16s%2Fg%2F11c6cy916m!19sChIJ00d0K862bTkRF4u4TntBtig?authuser=0&hl=en&rclk=1,"26.9149803,75.8414863"
Mosque Sultan Fatakwali,Mosque,"Mosque Sultan Fatakwali, Pulia Mosque, near railway 3rd Gate, Hasanpura flyover, Jaipur, Rajasthan 302006",Gopalbari,"Pulia Mosque, near railway 3rd Gate, Hasanpura flyover",Jaipur,302006,Rajasthan,IN,https://www.google.com/maps/place/Mosque+Sultan+Fatakwali/data=!4m7!3m6!1s0x396db3f601a924bf:0xe8aeb030a6ebf3b3!8m2!3d26.9183355!4d75.7896848!16s%2Fg%2F11gfm884rq!19sChIJvySpAfazbTkRs_PrpjCwrug?authuser=0&hl=en&rclk=1,"26.918335499999998,75.7896848"
Noorani masjid - nwrny msjd,Mosque,"WR6R+J8V Noorani masjid - nwrny msjd, Amrit Puri Ghat Gate, Amratpuri, Transport Nagar, Jaipur, Rajasthan 302003","Amrit Puri Ghat Gate, Amratpuri, Transport Nagar",WR6R+J8V,Jaipur,302003,Rajasthan,IN,https://www.google.com/maps/place/Noorani+masjid+-+%D9%86%D9%88%D8%B1%D8%A7%D9%86%DB%8C+%D9%85%D8%B3%D8%AC%D8%AF%E2%80%AD/data=!4m7!3m6!1s0x396db6c55c17e7b5:0x2c094cee980422f2!8m2!3d26.9116233!4d75.8407882!16s%2Fg%2F1thzm92x!19sChIJtecXXMW2bTkR8iIEmO5MCSw?authuser=0&hl=en&rclk=1,"26.9116233,75.84078819999999"
Masjid Garib Navaj,Mosque,"Masjid Garib Navaj, 39, Lalarpura, Jaipur, Rajasthan 302034",Lalarpura,39,Jaipur,302034,Rajasthan,IN,https://www.google.com/maps/place/Masjid+Garib+Navaj/data=!4m7!3m6!1s0x396db4ad59db68df:0x6ace24867e1b377e!8m2!3d26.899205!4d75.714654!16s%2Fg%2F11c6_qgvhj!19sChIJ32jbWa20bTkRfjcbfoYkzmo?authuser=0&hl=en&rclk=1,"26.899205,75.714654"
NadaFan Mosque,Mosque,"NadaFan Mosque, 3806, Topkhana Hazuri, Jaipur, Rajasthan 302003",Topkhana Hazuri,3806,Jaipur,302003,Rajasthan,IN,https://www.google.com/maps/place/NadaFan+Mosque/data=!4m7!3m6!1s0x396db6cc32f07e01:0x6f4f3f9678aa0cba!8m2!3d26.9182688!4d75.8387223!16s%2Fg%2F11cjhk9g38!19sChIJAX7wMsy2bTkRugyqeJY_T28?authuser=0&hl=en&rclk=1,"26.9182688,75.8387223"
Mohammadi Masjid,Mosque,"WRVX+W9G Mohammadi Masjid, Beniwal Kanta St, near Fasi Garden, Hussain Colony, Shankar Nagar, Jaipur, Rajasthan 302002","Hussain Colony, Shankar Nagar","WRVX+W9G, Beniwal Kanta St, near Fasi Garden",Jaipur,302002,Rajasthan,IN,https://www.google.com/maps/place/Mohammadi+Masjid/data=!4m7!3m6!1s0x396db1219b760f51:0x1831493d93d15d37!8m2!3d26.9448132!4d75.8484507!16s%2Fg%2F11btm9xlx3!19sChIJUQ92myGxbTkRN13Rkz1JMRg?authuser=0&hl=en&rclk=1,"26.9448132,75.8484507"
Noorani masjid nuuraanii msjid,Mosque,"Noorani masjid nuuraanii msjid, 2109, Station Rd, Subhash Nagar, Jaipur, Rajasthan 302016",Subhash Nagar,"2109, Station Rd",Jaipur,302016,Rajasthan,IN,https://www.google.com/maps/place/Noorani+masjid+%E0%A4%A8%E0%A5%82%E0%A4%B0%E0%A4%BE%E0%A4%A8%E0%A5%80+%E0%A4%AE%E0%A4%B8%E0%A5%8D%E0%A4%9C%E0%A4%BF%E0%A4%A6/data=!4m7!3m6!1s0x396db359df204907:0x923dd575a30b2f0b!8m2!3d26.9319366!4d75.8059809!16s%2Fg%2F11fpklggy8!19sChIJB0kg31mzbTkRCy8Lo3XVPZI?authuser=0&hl=en&rclk=1,"26.9319366,75.8059809"
Barkati Masjid Vyas Colony,Mosque,"Barkati Masjid Vyas Colony, C-57, C-57, Sati Colony, Nahari Ka Naka, Jaipur, Rajasthan 302016","Vayas Colony, Nahari Ka Naka","C-57, C-57, Sati Colony",Jaipur,302016,Rajasthan,IN,https://www.google.com/maps/place/Barkati+Masjid+Vyas+Colony/data=!4m7!3m6!1s0x396db3e1fcb6ffff:0x5d1facb7018110fe!8m2!3d26.9378787!4d75.8066244!16s%2Fg%2F11c38jvw3v!19sChIJ__-2_OGzbTkR_hCBAbesH10?authuser=0&hl=en&rclk=1,"26.9378787,75.80662439999999"
Masjid moti doongri,Mosque,"VRX9+6G7 Masjid moti doongri, Moti Doongri Rd, Tilak Nagar, Jaipur, Rajasthan 302004",Tilak Nagar,"VRX9+6G7, Moti Doongri Rd",Jaipur,302004,Rajasthan,IN,https://www.google.com/maps/place/Masjid+moti+doongri/data=!4m7!3m6!1s0x396db697fc899bbd:0x81d472122c9fb491!8m2!3d26.8980373!4d75.818797!16s%2Fg%2F1260t_nyt!19sChIJvZuJ_Je2bTkRkbSfLBJy1IE?authuser=0&hl=en&rclk=1,"26.8980373,75.818797"
Masjid E Chini Ki Burj - msjdi chyny khy mrD,Mosque,"Masjid E Chini Ki Burj - msjdi chyny khy mrD, 742, Gangori Bazaar, J.D.A. Market, Kanwar Nagar, Jaipur, Rajasthan 302002","Gangori Bazaar, J.D.A. Market, Kanwar Nagar",742,Jaipur,302002,Rajasthan,IN,https://www.google.com/maps/place/Masjid+E+Chini+Ki+Burj+-+%D9%85%D8%B3%D8%AC%D8%AF%D9%90+%DA%86%DB%8C%D9%86%DB%8C+%DA%A9%DB%8C+%D9%85%D8%B1%D8%B6%E2%80%AD/data=!4m7!3m6!1s0x396db18f9e2666c1:0xcb052065ce011fb1!8m2!3d26.9274533!4d75.8207026!16s%2Fg%2F11ghnv1cqp!19sChIJwWYmno-xbTkRsR8BzmUgBcs?authuser=0&hl=en&rclk=1,"26.9274533,75.82070259999999"
Masjid E Haizam Faroshan - msjdi hyzm frwshN,Mosque,"Masjid E Haizam Faroshan - msjdi hyzm frwshN, 8, Mirza Ismail Rd, Panch Batti, Jayanti Market, Ashok Nagar, Jaipur, Rajasthan 302001","Panch Batti, Jayanti Market, Ashok Nagar","8, Mirza Ismail Rd",Jaipur,302001,Rajasthan,IN,https://www.google.com/maps/place/Masjid+E+Haizam+Faroshan+-+%D9%85%D8%B3%D8%AC%D8%AF%D9%90+%DB%81%DB%8C%D8%B2%D9%85+%D9%81%D8%B1%D9%88%D8%B4%D8%A7%DA%BA%E2%80%AD/data=!4m7!3m6!1s0x396db6adb7b0aa81:0xe7e0c3ca4e505f8!8m2!3d26.9165573!4d75.8166209!16s%2Fg%2F1tnpcv5v!19sChIJgaqwt622bTkR-AXlpDwMfg4?authuser=0&hl=en&rclk=1,"26.916557299999997,75.81662089999999"
Aqsa masjid,Mosque,"WRX2+6H6 Aqsa masjid, New Jaalupura Rd, Ram Nagar, Shastri Nagar, Jaipur, Rajasthan 302016","Ram Nagar, Shastri Nagar","WRX2+6H6, New Jaalupura Rd",Jaipur,302016,Rajasthan,IN,https://www.google.com/maps/place/Aqsa+masjid/data=!4m7!3m6!1s0x396db3ed3af9e5af:0x66ad8bc0a065822a!8m2!3d26.94806!4d75.801547!16s%2Fg%2F11c6sb7vzd!19sChIJr-X5Ou2zbTkRKoJloMCLrWY?authuser=0&hl=en&rclk=1,"26.948059999999998,75.801547"
Gulab Masjid,Mosque,"Gulab Masjid, 4293, Handi Pura, Badi Chaupar, Jaipur, Rajasthan 302002","Handi Pura, Badi Chaupar",4293,Jaipur,302002,Rajasthan,IN,https://www.google.com/maps/place/Gulab+Masjid/data=!4m7!3m6!1s0x396db134b1ea609d:0xe95d1420d1ff26bd!8m2!3d26.9232597!4d75.8351596!16s%2Fg%2F11dxd4xzjl!19sChIJnWDqsTSxbTkRvSb_0SAUXek?authuser=0&hl=en&rclk=1,"26.9232597,75.8351596"
Masjid Al Zaheen,Mosque,"WR8R+XHP Masjid Al Zaheen, Surajpol Bazar Rd, Topkhana Hazuri, Pink City, Jaipur, Rajasthan 302003","Topkhana Hazuri, Pink City","WR8R+XHP, Surajpol Bazar Rd",Jaipur,302003,Rajasthan,IN,https://www.google.com/maps/place/Masjid+Al+Zaheen/data=!4m7!3m6!1s0x396db6cdf7c3dc95:0xee4f8a8ec724ef79!8m2!3d26.9174619!4d75.8414484!16s%2Fg%2F1tm67b7y!19sChIJldzD9822bTkRee8kx46KT-4?authuser=0&hl=en&rclk=1,"26.9174619,75.84144839999999"
Masjid,Mosque,"WQJM+VQ2 Masjid, Military Containment, Jhotwara, Jaipur, Rajasthan 302032","Military Containment, Jhotwara",WQJM+VQ2,Jaipur,302032,Rajasthan,IN,https://www.google.com/maps/place/Masjid/data=!4m7!3m6!1s0x396db3b4e34ca7a3:0x445299e3397b22a7!8m2!3d26.9321303!4d75.7844005!16s%2Fg%2F11fftq6ygx!19sChIJo6dM47SzbTkRpyJ7OeOZUkQ?authuser=0&hl=en&rclk=1,"26.932130299999997,75.78440049999999"
Ayesha Masjid,Mosque,"WRM4+PR4 Ayesha Masjid, Madina Masjid Rd, Shastri Nagar, Nahari Ka Naka, Jaipur, Rajasthan 302007","Shastri Nagar, Nahari Ka Naka","WRM4+PR4, Madina Masjid Rd",Jaipur,,Rajasthan,IN,https://www.google.com/maps/place/Ayesha+Masjid/data=!4m7!3m6!1s0x396db158724739c7:0xad529323ad075d8e!8m2!3d26.9342588!4d75.8070672!16s%2Fg%2F11f3xmc499!19sChIJxzlHclixbTkRjl0HrSOTUq0?authuser=0&hl=en&rclk=1,"26.9342588,75.80706719999999"
Ajmeri Masjid,Mosque,"WQ7G+MHQ Ajmeri Masjid, NBC Rd, Rajiv Nagar, Shanti Nagar, Civil Lines, Jaipur, Rajasthan 302006","Rajiv Nagar, Shanti Nagar, Civil Lines","WQ7G+MHQ, NBC Rd",Jaipur,302006,Rajasthan,IN,https://www.google.com/maps/place/Ajmeri+Masjid/data=!4m7!3m6!1s0x396db47660c1b77f:0xdbbe55f6827862cc!8m2!3d26.9142177!4d75.7764886!16s%2Fg%2F11c2nk4q6x!19sChIJf7fBYHa0bTkRzGJ4gvZVvts?authuser=0&hl=en&rclk=1,"26.9142177,75.7764886"
Masjid Ahle Sunnat Burj wali c-scheme,Mosque,"WQ3R+QGC Masjid Ahle Sunnat Burj wali c-scheme, Shivaji Nagar, Jaipur, Rajasthan 302007",Shivaji Nagar,WQ3R+QGC,Jaipur,302007,Rajasthan,IN,https://www.google.com/maps/place/Masjid+Ahle+Sunnat+Burj+wali+c-scheme/data=!4m7!3m6!1s0x396db411a38697a7:0xb82d9841a996ca41!8m2!3d26.9044406!4d75.7912686!16s%2Fg%2F11fx8hbjn5!19sChIJp5eGoxG0bTkRQcqWqUGYLbg?authuser=0&hl=en&rclk=1,"26.904440599999997,75.7912686"
Naggamiyan ki Masjid,Mosque,"Naggamiyan ki Masjid, 1465, Ghat Gate Bazar, Ramganj Bazar, Jaipur, Rajasthan 302007","Ghat Gate Bazar, Ramganj Bazar",1465,Jaipur,302007,Rajasthan,IN,https://www.google.com/maps/place/Naggamiyan+ki+Masjid/data=!4m7!3m6!1s0x396db6ca54113c91:0xf51491e9b80bed1e!8m2!3d26.9194418!4d75.8326787!16s%2Fg%2F11c1wsxq80!19sChIJkTwRVMq2bTkRHu0LuOmRFPU?authuser=0&hl=en&rclk=1,"26.919441799999998,75.8326787"
Kausar-e-Deen Mosque,Mosque,"WQ9R+FW7 Kausar-e-Deen Mosque, Hasanpura Rd, Gopalbari, Jaipur, Rajasthan 302001",Gopalbari,"WQ9R+FW7, Hasanpura Rd",Jaipur,302001,Rajasthan,IN,https://www.google.com/maps/place/Kausar-e-Deen+Mosque/data=!4m7!3m6!1s0x396db3f62afc4ebb:0xe62464f7cc8ac142!8m2!3d26.9186716!4d75.7923067!16s%2Fg%2F11b8_gjhl7!19sChIJu078KvazbTkRQsGKzPdkJOY?authuser=0&hl=en&rclk=1,"26.9186716,75.7923067"
Masjid Firdos,Mosque,"WRJQ+PWR Masjid Firdos, Sayyed Colony, Khandelwal Colony, Bas Badanpura, Jaipur, Rajasthan 302002","Sayyed Colony, Khandelwal Colony, Bas Badanpura",WRJQ+PWR,Jaipur,302002,Rajasthan,IN,https://www.google.com/maps/place/Masjid+Firdos/data=!4m7!3m6!1s0x396db131b2d99f21:0xdb09663cc20c412c!8m2!3d26.9318732!4d75.83976!16s%2Fg%2F11g027czv_!19sChIJIZ_ZsjGxbTkRLEEMwjxmCds?authuser=0&hl=en&rclk=1,"26.9318732,75.83976"
Moti Masjid,Mosque,"59, Moti Masjid, 59, Kho Nagoriyan, Ghati Karolan, Jaipur, Rajasthan 303012","Kho Nagoriyan, Ghati Karolan","59, 59",Jaipur,303012,Rajasthan,IN,https://www.google.com/maps/place/Moti+Masjid/data=!4m7!3m6!1s0x396db7ba7a97d799:0x7e2adbd08d60d9c7!8m2!3d26.8650183!4d75.8655248!16s%2Fg%2F11b7gp802y!19sChIJmdeXerq3bTkRx9lgjdDbKn4?authuser=0&hl=en&rclk=1,"26.8650183,75.8655248"
Noorani Masjid,Mosque,"Noorani Masjid, 00/225 J.P, colony Jal Mahal, Idgah Kachi Basti, Jaipur, Rajasthan 302002","Idgah Kachi Basti, Parasrampuri","00/225 J.P, colony Jal Mahal",Jaipur,302002,Rajasthan,IN,https://www.google.com/maps/place/Noorani+Masjid/data=!4m7!3m6!1s0x396db1104941e12b:0x685d016371046349!8m2!3d26.9554387!4d75.8402862!16s%2Fg%2F11c1xnrj7k!19sChIJK-FBSRCxbTkRSWMEcWMBXWg?authuser=0&hl=en&rclk=1,"26.9554387,75.8402862"
Mumtaz Bagh Masjid,Mosque,"WR84+GGM Mumtaz Bagh Masjid, Subhash Marg, Panch Batti, C Scheme, Ashok Nagar, Jaipur, Rajasthan 302001","Panch Batti, C Scheme, Ashok Nagar","WR84+GGM, Subhash Marg",Jaipur,302001,Rajasthan,IN,https://www.google.com/maps/place/Mumtaz+Bagh+Masjid/data=!4m7!3m6!1s0x396db401d06e31f9:0x69bd498b383cb7aa!8m2!3d26.9163367!4d75.8062952!16s%2Fg%2F1pp2vfs69!19sChIJ-TFu0AG0bTkRqrc8OItJvWk?authuser=0&hl=en&rclk=1,"26.9163367,75.8062952"
MASJID BISATIYAN,Mosque,"MASJID BISATIYAN, 641, MOHALLA BISATIYAN, Ramganj Bazar, Jaipur, Rajasthan 302003",Ramganj Bazar,"641, MOHALLA BISATIYAN",Jaipur,302003,Rajasthan,IN,https://www.google.com/maps/place/MASJID+BISATIYAN/data=!4m7!3m6!1s0x396db6ca9f5b051b:0xd67dd850113b778f!8m2!3d26.9208534!4d75.8305495!16s%2Fg%2F11bzzw8fhm!19sChIJGwVbn8q2bTkRj3c7EVDYfdY?authuser=0&hl=en&rclk=1,"26.9208534,75.8305495"
Masjid Bhojpura Basti,Mosque,"72, Masjid Bhojpura Basti, 70,71, Sahakar Marg, Jyothi Nagar, Lalkothi, Jaipur, Rajasthan 302007","Jyothi Nagar, Lalkothi","72, 70,71, Sahakar Marg",Jaipur,302007,Rajasthan,IN,https://www.google.com/maps/place/Masjid+Bhojpura+Basti/data=!4m7!3m6!1s0x396db417ca7426a5:0xc0f6eb18f569f0dc!8m2!3d26.8975313!4d75.7929661!16s%2Fg%2F11gcjhtdbv!19sChIJpSZ0yhe0bTkR3PBp9Rjr9sA?authuser=0&hl=en&rclk=1,"26.897531299999997,75.7929661"
Mosque,Mosque,"VQGX+36X Mosque, Jawahar Nagar, Bajaj Nagar, Jaipur, Rajasthan 302015","Jawahar Nagar, Bajaj Nagar",VQGX+36X,Jaipur,302015,Rajasthan,IN,https://www.google.com/maps/place/Mosque/data=!4m7!3m6!1s0x396db42d02e41243:0x71840e72ccff5039!8m2!3d26.8752354!4d75.7980943!16s%2Fg%2F11f_b_3fg5!19sChIJQxLkAi20bTkROVD_zHIOhHE?authuser=0&hl=en&rclk=1,"26.875235399999998,75.7980943"
Masjid,Mosque,"WQ7F+959 Masjid, Barkat Nagar Rd, Shiv Colony, Hatwara, Lakshmi Nagar, Jaipur, Rajasthan 302006","Shiv Colony, Hatwara, Lakshmi Nagar","WQ7F+959, Barkat Nagar Rd",Jaipur,302006,Rajasthan,IN,https://www.google.com/maps/place/Masjid/data=!4m7!3m6!1s0x396db477766ae5e5:0xc5190029a5f95283!8m2!3d26.9134107!4d75.7729964!16s%2Fg%2F11gfddmhyw!19sChIJ5eVqdne0bTkRg1L5pSkAGcU?authuser=0&hl=en&rclk=1,"26.9134107,75.7729964"
Choti Masjid,Mosque,"Choti Masjid, 245, Jalupura, Jaipur, Rajasthan 302001",Jalupura,245,Jaipur,302001,Rajasthan,IN,https://www.google.com/maps/place/Choti+Masjid/data=!4m7!3m6!1s0x396db155804c856b:0xa49bd5c74e2a65de!8m2!3d26.9229296!4d75.8069677!16s%2Fg%2F11c6ts6_p3!19sChIJa4VMgFWxbTkR3mUqTsfVm6Q?authuser=0&hl=en&rclk=1,"26.9229296,75.8069677"
Masjid Tonk Risala,Mosque,"Masjid Tonk Risala, 13-b, Motilal Atal Rd, Sindhi Camp, Jaipur, Rajasthan 302001",Sindhi Camp,"13-b, Motilal Atal Rd",Jaipur,302001,Rajasthan,IN,https://www.google.com/maps/place/Masjid+Tonk+Risala/data=!4m7!3m6!1s0x396db3f887018333:0x5c9e20251bdb879a!8m2!3d26.9195985!4d75.7983094!16s%2Fg%2F11c73n_jmf!19sChIJM4MBh_izbTkRmofbGyUgnlw?authuser=0&hl=en&rclk=1,"26.9195985,75.7983094"
Noorani Masjid,Mosque,"Noorani Masjid, 101, Tiwari Ji Ka Bagh, Fateh Tibba, Adarsh Nagar, Jaipur, Rajasthan 302007","Tiwari Ji Ka Bagh, Fateh Tibba, Adarsh Nagar",101,Jaipur,302007,Rajasthan,IN,https://www.google.com/maps/place/Noorani+Masjid/data=!4m7!3m6!1s0x396db6b922c8c98d:0x266015828c7a47f2!8m2!3d26.9060398!4d75.8265845!16s%2Fg%2F11c5xsk3hm!19sChIJjcnIIrm2bTkR8kd6jIIVYCY?authuser=0&hl=en&rclk=1,"26.9060398,75.8265845"
Shia Mosque,Mosque,"Shia Mosque, 271, Amer Rd, Char Darwaja, Chokdi Gangapol, Jaipur, Rajasthan 302002","Char Darwaja, Chokdi Gangapol","271, Amer Rd",Jaipur,302002,Rajasthan,IN,https://www.google.com/maps/place/Shia+Mosque/data=!4m7!3m6!1s0x396db13651746399:0x456d8b0dd9a106a0!8m2!3d26.9307541!4d75.8325334!16s%2Fg%2F11c2m_6hly!19sChIJmWN0UTaxbTkRoAah2Q2LbUU?authuser=0&hl=en&rclk=1,"26.930754099999998,75.8325334"
dagraha wali masjid,Mosque,"WRCJ+6JJ dagraha wali masjid, Ramganj Bazar, Jaipur, Rajasthan 302003",Ramganj Bazar,WRCJ+6JJ,Jaipur,302003,Rajasthan,IN,https://www.google.com/maps/place/dagraha+wali+masjid/data=!4m7!3m6!1s0x396db6ca934216d5:0xf9f468f1cab7dc4a!8m2!3d26.9205791!4d75.8315199!16s%2Fg%2F11bzztp54b!19sChIJ1RZCk8q2bTkRSty3yvFo9Pk?authuser=0&hl=en&rclk=1,"26.920579099999998,75.8315199"
Manpur Sadwa Badi Masjid,Mosque,"XV59+P6R Manpur Sadwa Badi Masjid, Sumel, Jaipur, Rajasthan 302027",Sumel,XV59+P6R,Jaipur,302027,Rajasthan,IN,https://www.google.com/maps/place/Manpur+Sadwa+Badi+Masjid/data=!4m7!3m6!1s0x396db142d7343301:0x3733a3881652b304!8m2!3d26.9593614!4d75.8680138!16s%2Fg%2F11rp6cl42h!19sChIJATM010KxbTkRBLNSFoijMzc?authuser=0&hl=en&rclk=1,"26.9593614,75.8680138"
Masjid E Mariyam,Mosque,"Masjid E Mariyam, 108, Jalupura, Jaipur, Rajasthan 302032",Jalupura,108,Jaipur,302032,Rajasthan,IN,https://www.google.com/maps/place/Masjid+E+Mariyam/data=!4m7!3m6!1s0x396db3ff9692ed51:0x87ec630aaf90c5e2!8m2!3d26.920948!4d75.80508!16s%2Fg%2F11f2_t41wm!19sChIJUe2Slv-zbTkR4sWQrwpj7Ic?authuser=0&hl=en&rclk=1,"26.920948,75.80507999999999"
Masjid Gudajgaran Jaipur,Mosque,"WRHH+F79 Masjid Gudajgaran Jaipur, Hawa Mahal Rd, Kamal Gatta Colony, Kanwar Nagar, Jaipur, Rajasthan 302002","Kamal Gatta Colony, Kanwar Nagar","WRHH+F79, Hawa Mahal Rd",Jaipur,302002,Rajasthan,IN,https://www.google.com/maps/place/Masjid+Gudajgaran+Jaipur/data=!4m7!3m6!1s0x396db1498e1d80b3:0x1407b2b67692b1b7!8m2!3d26.9286552!4d75.828245!16s%2Fg%2F1pp2x5wj2!19sChIJs4AdjkmxbTkRt7GSdrayBxQ?authuser=0&hl=en&rclk=1,"26.928655199999998,75.828245"
Nairiyo Ki Masjid,Mosque,"WRC6+84J Nairiyo Ki Masjid, Kalyan Ji Ka Rasta, Chandpole Bazar, Jalupura, Jaipur, Rajasthan 302001","Chandpole Bazar, Jalupura","WRC6+84J, Kalyan Ji Ka Rasta",Jaipur,302001,Rajasthan,IN,https://www.google.com/maps/place/Nairiyo+Ki+Masjid/data=!4m7!3m6!1s0x396db154d0f0b15b:0xcf3ebcf729ffcb49!8m2!3d26.920847!4d75.8102806!16s%2Fg%2F1pp2xb7rr!19sChIJW7Hw0FSxbTkRScv_Kfe8Ps8?authuser=0&hl=en&rclk=1,"26.920847,75.8102806"
Aaisha Masjid,Mosque,"WR5H+C77 Aaisha Masjid, Unnamed Road, Fateh Tibba, Adarsh Nagar, Jaipur, Rajasthan 302004","Fateh Tibba, Adarsh Nagar","WR5H+C77, Unnamed Road",Jaipur,302004,Rajasthan,IN,https://www.google.com/maps/place/Aaisha+Masjid/data=!4m7!3m6!1s0x396db75536b4eb25:0x74bda4457f9f1cb3!8m2!3d26.9085474!4d75.8281726!16s%2Fg%2F11hyfwd4rs!19sChIJJeu0NlW3bTkRsxyff0WkvXQ?authuser=0&hl=en&rclk=1,"26.9085474,75.8281726"
Badi masjid Mosque - brry msjd,Mosque,"2147, Badi masjid Mosque - brry msjd, 2147, Gangori Bazaar, Gangori Bazar, Purani Basti, Jaipur, Rajasthan 302001","Gangori Bazaar, Gangori Bazar, Purani Basti","2147, 2147",Jaipur,302001,Rajasthan,IN,https://www.google.com/maps/place/Badi+masjid+Mosque+-+%D8%A8%DA%91%DB%8C+%D9%85%D8%B3%D8%AC%D8%AF%E2%80%AD/data=!4m7!3m6!1s0x396db14e1fcb85df:0x38d293ec3ef5a6f8!8m2!3d26.926266!4d75.8198835!16s%2Fg%2F11ckqqrkh2!19sChIJ34XLH06xbTkR-Kb1PuyT0jg?authuser=0&hl=en&rclk=1,"26.926266,75.8198835"
Panchayti Masjid Neelgaran,Mosque,"Panchayti Masjid Neelgaran, 2089, Ladli Ji Ka Khurra, Badi Chaupar, Jaipur, Rajasthan 302002","Ladli Ji Ka Khurra, Badi Chaupar",2089,Jaipur,302002,Rajasthan,IN,https://www.google.com/maps/place/Panchayti+Masjid+Neelgaran/data=!4m7!3m6!1s0x396db1356128a0b9:0x950f69e515c81b4a!8m2!3d26.9239762!4d75.8304718!16s%2Fg%2F11bztfrt0g!19sChIJuaAoYTWxbTkRShvIFeVpD5U?authuser=0&hl=en&rclk=1,"26.9239762,75.8304718"
Kayam Khaniyo Ki Masjid - qy'm khhnywN khy msjd,Mosque,"WQCH+F4W Kayam Khaniyo Ki Masjid - qy'm khhnywN khy msjd, 284, Hasanpura A, Hasanpura, Jaipur, Rajasthan 302006","Hasanpura A, Hasanpura","WQCH+F4W, 284",Jaipur,302006,Rajasthan,IN,https://www.google.com/maps/place/Kayam+Khaniyo+Ki+Masjid+-+%D9%82%D8%A7%D8%A6%D9%85+%DA%A9%DB%81%D8%A7%D9%86%DB%8C%D9%88%DA%BA+%DA%A9%DB%8C+%D9%85%D8%B3%D8%AC%D8%AF%E2%80%AD/data=!4m7!3m6!1s0x396db38960829e03:0x935fe2208e945c14!8m2!3d26.9212625!4d75.7776259!16s%2Fg%2F11gbktrmss!19sChIJA56CYImzbTkRFFyUjiDiX5M?authuser=0&hl=en&rclk=1,"26.921262499999997,75.77762589999999"
"Badi Masjid, Madarsa Jamia Al_Uloom",Mosque,"Badi Masjid, Madarsa Jamia Al_Uloom, 237, near Spoton logistics Pvt Ltd, Jalupura, Jaipur, Rajasthan 302001",Jalupura,"237, near Spoton logistics Pvt Ltd",Jaipur,302001,Rajasthan,IN,"https://www.google.com/maps/place/Badi+Masjid,+Madarsa+Jamia+Al_Uloom/data=!4m7!3m6!1s0x396db15578a134f1:0x47e508c6a958fc11!8m2!3d26.9228354!4d75.8073772!16s%2Fg%2F11g8bbw5z6!19sChIJ8TSheFWxbTkREfxYqcYI5Uc?authuser=0&hl=en&rclk=1","26.9228354,75.80737719999999"
AYESHA MASJID.,Mosque,"AYESHA MASJID., 126, Anaj Mandi Rd, Anaj Mandi, Transport Nagar, Jaipur, Rajasthan 302007","Anaj Mandi, Transport Nagar","126, Anaj Mandi Rd",Jaipur,302007,Rajasthan,IN,https://www.google.com/maps/place/AYESHA+MASJID./data=!4m7!3m6!1s0x396db6d08c7f0c23:0x3e9e07619bee0a03!8m2!3d26.9135432!4d75.8450503!16s%2Fg%2F11c709_ggj!19sChIJIwx_jNC2bTkRAwrum2EHnj4?authuser=0&hl=en&rclk=1,"26.9135432,75.8450503"
Lal Masjid,Mosque,"H no, Lal Masjid, lal masjid, Bilo Chan Mohalla, billochian mohalla, Jaipur, Rajasthan 302002","Bilo Chan Mohalla, billochian mohalla","H no, lal masjid",Jaipur,302002,Rajasthan,IN,https://www.google.com/maps/place/Lal+Masjid/data=!4m7!3m6!1s0x396db1a2680c6d13:0xb9ac4b54752aa20c!8m2!3d26.9352488!4d75.8447515!16s%2Fg%2F11rqzbqwrq!19sChIJE20MaKKxbTkRDKIqdVRLrLk?authuser=0&hl=en&rclk=1,"26.9352488,75.8447515"
Masjid Mominan,Mosque,"WR9V+92R Masjid Mominan, Adam Shah AlayhirRaHmah, near Dargah Hazrat, Ghat Gate, Surajpole Bazar, Pink City, Jaipur, Rajasthan 302003","Ghat Gate, Surajpole Bazar, Pink City","WR9V+92R, Adam Shah AlayhirRaHmah, near Dargah Hazrat",Jaipur,302003,Rajasthan,IN,https://www.google.com/maps/place/Masjid+Mominan/data=!4m7!3m6!1s0x396db6d21aaefae5:0xc181a8b64e37cfbe!8m2!3d26.9184929!4d75.8425244!16s%2Fg%2F11clyt02yq!19sChIJ5fquGtK2bTkRvs83TraogcE?authuser=0&hl=en&rclk=1,"26.9184929,75.8425244"
Jinsi Masjid - jnsy msjd,Mosque,"WR5F+M92 Jinsi Masjid - jnsy msjd, Moti Doongri Rd, Bardia Colony, Kailash Puri, Adarsh Nagar, Jaipur, Rajasthan 302004","Bardia Colony, Kailash Puri, Adarsh Nagar","WR5F+M92, Moti Doongri Rd",Jaipur,302004,Rajasthan,IN,https://www.google.com/maps/place/Jinsi+Masjid+-+%D8%AC%D9%86%D8%B3%DB%8C+%D9%85%D8%B3%D8%AC%D8%AF%E2%80%AD/data=!4m7!3m6!1s0x396db6ba1025118d:0x471dd40b9aead505!8m2!3d26.909145!4d75.8234008!16s%2Fg%2F11c5xtp7c9!19sChIJjRElELq2bTkRBdXqmgvUHUc?authuser=0&hl=en&rclk=1,"26.909145,75.8234008"
Central Park Mosque,Mosque,"WR36+567 Central Park Mosque, Rambagh, Jaipur, Rajasthan 302007",Rambagh,WR36+567,Jaipur,302007,Rajasthan,IN,https://www.google.com/maps/place/Central+Park+Mosque/data=!4m7!3m6!1s0x396db7214c85ba25:0xb06d21dba6a32c09!8m2!3d26.9034318!4d75.809565!16s%2Fg%2F11qbs8zf89!19sChIJJbqFTCG3bTkRCSyjptshbbA?authuser=0&hl=en&rclk=1,"26.9034318,75.80956499999999"
Masjid Jinnatan,Mosque,"Masjid Jinnatan, 180, Bardia Colony, Kailash Puri, Adarsh Nagar, Jaipur, Rajasthan 302007","Bardia Colony, Kailash Puri, Adarsh Nagar",180,Jaipur,302007,Rajasthan,IN,https://www.google.com/maps/place/Masjid+Jinnatan/data=!4m7!3m6!1s0x396db6b08308f20b:0x313160118830e599!8m2!3d26.9101826!4d75.822029!16s%2Fg%2F11c2n9xtnt!19sChIJC_IIg7C2bTkRmeUwiBFgMTE?authuser=0&hl=en&rclk=1,"26.9101826,75.822029"
"Madina Masjid, Dwarka Puri, Goner Road, Kho Nagoriyan, Jaipur",Mosque,"Madina Masjid, Dwarka Puri, Goner Road, Kho Nagoriyan, Jaipur, 52, Ghati Karolan, Jaipur, Rajasthan 303012",Ghati Karolan,52,Jaipur,303012,Rajasthan,IN,"https://www.google.com/maps/place/Madina+Masjid,+Dwarka+Puri,+Goner+Road,+Kho+Nagoriyan,+Jaipur/data=!4m7!3m6!1s0x396db798cda65957:0x9cf31f765f3d8f9c!8m2!3d26.875167!4d75.8786855!16s%2Fg%2F11ddx6ssdd!19sChIJV1mmzZi3bTkRnI89X3Yf85w?authuser=0&hl=en&rclk=1","26.875166999999998,75.8786855"
Sabuddin Kha Mosque (masjid) Kho Nagoriyan,Mosque,"Sabuddin Kha Mosque (masjid) Kho Nagoriyan, Badli ki dhani, Jagatpura Rd, Kho Nagoriyan, Ghati Karolan, Jaipur, Rajasthan 302031","Kho Nagoriyan, Ghati Karolan","Badli ki dhani, Jagatpura Rd",Jaipur,302031,Rajasthan,IN,https://www.google.com/maps/place/Sabuddin+Kha+Mosque+%28masjid%29+Kho+Nagoriyan/data=!4m7!3m6!1s0x396db775f432c237:0x596b8ca62c3df739!8m2!3d26.8673504!4d75.8719756!16s%2Fg%2F11f6ywlh_k!19sChIJN8Iy9HW3bTkROfc9LKaMa1k?authuser=0&hl=en&rclk=1,"26.8673504,75.8719756"
Pachrang Patti Masjid,Mosque,"Pachrang Patti Masjid, Mohalla, Panch Rang Patti, Bas Badanpura, Jaipur, Rajasthan 302002","Panch Rang Patti, Bas Badanpura",Mohalla,Jaipur,302002,Rajasthan,IN,https://www.google.com/maps/place/Pachrang+Patti+Masjid/data=!4m7!3m6!1s0x396db1d1a33ccf2b:0x697962578a3555a5!8m2!3d26.9305501!4d75.8421228!16s%2Fg%2F11gy9z65p_!19sChIJK888o9GxbTkRpVU1ildieWk?authuser=0&hl=en&rclk=1,"26.930550099999998,75.8421228"
Noorani Masjid,Mosque,"Noorani Masjid, Kama Nagar , Lalwas Ka Bandha Ramgarh Road, Alwar - Jaipur Rd, Kunda, Amer, Jaipur, Rajasthan 302027","Kunda, Amer","Kama Nagar , Lalwas Ka Bandha Ramgarh Road, Alwar - Jaipur Rd",Jaipur,302027,Rajasthan,IN,https://www.google.com/maps/place/Noorani+Masjid/data=!4m7!3m6!1s0x396db088c02a4fad:0x21cfeded0b4d0ce3!8m2!3d26.9699599!4d75.8866201!16s%2Fg%2F11b8_rj65r!19sChIJrU8qwIiwbTkR4wxNC-3tzyE?authuser=0&hl=en&rclk=1,"26.9699599,75.8866201"
Masjid (Mosque),Mosque,"Masjid (Mosque), 3455, Mohalla Handipura, Ramchandra Chaukari, Jaipur, Rajasthan 302002","Mohalla Handipura, Ramchandra Chaukari",3455,Jaipur,302002,Rajasthan,IN,https://www.google.com/maps/place/Masjid+%28Mosque%29/data=!4m7!3m6!1s0x396db1346936965b:0xeccaf0ce5815c837!8m2!3d26.9266391!4d75.8348485!16s%2Fg%2F11c6v5_s2z!19sChIJW5Y2aTSxbTkRN8gVWM7wyuw?authuser=0&hl=en&rclk=1,"26.9266391,75.83484849999999"
Masjid Aksa Pratap Nagar sec 35,Mosque,"Masjid Aksa Pratap Nagar sec 35, 35/327,328, Sector 35, Sanganer, Bambala, Jaipur, Rajasthan 302029","Sector 35, Sanganer, Bambala","35/327,328",Jaipur,302029,Rajasthan,IN,https://www.google.com/maps/place/Masjid+Aksa+Pratap+Nagar+sec+35/data=!4m7!3m6!1s0x396dcb870634a111:0x4731c455bccb211d!8m2!3d26.8005061!4d75.7994457!16s%2Fg%2F11n72x598_!19sChIJEaE0BofLbTkRHSHLvFXEMUc?authuser=0&hl=en&rclk=1,"26.8005061,75.79944569999999"
Miskinshah Masjid,Mosque,"WR6P+7Q8 Miskinshah Masjid, Ghat Gate, Agra Rd, Jaipur, Rajasthan 302003","Amratpuri, Transport Nagar","WR6P+7Q8, Ghat Gate, Agra Rd",Jaipur,302003,Rajasthan,IN,https://www.google.com/maps/place/Miskinshah+Masjid/data=!4m7!3m6!1s0x396db6c5eb06fbbd:0x662e8327e482dfbc!8m2!3d26.9106654!4d75.83695!16s%2Fg%2F1ydpv9lng!19sChIJvfsG68W2bTkRvN-C5CeDLmY?authuser=0&hl=en&rclk=1,"26.9106654,75.83695"
Masjid Vaishali Nagar Jaipur,Mosque,"Masjid Vaishali Nagar Jaipur, 39, Lalarpura, Jaipur, Rajasthan 302034",Lalarpura,39,Jaipur,302034,Rajasthan,IN,https://www.google.com/maps/place/Masjid+Vaishali+Nagar+Jaipur/data=!4m7!3m6!1s0x396db5916724a1cf:0x6cbb67b2bfe7e89c!8m2!3d26.8990101!4d75.7147728!16s%2Fg%2F11rptc7njy!19sChIJz6EkZ5G1bTkRnOjnv7Jnu2w?authuser=0&hl=en&rclk=1,"26.899010099999998,75.71477279999999"
Islamiya Masjid,Mosque,"RQ2X+6Q9 Islamiya Masjid, Sector 35, Sanganer, Pratap Nagar, Jaipur, Rajasthan 302022","Sector 35, Sanganer, Pratap Nagar",RQ2X+6Q9,Jaipur,302022,Rajasthan,IN,https://www.google.com/maps/place/Islamiya+Masjid/data=!4m7!3m6!1s0x396dcb1958c14b09:0xf3763a208cacc381!8m2!3d26.8005321!4d75.7994705!16s%2Fg%2F11pzy8zgc3!19sChIJCUvBWBnLbTkRgcOsjCA6dvM?authuser=0&hl=en&rclk=1,"26.800532099999998,75.7994705"
Moti Masjid,Mosque,"Moti Masjid, 19, Raval Gi Ka Banda, Hasanpura, Jaipur, Rajasthan 302006","Raval Gi Ka Banda, Hasanpura",19,Jaipur,302006,Rajasthan,IN,https://www.google.com/maps/place/Moti+Masjid/data=!4m7!3m6!1s0x396db388a8d3ed2f:0xe9051740e6b26d3a!8m2!3d26.9216!4d75.772379!16s%2Fg%2F11clysz344!19sChIJL-3TqIizbTkROm2y5kAXBek?authuser=0&hl=en&rclk=1,"26.921599999999998,75.772379"
Makka Masjid mkkaa msjid,Mosque,"WQ7F+95V Makka Masjid mkkaa msjid, Unnamed Road, Shiv Colony, Hatwara, Lakshmi Nagar, Jaipur, Rajasthan 302006","Shiv Colony, Hatwara, Lakshmi Nagar","WQ7F+95V, Unnamed Road",Jaipur,302006,Rajasthan,IN,https://www.google.com/maps/place/Makka+Masjid+%E0%A4%AE%E0%A4%95%E0%A5%8D%E0%A4%95%E0%A4%BE+%E0%A4%AE%E0%A4%B8%E0%A5%8D%E0%A4%9C%E0%A4%BF%E0%A4%A6/data=!4m7!3m6!1s0x396db5a70cee6fc3:0x5d34ea5773b59011!8m2!3d26.9134994!4d75.7729372!16s%2Fg%2F11h3ldnx6l!19sChIJw2_uDKe1bTkREZC1c1fqNF0?authuser=0&hl=en&rclk=1,"26.9134994,75.7729372"
Masoudi Masjid Sunni,Mosque,"Masoudi Masjid Sunni, 75A, Laxmi Nagar III, Jagannath Puri, Gopi Nagar, Jhotwara, Jaipur, Rajasthan 302012","Laxmi Nagar III, Jagannath Puri, Gopi Nagar, Jhotwara",75A,Jaipur,302012,Rajasthan,IN,https://www.google.com/maps/place/Masoudi+Masjid+Sunni/data=!4m7!3m6!1s0x396db31cefad85e9:0x7ebf9e2028cb00dc!8m2!3d26.949211!4d75.744202!16s%2Fg%2F11t28bxxsc!19sChIJ6YWt7xyzbTkR3ADLKCCev34?authuser=0&hl=en&rclk=1,"26.949211,75.744202"
Eadgah masjid,Mosque,"Eadgah masjid, 27, Ganga Vihar Colony, Hanuman Nagar, Sanganer, Jaipur, Rajasthan 302029","Ganga Vihar Colony, Hanuman Nagar, Sanganer",27,Jaipur,302029,Rajasthan,IN,https://www.google.com/maps/place/Eadgah+masjid/data=!4m7!3m6!1s0x396dcbd1814dc0d3:0xaf4d5c8a42d321be!8m2!3d26.8095605!4d75.7803603!16s%2Fg%2F11pg9wjt86!19sChIJ08BNgdHLbTkRviHTQopcTa8?authuser=0&hl=en&rclk=1,"26.8095605,75.7803603"
Ahangran Masjid,Mosque,"WR9M+3GQ Ahangran Masjid, Ghat Gate Road, Ramganj bazar Jaipur, Ghat Darwaza Bazar Rd, Ghat Darwaza, Jaipur, Rajasthan 302003","Ghat Gate, Ghat Gate Bazar, Ghat Darwaza","WR9M+3GQ, Ghat Gate Road, Ramganj bazar Jaipur, Ghat Darwaza Bazar Rd",Jaipur,302003,Rajasthan,IN,https://www.google.com/maps/place/Ahangran+Masjid/data=!4m7!3m6!1s0x396db6cbc542199f:0x3e526b231108a18c!8m2!3d26.9177244!4d75.8338514!16s%2Fg%2F11b8_vc3kz!19sChIJnxlCxcu2bTkRjKEIESNrUj4?authuser=0&hl=en&rclk=1,"26.917724399999997,75.8338514"
Jama Masjid,Mosque,"Jama Masjid, main road, 335702, 10 Sarkari, Rajasthan","Panch Batti, C Scheme, Ashok Nagar","main road, 335702","10 Sarkari, Jaipur",,Rajasthan,IN,https://www.google.com/maps/place/Jama+Masjid/data=!4m7!3m6!1s0x396db403d0ffa843:0xf493591dacc9be38!8m2!3d26.9132858!4d75.8034465!16s%2Fg%2F11g8_2l40v!19sChIJQ6j_0AO0bTkROL7JrB1Zk_Q?authuser=0&hl=en&rclk=1,"26.913285799999997,75.80344649999999"
Masjid Hazrat Maulana Ziauddin Sahab,Mosque,"Masjid Hazrat Maulana Ziauddin Sahab, 4407, Mohalla Handipura, Ramchandra Chaukari, Jaipur, Rajasthan 302002","Mohalla Handipura, Ramchandra Chaukari",4407,Jaipur,302002,Rajasthan,IN,https://www.google.com/maps/place/Masjid+Hazrat+Maulana+Ziauddin+Sahab/data=!4m7!3m6!1s0x396db1f31e61f6fb:0x32a3cc11036bc943!8m2!3d26.926228!4d75.835247!16s%2Fg%2F11fpkkmd07!19sChIJ-_ZhHvOxbTkRQ8lrAxHMozI?authuser=0&hl=en&rclk=1,"26.926228,75.835247"
Jama Masjid,Mosque,"VMFX+9JP Jama Masjid, Bhakrota, Jaipur, Rajasthan 302026",Bhakrota,VMFX+9JP,Jaipur,302026,Rajasthan,IN,https://www.google.com/maps/place/Jama+Masjid/data=!4m7!3m6!1s0x396c4b8a3a3c5875:0xb109d77e57655ef1!8m2!3d26.8734666!4d75.6990926!16s%2Fg%2F11jsg8njsx!19sChIJdVg8OopLbDkR8V5lV37XCbE?authuser=0&hl=en&rclk=1,"26.8734666,75.6990926"
Masjid Kheradiyan,Mosque,"Masjid Kheradiyan, KGB Ka Rasta, 5TH CROSSING, Johari Bazar, Jaipur, Rajasthan 302007","5TH CROSSING, Johari Bazar",KGB Ka Rasta,Jaipur,,Rajasthan,IN,https://www.google.com/maps/place/Masjid+Kheradiyan/data=!4m7!3m6!1s0x396db723e58fc2cd:0xf799ef80634bdcf3!8m2!3d26.9164721!4d75.8310726!16s%2Fg%2F11tk03cgsw!19sChIJzcKP5SO3bTkR89xLY4Dvmfc?authuser=0&hl=en&rclk=1,"26.9164721,75.8310726"
Mosque msjid,Mosque,"WRFF+76G Mosque msjid, Tripolia Bazar, Biseswarji, Jaipur, Rajasthan 302007","Tripolia Bazar, Biseswarji","WRFF+76G, Tripolia Bazar",Jaipur,302007,Rajasthan,IN,https://www.google.com/maps/place/Mosque+%E0%A4%AE%E0%A4%B8%E0%A5%8D%E0%A4%9C%E0%A4%BF%E0%A4%A6/data=!4m7!3m6!1s0x396db11955d52fe9:0xde4cba211966ecc6!8m2!3d26.9231996!4d75.8230666!16s%2Fg%2F11lrrx0wpt!19sChIJ6S_VVRmxbTkRxuxmGSG6TN4?authuser=0&hl=en&rclk=1,"26.9231996,75.82306659999999"
Masjid MI Road,Mosque,"WR88+MP6 Masjid MI Road, Mirza Ismail Rd, Panch Batti, Jayanti Market, Ashok Nagar, Jaipur, Rajasthan 302007","Panch Batti, Jayanti Market, Ashok Nagar","WR88+MP6, Mirza Ismail Rd",Jaipur,,Rajasthan,IN,https://www.google.com/maps/place/Masjid+MI+Road/data=!4m7!3m6!1s0x396db726517920ad:0x1fe3bce221e5d1bf!8m2!3d26.9166647!4d75.8167697!16s%2Fg%2F11t16wlgy1!19sChIJrSB5USa3bTkRv9HlIeK84x8?authuser=0&hl=en&rclk=1,"26.9166647,75.8167697"
moazzama masjid Nahri Ka Naka,Mosque,"WRR6+2P9 moazzama masjid Nahri Ka Naka, Bade Park Ke aage, Bandha Basti, Nahari Ka Naka, Jaipur, Rajasthan 302007","Bandha Basti, Nahari Ka Naka",WRR6+2P9 Bade Park Ke aage,Jaipur,,Rajasthan,IN,https://www.google.com/maps/place/moazzama+masjid+Nahri+Ka+Naka/data=!4m7!3m6!1s0x396db129afd2d72b:0x14ccb0f81103fb40!8m2!3d26.9400482!4d75.8118721!16s%2Fg%2F11jynk2bjd!19sChIJK9fSrymxbTkRQPsDEfiwzBQ?authuser=0&hl=en&rclk=1,"26.9400482,75.8118721"
Masjid E Hassan,Mosque,"Masjid E Hassan, 200 ft, Kalwar Rd, 302012","Jagannath Puri, Udyog Nagar, Jhotwara","200 ft, Kalwar Rd",Jaipur,302012,Rajasthan,IN,https://www.google.com/maps/place/Masjid+E+Hassan/data=!4m7!3m6!1s0x396db3e92add3553:0xd4a976a542b825f4!8m2!3d26.9494785!4d75.7467017!16s%2Fg%2F11hgdpc5jz!19sChIJUzXdKumzbTkR9CW4QqV2qdQ?authuser=0&hl=en&rclk=1,"26.949478499999998,75.7467017"
Munavrah Masjid sheikh manzil,Mosque,"Munavrah Masjid sheikh manzil, Khalil ka chouraha, Nahari Ka Naka, Shastri Nagar, Jaipur, Rajasthan 302016",Shastri Nagar,"Khalil ka chouraha, Nahari Ka Naka",Jaipur,302016,Rajasthan,IN,https://www.google.com/maps/place/Munavrah+Masjid+sheikh+manzil/data=!4m7!3m6!1s0x396db19647f4573b:0x10f6caf8f2cca65d!8m2!3d26.9343131!4d75.8077566!16s%2Fg%2F11fjy3_mg2!19sChIJO1f0R5axbTkRXabM8vjK9hA?authuser=0&hl=en&rclk=1,"26.934313099999997,75.80775659999999"
Masjid,Mosque,"Masjid, 4, Ramesh Marg, C Scheme, Ashok Nagar, Jaipur, Rajasthan 302001","C Scheme, Ashok Nagar","4, Ramesh Marg",Jaipur,302001,Rajasthan,IN,https://www.google.com/maps/place/Masjid/data=!4m7!3m6!1s0x396db5bab0fc154f:0x14cffe626992fa1a!8m2!3d26.9058702!4d75.7945119!16s%2Fg%2F11kq9dgwtb!19sChIJTxX8sLq1bTkRGvqSaWL-zxQ?authuser=0&hl=en&rclk=1,"26.9058702,75.7945119"
Taj Masjid taaj msjid,Mosque,"Taj Masjid taaj msjid, 562, Hida Ki Mori, Hiranwal Mohalla, Topkhana Hazuri, Jaipur, Rajasthan 302004","Hida Ki Mori, Hiranwal Mohalla, Topkhana Hazuri",562,Jaipur,302004,Rajasthan,IN,https://www.google.com/maps/place/Taj+Masjid+%E0%A4%A4%E0%A4%BE%E0%A4%9C+%E0%A4%AE%E0%A4%B8%E0%A5%8D%E0%A4%9C%E0%A4%BF%E0%A4%A6/data=!4m7!3m6!1s0x396db7a163ad7b2f:0x8fabca9b5d772cc8!8m2!3d26.9184511!4d75.8361979!16s%2Fg%2F11sfrw_341!19sChIJL3utY6G3bTkRyCx3XZvKq48?authuser=0&hl=en&rclk=1,"26.9184511,75.8361979"
"Julahon ki masjid,, balji ki kothi ka rasta, ghat gate, jaipur",Mosque,"Julahon ki masjid,, balji ki kothi ka rasta, ghat gate, jaipur, Julahon ki masjid, Ghat Darwaza Bazar Rd, Balji Ki Kothi Ka Rasta, Ghat Gate, Amratpuri, Jaipur","Ghat Gate, Amratpuri, Transport Nagar","Julahon ki masjid, Ghat Darwaza Bazar Rd, Balji Ki Kothi Ka Rasta",Jaipur,,Rajasthan,IN,"https://www.google.com/maps/place/Julahon+ki+masjid,,+balji+ki+kothi+ka+rasta,+ghat+gate,+jaipur/data=!4m7!3m6!1s0x396db7abc6f434b5:0xda7838348411b3ae!8m2!3d26.9140534!4d75.8356404!16s%2Fg%2F11rv3w3n4t!19sChIJtTT0xqu3bTkRrrMRhDQ4eNo?authuser=0&hl=en&rclk=1","26.9140534,75.8356404"
MASJID ABU BAKR (R.A),Mosque,"MASJID ABU BAKR (R.A), 586, Ganpati Nagar, Jaipur, Rajasthan 302006",Ganpati Nagar,586,Jaipur,302006,Rajasthan,IN,https://www.google.com/maps/place/MASJID+ABU+BAKR+%28R.A%29/data=!4m7!3m6!1s0x396db5736963daff:0x57048ce8e51d3430!8m2!3d26.9137757!4d75.7836432!16s%2Fg%2F11rw_gpbtk!19sChIJ_9pjaXO1bTkRMDQd5eiMBFc?authuser=0&hl=en&rclk=1,"26.9137757,75.7836432"
