name,main_category,address,address_ward,address_street,address_city,address_postal_code,address_state,address_country_code,link,coordinates
Masjid Usman-e-Gani,Mosque,"XG3V+QC7 Masjid Usman-e-Gani, Mohalla Madan Pura, Mau, Uttar Pradesh 275101",Mohalla Madan Pura,XG3V+QC7,Mau,275101,Uttar Pradesh,IN,https://www.google.com/maps/place/Masjid+Usman-e-Gani/data=!4m7!3m6!1s0x39918b956edd1f95:0xd9a9b36e66412153!8m2!3d25.9540492!4d83.5441043!16s%2Fg%2F11smvd1wp2!19sChIJlR_dbpWLkTkRUyFBZm6zqdk?authuser=0&hl=en&rclk=1,"25.9540492,83.5441043"
Jama Masjid Sabree,Mosque,"WHP4+FPV Jama Masjid Sabree, pahadpura road fakruddinpura, Mau",Chitanpura Bagh,"WHP4+FPV, pahadpura road fakruddinpura",Mau,,Uttar Pradesh,IN,https://www.google.com/maps/place/Jama+Masjid+Sabree/data=!4m7!3m6!1s0x39918afb0e9ea14f:0xff9b8df23894e3b6!8m2!3d25.9362262!4d83.5567833!16s%2Fg%2F11bttpld9g!19sChIJT6GeDvuKkTkRtuOUOPKNm_8?authuser=0&hl=en&rclk=1,"25.9362262,83.55678329999999"
Bilal Masjid,Mosque,"WHM6+M4W Bilal Masjid, Munshi Pura, Mau, Uttar Pradesh 275101",Munshi Pura,WHM6+M4W,Mau,275101,Uttar Pradesh,IN,https://www.google.com/maps/place/Bilal+Masjid/data=!4m7!3m6!1s0x39918aef00000001:0x9cdf55c1ce9b2d8b!8m2!3d25.9342116!4d83.561887!16s%2Fg%2F11clycnyxl!19sChIJAQAAAO-KkTkRiy2bzsFV35w?authuser=0&hl=en&rclk=1,"25.934211599999998,83.561887"
JAMA MASJID SHAHI (jm` msjd shhy),Mosque,"XH24+5F5 JAMA MASJID SHAHI (jm` msjd shhy), Shahi Katra Rd, Keyari Tola, Astupura, Mau, Uttar Pradesh 275101","Keyari Tola, Astupura","XH24+5F5, Shahi Katra Rd",Mau,275101,Uttar Pradesh,IN,https://www.google.com/maps/place/JAMA+MASJID+SHAHI+%28%D8%AC%D8%A7%D9%85%D8%B9+%D9%85%D8%B3%D8%AC%D8%AF+%D8%B4%D8%A7%DB%81%DB%8C%29%E2%80%AD/data=!4m7!3m6!1s0x39918a56c75c067d:0x110c53e06235ec2f!8m2!3d25.9503905!4d83.5562216!16s%2Fg%2F1ptvzgs3_!19sChIJfQZcx1aKkTkRL-w1YuBTDBE?authuser=0&hl=en&rclk=1,"25.950390499999997,83.5562216"
Jama Masjid Malese Mau,Mosque,"R2J8+57Q Jama Masjid Malese Mau, Sector 6, Gomti Nagar, Malesemau, Lucknow, Uttar Pradesh 226010","Sector 6, Gomti Nagar",R2J8+57Q,"Malesemau, Lucknow",226010,Uttar Pradesh,IN,https://www.google.com/maps/place/Jama+Masjid+Malese+Mau/data=!4m7!3m6!1s0x399be31a3dd4acf3:0x52e4d67c6422f1f4!8m2!3d26.8304531!4d81.0157458!16s%2Fg%2F11h9z6ymg8!19sChIJ86zUPRrjmzkR9PEiZHzW5FI?authuser=0&hl=en&rclk=1,"26.8304531,81.01574579999999"
Badi Masjid,Mosque,"WHR5+QHR Badi Masjid, Paharpura, Mau, Uttar Pradesh 275101",Paharpura,WHR5+QHR,Mau,275101,Uttar Pradesh,IN,https://www.google.com/maps/place/Badi+Masjid/data=!4m7!3m6!1s0x39918af9b7f37eab:0x143605b2b3a37d68!8m2!3d25.9419985!4d83.5589054!16s%2Fg%2F11bv5w8tk8!19sChIJq37zt_mKkTkRaH2js7IFNhQ?authuser=0&hl=en&rclk=1,"25.9419985,83.5589054"
"Mirchi Masjid, Mau",Mosque,"WHW6+P43 Mirchi Masjid, Mau, Sadar Bazar Rd, Keyari Tola, Astupura, Mau, Uttar Pradesh 275101","Keyari Tola, Astupura","WHW6+P43, Sadar Bazar Rd",Mau,275101,Uttar Pradesh,IN,"https://www.google.com/maps/place/Mirchi+Masjid,+Mau/data=!4m7!3m6!1s0x39918a580581dbe5:0xfddcf523da80197a!8m2!3d25.9467635!4d83.5602847!16s%2Fg%2F11c5gd85nw!19sChIJ5duBBViKkTkRehmA2iP13P0?authuser=0&hl=en&rclk=1","25.9467635,83.5602847"
Masjid Ahle Hadees,Mosque,"XG5R+7CH Masjid Ahle Hadees, Mohalla Domanpura, Aurangabad, Mau, Uttar Pradesh 275101","Mohalla Domanpura, Aurangabad",XG5R+7CH,Mau,275101,Uttar Pradesh,IN,https://www.google.com/maps/place/Masjid+Ahle+Hadees/data=!4m7!3m6!1s0x39918bb04825ae5f:0x185d5de406b4b7b8!8m2!3d25.9581895!4d83.5411197!16s%2Fg%2F11fylqpll8!19sChIJX64lSLCLkTkRuLe0BuRdXRg?authuser=0&hl=en&rclk=1,"25.9581895,83.5411197"
Ibrahimpura Masjid,Mosque,"WHV6+HP4 Ibrahimpura Masjid, Shaikh Damu Pura, Mau, Uttar Pradesh 275101",Shaikh Damu Pura,WHV6+HP4,Mau,275101,Uttar Pradesh,IN,https://www.google.com/maps/place/Ibrahimpura+Masjid/data=!4m7!3m6!1s0x39918af7bc322919:0x77241318b05c6d26!8m2!3d25.9438881!4d83.5618293!16s%2Fg%2F12638qx6d!19sChIJGSkyvPeKkTkRJm1csBgTJHc?authuser=0&hl=en&rclk=1,"25.9438881,83.5618293"
MARKAZ MASJID KEYARI TOLA PURA NIZAM MAU,Mosque,"WHX4+XXV MARKAZ MASJID KEYARI TOLA PURA NIZAM MAU, Shahi Katra Rd, Keyari Tola, Astupura, Mau, Uttar Pradesh 275101","Keyari Tola, Astupura","WHX4+XXV, Shahi Katra Rd",Mau,275101,Uttar Pradesh,IN,https://www.google.com/maps/place/MARKAZ+MASJID+KEYARI+TOLA+PURA+NIZAM+MAU/data=!4m7!3m6!1s0x39918a56e09c6a3f:0xcaafc38174114990!8m2!3d25.9499848!4d83.5574251!16s%2Fg%2F11c49_kkk1!19sChIJP2qc4FaKkTkRkEkRdIHDr8o?authuser=0&hl=en&rclk=1,"25.9499848,83.5574251"
Vishwanath Pura Masjid,Mosque,"Vishwanath Pura Masjid, Vishwanath Pura, Mohalla Domanpura, Mirzahadi Pura, Mau, Uttar Pradesh 275101","Mohalla Domanpura, Mirzahadi Pura",Vishwanath Pura,Mau,275101,Uttar Pradesh,IN,https://www.google.com/maps/place/Vishwanath+Pura+Masjid/data=!4m7!3m6!1s0x39918bb2ee70de95:0x13463dd8724fb65!8m2!3d25.958871!4d83.5477833!16s%2Fg%2F11f4_4x81j!19sChIJld5w7rKLkTkRZfskh91jNAE?authuser=0&hl=en&rclk=1,"25.958871,83.54778329999999"
"Yateem Khana ,Masjid",Mosque,"WHH7+WMM Yateem Khana ,Masjid, Munshi Pura, Mau, Uttar Pradesh 275101",Munshi Pura,WHH7+WMM,Mau,275101,Uttar Pradesh,IN,"https://www.google.com/maps/place/Yateem+Khana+,Masjid/data=!4m7!3m6!1s0x39918aee9552a29f:0x60752e828aa7b552!8m2!3d25.9298486!4d83.5641719!16s%2Fg%2F11c6f8b0_v!19sChIJn6JSle6KkTkRUrWnioIudWA?authuser=0&hl=en&rclk=1","25.9298486,83.56417189999999"
Sonya Baada Masjid,Mosque,"WHV5+PVW Sonya Baada Masjid, Qasimpura, Raghunath Pura, Mau, Uttar Pradesh 275101","Qasimpura, Raghunath Pura",WHV5+PVW,Mau,275101,Uttar Pradesh,IN,https://www.google.com/maps/place/Sonya+Baada+Masjid/data=!4m7!3m6!1s0x39918af8182e0ee7:0x112fa87c618ab969!8m2!3d25.9443739!4d83.559707!16s%2Fg%2F1263529qf!19sChIJ5w4uGPiKkTkRabmKYXyoLxE?authuser=0&hl=en&rclk=1,"25.9443739,83.559707"
Jama Masjid - Ahle Hadees,Mosque,"WHX4+MF6 Jama Masjid - Ahle Hadees, Kyari Tola Rd, Keyari Tola, Chriayakot, Mau, Uttar Pradesh 275101","Keyari Tola, Chriayakot","WHX4+MF6, Kyari Tola Rd",Mau,275101,Uttar Pradesh,IN,https://www.google.com/maps/place/Jama+Masjid+-+Ahle+Hadees/data=!4m7!3m6!1s0x39918a56920766f3:0xf02af87ba4c23d66!8m2!3d25.9491651!4d83.5561555!16s%2Fg%2F11c3sqvb78!19sChIJ82YHklaKkTkRZj3CpHv4KvA?authuser=0&hl=en&rclk=1,"25.9491651,83.5561555"
Fatak Masjid,Mosque,"XH42+CJ2 Fatak Masjid, Aurangabad, Mau, Uttar Pradesh 275101",Aurangabad,XH42+CJ2,Mau,275101,Uttar Pradesh,IN,https://www.google.com/maps/place/Fatak+Masjid/data=!4m7!3m6!1s0x39918a5291816647:0x412bf9988366ad33!8m2!3d25.9560141!4d83.5515028!16s%2Fg%2F1q6n2y76d!19sChIJR2aBkVKKkTkRM61mg5j5K0E?authuser=0&hl=en&rclk=1,"25.956014099999997,83.5515028"
jama masjid ghasipura,Mosque,"WHR5+6QF jama masjid ghasipura, Paharpura, Mau, Uttar Pradesh 275101",Paharpura,WHR5+6QF,Mau,275101,Uttar Pradesh,IN,https://www.google.com/maps/place/jama+masjid+ghasipura/data=!4m7!3m6!1s0x39918af9ee23b2f3:0x1f87fb298ee617bb!8m2!3d25.9405559!4d83.5594066!16s%2Fg%2F11bxdzb0jc!19sChIJ87Ij7vmKkTkRuxfmjin7hx8?authuser=0&hl=en&rclk=1,"25.9405559,83.5594066"
Umar Masjid,Mosque,"Umar Masjid, 295, Raghunath Pura, Mau, Uttar Pradesh 275101",Raghunath Pura,295,Mau,275101,Uttar Pradesh,IN,https://www.google.com/maps/place/Umar+Masjid/data=!4m7!3m6!1s0x39918af8db7d621b:0xd0f5e07ab467b66b!8m2!3d25.9431727!4d83.5559634!16s%2Fg%2F11c3k4z_jd!19sChIJG2J92_iKkTkRa7ZntHrg9dA?authuser=0&hl=en&rclk=1,"25.943172699999998,83.5559634"
Dhobia Imli Masjid,Mosque,"WHW6+H25 Dhobia Imli Masjid, 245, Dhobia Imli Rd, Qasimpura, Raghunath Pura, Mau, Uttar Pradesh 275101","Qasimpura, Raghunath Pura","WHW6+H25, 245, Dhobia Imli Rd",Mau,275101,Uttar Pradesh,IN,https://www.google.com/maps/place/Dhobia+Imli+Masjid/data=!4m7!3m6!1s0x39918a57ff3255d3:0xe0588924fadbd1b9!8m2!3d25.9462905!4d83.560156!16s%2Fg%2F11c54b_59n!19sChIJ01Uy_1eKkTkRudHb-iSJWOA?authuser=0&hl=en&rclk=1,"25.9462905,83.56015599999999"
Jama Masjid,Mosque,"XG4X+CPX Jama Masjid, Mirzahadi Pura, Mau, Uttar Pradesh 275101",Mirzahadi Pura,XG4X+CPX,Mau,275101,Uttar Pradesh,IN,https://www.google.com/maps/place/Jama+Masjid/data=!4m7!3m6!1s0x39918bad4e70325f:0x98e815eccb70f204!8m2!3d25.9561218!4d83.5493637!16s%2Fg%2F11g8kr9ckr!19sChIJXzJwTq2LkTkRBPJwy-wV6Jg?authuser=0&hl=en&rclk=1,"25.9561218,83.5493637"
Masjid Salfi,Mosque,"WHX8+4RH Masjid Salfi, Bandha Rd, Hatthi Madari, Chriayakot, Mau, Uttar Pradesh 275101","Hatthi Madari, Chriayakot","WHX8+4RH, Bandha Rd",Mau,275101,Uttar Pradesh,IN,https://www.google.com/maps/place/Masjid+Salfi/data=!4m7!3m6!1s0x39918a5f15123cf7:0xf7a65411d07bec24!8m2!3d25.9478133!4d83.567102!16s%2Fg%2F11c5gb83z8!19sChIJ9zwSFV-KkTkRJOx70BFUpvc?authuser=0&hl=en&rclk=1,"25.9478133,83.56710199999999"
Noorani Masjid,Mosque,"WHV5+H88 Noorani Masjid, Pahar Pura Rd, Khiribagh, Mau, Uttar Pradesh 275101",Khiribagh,"WHV5+H88, Pahar Pura Rd",Mau,275101,Uttar Pradesh,IN,https://www.google.com/maps/place/Noorani+Masjid/data=!4m7!3m6!1s0x39918af85ba18c6d:0x2f0d301c7bdac954!8m2!3d25.9439148!4d83.558327!16s%2Fg%2F1261gx9fx!19sChIJbYyhW_iKkTkRVMnaexwwDS8?authuser=0&hl=en&rclk=1,"25.943914799999998,83.55832699999999"
Masjid Abu Ayyub Ansari,Mosque,"WHX3+VRQ Masjid Abu Ayyub Ansari, Bharahu Pura Rd, Keyari Tola, Astupura, Mau, Uttar Pradesh 275101","Keyari Tola, Astupura","WHX3+VRQ, Bharahu Pura Rd",Mau,275101,Uttar Pradesh,IN,https://www.google.com/maps/place/Masjid+Abu+Ayyub+Ansari/data=!4m7!3m6!1s0x39918b1d823cb699:0x5c77a84964b2cdd9!8m2!3d25.9497126!4d83.5546035!16s%2Fg%2F11dzdk4zrg!19sChIJmbY8gh2LkTkR2c2yZEmod1w?authuser=0&hl=en&rclk=1,"25.949712599999998,83.5546035"
Masjid Faizanul Islam - Ahle Hadees,Mosque,"WHG6+HPG Masjid Faizanul Islam - Ahle Hadees, Sale Tax Road, Nematnagar, Munshi Pura, Mau, Uttar Pradesh 275101","Nematnagar, Munshi Pura","WHG6+HPG, Sale Tax Road",Mau,275101,Uttar Pradesh,IN,https://www.google.com/maps/place/Masjid+Faizanul+Islam+-+Ahle+Hadees/data=!4m7!3m6!1s0x39918ae8ebaf1c89:0xa904512bca4c8e90!8m2!3d25.9264314!4d83.5618374!16s%2Fg%2F11bwfg1kk6!19sChIJiRyv6-iKkTkRkI5MyitRBKk?authuser=0&hl=en&rclk=1,"25.9264314,83.5618374"
Masjid Haji Idrees,Mosque,"WHW9+M8P Masjid Haji Idrees, Hatthi Madari, Chriayakot, Mau, Uttar Pradesh 275101","Hatthi Madari, Chriayakot",WHW9+M8P,Mau,275101,Uttar Pradesh,IN,https://www.google.com/maps/place/Masjid+Haji+Idrees/data=!4m7!3m6!1s0x39918a5f82987a71:0x6fe9416a741c6ac1!8m2!3d25.9467138!4d83.5683347!16s%2Fg%2F11cmsx56ts!19sChIJcXqYgl-KkTkRwWocdGpB6W8?authuser=0&hl=en&rclk=1,"25.946713799999998,83.5683347"
Jama Masjid (Ahnaf) Kotwali,Mosque,"WHV8+WXV Jama Masjid (Ahnaf) Kotwali, Sadar Bazar Rd, near kotwali relway crossing, Shaikh Damu Pura, Mau, Uttar Pradesh 275101",Shaikh Damu Pura,"WHV8+WXV, Sadar Bazar Rd, near kotwali relway crossing",Mau,,Uttar Pradesh,IN,https://www.google.com/maps/place/Jama+Masjid+%28Ahnaf%29+Kotwali/data=!4m7!3m6!1s0x39918af596c51eab:0xb3a0c3d8dae59a59!8m2!3d25.9448714!4d83.5674207!16s%2Fg%2F11bvv52v99!19sChIJqx7FlvWKkTkRWZrl2tjDoLM?authuser=0&hl=en&rclk=1,"25.9448714,83.5674207"
Baghcha Masjid,Mosque,"WHV6+F99 Baghcha Masjid, Neeb tale, Chattar Pura-Chandpura Rd, Mau, Uttar Pradesh 275101",Shaikh Damu Pura,"WHV6+F99, Neeb tale, Chattar Pura-Chandpura Rd",Mau,275101,Uttar Pradesh,IN,https://www.google.com/maps/place/Baghcha+Masjid/data=!4m7!3m6!1s0x39918af78fd891c9:0x70f7334794f18f1!8m2!3d25.9436609!4d83.5609737!16s%2Fg%2F124ycwnvc!19sChIJyZHYj_eKkTkR8RhPeTRzDwc?authuser=0&hl=en&rclk=1,"25.943660899999998,83.56097369999999"
Masjid Ahle Hadees (Hussainpura),Mosque,"WHR6+XW7 Masjid Ahle Hadees (Hussainpura), Pathway, Shaikh Damu Pura, Mau, Uttar Pradesh 275101",Shaikh Damu Pura,"WHR6+XW7, Pathway",Mau,275101,Uttar Pradesh,IN,https://www.google.com/maps/place/Masjid+Ahle+Hadees+%28Hussainpura%29/data=!4m7!3m6!1s0x39918af70f5ea3fd:0x3ac3e20ac89c1a87!8m2!3d25.9424188!4d83.5622893!16s%2Fg%2F11b6_tc5h2!19sChIJ_aNeD_eKkTkRhxqcyAriwzo?authuser=0&hl=en&rclk=1,"25.9424188,83.5622893"
Bel Wali Masjid,Mosque,"WHV7+87V Bel Wali Masjid, Neyaz Muhammad Pura, Shaikh Damu Pura, Mau, Uttar Pradesh 275101","Neyaz Muhammad Pura, Shaikh Damu Pura",WHV7+87V,Mau,275101,Uttar Pradesh,IN,https://www.google.com/maps/place/Bel+Wali+Masjid/data=!4m7!3m6!1s0x39918af653bd5b65:0x267703e170a853f8!8m2!3d25.9433623!4d83.5631865!16s%2Fg%2F1263ysdyl!19sChIJZVu9U_aKkTkR-FOocOEDdyY?authuser=0&hl=en&rclk=1,"25.9433623,83.5631865"
Madani Masjid,Mosque,"XG4V+968 Madani Masjid, Mohalla Madan Pura, Mau, Uttar Pradesh 275101",Mohalla Madan Pura,XG4V+968,Mau,275101,Uttar Pradesh,IN,https://www.google.com/maps/place/Madani+Masjid/data=!4m7!3m6!1s0x39918bae17b79379:0x41851ddfdaf1e475!8m2!3d25.9559071!4d83.5430871!16s%2Fg%2F11g8ty36k8!19sChIJeZO3F66LkTkRdeTx2t8dhUE?authuser=0&hl=en&rclk=1,"25.955907099999997,83.5430871"
Masjid BAB-E-FIRDOS,Mosque,"XG3V+7PF Masjid BAB-E-FIRDOS, Mohalla Madan Pura, Mau, Uttar Pradesh 275101",Mohalla Madan Pura,XG3V+7PF,Mau,275101,Uttar Pradesh,IN,https://www.google.com/maps/place/Masjid+BAB-E-FIRDOS/data=!4m7!3m6!1s0x39918bae9d4aecdb:0x2f9bcb8022ef6e1f!8m2!3d25.9531791!4d83.5442917!16s%2Fg%2F11dxd0gd_y!19sChIJ2-xKna6LkTkRH27vIoDLmy8?authuser=0&hl=en&rclk=1,"25.9531791,83.5442917"
Bage Firdos Masjid,Mosque,"XG3V+X35 Bage Firdos Masjid, Unnamed Road, Mohalla Madan Pura, Mau, Uttar Pradesh 275101",Mohalla Madan Pura,"XG3V+X35, Unnamed Road",Mau,275101,Uttar Pradesh,IN,https://www.google.com/maps/place/Bage+Firdos+Masjid/data=!4m7!3m6!1s0x39918bae4172c2a3:0x297d51f64733f032!8m2!3d25.9548803!4d83.5427246!16s%2Fg%2F11f004p56_!19sChIJo8JyQa6LkTkRMvAzR_ZRfSk?authuser=0&hl=en&rclk=1,"25.9548803,83.5427246"
Abuzar Masjid,Mosque,"XGCQ+359 Abuzar Masjid, Mau, Uttar Pradesh 275101",,XGCQ+359,Mau,,Uttar Pradesh,IN,https://www.google.com/maps/place/Abuzar+Masjid/data=!4m7!3m6!1s0x39918b03701c5013:0x7a50e3ce4c1cf17e!8m2!3d25.970155!4d83.5379923!16s%2Fg%2F11g2wr5cz0!19sChIJE1AccAOLkTkRfvEcTM7jUHo?authuser=0&hl=en&rclk=1,"25.970155,83.5379923"
Masjid Alhamd,Mosque,"XG7W+8XM Masjid Alhamd, Mohalla Domanpura, DomanPura, Bara, Mau, Uttar Pradesh 275101","Mohalla Domanpura, DomanPura",XG7W+8XM,"Bara, Mau",,Uttar Pradesh,IN,https://www.google.com/maps/place/Masjid+Alhamd/data=!4m7!3m6!1s0x39918bb484be9b33:0x72d68b0885e501d2!8m2!3d25.9633311!4d83.5474272!16s%2Fg%2F11hbk_6747!19sChIJM5u-hLSLkTkR0gHlhQiL1nI?authuser=0&hl=en&rclk=1,"25.963331099999998,83.5474272"
Jama Masjid Masoom Takiya,Mosque,"WHR4+V6P Jama Masjid Masoom Takiya, Chitanpura Bagh, Mau, Uttar Pradesh 275101",Chitanpura Bagh,WHR4+V6P,Mau,275101,Uttar Pradesh,IN,https://www.google.com/maps/place/Jama+Masjid+Masoom+Takiya/data=!4m7!3m6!1s0x39918af928ca76ef:0x5154bccafa7fb357!8m2!3d25.942209!4d83.555566!16s%2Fg%2F11fy1dnn60!19sChIJ73bKKPmKkTkRV7N_-sq8VFE?authuser=0&hl=en&rclk=1,"25.942209,83.555566"
MASJID BAGHE FIRDAUS,Mosque,"WHR2+JVV MASJID BAGHE FIRDAUS, Raghunathpura Bagh, Chitanpura Bagh, Mau, Uttar Pradesh 275101",Chitanpura Bagh,"WHR2+JVV, Raghunathpura Bagh",Mau,275101,Uttar Pradesh,IN,https://www.google.com/maps/place/MASJID+BAGHE+FIRDAUS/data=!4m7!3m6!1s0x39918afe5f522cbd:0xe3dc9773de9c62c1!8m2!3d25.9416146!4d83.5521715!16s%2Fg%2F11f3094d48!19sChIJvSxSX_6KkTkRwWKc3nOX3OM?authuser=0&hl=en&rclk=1,"25.941614599999998,83.5521715"
Nurani Masjid Mau,Mosque,"VPJM+9FQ Nurani Masjid Mau, Gaur Gracious Main Rd, Harthala, Moradabad, Uttar Pradesh 244001",Harthala,"VPJM+9FQ, Gaur Gracious Main Rd",Moradabad,244001,Uttar Pradesh,IN,https://www.google.com/maps/place/Nurani+Masjid+Mau/data=!4m7!3m6!1s0x390afec5cde90569:0x467b0585c0ba5260!8m2!3d28.8809557!4d78.7337287!16s%2Fg%2F11g9w0c7ly!19sChIJaQXpzcX-CjkRYFK6wIUFe0Y?authuser=0&hl=en&rclk=1,"28.880955699999998,78.7337287"
Dalal Baba Masjid,Mosque,"XG8R+882 Dalal Baba Masjid, Mau, Uttar Pradesh 275101",,XG8R+882,Mau,,Uttar Pradesh,IN,https://www.google.com/maps/place/Dalal+Baba+Masjid/data=!4m7!3m6!1s0x39918bb7a697f8a7:0x2b99aafbfa2f5624!8m2!3d25.9657697!4d83.5407502!16s%2Fg%2F11gfcgsgcb!19sChIJp_iXpreLkTkRJFYv-vuqmSs?authuser=0&hl=en&rclk=1,"25.9657697,83.54075019999999"
Masjid Ahle Hadith,Mosque,"Masjid Ahle Hadith, Beside Graduate Cloth Store, Main Road, Sadar Bazar Rd, Hatthi Madari, Mau, Uttar Pradesh 275101","Hatthi Madari, Chriayakot","Beside Graduate Cloth Store, Main Road, Sadar Bazar Rd",Mau,275101,Uttar Pradesh,IN,https://www.google.com/maps/place/Masjid+Ahle+Hadith/data=!4m7!3m6!1s0x39918be7e4d1b881:0xd0b3b5c2a5a31a24!8m2!3d25.9450546!4d83.5650832!16s%2Fg%2F11g0vx1nc9!19sChIJgbjR5OeLkTkRJBqjpcK1s9A?authuser=0&hl=en&rclk=1,"25.9450546,83.56508319999999"
Masjid Abu Hanifa,Mosque,"XG2Q+JMP Masjid Abu Hanifa, Mohalla Madan Pura, Mau, Uttar Pradesh 275101",Mohalla Madan Pura,XG2Q+JMP,Mau,275101,Uttar Pradesh,IN,https://www.google.com/maps/place/Masjid+Abu+Hanifa/data=!4m7!3m6!1s0x39918baf59a7db29:0x90ed76213848711c!8m2!3d25.951578!4d83.5391999!16s%2Fg%2F11f29_rbbm!19sChIJKdunWa-LkTkRHHFIOCF27ZA?authuser=0&hl=en&rclk=1,"25.951577999999998,83.5391999"
Fatima Masjid (Near Metro),Mosque,"Fatima Masjid (Near Metro), Gijgirya( Near Metro House, Bulaki Pura, Mau, Uttar Pradesh 275101",Bulaki Pura,Gijgirya( Near Metro House,Mau,275101,Uttar Pradesh,IN,https://www.google.com/maps/place/Fatima+Masjid+%28Near+Metro%29/data=!4m7!3m6!1s0x39918bf2aa6a248d:0xaf0e9f6bed668593!8m2!3d25.9439674!4d83.5541068!16s%2Fg%2F11f9v05b4x!19sChIJjSRqqvKLkTkRk4Vm7WufDq8?authuser=0&hl=en&rclk=1,"25.9439674,83.5541068"
Masjid Aisha (Razi Allah Tala Anha),Mosque,"WHV6+4XR Masjid Aisha (Razi Allah Tala Anha), Hussain Pura, Shaikh Damu Pura, Mau, Uttar Pradesh 275101","Hussain Pura, Shaikh Damu Pura",WHV6+4XR,Mau,275101,Uttar Pradesh,IN,https://www.google.com/maps/place/Masjid+Aisha+%28Razi+Allah+Tala+Anha%29/data=!4m7!3m6!1s0x39918af7a81fa63f:0xf78c078c46e7c470!8m2!3d25.9428749!4d83.5623845!16s%2Fg%2F1262t5g7j!19sChIJP6YfqPeKkTkRcMTnRowHjPc?authuser=0&hl=en&rclk=1,"25.9428749,83.5623845"
HABIBULLAH GIRHAST MASJID,Mosque,"WHV4+VPX HABIBULLAH GIRHAST MASJID, Bulaki Pura, Mau, Uttar Pradesh 275101",Bulaki Pura,WHV4+VPX,Mau,275101,Uttar Pradesh,IN,https://www.google.com/maps/place/HABIBULLAH+GIRHAST+MASJID/data=!4m7!3m6!1s0x39918af8906a5c67:0x1c6876f79c23566f!8m2!3d25.9447474!4d83.5568738!16s%2Fg%2F11f102rk4q!19sChIJZ1xqkPiKkTkRb1YjnPd2aBw?authuser=0&hl=en&rclk=1,"25.944747399999997,83.55687379999999"
FATIMA MASJID,Mosque,"WHG4+CXC FATIMA MASJID, Muslim Nagar, near hayat center, Uttar Pradesh 275101",Munshi Pura,"WHG4+CXC, Muslim Nagar, near hayat center",Mau,275101,Uttar Pradesh,IN,https://www.google.com/maps/place/FATIMA+MASJID/data=!4m7!3m6!1s0x39918b07802874ab:0x9ff2d3067fe9d087!8m2!3d25.9260526!4d83.5574024!16s%2Fg%2F11fln5z83c!19sChIJq3QogAeLkTkRh9DpfwbT8p8?authuser=0&hl=en&rclk=1,"25.9260526,83.5574024"
Masjid,Mosque,"XG6W+GPH Masjid, Mohalla Domanpura, Mirzahadi Pura, Mau, Uttar Pradesh 275101","Mohalla Domanpura, Mirzahadi Pura",XG6W+GPH,Mau,275101,Uttar Pradesh,IN,https://www.google.com/maps/place/Masjid/data=!4m7!3m6!1s0x39918bb39f9f7fdb:0xa07521ed7d431d0a!8m2!3d25.9613232!4d83.5468674!16s%2Fg%2F11gfxp7ygp!19sChIJ23-fn7OLkTkRCh1Dfe0hdaA?authuser=0&hl=en&rclk=1,"25.9613232,83.5468674"
Mustafa Masjid Munshipura,Mosque,"WHJ6+VH6 Mustafa Masjid Munshipura, Munshi Pura, Mau, Uttar Pradesh 275101",Munshi Pura,WHJ6+VH6,Mau,275101,Uttar Pradesh,IN,https://www.google.com/maps/place/Mustafa+Masjid+Munshipura/data=!4m7!3m6!1s0x39918bbf965dc469:0xd36437aa369266e5!8m2!3d25.9321586!4d83.5613972!16s%2Fg%2F11jgdvnbl2!19sChIJacRdlr-LkTkR5WaSNqo3ZNM?authuser=0&hl=en&rclk=1,"25.932158599999998,83.5613972"
Makki masjid,Mosque,"Makki masjid, Madan, Makki Masjid, Madan Pura Makki Masjid, Jamal Pura Rd, Mau, Uttar Pradesh 275101",Mohalla Madan Pura,"Madan, Makki Masjid, Madan Pura Makki Masjid, Jamal Pura Rd",Mau,275101,Uttar Pradesh,IN,https://www.google.com/maps/place/Makki+masjid/data=!4m7!3m6!1s0x39918bab1d96670b:0x9dd589930a0cd32c!8m2!3d25.9553494!4d83.5443571!16s%2Fg%2F11j0b2_lv0!19sChIJC2eWHauLkTkRLNMMCpOJ1Z0?authuser=0&hl=en&rclk=1,"25.9553494,83.5443571"
Masjid Miyanji Khan Jahan( Hanafi),Mosque,"Masjid Miyanji Khan Jahan( Hanafi), Qazidamoon Pura, Pahar Pura Rd, Chitanpura Bagh, Mau, Uttar Pradesh 275101",Chitanpura Bagh,"Qazidamoon Pura, Pahar Pura Rd",Mau,275101,Uttar Pradesh,IN,https://www.google.com/maps/place/Masjid+Miyanji+Khan+Jahan%28+Hanafi%29/data=!4m7!3m6!1s0x39918af8fe4187ad:0xf600a38c2a92af35!8m2!3d25.9427577!4d83.5574064!16s%2Fg%2F11cn0r22tv!19sChIJrYdB_viKkTkRNa-SKoyjAPY?authuser=0&hl=en&rclk=1,"25.942757699999998,83.55740639999999"
Haji Ishaque Masjid,Mosque,"WHR6+W82 Haji Ishaque Masjid, Shaikh Damu Pura, Mau, Uttar Pradesh 275101",Shaikh Damu Pura,WHR6+W82,Mau,275101,Uttar Pradesh,IN,https://www.google.com/maps/place/Haji+Ishaque+Masjid/data=!4m7!3m6!1s0x39918b17cdeca5b9:0x62b5e37b69bb56c2!8m2!3d25.9422738!4d83.5607534!16s%2Fg%2F11f6ktz843!19sChIJuaXszReLkTkRwla7aXvjtWI?authuser=0&hl=en&rclk=1,"25.9422738,83.5607534"
Masjid Darul Quran,Mosque,"WGRX+QPW Masjid Darul Quran, Chitanpura Bagh, Mau, Uttar Pradesh 275101",Chitanpura Bagh,WGRX+QPW,Mau,275101,Uttar Pradesh,IN,https://www.google.com/maps/place/Masjid+Darul+Quran/data=!4m7!3m6!1s0x39918b01d40a1b01:0x12d5de995c9c0f43!8m2!3d25.9419874!4d83.5493269!16s%2Fg%2F11g8g0t8hg!19sChIJARsK1AGLkTkRQw-cXJne1RI?authuser=0&hl=en&rclk=1,"25.9419874,83.5493269"
Masjid Arqam Chitanpura,Mosque,"WHP4+X6F Masjid Arqam Chitanpura, Chitanpura Bagh, Mau, Uttar Pradesh 275101",Chitanpura Bagh,WHP4+X6F,Mau,275101,Uttar Pradesh,IN,https://www.google.com/maps/place/Masjid+Arqam+Chitanpura/data=!4m7!3m6!1s0x39918afb8f886afd:0xe218f0fc7f8b9ddb!8m2!3d25.9374281!4d83.5555315!16s%2Fg%2F11cp7jyg_g!19sChIJ_WqIj_uKkTkR252Lf_zwGOI?authuser=0&hl=en&rclk=1,"25.937428099999998,83.5555315"
Masjid e Hanzala,Mosque,"WGMX+PQ6 Masjid e Hanzala, Navpura, Mau, Uttar Pradesh 275101",Navpura,WGMX+PQ6,Mau,275101,Uttar Pradesh,IN,https://www.google.com/maps/place/Masjid+e+Hanzala/data=!4m7!3m6!1s0x39918b02a66cb5ad:0x33da3b2fe62c0e1f!8m2!3d25.9342852!4d83.5493815!16s%2Fg%2F11hcdzksfl!19sChIJrbVspgKLkTkRHw4s5i872jM?authuser=0&hl=en&rclk=1,"25.934285199999998,83.5493815"
Haji Ismaeel Masjid,Mosque,"WHW5+3JM Haji Ismaeel Masjid, Qasimpura, Bartale, Mau, Uttar Pradesh 275101","Qasimpura, Bartale",WHW5+3JM,Mau,275101,Uttar Pradesh,IN,https://www.google.com/maps/place/Haji+Ismaeel+Masjid/data=!4m7!3m6!1s0x39918af87309ae49:0x48dac7fe9f6a63a5!8m2!3d25.9452166!4d83.5590371!16s%2Fg%2F11gf9qmn5m!19sChIJSa4Jc_iKkTkRpWNqn_7H2kg?authuser=0&hl=en&rclk=1,"25.9452166,83.5590371"
Masjid Siddiq e Akbar,Mosque,"WHH7+356 Masjid Siddiq e Akbar, Munshi Pura, Mau, Uttar Pradesh 275101",Munshi Pura,WHH7+356,Mau,275101,Uttar Pradesh,IN,https://www.google.com/maps/place/Masjid+Siddiq+e+Akbar/data=!4m7!3m6!1s0x39918b4dce38eb21:0xadee13d37b023033!8m2!3d25.9276565!4d83.5629012!16s%2Fg%2F11j2n4f0j8!19sChIJIes4zk2LkTkRMzACe9MT7q0?authuser=0&hl=en&rclk=1,"25.927656499999998,83.5629012"
Masjid,Mosque,"WHR6+WP8 Masjid, Chattar Pura-Chandpura Rd, Shaikh Damu Pura, Mau, Uttar Pradesh 275101",Shaikh Damu Pura,"WHR6+WP8, Chattar Pura-Chandpura Rd",Mau,275101,Uttar Pradesh,IN,https://www.google.com/maps/place/Masjid/data=!4m7!3m6!1s0x39918af70c549ced:0x60c916edcba1d264!8m2!3d25.942296!4d83.5618293!16s%2Fg%2F12620m06f!19sChIJ7ZxUDPeKkTkRZNKhy-0WyWA?authuser=0&hl=en&rclk=1,"25.942296,83.5618293"
Masjid Usman Ghani,Mosque,"WHR2+G37 Masjid Usman Ghani, Chitanpura Bagh, Mau, Uttar Pradesh 275101",Chitanpura Bagh,WHR2+G37,Mau,275101,Uttar Pradesh,IN,https://www.google.com/maps/place/Masjid+Usman+Ghani/data=!4m7!3m6!1s0x39918afe246e8fc5:0x1b0be269dbe7a40b!8m2!3d25.9412822!4d83.5501567!16s%2Fg%2F11dzw6pgdg!19sChIJxY9uJP6KkTkRC6Tn22niCxs?authuser=0&hl=en&rclk=1,"25.9412822,83.5501567"
Masjid Mustafa,Mosque,"WHV2+2JH Masjid Mustafa, Chitanpura Bagh, Mau, Uttar Pradesh 275101",Chitanpura Bagh,WHV2+2JH,Mau,275101,Uttar Pradesh,IN,https://www.google.com/maps/place/Masjid+Mustafa/data=!4m7!3m6!1s0x39918affb2f70221:0x4ae652cabdae2a37!8m2!3d25.9425551!4d83.5515951!16s%2Fg%2F11d_7bjp2z!19sChIJIQL3sv-KkTkRNyquvcpS5ko?authuser=0&hl=en&rclk=1,"25.9425551,83.5515951"
Choti Masjid,Mosque,"WHR6+9JJ Choti Masjid, Chandpura, Mau, Uttar Pradesh 275101",Shaikh Damu Pura,"WHR6+9JJ, Chandpura",Mau,275101,Uttar Pradesh,IN,https://www.google.com/maps/place/Choti+Masjid/data=!4m7!3m6!1s0x39918af7473277fb:0x986cc351a7912129!8m2!3d25.9409718!4d83.5615182!16s%2Fg%2F1261zmjzn!19sChIJ-3cyR_eKkTkRKSGRp1HDbJg?authuser=0&hl=en&rclk=1,"25.9409718,83.5615182"
Jama masjid ahle-hadith (Hibba),Mosque,"XG6W+79M Jama masjid ahle-hadith (Hibba), Mohalla Domanpura, Mirzahadi Pura, Mau, Uttar Pradesh 275101","Mohalla Domanpura, Mirzahadi Pura",XG6W+79M,Mau,275101,Uttar Pradesh,IN,https://www.google.com/maps/place/Jama+masjid+ahle-hadith+%28Hibba%29/data=!4m7!3m6!1s0x39918bd93fa04695:0x41fa280f93bd5342!8m2!3d25.9607238!4d83.5459362!16s%2Fg%2F11gy23wzsw!19sChIJlUagP9mLkTkRQlO9kw8o-kE?authuser=0&hl=en&rclk=1,"25.9607238,83.5459362"
Jama Masjid Bulaki Pura Nayi Basti,Mosque,"WHV2+84F Jama Masjid Bulaki Pura Nayi Basti, Chitanpura Bagh, Mau, Uttar Pradesh 275101",Chitanpura Bagh,WHV2+84F,Mau,275101,Uttar Pradesh,IN,https://www.google.com/maps/place/Jama+Masjid+Bulaki+Pura+Nayi+Basti/data=!4m7!3m6!1s0x39918affdb30b85f:0xfcd363ace4f5ecda!8m2!3d25.9433121!4d83.5502858!16s%2Fg%2F11d_2mkbq4!19sChIJX7gw2_-KkTkR2uz15Kxj0_w?authuser=0&hl=en&rclk=1,"25.9433121,83.5502858"
Mosque,Mosque,"XH25+78V Mosque, Mau, Uttar Pradesh 275101",,XH25+78V,Mau,275101,Uttar Pradesh,IN,https://www.google.com/maps/place/Mosque/data=!4m7!3m6!1s0x39918a572550550b:0x174b148313abb015!8m2!3d25.9507415!4d83.5582818!16s%2Fg%2F11d_tgs6ds!19sChIJC1VQJVeKkTkRFbCrE4MUSxc?authuser=0&hl=en&rclk=1,"25.9507415,83.5582818"
Masjid Hesamuddin,Mosque,"XH42+79H Masjid Hesamuddin, Astupura, Mau, Uttar Pradesh 275101",Astupura,XH42+79H,Mau,275101,Uttar Pradesh,IN,https://www.google.com/maps/place/Masjid+Hesamuddin/data=!4m7!3m6!1s0x39918b4c2f985ec5:0xde6554b87d5a7216!8m2!3d25.9556988!4d83.550996!16s%2Fg%2F11h5lv2b5m!19sChIJxV6YL0yLkTkRFnJafbhUZd4?authuser=0&hl=en&rclk=1,"25.9556988,83.550996"
msjd hl Hdyth Masjid Ahle Hadees,Mosque,"msjd hl Hdyth Masjid Ahle Hadees, Zafar Nagar Rd, Khedupura, Mau, Uttar Pradesh 275101",Khedupura,Zafar Nagar Rd,Mau,275101,Uttar Pradesh,IN,https://www.google.com/maps/place/%D9%85%D8%B3%D8%AC%D8%AF+%D8%A7%DB%81%D9%84+%D8%AD%D8%AF%DB%8C%D8%AB+Masjid+Ahle+Hadees%E2%80%AD/data=!4m7!3m6!1s0x39918b07622332ab:0x18286b511fdb8220!8m2!3d25.9662102!4d83.5453075!16s%2Fg%2F11fl7p13yx!19sChIJqzIjYgeLkTkRIILbH1FrKBg?authuser=0&hl=en&rclk=1,"25.9662102,83.54530749999999"
Jama Masjid Abu Baker Ahnaf,Mosque,"XG5P+6H4 Jama Masjid Abu Baker Ahnaf, Mohalla Domanpura, Aurangabad, Mau, Uttar Pradesh 275101","Mohalla Domanpura, Aurangabad",XG5P+6H4,Mau,275101,Uttar Pradesh,IN,https://www.google.com/maps/place/Jama+Masjid+Abu+Baker+Ahnaf/data=!4m7!3m6!1s0x39918b3c81d482c1:0x207855a7edaa4b7e!8m2!3d25.9580142!4d83.5364395!16s%2Fg%2F11jd4s_rh0!19sChIJwYLUgTyLkTkRfkuq7adVeCA?authuser=0&hl=en&rclk=1,"25.958014199999997,83.5364395"
Masjid Hakeem Sayeedullah (Husain Pura),Mosque,"WHR7+P34 Masjid Hakeem Sayeedullah (Husain Pura), Hussain Pura, Shaikh Damu Pura, Mau, Uttar Pradesh 275101","Hussain Pura, Shaikh Damu Pura",WHR7+P34,Mau,275101,Uttar Pradesh,IN,https://www.google.com/maps/place/Masjid+Hakeem+Sayeedullah+%28Husain+Pura%29/data=!4m7!3m6!1s0x39918af71eb7ebfb:0x86bc7aa23405b333!8m2!3d25.9417688!4d83.5626947!16s%2Fg%2F11dybr3_dz!19sChIJ--u3HveKkTkRM7MFNKJ6vIY?authuser=0&hl=en&rclk=1,"25.9417688,83.5626947"
Masjid Saleh,Mosque,"WHQ3+J92 Masjid Saleh, Raghunath Pura, Mau, Uttar Pradesh 275101",Raghunath Pura,WHQ3+J92,Mau,,Uttar Pradesh,IN,https://www.google.com/maps/place/Masjid+Saleh/data=!4m7!3m6!1s0x39918b620f4227fd:0xa7916901fba5b6ec!8m2!3d25.9390239!4d83.5533874!16s%2Fg%2F11f7hb4n7v!19sChIJ_SdCD2KLkTkR7Lal-wFpkac?authuser=0&hl=en&rclk=1,"25.9390239,83.55338739999999"
Masjid Abu Bakar,Mosque,"Masjid Abu Bakar, Kalyan Sagar, Chitanpura Bagh, Mau, Uttar Pradesh 275101",Chitanpura Bagh,Kalyan Sagar,Mau,275101,Uttar Pradesh,IN,https://www.google.com/maps/place/Masjid+Abu+Bakar/data=!4m7!3m6!1s0x39918afe807a52d9:0xbde35ac33f6fbc1b!8m2!3d25.9395889!4d83.5524423!16s%2Fg%2F11fxb5hl0_!19sChIJ2VJ6gP6KkTkRG7xvP8Na470?authuser=0&hl=en&rclk=1,"25.9395889,83.5524423"
Manimau Masjid,Mosque,"7WRQ+H38 Manimau Masjid, Sathiya Mau Sisala, Uttar Pradesh 241403",,7WRQ+H38,Sathiya Mau Sisala,,Uttar Pradesh,IN,https://www.google.com/maps/place/Manimau+Masjid/data=!4m7!3m6!1s0x399e5b5ccbba0017:0xaba3ee900021f57d!8m2!3d27.2914193!4d79.9377091!16s%2Fg%2F11hbnbccn3!19sChIJFwC6y1xbnjkRffUhAJDuo6s?authuser=0&hl=en&rclk=1,"27.291419299999998,79.93770909999999"
Jama Masjid Aamena,Mosque,"Jama Masjid Aamena, Doman Pura Sajru, Rai Ka Pura, Mau, Uttar Pradesh 275101",Rai Ka Pura,Doman Pura Sajru,Mau,275101,Uttar Pradesh,IN,https://www.google.com/maps/place/Jama+Masjid+Aamena/data=!4m7!3m6!1s0x39918b0294bb81c1:0x315a2dca5946c330!8m2!3d25.9641994!4d83.5439878!16s%2Fg%2F11g0ldss04!19sChIJwYG7lAKLkTkRMMNGWcotWjE?authuser=0&hl=en&rclk=1,"25.9641994,83.5439878"
Masjid Mahalla Daan Kabir,Mosque,"WHX5+2HC Masjid Mahalla Daan Kabir, Sabji Mandi Rd, Keyari Tola, Astupura, Mau, Uttar Pradesh 275101","Keyari Tola, Astupura","WHX5+2HC, Sabji Mandi Rd",Mau,275101,Uttar Pradesh,IN,https://www.google.com/maps/place/Masjid+Mahalla+Daan+Kabir/data=!4m7!3m6!1s0x39918b597f765775:0xca337971da6df52f!8m2!3d25.9475682!4d83.5589044!16s%2Fg%2F11fslhzgtr!19sChIJdVd2f1mLkTkRL_Vt2nF5M8o?authuser=0&hl=en&rclk=1,"25.9475682,83.5589044"
JAMA MASJID FARUQU E AZAM,Mosque,"WHV2+6XC JAMA MASJID FARUQU E AZAM, Chitanpura Bagh, Mau, Uttar Pradesh 275101",Chitanpura Bagh,WHV2+6XC,Mau,275101,Uttar Pradesh,IN,https://www.google.com/maps/place/JAMA+MASJID+FARUQU+E+AZAM/data=!4m7!3m6!1s0x39918be440c2b887:0x4473449bf351a5a3!8m2!3d25.9430521!4d83.5524002!16s%2Fg%2F11q2vpcx1j!19sChIJh7jCQOSLkTkRo6VR85tEc0Q?authuser=0&hl=en&rclk=1,"25.9430521,83.5524002"
Masjid Hamza,Mosque,"XG5Q+XHQ Masjid Hamza, Mohalla Domanpura, Aurangabad, Mau, Uttar Pradesh 275101","Mohalla Domanpura, Aurangabad",XG5Q+XHQ,Mau,275101,Uttar Pradesh,IN,https://www.google.com/maps/place/Masjid+Hamza/data=!4m7!3m6!1s0x39918b7cf8690e45:0xf96d32812329633f!8m2!3d25.959951!4d83.538992!16s%2Fg%2F11kbwmd14n!19sChIJRQ5p-HyLkTkRP2MpI4Eybfk?authuser=0&hl=en&rclk=1,"25.959951,83.538992"
Masjid Ayesha,Mosque,"WHRC+PWM Masjid Ayesha, Bulaki Pura, Mau, Uttar Pradesh 275101",Bulaki Pura,WHRC+PWM,Mau,275101,Uttar Pradesh,IN,https://www.google.com/maps/place/Masjid+Ayesha/data=!4m7!3m6!1s0x39918b60f90ab377:0x26ee7a94d2cb7a11!8m2!3d25.9418323!4d83.5722955!16s%2Fg%2F11fm_95txb!19sChIJd7MK-WCLkTkREXrL0pR67iY?authuser=0&hl=en&rclk=1,"25.941832299999998,83.5722955"
Jathmal Wali Masjid,Mosque,"WHV2+Q9J Jathmal Wali Masjid, Chitanpura Bagh, Mau, Uttar Pradesh 275101",Chitanpura Bagh,WHV2+Q9J,Mau,275101,Uttar Pradesh,IN,https://www.google.com/maps/place/Jathmal+Wali+Masjid/data=!4m7!3m6!1s0x39918affed140b1f:0xfc7a40163e516e99!8m2!3d25.9444514!4d83.5508852!16s%2Fg%2F11g8f79br7!19sChIJHwsU7f-KkTkRmW5RPhZAevw?authuser=0&hl=en&rclk=1,"25.9444514,83.5508852"
Masjid Ahle_sunnat,Mosque,"WHV4+6WC Masjid Ahle_sunnat, damun, Qazi Tola Rd, Mohalla Domanpura, Chriayakot, Mau, Uttar Pradesh 275101","Mohalla Domanpura, Chriayakot","WHV4+6WC, damun, Qazi Tola Rd",Mau,275101,Uttar Pradesh,IN,https://www.google.com/maps/place/Masjid+Ahle_sunnat/data=!4m7!3m6!1s0x39918af8fbee0909:0x90f067729c4a30f4!8m2!3d25.9430543!4d83.5572531!16s%2Fg%2F11d_8sxy98!19sChIJCQnu-_iKkTkR9DBKnHJn8JA?authuser=0&hl=en&rclk=1,"25.9430543,83.5572531"
Noor Mosque,Mosque,"WHW5+434 Noor Mosque, Chitanpura Bagh, Mau, Uttar Pradesh 275101",Chitanpura Bagh,WHW5+434,Mau,275101,Uttar Pradesh,IN,https://www.google.com/maps/place/Noor+Mosque/data=!4m7!3m6!1s0x39918b16038c22db:0x9a139f3b71e54fe8!8m2!3d25.9452661!4d83.5576966!16s%2Fg%2F11grprgd71!19sChIJ2yKMAxaLkTkR6E_lcTufE5o?authuser=0&hl=en&rclk=1,"25.945266099999998,83.5576966"
Bandha Masjid Branch Mohammadiya Khedupura,Mosque,"XG9W+9RX Bandha Masjid Branch Mohammadiya Khedupura, Khedupura, Mau, Uttar Pradesh 275101",Khedupura,XG9W+9RX,Mau,275101,Uttar Pradesh,IN,https://www.google.com/maps/place/Bandha+Masjid+Branch+Mohammadiya+Khedupura/data=!4m7!3m6!1s0x39918b722b9af8a9:0xede34b67b15effc7!8m2!3d25.9684892!4d83.5471063!16s%2Fg%2F11gm9ncz_r!19sChIJqfiaK3KLkTkRx_9esWdL4-0?authuser=0&hl=en&rclk=1,"25.9684892,83.5471063"
Masjid Ayyub Ansari,Mosque,"XG6X+HVJ Masjid Ayyub Ansari, Bandh Rd, Mohalla Nawapura, Mohalla Domanpura, Paschim(west, Mau, Uttar Pradesh 275101","Mohalla Nawapura, Mohalla Domanpura, Paschim(west","XG6X+HVJ, Bandh Rd",Mau,275101,Uttar Pradesh,IN,https://www.google.com/maps/place/Masjid+Ayyub+Ansari/data=!4m7!3m6!1s0x39918b9aca0b7629:0x74b591d32ff40845!8m2!3d25.9614519!4d83.5496358!16s%2Fg%2F11qpg42lzd!19sChIJKXYLypqLkTkRRQj0L9ORtXQ?authuser=0&hl=en&rclk=1,"25.9614519,83.54963579999999"
Changa Masjid chNgaa msjid,Mosque,"WHX5+G3C Changa Masjid chNgaa msjid, Shia muhalla Pura chhanga, Keyari Tola, Mau, Uttar Pradesh","Keyari Tola, Astupura","WHX5+G3C, Shia muhalla Pura chhanga",Mau,,Uttar Pradesh,IN,https://www.google.com/maps/place/Changa+Masjid+%E0%A4%9B%E0%A4%82%E0%A4%97%E0%A4%BE+%E0%A4%AE%E0%A4%B8%E0%A5%8D%E0%A4%9C%E0%A4%BF%E0%A4%A6/data=!4m7!3m6!1s0x39918bc9da56a2bf:0x50b02b109787ab73!8m2!3d25.9488102!4d83.5576369!16s%2Fg%2F11rfbkcsd1!19sChIJv6JW2smLkTkRc6uHlxArsFA?authuser=0&hl=en&rclk=1,"25.9488102,83.55763689999999"
Mustafa Masjid Mau Assu,Mosque,"FP46+8V Mustafa Masjid Mau Assu, Mau Assuo, Uttar Pradesh 244414",,FP46+8V,Mau Assuo,,Uttar Pradesh,IN,https://www.google.com/maps/place/Mustafa+Masjid+Mau+Assu/data=!4m7!3m6!1s0x390ad9d123f9d975:0xc0ad2eeffae8a21a!8m2!3d28.4558112!4d78.7120824!16s%2Fg%2F11rnhlm6f5!19sChIJddn5I9HZCjkRGqLo-u8urcA?authuser=0&hl=en&rclk=1,"28.4558112,78.7120824"
Jama Masjid Muhammadiya Bunker Colony Mau,Mosque,"Jama Masjid Muhammadiya Bunker Colony Mau, Bunkar Colony, Imiliya, Mau, Uttar Pradesh 275101","Bunkar Colony, Imiliya",,Mau,275101,Uttar Pradesh,IN,https://www.google.com/maps/place/Jama+Masjid+Muhammadiya+Bunker+Colony+Mau/data=!4m7!3m6!1s0x39918b758cfac66b:0x467989e387ff8ad8!8m2!3d25.9164415!4d83.5669691!16s%2Fg%2F11h3qr93d2!19sChIJa8b6jHWLkTkR2Ir_h-OJeUY?authuser=0&hl=en&rclk=1,"25.916441499999998,83.5669691"
Jama Masjid Noori Alinagar.,Mosque,"WGMX+VXJ Jama Masjid Noori Alinagar., Navpura, Mau, Uttar Pradesh 275101",Navpura,WGMX+VXJ,Mau,275101,Uttar Pradesh,IN,https://www.google.com/maps/place/Jama+Masjid+Noori+Alinagar./data=!4m7!3m6!1s0x39918bf49309f6b9:0xf3b5d0f5b8c7fe26!8m2!3d25.9347103!4d83.5498875!16s%2Fg%2F11f6nglk08!19sChIJufYJk_SLkTkRJv7HuPXQtfM?authuser=0&hl=en&rclk=1,"25.9347103,83.5498875"
Ayesha Masjid,Mosque,"WHV4+X87 Ayesha Masjid, Bulaki Pura, Mau, Uttar Pradesh 275101",Bulaki Pura,WHV4+X87,Mau,275101,Uttar Pradesh,IN,https://www.google.com/maps/place/Ayesha+Masjid/data=!4m7!3m6!1s0x39918b92c0931fdd:0xe593c2b5aefc0538!8m2!3d25.9449067!4d83.55579!16s%2Fg%2F11fspnv6lw!19sChIJ3R-TwJKLkTkROAX8rrXCk-U?authuser=0&hl=en&rclk=1,"25.944906699999997,83.55579"
Minari Masjid,Mosque,"XH34+92G Minari Masjid, Astupura, Mau, Uttar Pradesh 275101",Astupura,XH34+92G,Mau,275101,Uttar Pradesh,IN,https://www.google.com/maps/place/Minari+Masjid/data=!4m7!3m6!1s0x39918b1fb91a5221:0x697a2cd1b8efbc11!8m2!3d25.9534462!4d83.555073!16s%2Fg%2F11rsc376nf!19sChIJIVIauR-LkTkREbzvuNEsemk?authuser=0&hl=en&rclk=1,"25.9534462,83.555073"
HOJURI MASJID,Mosque,"WHJ6+9PH HOJURI MASJID, Munshi Pura, Mau, Uttar Pradesh 275101",Munshi Pura,WHJ6+9PH,Mau,275101,Uttar Pradesh,IN,https://www.google.com/maps/place/HOJURI+MASJID/data=!4m7!3m6!1s0x39918bed52807f71:0x945688c3a3662ffb!8m2!3d25.9309491!4d83.5618466!16s%2Fg%2F11k0__fnrd!19sChIJcX-AUu2LkTkR-y9mo8OIVpQ?authuser=0&hl=en&rclk=1,"25.9309491,83.5618466"
Masjid,Mosque,"WHW5+WG5 Masjid, Keyari Tola, Astupura, Mau, Uttar Pradesh 275101","Keyari Tola, Astupura",WHW5+WG5,Mau,275101,Uttar Pradesh,IN,https://www.google.com/maps/place/Masjid/data=!4m7!3m6!1s0x39918bacc3f66989:0xc841518fd52c4b6d!8m2!3d25.9472524!4d83.5588439!16s%2Fg%2F11fskpl0jb!19sChIJiWn2w6yLkTkRbUss1Y9RQcg?authuser=0&hl=en&rclk=1,"25.9472524,83.5588439"
Masjid Munshi,Mosque,"WHQ4+9W8 Masjid Munshi, Chitanpura Bagh, Mau, Uttar Pradesh 275101",Chitanpura Bagh,WHQ4+9W8,Mau,275101,Uttar Pradesh,IN,https://www.google.com/maps/place/Masjid+Munshi/data=!4m7!3m6!1s0x39918bc434fb9525:0x8d1d2ca9adad6ffa!8m2!3d25.9384015!4d83.5573331!16s%2Fg%2F11rsphwrpn!19sChIJJZX7NMSLkTkR-m-traksHY0?authuser=0&hl=en&rclk=1,"25.938401499999998,83.5573331"
Anas Masjid p,Mosque,"WHJ5+26 Anas Masjid p, Munshi Pura, Mau, Uttar Pradesh 275101",Munshi Pura,WHJ5+26,Mau,275101,Uttar Pradesh,IN,https://www.google.com/maps/place/Anas+Masjid+p/data=!4m7!3m6!1s0x39918b942338722f:0xd949fcf36345bcb2!8m2!3d25.9300347!4d83.5578962!16s%2Fg%2F11tn8fbfxs!19sChIJL3I4I5SLkTkRsrxFY_P8Sdk?authuser=0&hl=en&rclk=1,"25.9300347,83.5578962"
Masjid Hanafi,Mosque,"WHV6+794 Masjid Hanafi, Chattar Pura-Chandpura Rd, Shaikh Damu Pura, Mau, Uttar Pradesh 275101",Shaikh Damu Pura,"WHV6+794, Chattar Pura-Chandpura Rd",Mau,275101,Uttar Pradesh,IN,https://www.google.com/maps/place/Masjid+Hanafi/data=!4m7!3m6!1s0x39918af7835015db:0xc944070e43ed422!8m2!3d25.9431267!4d83.5609402!16s%2Fg%2F11clw9p895!19sChIJ2xVQg_eKkTkRItQ-5HBAlAw?authuser=0&hl=en&rclk=1,"25.9431267,83.56094019999999"
Azam masjid bunkar colony,Mosque,"WH89+78F Azam masjid bunkar colony, Bunkar Colony, Imiliya, Mau, Uttar Pradesh 275101","Bunkar Colony, Imiliya",WH89+78F,Mau,275101,Uttar Pradesh,IN,https://www.google.com/maps/place/Azam+masjid+bunkar+colony/data=!4m7!3m6!1s0x39918b9644e57a0b:0x6909dd21651a2b84!8m2!3d25.9156774!4d83.5683074!16s%2Fg%2F11s3j7n84q!19sChIJC3rlRJaLkTkRhCsaZSHdCWk?authuser=0&hl=en&rclk=1,"25.9156774,83.5683074"
Jama Masjid Rauza,Mosque,"WHV7+X6R Jama Masjid Rauza, Bhiti Rd, Chowk, Mau, Uttar Pradesh 275101",Chowk,"WHV7+X6R, Bhiti Rd",Mau,275101,Uttar Pradesh,IN,https://www.google.com/maps/place/Jama+Masjid+Rauza/data=!4m7!3m6!1s0x39918bd040853ff1:0x5c270565120dc09e!8m2!3d25.9449908!4d83.5630112!16s%2Fg%2F11h71lfqxp!19sChIJ8T-FQNCLkTkRnsANEmUFJ1w?authuser=0&hl=en&rclk=1,"25.9449908,83.56301119999999"
Padaow Wali Masjid,Mosque,"WHV7+VQW Padaow Wali Masjid, Neyaz Muhammad Pura, Shaikh Damu Pura, Mau, Uttar Pradesh 275101","Neyaz Muhammad Pura, Shaikh Damu Pura",WHV7+VQW,Mau,275101,Uttar Pradesh,IN,https://www.google.com/maps/place/Padaow+Wali+Masjid/data=!4m7!3m6!1s0x39918b0e45a41e95:0x98ef9a7efa6030dc!8m2!3d25.9447389!4d83.5644682!16s%2Fg%2F11f7r0v95f!19sChIJlR6kRQ6LkTkR3DBg-n6a75g?authuser=0&hl=en&rclk=1,"25.944738899999997,83.5644682"
Masjid,Mosque,"WHX4+7F8 Masjid, Unnamed Road, Keyari Tola, Pahad Naththan, Mau, Uttar Pradesh 275101","Keyari Tola, Pahad Naththan","WHX4+7F8, Unnamed Road",Mau,275101,Uttar Pradesh,IN,https://www.google.com/maps/place/Masjid/data=!4m7!3m6!1s0x39918b826d68b37b:0x83a6c32152c7f32d!8m2!3d25.9481536!4d83.5562029!16s%2Fg%2F11fnptxtmc!19sChIJe7NobYKLkTkRLfPHUiHDpoM?authuser=0&hl=en&rclk=1,"25.948153599999998,83.5562029"
Jama Noori Masjid Ahle SunnatPahadpura,Mosque,"WHR5+6M6 Jama Noori Masjid Ahle SunnatPahadpura, Paharpura, Mau, Uttar Pradesh 275101",Paharpura,WHR5+6M6,Mau,275101,Uttar Pradesh,IN,https://www.google.com/maps/place/Jama+Noori+Masjid+Ahle+SunnatPahadpura/data=!4m7!3m6!1s0x39918af9ed7916af:0xf68145b42034bee1!8m2!3d25.9405425!4d83.5591318!16s%2Fg%2F11fy9rb5nm!19sChIJrxZ57fmKkTkR4b40ILRFgfY?authuser=0&hl=en&rclk=1,"25.9405425,83.5591318"
Masjid Ehnaf bdd'ii ttolaa Vishwanath Pura Mau,Mosque,"XG5W+9VG Masjid Ehnaf bdd'ii ttolaa Vishwanath Pura Mau, Mohalla Domanpura, Mirzahadi Pura, Mau, Maunath Bhanjan, Uttar Pradesh 275101","Mohalla Domanpura, Mirzahadi Pura",XG5W+9VG,Mau,275101,Uttar Pradesh,IN,https://www.google.com/maps/place/Masjid+Ehnaf+%E0%A4%AC%E0%A4%A1%E0%A4%BC%E0%A4%88+%E0%A4%9F%E0%A5%8B%E0%A4%B2%E0%A4%BE+Vishwanath+Pura+Mau/data=!4m7!3m6!1s0x39918beb9cd65df5:0x1bfb743049982888!8m2!3d25.9584374!4d83.5472121!16s%2Fg%2F11st9wjd2p!19sChIJ9V3WnOuLkTkRiCiYSTB0-xs?authuser=0&hl=en&rclk=1,"25.958437399999998,83.5472121"
Ahle Hadith Mosque,Mosque,"Ahle Hadith Mosque, Khiribagh, Mau, Uttar Pradesh 275101",Khiribagh,,Mau,275101,Uttar Pradesh,IN,https://www.google.com/maps/place/Ahle+Hadith+Mosque/data=!4m7!3m6!1s0x39918bd9a69c6e45:0x6a30b77cdecd09f3!8m2!3d25.9436751!4d83.5581611!16s%2Fg%2F11hz1tqnd5!19sChIJRW6cptmLkTkR8wnN3ny3MGo?authuser=0&hl=en&rclk=1,"25.9436751,83.55816109999999"
kharki masjid,Mosque,"kharki masjid, viru rai, Keyari Tola, Astupura, Mau, Uttar Pradesh 275101","Keyari Tola, Astupura",viru rai,Mau,275101,Uttar Pradesh,IN,https://www.google.com/maps/place/kharki+masjid/data=!4m7!3m6!1s0x39918b18e9889ab3:0xd5bd8e65c912454f!8m2!3d25.9481066!4d83.5569102!16s%2Fg%2F11g0q0lt69!19sChIJs5qI6RiLkTkRT0USyWWOvdU?authuser=0&hl=en&rclk=1,"25.9481066,83.55691019999999"
Masjid-e-Ahnaf,Mosque,"XG5R+RCP Masjid-e-Ahnaf, Mohalla Domanpura, Aurangabad, Mau, Uttar Pradesh 275101","Mohalla Domanpura, Aurangabad",XG5R+RCP,Mau,275101,Uttar Pradesh,IN,https://www.google.com/maps/place/Masjid-e-Ahnaf/data=!4m7!3m6!1s0x39918bf796046cd7:0x3dd5075e9df5d6f4!8m2!3d25.9595968!4d83.5410828!16s%2Fg%2F11q266rfcb!19sChIJ12wElveLkTkR9Nb1nV4H1T0?authuser=0&hl=en&rclk=1,"25.9595968,83.5410828"
Masjid Gafoor seth(Ahlehadees),Mosque,"WHR5+R43 Masjid Gafoor seth(Ahlehadees), Chitanpura Bagh, Mau, Uttar Pradesh 275101",Chitanpura Bagh,WHR5+R43,Mau,275101,Uttar Pradesh,IN,https://www.google.com/maps/place/Masjid+Gafoor+seth%28Ahlehadees%29/data=!4m7!3m6!1s0x39918b5f48917f77:0x63f753ddf8c4e187!8m2!3d25.9420232!4d83.5577927!16s%2Fg%2F11fkvwc4z3!19sChIJd3-RSF-LkTkRh-HE-N1T92M?authuser=0&hl=en&rclk=1,"25.942023199999998,83.5577927"
Masjid Ahle Hadith (tHfyZ lqran. msjd `ly),Mosque,"XG7V+23J Masjid Ahle Hadith (tHfyZ lqran. msjd `ly), Mohalla Domanpura, Aurangabad, Mau, Uttar Pradesh 275101","Mohalla Domanpura, Aurangabad",XG7V+23J,Mau,275101,Uttar Pradesh,IN,https://www.google.com/maps/place/Masjid+Ahle+Hadith+%28%D8%AA%D8%AD%D9%81%DB%8C%D8%B8+%D8%A7%D9%84%D9%82%D8%B1%D8%A2%D9%86%DB%94+%D9%85%D8%B3%D8%AC%D8%AF+%D8%B9%D8%A7%D9%84%DB%8C%29%E2%80%AD/data=!4m7!3m6!1s0x39918bafe612b81b:0x9ff6571352bda154!8m2!3d25.9625799!4d83.5426516!16s%2Fg%2F11q9rzrt3t!19sChIJG7gS5q-LkTkRVKG9UhNX9p8?authuser=0&hl=en&rclk=1,"25.962579899999998,83.5426516"
ayesha masjid biulaki pura mau up,Mosque,"WHV3+968 ayesha masjid biulaki pura mau up, Haji Mohammad Saleh Rd, Chitanpura Bagh, Mau, Uttar Pradesh 275101",Chitanpura Bagh,"WHV3+968, Haji Mohammad Saleh Rd",Mau,275101,Uttar Pradesh,IN,https://www.google.com/maps/place/ayesha+masjid+biulaki+pura+mau+up/data=!4m7!3m6!1s0x39918b25ad13c3bf:0x6826790b93ba776c!8m2!3d25.9434016!4d83.5530853!16s%2Fg%2F11fps8gsp0!19sChIJv8MTrSWLkTkRbHe6kwt5Jmg?authuser=0&hl=en&rclk=1,"25.943401599999998,83.55308529999999"
Masjid ahle hadees munshipura nala paar (devpara) mau,Mosque,"Masjid ahle hadees munshipura nala paar (devpara) mau, Unnamed Road, Munshi Pura, Mau, Uttar Pradesh 275101",Munshi Pura,Unnamed Road,Mau,275101,Uttar Pradesh,IN,https://www.google.com/maps/place/Masjid+ahle+hadees+munshipura+nala+paar+%28devpara%29+mau/data=!4m7!3m6!1s0x39918b10c71024d3:0x5e5e3e5e698bd80e!8m2!3d25.9297402!4d83.556865!16s%2Fg%2F11r8xhjrdr!19sChIJ0yQQxxCLkTkRDtiLaV4-Xl4?authuser=0&hl=en&rclk=1,"25.929740199999998,83.556865"
Jama masjid chhite mau (jaamaa msjid),Mosque,"MVV7+JRG Jama masjid chhite mau (jaamaa msjid), Chhite mau, Mau Aima, Uttar Pradesh 212507",,"MVV7+JRG, Chhite mau","Mau Aima, Alawalpur",212507,Uttar Pradesh,IN,https://www.google.com/maps/place/Jama+masjid+chhite+mau+%28%E0%A4%9C%E0%A4%BE%E0%A4%AE%E0%A4%BE+%E0%A4%AE%E0%A4%B8%E0%A5%8D%E0%A4%9C%E0%A4%BF%E0%A4%A6%29/data=!4m7!3m6!1s0x399ac71c5d156f4f:0x50b87570378a4b98!8m2!3d25.6940652!4d81.8645678!16s%2Fg%2F11ny04kttj!19sChIJT28VXRzHmjkRmEuKN3B1uFA?authuser=0&hl=en&rclk=1,"25.694065199999997,81.8645678"
Masjid-E-Mohammad Ali (Jhinne),Mosque,"Masjid-E-Mohammad Ali (Jhinne), Bhikhari, Fakhruddin Pura Rd, Chitanpura Bagh, Mau, Uttar Pradesh 275101",Chitanpura Bagh,"Bhikhari, Fakhruddin Pura Rd",Mau,275101,Uttar Pradesh,IN,https://www.google.com/maps/place/Masjid-E-Mohammad+Ali+%28Jhinne%29/data=!4m7!3m6!1s0x39918beae93f6017:0x156e2eccc692e867!8m2!3d25.9427751!4d83.5581216!16s%2Fg%2F11fpkt5b7s!19sChIJF2A_6eqLkTkRZ-iSxswubhU?authuser=0&hl=en&rclk=1,"25.9427751,83.55812159999999"
Madni masjid,Mosque,"Madni masjid, 90/E, Bunkar Colony, Imiliya, Mau, Uttar Pradesh 275101","Bunkar Colony, Imiliya",90/E,Mau,275101,Uttar Pradesh,IN,https://www.google.com/maps/place/Madni+masjid/data=!4m7!3m6!1s0x39918b9b20ccd105:0x9efe75b324be077f!8m2!3d25.9150517!4d83.5665918!16s%2Fg%2F11pplhg20m!19sChIJBdHMIJuLkTkRfwe-JLN1_p4?authuser=0&hl=en&rclk=1,"25.9150517,83.5665918"
Jama Masjid Shakh-e-Harm,Mosque,"WHV5+C62 Jama Masjid Shakh-e-Harm, Chitanpura Bagh, Mau, Uttar Pradesh 275101",Chitanpura Bagh,WHV5+C62,Mau,275101,Uttar Pradesh,IN,https://www.google.com/maps/place/Jama+Masjid+Shakh-e-Harm/data=!4m7!3m6!1s0x39918b7e0cfb2af9:0xd03a19a78adb8940!8m2!3d25.9435165!4d83.5580065!16s%2Fg%2F11gxrw5n5h!19sChIJ-Sr7DH6LkTkRQInbiqcZOtA?authuser=0&hl=en&rclk=1,"25.943516499999998,83.55800649999999"
Bagh Wali Masjid,Mosque,"WHR3+RJC Bagh Wali Masjid, Chitanpura Bagh, Mau, Uttar Pradesh 275101",Chitanpura Bagh,WHR3+RJC,Mau,275101,Uttar Pradesh,IN,https://www.google.com/maps/place/Bagh+Wali+Masjid/data=!4m7!3m6!1s0x39918b58136aafc1:0x654d81be0dd72e6c!8m2!3d25.9420608!4d83.5540124!16s%2Fg%2F11t5l0c21v!19sChIJwa9qE1iLkTkRbC7XDb6BTWU?authuser=0&hl=en&rclk=1,"25.9420608,83.55401239999999"
Jama Masjid Ehnaf,Mosque,"XG4X+V24 Jama Masjid Ehnaf, Mohalla Domanpura, Mirzahadi Pura, Mau, Uttar Pradesh 275101","Mohalla Domanpura, Mirzahadi Pura",XG4X+V24,Mau,275101,Uttar Pradesh,IN,https://www.google.com/maps/place/Jama+Masjid+Ehnaf/data=!4m7!3m6!1s0x39918ba097c00641:0xa5e411014442cc7f!8m2!3d25.9571463!4d83.54757!16s%2Fg%2F11vbdmrwz5!19sChIJQQbAl6CLkTkRf8xCRAER5KU?authuser=0&hl=en&rclk=1,"25.957146299999998,83.54757"
Jamia Masjid Hussain Pura,Mosque,"WHR6+WP8 Jamia Masjid Hussain Pura, Chattar Pura-Chandpura Rd, Shaikh Damu Pura, Mau, Uttar Pradesh 275101",Shaikh Damu Pura,"WHR6+WP8, Chattar Pura-Chandpura Rd",Mau,275101,Uttar Pradesh,IN,https://www.google.com/maps/place/Jamia+Masjid+Hussain+Pura/data=!4m7!3m6!1s0x39918b7819dae58f:0x6fd937a7b6f877f8!8m2!3d25.942303!4d83.5618149!16s%2Fg%2F11srgn5dcy!19sChIJj-XaGXiLkTkR-Hf4tqc32W8?authuser=0&hl=en&rclk=1,"25.942303,83.5618149"
Uchi Masjid,Mosque,"WHJ7+C5X Uchi Masjid, Munshi Pura, Mau, Uttar Pradesh 275101",Munshi Pura,WHJ7+C5X,Mau,275101,Uttar Pradesh,IN,https://www.google.com/maps/place/Uchi+Masjid/data=!4m7!3m6!1s0x39918bd7030bc8ad:0x7193d7b14dcafb02!8m2!3d25.9311168!4d83.5629746!16s%2Fg%2F11jf9hf5g4!19sChIJrcgLA9eLkTkRAvvKTbHXk3E?authuser=0&hl=en&rclk=1,"25.931116799999998,83.56297459999999"
Jama Masjid Saidi,Mosque,"XG8M+3WG Jama Masjid Saidi, Mau, Uttar Pradesh 275101",,XG8M+3WG,Mau,,Uttar Pradesh,IN,https://www.google.com/maps/place/Jama+Masjid+Saidi/data=!4m7!3m6!1s0x39918b1d043cc3af:0xb6225e181b502a1f!8m2!3d25.9651958!4d83.5348352!16s%2Fg%2F11t2_6lv1n!19sChIJr8M8BB2LkTkRHypQGxheIrY?authuser=0&hl=en&rclk=1,"25.9651958,83.53483519999999"
Masjid Ibrahim madan pura,Mosque,"XG3R+32X Masjid Ibrahim madan pura, Mohalla Madan Pura, Mau, Uttar Pradesh 275101",Mohalla Madan Pura,XG3R+32X,Mau,275101,Uttar Pradesh,IN,https://www.google.com/maps/place/Masjid+Ibrahim+madan+pura/data=!4m7!3m6!1s0x39918b1a1e391ad3:0xd217fc3d0c77dcf9!8m2!3d25.9527288!4d83.5401193!16s%2Fg%2F11pf8tkxlp!19sChIJ0xo5HhqLkTkR-dx3DD38F9I?authuser=0&hl=en&rclk=1,"25.9527288,83.5401193"
Masjid Saira Ahle Hadees,Mosque,"WHR6+MJ2 Masjid Saira Ahle Hadees, Shaikh Damu Pura, Mau, Uttar Pradesh 275101",Shaikh Damu Pura,WHR6+MJ2,Mau,275101,Uttar Pradesh,IN,https://www.google.com/maps/place/Masjid+Saira+Ahle+Hadees/data=!4m7!3m6!1s0x39918bb1f91b8d25:0xc22ca5eba8462532!8m2!3d25.9416336!4d83.5615026!16s%2Fg%2F11sns1c5wm!19sChIJJY0b-bGLkTkRMiVGqOulLMI?authuser=0&hl=en&rclk=1,"25.9416336,83.5615026"
Sumaiya Masjid,Mosque,"WHX4+GJQ Sumaiya Masjid, Keyari Tola, Astupura, Mau, Uttar Pradesh 275101","Keyari Tola, Astupura",WHX4+GJQ,Mau,,Uttar Pradesh,IN,https://www.google.com/maps/place/Sumaiya+Masjid/data=!4m7!3m6!1s0x39918b0245b05169:0x6a401c369ef8c979!8m2!3d25.9488372!4d83.5565953!16s%2Fg%2F11g19q4ql_!19sChIJaVGwRQKLkTkRecn4njYcQGo?authuser=0&hl=en&rclk=1,"25.9488372,83.5565953"
Jama Masjid Ehnaf bdd'ii ttolaa Vishwanath Pura,Mosque,"WHW6+GCG Jama Masjid Ehnaf bdd'ii ttolaa Vishwanath Pura, Malik Tahir Pura, Mau, Maunath Bhanjan, Uttar Pradesh 275101",Malik Tahir Pura,WHW6+GCG,Mau,275101,Uttar Pradesh,IN,https://www.google.com/maps/place/Jama+Masjid+Ehnaf+%E0%A4%AC%E0%A4%A1%E0%A4%BC%E0%A4%88+%E0%A4%9F%E0%A5%8B%E0%A4%B2%E0%A4%BE+Vishwanath+Pura/data=!4m7!3m6!1s0x39918b0dae2f239b:0x344bed9cc6d50dfb!8m2!3d25.9463228!4d83.5610879!16s%2Fg%2F11t_lnp1lm!19sChIJmyMvrg2LkTkR-w3VxpztSzQ?authuser=0&hl=en&rclk=1,"25.946322799999997,83.56108789999999"
Chamanpura Masjid,Mosque,"XG5V+6FF Chamanpura Masjid, Mohalla Domanpura, Aurangabad, Mau, Uttar Pradesh 275101","Mohalla Domanpura, Aurangabad",XG5V+6FF,Mau,275101,Uttar Pradesh,IN,https://www.google.com/maps/place/Chamanpura+Masjid/data=!4m7!3m6!1s0x39918bb1f2847847:0x69a7f6852583170c!8m2!3d25.9580689!4d83.5436839!16s%2Fg%2F11hd8vfrqd!19sChIJR3iE8rGLkTkRDBeDJYX2p2k?authuser=0&hl=en&rclk=1,"25.958068899999997,83.54368389999999"
