name,main_category,address,address_ward,address_street,address_city,address_postal_code,address_state,address_country_code,link,coordinates
Masjid E Rehmania,Mosque,"Masjid E Rehmania, 14-1-105, Nehru St, Mallaiah Gunta Katta, Tata Nagar, Tirupati, Andhra Pradesh 517501","Mallaiah Gunta Katta, Tata Nagar","14-1-105, Nehru St",Tirupati,517501,Andhra Pradesh,IN,https://www.google.com/maps/place/Masjid+E+Rehmania/data=!4m7!3m6!1s0x3a4d4b063b75dd5b:0xcc3692f4c8574873!8m2!3d13.6306161!4d79.4214456!16s%2Fg%2F1tmphyf2!19sChIJW911OwZLTToRc0hXyPSSNsw?authuser=0&hl=en&rclk=1,"13.6306161,79.4214456"
Masjid E Abubakar,Mosque,"JC98+5J8 Masjid E Abubakar, New Balaji Colony, Tirupati, Andhra Pradesh 517501",New Balaji Colony,JC98+5J8,Tirupati,517501,Andhra Pradesh,IN,https://www.google.com/maps/place/Masjid+E+Abubakar/data=!4m7!3m6!1s0x3a4d4b72d477c789:0xfdf66429508fe6!8m2!3d13.6179217!4d79.4165905!16s%2Fg%2F11fzb0ysgs!19sChIJicd31HJLTToR5o9QKWT2_QA?authuser=0&hl=en&rclk=1,"13.6179217,79.4165905"
Rabbani Masjid,Mosque,"JCP8+GF9 Rabbani Masjid, Gali St Nehru Nagar, of, Tirupati, Andhra Pradesh 517501",of,"JCP8+GF9, Gali St Nehru Nagar",Tirupati,517501,Andhra Pradesh,IN,https://www.google.com/maps/place/Rabbani+Masjid/data=!4m7!3m6!1s0x3a4d4b036dd8e1d5:0x7cd3259ece1bdf1d!8m2!3d13.6362933!4d79.4162452!16s%2Fg%2F1td70f4f!19sChIJ1eHYbQNLTToRHd8bzp4l03w?authuser=0&hl=en&rclk=1,"13.6362933,79.41624519999999"
Hamja Masjid,Mosque,"JCH4+7FQ Hamja Masjid, Oppsite Arts and Science University College, Anantapur - Tirupati Hwy, Prakasam Nagar Colony, Sri Padmavati Mahila Visvavidyalayam, Tirupati, Andhra Pradesh 517502","Prakasam Nagar Colony, Sri Padmavati Mahila Visvavidyalayam","JCH4+7FQ, Oppsite Arts and Science University College, Anantapur - Tirupati Hwy",Tirupati,517502,Andhra Pradesh,IN,https://www.google.com/maps/place/Hamja+Masjid/data=!4m7!3m6!1s0x3a4d4b171338504b:0x8d61832e7943f8b2!8m2!3d13.6282138!4d79.4062473!16s%2Fg%2F11h9rxvg6g!19sChIJS1A4ExdLTToRsvhDeS6DYY0?authuser=0&hl=en&rclk=1,"13.6282138,79.40624729999999"
Macca Masjid,Mosque,"JCCF+F8C Macca Masjid, STV Nagar, Tirupati, Andhra Pradesh 517501",STV Nagar,JCCF+F8C,Tirupati,517501,Andhra Pradesh,IN,https://www.google.com/maps/place/Macca+Masjid/data=!4m7!3m6!1s0x3a4d4b0af78afe17:0xf29b5fdb6b0c6285!8m2!3d13.6211766!4d79.423278!16s%2Fg%2F11dzxgzzy6!19sChIJF_6K9wpLTToRhWIMa9tfm_I?authuser=0&hl=en&rclk=1,"13.6211766,79.423278"
Masjid E Khadeem,Mosque,"293, Masjid E Khadeem, P P, Chavadi St, Balaji Colony, Tirupati, Andhra Pradesh 517501",Balaji Colony,"293, P P, Chavadi St",Tirupati,517501,Andhra Pradesh,IN,https://www.google.com/maps/place/Masjid+E+Khadeem/data=!4m7!3m6!1s0x3a4d4b1ac54c1fc1:0xa0ce83f31698385d!8m2!3d13.6314434!4d79.4135852!16s%2Fg%2F1pyqfy3ky!19sChIJwR9MxRpLTToRXTiYFvODzqA?authuser=0&hl=en&rclk=1,"13.6314434,79.4135852"
Masjid E Madeena,Mosque,"JCQJ+QFP Masjid E Madeena, Ramalaya Rd, Sanjay Gandhi Colony, Kothapalli, Tirupati, Andhra Pradesh 517501","Sanjay Gandhi Colony, Kothapalli","JCQJ+QFP, Ramalaya Rd",Tirupati,517501,Andhra Pradesh,IN,https://www.google.com/maps/place/Masjid+E+Madeena/data=!4m7!3m6!1s0x3a4d4bab62cf25f7:0x301fb0799ff63e35!8m2!3d13.6394529!4d79.4312!16s%2Fg%2F11d_6g62y6!19sChIJ9yXPYqtLTToRNT72n3mwHzA?authuser=0&hl=en&rclk=1,"13.6394529,79.43119999999999"
Masjide Noorani,Mosque,"JCP5+HV7 Masjide Noorani, Nehru Nagar, Tirupati, Andhra Pradesh 517501",Nehru Nagar,JCP5+HV7,Tirupati,517501,Andhra Pradesh,IN,https://www.google.com/maps/place/Masjide+Noorani/data=!4m7!3m6!1s0x3a4d4b1c1586d3c5:0xe40e118c56b12ac6!8m2!3d13.6364156!4d79.4096826!16s%2Fg%2F1pyqv_750!19sChIJxdOGFRxLTToRxiqxVowRDuQ?authuser=0&hl=en&rclk=1,"13.6364156,79.4096826"
MASJID-E-QUBA,Mosque,"JC9Q+F8R MASJID-E-QUBA, Korramenugunta, Tirupati, Andhra Pradesh 517501",Korramenugunta,JC9Q+F8R,Tirupati,517501,Andhra Pradesh,IN,https://www.google.com/maps/place/MASJID-E-QUBA/data=!4m7!3m6!1s0x3a4d4b97de861729:0xa65410b3bfe34079!8m2!3d13.6187451!4d79.4382505!16s%2Fg%2F11f03zx2pn!19sChIJKReG3pdLTToReUDjv7MQVKY?authuser=0&hl=en&rclk=1,"13.6187451,79.4382505"
Masjid E Firdos Ahle Hadees,Mosque,"Masjid E Firdos Ahle Hadees, 13-5-531/f4a, 3rd Rd, Mallaiah Gunta Katta, Tata Nagar, Tirupati, Andhra Pradesh 517501","Mallaiah Gunta Katta, Tata Nagar","13-5-531/f4a, 3rd Rd",Tirupati,517501,Andhra Pradesh,IN,https://www.google.com/maps/place/Masjid+E+Firdos+Ahle+Hadees/data=!4m7!3m6!1s0x3a4d4b07834149dd:0x114cd4f0566ccea8!8m2!3d13.6324095!4d79.4246983!16s%2Fg%2F11c3x9nrgr!19sChIJ3UlBgwdLTToRqM5sVvDUTBE?authuser=0&hl=en&rclk=1,"13.6324095,79.4246983"
Masjid E Kareem,Mosque,"JCRH+C82 Masjid E Kareem, Korlagunta, Tirupati, Andhra Pradesh 517501",Korlagunta,JCRH+C82,Tirupati,517501,Andhra Pradesh,IN,https://www.google.com/maps/place/Masjid+E+Kareem/data=!4m7!3m6!1s0x3a4d4bab29c9d6ad:0xec2a5c37d50a5d77!8m2!3d13.6410163!4d79.4282681!16s%2Fg%2F11g8k09wdx!19sChIJrdbJKatLTToRd10K1TdcKuw?authuser=0&hl=en&rclk=1,"13.641016299999999,79.4282681"
Ahle Sunnath Wal Jamath Masjid-E-Taufeeque,Mosque,"JCGP+H56 Ahle Sunnath Wal Jamath Masjid-E-Taufeeque, Korramenugunta, Tirupati, Andhra Pradesh 517501",Korramenugunta,JCGP+H56,Tirupati,517501,Andhra Pradesh,IN,https://www.google.com/maps/place/Ahle+Sunnath+Wal+Jamath+Masjid-E-Taufeeque/data=!4m7!3m6!1s0x3a4d4ba4c03ef125:0xd12d1e24c3a37eab!8m2!3d13.6264148!4d79.4353835!16s%2Fg%2F1pyqfl9mz!19sChIJJfE-wKRLTToRq36jwyQeLdE?authuser=0&hl=en&rclk=1,"13.6264148,79.4353835"
Madhav Puram Masjid,Mosque,"MC3J+MRR Madhav Puram Masjid, Shiv Jyoti Nagar, Tirupati, Andhra Pradesh 517507",Shiv Jyoti Nagar,MC3J+MRR,Tirupati,517507,Andhra Pradesh,IN,https://www.google.com/maps/place/Madhav+Puram+Masjid/data=!4m7!3m6!1s0x3a4d4a5a16912b63:0x2bbf330cb5e94ca9!8m2!3d13.654241!4d79.432004!16s%2Fg%2F1pyqg7bt2!19sChIJYyuRFlpKTToRqUzptQwzvys?authuser=0&hl=en&rclk=1,"13.654240999999999,79.43200399999999"
Masjid E Mubarak Musalla Tirupati,Mosque,"JCG8+FP8 Masjid E Mubarak Musalla Tirupati, Royal Nagar, Tirupati, Andhra Pradesh 517501",Royal Nagar,JCG8+FP8,Tirupati,517501,Andhra Pradesh,IN,https://www.google.com/maps/place/Masjid+E+Mubarak+Musalla+Tirupati/data=!4m7!3m6!1s0x3a4d4b0ef883aa97:0x7316a5e9a9d7d06!8m2!3d13.6261531!4d79.416823!16s%2Fg%2F11c70btx5v!19sChIJl6qD-A5LTToRBn2dml5qMQc?authuser=0&hl=en&rclk=1,"13.6261531,79.416823"
Masjid-E-Maalik,Mosque,"JFJ2+23Q Masjid-E-Maalik, Poollavanigunta, Renigunta Rd, Tirupati, Andhra Pradesh",SV Auto Nagar,"JFJ2+23Q, Poollavanigunta, Renigunta Rd",Tirupati,,Andhra Pradesh,IN,https://www.google.com/maps/place/Masjid-E-Maalik/data=!4m7!3m6!1s0x3a4d4b0c272c1d47:0x152d664e51b68137!8m2!3d13.6300928!4d79.4502289!16s%2Fg%2F11gv1343wv!19sChIJRx0sJwxLTToRN4G2UU5mLRU?authuser=0&hl=en&rclk=1,"13.6300928,79.4502289"
Azam Masjid,Mosque,"JGP4+54G Azam Masjid, G M St, Gowri Nagar, Renigunta, Tirupati, Andhra Pradesh 517520",Gowri Nagar,"JGP4+54G, G M St","Renigunta, Tirupati",517520,Andhra Pradesh,IN,https://www.google.com/maps/place/Azam+Masjid/data=!4m7!3m6!1s0x3a4d4904de8fed81:0x2d868b7fed7eb690!8m2!3d13.6354479!4d79.5053314!16s%2Fg%2F11dft032g5!19sChIJge2P3gRJTToRkLZ-7X-Lhi0?authuser=0&hl=en&rclk=1,"13.635447899999999,79.5053314"
JAMIA MASJID MARKAZ,Mosque,"JCJ7+P76 JAMIA MASJID MARKAZ, Balaji Colony, Tirupati, Andhra Pradesh 517501",Balaji Colony,JCJ7+P76,Tirupati,517501,Andhra Pradesh,IN,https://www.google.com/maps/place/JAMIA+MASJID+MARKAZ/data=!4m7!3m6!1s0x3a4d4b1adb9c141f:0xee2b65b5ed99a91f!8m2!3d13.631795!4d79.4131259!16s%2Fg%2F1tdvhlj6!19sChIJHxSc2xpLTToRH6mZ7bVlK-4?authuser=0&hl=en&rclk=1,"13.631794999999999,79.4131259"
Masjid E Talha,Mosque,"JCWF+672 Masjid E Talha, Unnamed Road, Sapthagiri Nagar, Khadi Colony, Tirupati, Andhra Pradesh 517501","Sapthagiri Nagar, Khadi Colony","JCWF+672, Unnamed Road",Tirupati,517501,Andhra Pradesh,IN,https://www.google.com/maps/place/Masjid+E+Talha/data=!4m7!3m6!1s0x3a4d4aff1875bb85:0xb267653869d6ec15!8m2!3d13.6455144!4d79.4231436!16s%2Fg%2F11hcnb7pyk!19sChIJhbt1GP9KTToRFezWaThlZ7I?authuser=0&hl=en&rclk=1,"13.6455144,79.4231436"
Masjid E Dasyanagunta Tirupati,Mosque,"JCMF+XQW Masjid E Dasyanagunta Tirupati, Kotramangalam, Tirupati, Andhra Pradesh 517501",Kotramangalam,JCMF+XQW,Tirupati,517501,Andhra Pradesh,IN,https://www.google.com/maps/place/Masjid+E+Dasyanagunta+Tirupati/data=!4m7!3m6!1s0x3a4d4b0739b7ec05:0x898710d421263f35!8m2!3d13.6349952!4d79.4244539!16s%2Fg%2F11g6rlk4cr!19sChIJBey3OQdLTToRNT8mIdQQh4k?authuser=0&hl=en&rclk=1,"13.634995199999999,79.4244539"
Masjid -E- Bilal,Mosque,"JCR7+JX2 Masjid -E- Bilal, Srinivasa Nagar, Singalagunta, Tirupati, Andhra Pradesh 517507","Srinivasa Nagar, Singalagunta",JCR7+JX2,Tirupati,517507,Andhra Pradesh,IN,https://www.google.com/maps/place/Masjid+-E-+Bilal/data=!4m7!3m6!1s0x3a4d4afd5a463c8b:0xa3fba3b133b499ad!8m2!3d13.6415247!4d79.414906!16s%2Fg%2F11cm11g5xr!19sChIJizxGWv1KTToRrZm0M7Gj-6M?authuser=0&hl=en&rclk=1,"13.6415247,79.414906"
Masjid-e-Abdul Khadar,Mosque,"JC4H+RJ7 Masjid-e-Abdul Khadar, Drivers Colony Oteru Vedantapuram Panchayat, Tirupati, 517507",,"JC4H+RJ7, Drivers Colony Oteru Vedantapuram Panchayat",Tirupati,517507,Andhra Pradesh,IN,https://www.google.com/maps/place/Masjid-e-Abdul+Khadar/data=!4m7!3m6!1s0x3a4d4b51951e62ef:0xbc40a5ec865bbad7!8m2!3d13.607042!4d79.4290582!16s%2Fg%2F11f67jx2b5!19sChIJ72IelVFLTToR17pbhuylQLw?authuser=0&hl=en&rclk=1,"13.607042,79.4290582"
Noorani Masjid - Muslimpeta,Mosque,"Noorani Masjid - Muslimpeta, Muslimpeta,Kaloor cross, Perumalapalli, post, Tirupati, Andhra Pradesh 517505",,"Muslimpeta,Kaloor cross, Perumalapalli, post",Tirupati,517505,Andhra Pradesh,IN,https://www.google.com/maps/place/Noorani+Masjid+-+Muslimpeta/data=!4m7!3m6!1s0x3bb2b5656282c611:0x1da833c256bd3cb0!8m2!3d13.6030185!4d79.338144!16s%2Fg%2F11f3n168n1!19sChIJEcaCYmW1sjsRsDy9VsIzqB0?authuser=0&hl=en&rclk=1,"13.6030185,79.338144"
Jamiya Masjid,Mosque,"JH52+7PQ Jamiya Masjid, Papanayidu Pet, Andhra Pradesh 517526",,JH52+7PQ,Papanayidu Pet,517526,Andhra Pradesh,IN,https://www.google.com/maps/place/Jamiya+Masjid/data=!4m7!3m6!1s0x3a4d48ae5fef5b25:0xbb4eb9204a01fdd4!8m2!3d13.6082219!4d79.5518521!16s%2Fg%2F11c5h2fflq!19sChIJJVvvX65ITToR1P0BSiC5Trs?authuser=0&hl=en&rclk=1,"13.6082219,79.55185209999999"
Macca Masjid,Mosque,"JFMW+82V Macca Masjid, Renigunta, Tirupati, Andhra Pradesh 517520",,JFMW+82V,"Renigunta, Tirupati",,Andhra Pradesh,IN,https://www.google.com/maps/place/Macca+Masjid/data=!4m7!3m6!1s0x3a4d495686d7c3fd:0x9521e092b31c4568!8m2!3d13.6333723!4d79.4950587!16s%2Fg%2F11g1j5nf9s!19sChIJ_cPXhlZJTToRaEUcs5LgIZU?authuser=0&hl=en&rclk=1,"13.6333723,79.4950587"
Masjid E Ummar,Mosque,"MGP3+333 Masjid E Ummar, Tirupati, Andhra Pradesh 517520",,MGP3+333,Tirupati,,Andhra Pradesh,IN,https://www.google.com/maps/place/Masjid+E+Ummar/data=!4m7!3m6!1s0x3a4d49f672b28e69:0xdc6d967959179944!8m2!3d13.6851279!4d79.5026631!16s%2Fg%2F11ghpzg89x!19sChIJaY6ycvZJTToRRJkXWXmWbdw?authuser=0&hl=en&rclk=1,"13.6851279,79.50266309999999"
Masjid E Raunaq,Mosque,"MF36+6X5 Masjid E Raunaq, Kadapa - Tirupati Rd, Mangalam, Tirupati, Andhra Pradesh 517507",Mangalam,"MF36+6X5, Kadapa - Tirupati Rd",Tirupati,,Andhra Pradesh,IN,https://www.google.com/maps/place/Masjid+E+Raunaq/data=!4m7!3m6!1s0x3a4d4bc71c66777f:0x7cdc50cb3dbe2a2d!8m2!3d13.6530022!4d79.4624951!16s%2Fg%2F11f631ch7j!19sChIJf3dmHMdLTToRLSq-PctQ3Hw?authuser=0&hl=en&rclk=1,"13.6530022,79.4624951"
MASJID E UMAR FAROOQ,Mosque,"JC72+4QF MASJID E UMAR FAROOQ, Gandhipuram Colony, Srinagar, Tirupati, Andhra Pradesh 517502","Gandhipuram Colony, Srinagar",JC72+4QF,Tirupati,517502,Andhra Pradesh,IN,https://www.google.com/maps/place/MASJID+E+UMAR+FAROOQ/data=!4m7!3m6!1s0x3a4d4b3092e04ceb:0xfcff4b48b0ddc06b!8m2!3d13.612817!4d79.4019256!16s%2Fg%2F11j125nktx!19sChIJ60zgkjBLTToRa8DdsEhL__w?authuser=0&hl=en&rclk=1,"13.612817,79.4019256"
Masjid E Hamza,Mosque,"JCJ7+P74 Masjid E Hamza, Kola Rd, Balaji Colony, Tirupati, Andhra Pradesh 517501",Balaji Colony,"JCJ7+P74, Kola Rd",Tirupati,517501,Andhra Pradesh,IN,https://www.google.com/maps/place/Masjid+E+Hamza/data=!4m7!3m6!1s0x3a4d4b1adbaf2899:0xfb36a9e439929a77!8m2!3d13.631755!4d79.413208!16s%2Fg%2F1pyqq3dg7!19sChIJmSiv2xpLTToRd5qSOeSpNvs?authuser=0&hl=en&rclk=1,"13.631755,79.413208"
Ameena Masjid,Mosque,"X87W+RWX Ameena Masjid, Jagadampalli, Koduru, Andhra Pradesh 516101",Jagadampalli,X87W+RWX,Koduru,516101,Andhra Pradesh,IN,https://www.google.com/maps/place/Ameena+Masjid/data=!4m7!3m6!1s0x3bb2d49b453796ef:0xafc85298ecc08adc!8m2!3d13.9646082!4d79.3473551!16s%2Fg%2F11hbpks9wm!19sChIJ75Y3RZvUsjsR3IrA7JhSyK8?authuser=0&hl=en&rclk=1,"13.964608199999999,79.3473551"
MASJID -E- ROSHAN,Mosque,"H9XX+2G3 MASJID -E- ROSHAN, Mallamgunta, Tirupati, Andhra Pradesh 517505",,H9XX+2G3,"Mallamgunta, Tirupati",517505,Andhra Pradesh,IN,https://www.google.com/maps/place/MASJID+-E-+ROSHAN/data=!4m7!3m6!1s0x3a4d4b69dadc791f:0x4289cc09f853409d!8m2!3d13.5975056!4d79.3987825!16s%2Fg%2F11flbsfb1f!19sChIJH3nc2mlLTToRnUBT-AnMiUI?authuser=0&hl=en&rclk=1,"13.5975056,79.3987825"
Madina Masjid,Mosque,"MF46+MF5 Madina Masjid, Unnamed Road, Sapthagiri Colony, Mangalam, Tirupati, Andhra Pradesh 517507","Sapthagiri Colony, Mangalam","MF46+MF5, Unnamed Road",Tirupati,517507,Andhra Pradesh,IN,https://www.google.com/maps/place/Madina+Masjid/data=!4m7!3m6!1s0x3a4d4b9901629411:0x5e8ae7e5877f13e2!8m2!3d13.6566375!4d79.4612344!16s%2Fg%2F11h7cvfnm6!19sChIJEZRiAZlLTToR4hN_h-Xnil4?authuser=0&hl=en&rclk=1,"13.656637499999999,79.4612344"
MASJID-E-UMAR FAROOQ(RADI ALLAHU ANHU) Ahle Hadees,Mosque,"JGGM+658 MASJID-E-UMAR FAROOQ(RADI ALLAHU ANHU) Ahle Hadees, Tirupati, Andhra Pradesh 517520",,JGGM+658,Tirupati,,Andhra Pradesh,IN,https://www.google.com/maps/place/MASJID-E-UMAR+FAROOQ%28RADI+ALLAHU+ANHU%29+Ahle+Hadees/data=!4m7!3m6!1s0x3a4d499ef7dd148f:0x5ac4f72097872d2c!8m2!3d13.6255298!4d79.5329668!16s%2Fg%2F11g_tf45t5!19sChIJjxTd955JTToRLC2HlyD3xFo?authuser=0&hl=en&rclk=1,"13.625529799999999,79.5329668"
Faisal Mosque,Mosque,"HG2F+3RM Faisal Mosque, Vadamalapet, Andhra Pradesh 517551",,HG2F+3RM,Vadamalapet,517551,Andhra Pradesh,IN,https://www.google.com/maps/place/Faisal+Mosque/data=!4m7!3m6!1s0x3a4d4fa8e88d4bb5:0xa5b321810393fcf8!8m2!3d13.5502105!4d79.5245486!16s%2Fg%2F11c1ww2rrq!19sChIJtUuN6KhPTToR-PyTA4Ehs6U?authuser=0&hl=en&rclk=1,"13.550210499999999,79.5245486"
Masjid-E-Usmaniya,Mosque,"Masjid-E-Usmaniya, J.P Plaza, Kothapalli, Tirupati, Andhra Pradesh 517501",Kothapalli,J.P Plaza,Tirupati,517501,Andhra Pradesh,IN,https://www.google.com/maps/place/Masjid-E-Usmaniya/data=!4m7!3m6!1s0x3a4d4bec54004b4b:0xf5c18f275ccd3e92!8m2!3d13.6352876!4d79.4310464!16s%2Fg%2F11j7vq9077!19sChIJS0sAVOxLTToRkj7NXCePwfU?authuser=0&hl=en&rclk=1,"13.6352876,79.4310464"
MAJID-E-KAUSAR,Mosque,"JFG4+JCH MAJID-E-KAUSAR, AutoNagar, SV Auto Nagar, Tirupati, Andhra Pradesh 517520","AutoNagar, SV Auto Nagar",JFG4+JCH,Tirupati,517520,Andhra Pradesh,IN,https://www.google.com/maps/place/MAJID-E-KAUSAR/data=!4m7!3m6!1s0x3a4d4bec5b6d9799:0x97ac6e2941ec5c67!8m2!3d13.6265745!4d79.4560969!16s%2Fg%2F11g2yy_jvs!19sChIJmZdtW-xLTToRZ1zsQSlurJc?authuser=0&hl=en&rclk=1,"13.6265745,79.45609689999999"
Masjid E Madina Ahle Hadees,Mosque,"JGM2+7MG Masjid E Madina Ahle Hadees, Gowri Nagar, Renigunta, Tirupati, Andhra Pradesh 517520",Gowri Nagar,JGM2+7MG,"Renigunta, Tirupati",517520,Andhra Pradesh,IN,https://www.google.com/maps/place/Masjid+E+Madina+Ahle+Hadees/data=!4m7!3m6!1s0x3a4d49c4debd9327:0x52a52410c2154e5d!8m2!3d13.63318!4d79.501713!16s%2Fg%2F11f5_3215w!19sChIJJ5O93sRJTToRXU4VwhAkpVI?authuser=0&hl=en&rclk=1,"13.63318,79.501713"
Masjid E Colony,Mosque,"F3M4+GX3 Masjid E Colony, Andhra Pradesh 517152",,F3M4+GX3,,,Andhra Pradesh,IN,https://www.google.com/maps/place/Masjid+E+Colony/data=!4m7!3m6!1s0x3bb2a2d3c273cd71:0x94d3e439316c220a!8m2!3d13.4837584!4d79.057411!16s%2Fg%2F11g02b8d5q!19sChIJcc1zwtOisjsRCiJsMTnk05Q?authuser=0&hl=en&rclk=1,"13.4837584,79.057411"
MASJID-UN-AKSAH,Mosque,"J996+MX9 MASJID-UN-AKSAH, opp:- ion, digital zone, zoo park, Tirupati, village, Cherlopalli, Andhra Pradesh",,"J996+MX9, opp:- ion, digital zone, zoo park, Tirupati, village","Cherlopalli, Tirupati",,Andhra Pradesh,IN,https://www.google.com/maps/place/MASJID-UN-AKSAH/data=!4m7!3m6!1s0x3bb2b547074f2427:0xe1d127089257286e!8m2!3d13.6191591!4d79.3624767!16s%2Fg%2F11f62s_xy7!19sChIJJyRPB0e1sjsRbihXkggn0eE?authuser=0&hl=en&rclk=1,"13.6191591,79.3624767"
Noorani Mosque,Mosque,"HF78+P65 Noorani Mosque, Pachi Kaluva, Andhra Pradesh 517551",,HF78+P65,Pachi Kaluva,517551,Andhra Pradesh,IN,https://www.google.com/maps/place/Noorani+Mosque/data=!4m7!3m6!1s0x3a4d4c26123eb443:0xe4dc25c118543ab9!8m2!3d13.564274!4d79.4656163!16s%2Fg%2F11hb4d_9bq!19sChIJQ7Q-EiZMTToRuTpUGMEl3OQ?authuser=0&hl=en&rclk=1,"13.564274,79.4656163"
"Gulab Nala Mosque, Gollavanikalva",Mosque,"H8HP+CW4 Gulab Nala Mosque, Gollavanikalva, Tirupati, Andhra Pradesh 517501",,H8HP+CW4,Tirupati,517501,Andhra Pradesh,IN,"https://www.google.com/maps/place/Gulab+Nala+Mosque,+Gollavanikalva/data=!4m7!3m6!1s0x3bb2b377bad4181b:0x267c956d0e02bbf9!8m2!3d13.5785129!4d79.3373144!16s%2Fg%2F11bzrgp0bm!19sChIJGxjUunezsjsR-bsCDm2VfCY?authuser=0&hl=en&rclk=1","13.5785129,79.3373144"
Colony Masjid,Mosque,"F3G4+2RV Colony Masjid, Damalcheruvu, Andhra Pradesh 517152",,F3G4+2RV,Damalcheruvu,,Andhra Pradesh,IN,https://www.google.com/maps/place/Colony+Masjid/data=!4m7!3m6!1s0x3bb2a2da45cd8c49:0x5cf50e4be9bb3334!8m2!3d13.4751096!4d79.0570444!16s%2Fg%2F11f3xkpzgg!19sChIJSYzNRdqisjsRNDO76UsO9Vw?authuser=0&hl=en&rclk=1,"13.4751096,79.0570444"
MASJID,Mosque,"QXQ9+9J8 MASJID, Andhra Pradesh 524123",,QXQ9+9J8,,524123,Andhra Pradesh,IN,https://www.google.com/maps/place/MASJID/data=!4m7!3m6!1s0x3a4d0c32228ba4b9:0x38c6e9afc35819e3!8m2!3d13.788408!4d79.9690874!16s%2Fg%2F11fxzmgrcz!19sChIJuaSLIjIMTToR4xlYw6_pxjg?authuser=0&hl=en&rclk=1,"13.788407999999999,79.96908739999999"
Kareem Mosque,Mosque,"JCQH+JM9 Kareem Mosque, Sanjay Gandhi Colony, Akkarampalle, Tirupati, Andhra Pradesh 517501","Sanjay Gandhi Colony, Akkarampalle",JCQH+JM9,Tirupati,517501,Andhra Pradesh,IN,https://www.google.com/maps/place/Kareem+Mosque/data=!4m7!3m6!1s0x3a4d4bab0c000001:0xd07cbe187f07bf61!8m2!3d13.6390407!4d79.4292399!16s%2Fg%2F11b8v9rqyf!19sChIJAQAADKtLTToRYb8Hfxi-fNA?authuser=0&hl=en&rclk=1,"13.639040699999999,79.4292399"
Masjid -E- Ihsania,Mosque,"Masjid -E- Ihsania, 3/180, S N Puram, Annamaiya Nagar, Tirupati, Andhra Pradesh 517507","S N Puram, Annamaiya Nagar",3/180,Tirupati,517507,Andhra Pradesh,IN,https://www.google.com/maps/place/Masjid+-E-+Ihsania/data=!4m7!3m6!1s0x3a4d4b49d0fe0e9f:0xf67f788094acd277!8m2!3d13.6480538!4d79.4314236!16s%2Fg%2F11fmy0dd7c!19sChIJnw7-0ElLTToRd9KslIB4f_Y?authuser=0&hl=en&rclk=1,"13.6480538,79.4314236"
Masjid E Karimunnisa Begum,Mosque,"JCQC+427 Masjid E Karimunnisa Begum, Bhavani Nagar, Tirupati, Andhra Pradesh 517501",Bhavani Nagar,JCQC+427,Tirupati,517501,Andhra Pradesh,IN,https://www.google.com/maps/place/Masjid+E+Karimunnisa+Begum/data=!4m7!3m6!1s0x3a4d4b25f96b3957:0xcc6887d7aba4c1c1!8m2!3d13.6377778!4d79.4200624!16s%2Fg%2F11nm_wy8gm!19sChIJVzlr-SVLTToRwcGkq9eHaMw?authuser=0&hl=en&rclk=1,"13.637777799999999,79.42006239999999"
Masjid E Usmaniya,Mosque,"MFMV+7Q7 Masjid E Usmaniya, Chittoor, Tirupati, Andhra Pradesh 517507",,MFMV+7Q7,"Chittoor, Tirupati",,Andhra Pradesh,IN,https://www.google.com/maps/place/Masjid+E+Usmaniya/data=!4m7!3m6!1s0x3a4d49ddc191290d:0x8f5a78afd0c74f7d!8m2!3d13.683152!4d79.4944255!16s%2Fg%2F11hbgsn7_9!19sChIJDSmRwd1JTToRfU_H0K94Wo8?authuser=0&hl=en&rclk=1,"13.683152,79.49442549999999"
Mosque,Mosque,"HCM5+55F Mosque, Tirupati, Andhra Pradesh 517561",,HCM5+55F,Tirupati,,Andhra Pradesh,IN,https://www.google.com/maps/place/Mosque/data=!4m7!3m6!1s0x3a4d4dfc0a334583:0x6f4b765c8a61d51a!8m2!3d13.5829319!4d79.4079285!16s%2Fg%2F11gsmk3757!19sChIJg0UzCvxNTToRGtVhilx2S28?authuser=0&hl=en&rclk=1,"13.5829319,79.4079285"
Masjid E Mohammedia Ahle Hadees,Mosque,"JGP4+X57 Masjid E Mohammedia Ahle Hadees, Gowri Nagar, Renigunta, Tirupati, Andhra Pradesh 517520",Gowri Nagar,JGP4+X57,"Renigunta, Tirupati",517520,Andhra Pradesh,IN,https://www.google.com/maps/place/Masjid+E+Mohammedia+Ahle+Hadees/data=!4m7!3m6!1s0x3a4d49f7f7fc2613:0xb8c0bcf3e38950d7!8m2!3d13.6374131!4d79.5054153!16s%2Fg%2F11f5_316xr!19sChIJEyb89_dJTToR11CJ4_O8wLg?authuser=0&hl=en&rclk=1,"13.6374131,79.5054153"
abbu bkaar msjiid,Mosque,"HC6C+746 abbu bkaar msjiid, Kuntrapakam, Andhra Pradesh 517561",,HC6C+746,Kuntrapakam,517561,Andhra Pradesh,IN,https://www.google.com/maps/place/%E0%B0%85%E0%B0%AC%E0%B1%8D%E0%B0%AC%E0%B1%81+%E0%B0%AC%E0%B0%95%E0%B0%BE%E0%B0%B0%E0%B1%8D+%E0%B0%AE%E0%B0%B8%E0%B1%8D%E0%B0%9C%E0%B1%80%E0%B0%A6%E0%B1%8D/data=!4m7!3m6!1s0x3a4d4cf9fa55ff2b:0xef313deb4e489da2!8m2!3d13.5606514!4d79.4202767!16s%2Fg%2F11d_9gt4_w!19sChIJK_9V-vlMTToRop1ITus9Me8?authuser=0&hl=en&rclk=1,"13.5606514,79.4202767"
Muslims Idgah & Dargahs,Place of worship,"JCG2+PJH Muslims Idgah & Dargahs, Gandhi Rd, Sri Padmavati Mahila Visvavidyalayam, Tirupati, Andhra Pradesh 517502",Sri Padmavati Mahila Visvavidyalayam,"JCG2+PJH, Gandhi Rd",Tirupati,517502,Andhra Pradesh,IN,https://www.google.com/maps/place/Muslims+Idgah+%26+Dargahs/data=!4m7!3m6!1s0x3a4d4b3d6d70a8bd:0x11bf13a56ac59f43!8m2!3d13.626818!4d79.401608!16s%2Fg%2F1pyqjs3bd!19sChIJvahwbT1LTToRQ5_FaqUTvxE?authuser=0&hl=en&rclk=1,"13.626818,79.401608"
Masjid E Hasen,Mosque,"HCCR+JJP Masjid E Hasen, TP Rd - Venkataramapuram Rd, Thanapalle, Andhra Pradesh 517503",,"HCCR+JJP, TP Rd - Venkataramapuram Rd",Thanapalle,517503,Andhra Pradesh,IN,https://www.google.com/maps/place/Masjid+E+Hasen/data=!4m7!3m6!1s0x3a4d4de2072cfeb1:0xff642970c14316f2!8m2!3d13.5715755!4d79.4415752!16s%2Fg%2F11j6s8g7_8!19sChIJsf4sB-JNTToR8hZDwXApZP8?authuser=0&hl=en&rclk=1,"13.5715755,79.4415752"
Masjid-e-Ali,Mosque,"JF98+CX5 Masjid-e-Ali, Tirupati, Andhra Pradesh 517520",,JF98+CX5,Tirupati,517520,Andhra Pradesh,IN,https://www.google.com/maps/place/Masjid-e-Ali/data=!4m7!3m6!1s0x3a4d4b30d300fcd7:0x6415007562f708be!8m2!3d13.6178321!4d79.4678912!16s%2Fg%2F11p12lvqyh!19sChIJ1_wA0zBLTToRvgj3YnUAFWQ?authuser=0&hl=en&rclk=1,"13.6178321,79.4678912"
masjid e rehman,Mosque,"MGJ2+9CG masjid e rehman, Tirupati, Andhra Pradesh 517520",,MGJ2+9CG,Tirupati,517520,Andhra Pradesh,IN,https://www.google.com/maps/place/masjid+e+rehman/data=!4m7!3m6!1s0x3a4d4900b7aea967:0x8c5ff8c1fb38cd90!8m2!3d13.6809334!4d79.5010903!16s%2Fg%2F11k9pd2fpk!19sChIJZ6mutwBJTToRkM04-8H4X4w?authuser=0&hl=en&rclk=1,"13.680933399999999,79.5010903"
Hidayatul Masjid,Mosque,"JGVC+5JQ Hidayatul Masjid, Guravarajupalli village , Renigunta mandalam, Tirupati, Andhra Pradesh 517520",,"JGVC+5JQ, Guravarajupalli village , Renigunta mandalam",Tirupati,517520,Andhra Pradesh,IN,https://www.google.com/maps/place/Hidayatul+Masjid/data=!4m7!3m6!1s0x3a4d49c2e10a861f:0xbe4abf03891fe6f4!8m2!3d13.6429699!4d79.5216006!16s%2Fg%2F11h7drh2t7!19sChIJH4YK4cJJTToR9OYfiQO_Sr4?authuser=0&hl=en&rclk=1,"13.642969899999999,79.5216006"
Masjid,Mosque,"JGM3+9RH Masjid, Gowri Nagar, Tirupati, Andhra Pradesh 517520",Gowri Nagar,JGM3+9RH,Tirupati,517520,Andhra Pradesh,IN,https://www.google.com/maps/place/Masjid/data=!4m7!3m6!1s0x3a4d49767bd3d545:0x10a459be5e717d6b!8m2!3d13.6334447!4d79.5046142!16s%2Fg%2F11g1gn8x4z!19sChIJRdXTe3ZJTToRa31xXr5ZpBA?authuser=0&hl=en&rclk=1,"13.6334447,79.50461419999999"
Jama Masjid,Mosque,"PFW6+GHF Jama Masjid, Mamanduru, Andhra Pradesh 517619",,PFW6+GHF,Mamanduru,517619,Andhra Pradesh,IN,https://www.google.com/maps/place/Jama+Masjid/data=!4m7!3m6!1s0x3a4d351ab663f2d5:0xb23fa5c7f620ede9!8m2!3d13.7463195!4d79.4614367!16s%2Fg%2F11hdjcbms4!19sChIJ1fJjtho1TToR6e0g9selP7I?authuser=0&hl=en&rclk=1,"13.7463195,79.4614367"
Eidgah Muslimpeta,Mosque,"Eidgah Muslimpeta, Muslimpeta,kaloor cross,perumallapalle, post, Tiruapti, Tirupati, Andhra Pradesh 517505",Tiruapti,"Muslimpeta,kaloor cross,perumallapalle, post",Tirupati,517505,Andhra Pradesh,IN,https://www.google.com/maps/place/Eidgah+Muslimpeta/data=!4m7!3m6!1s0x3bb2b5e112b93d37:0x28f8470a1739dc51!8m2!3d13.6037753!4d79.3365174!16s%2Fg%2F11hf91bzv8!19sChIJNz25EuG1sjsRUdw5FwpH-Cg?authuser=0&hl=en&rclk=1,"13.603775299999999,79.33651739999999"
Eidgah Mamandur,Mosque,"PFX6+526 Eidgah Mamandur, Mamandur, Andhra Pradesh 517619",,PFX6+526,Mamandur,,Andhra Pradesh,IN,https://www.google.com/maps/place/Eidgah+Mamandur/data=!4m7!3m6!1s0x3a4d350d33068f9d:0x122fcf156587fa8e!8m2!3d13.7479216!4d79.4600121!16s%2Fg%2F11gk7fkyh8!19sChIJnY8GMw01TToRjvqHZRXPLxI?authuser=0&hl=en&rclk=1,"13.7479216,79.4600121"
Masjid -E- Kausar,School,"JFG4+HGG Masjid -E- Kausar, Unnamed Road, AutoNagar, SV Auto Nagar, Tirupati, Andhra Pradesh 517520","AutoNagar, SV Auto Nagar","JFG4+HGG, Unnamed Road",Tirupati,517520,Andhra Pradesh,IN,https://www.google.com/maps/place/Masjid+-E-+Kausar/data=!4m7!3m6!1s0x3a4d4bc462896787:0xee409350b69da171!8m2!3d13.6264376!4d79.4563426!16s%2Fg%2F11f3d9xr4g!19sChIJh2eJYsRLTToRcaGdtlCTQO4?authuser=0&hl=en&rclk=1,"13.6264376,79.4563426"
Hazrat rahamtullah sha Qhadri(RA) DARGAH SHRINE,Shrine,"JCG2+6R8 Hazrat rahamtullah sha Qhadri(RA) DARGAH SHRINE, Sri Venkateswara University Rd, Prakasam Nagar Colony, Sri Padmavati Mahila Visvavidyalayam, Tirupati, Andhra Pradesh 517502","Prakasam Nagar Colony, Sri Padmavati Mahila Visvavidyalayam","JCG2+6R8, Sri Venkateswara University Rd",Tirupati,517502,Andhra Pradesh,IN,https://www.google.com/maps/place/Hazrat+rahamtullah+sha+Qhadri%28RA%29+DARGAH+SHRINE/data=!4m7!3m6!1s0x3a4d4b25ba5efc5d:0x45eef2b58c75b96c!8m2!3d13.6255435!4d79.4020893!16s%2Fg%2F11t5k97jdf!19sChIJXfxeuiVLTToRbLl1jLXy7kU?authuser=0&hl=en&rclk=1,"13.6255435,79.4020893"
Akbar Musallah,Mosque,"JCMC+XQQ Akbar Musallah, Kotramangalam, Tirupati, Andhra Pradesh 517501",Kotramangalam,JCMC+XQQ,Tirupati,517501,Andhra Pradesh,IN,https://www.google.com/maps/place/Akbar+Musallah/data=!4m7!3m6!1s0x3a4d4beb9b5bd45f:0x398ef6650a036d0c!8m2!3d13.6348746!4d79.421879!16s%2Fg%2F11smnrwcjz!19sChIJX9Rbm-tLTToRDG0DCmX2jjk?authuser=0&hl=en&rclk=1,"13.6348746,79.42187899999999"
Masjide Mohammedia,Mosque,"JC89+VXW Masjide Mohammedia, Ramalingeshwara Colony near ORR ring road telangana, state 501301","Lingeswar Nagar, Bairagi patteda","JC89+VXW, Ramalingeshwara Colony near ORR ring road telangana",Tirupati,state 501301,Andhra Pradesh,IN,https://www.google.com/maps/place/Masjide+Mohammedia/data=!4m7!3m6!1s0x3a4d4bb888423863:0x31205afe75d7f5dd!8m2!3d13.6172312!4d79.419938!16s%2Fg%2F11fn64x_qw!19sChIJYzhCiLhLTToR3fXXdf5aIDE?authuser=0&hl=en&rclk=1,"13.617231199999999,79.419938"
Masjid e hamjaa,Mosque,"HGM7+C6 Masjid e hamjaa, Desamma Nagar, Andhra Pradesh 517520",,HGM7+C6,Desamma Nagar,,Andhra Pradesh,IN,https://www.google.com/maps/place/Masjid+e+hamjaa/data=!4m7!3m6!1s0x3a4d4f32d7c735f7:0x3b8e9136cb4c9d4c!8m2!3d13.5835779!4d79.5130987!16s%2Fg%2F11smgml_kd!19sChIJ9zXH1zJPTToRTJ1MyzaRjjs?authuser=0&hl=en&rclk=1,"13.5835779,79.5130987"
Masjid E Ali RZA,Youth social services organization,"Masjid E Ali RZA, PHC Centre, Indiramma Housing Colony, Daminedu, Tirupati, Andhra Pradesh 517503",,"PHC Centre, Indiramma Housing Colony, Daminedu",Tirupati,517503,Andhra Pradesh,IN,https://www.google.com/maps/place/Masjid+E+Ali+RZA/data=!4m7!3m6!1s0x3a4d4bb69b9fb963:0x1569aa729baf47bf!8m2!3d13.6143367!4d79.4638118!16s%2Fg%2F11sd1wr1pq!19sChIJY7mfm7ZLTToRv0evm3KqaRU?authuser=0&hl=en&rclk=1,"13.614336699999999,79.4638118"
Eid Ga,Mosque,"MGM2+F2G Eid Ga, Karakambadi Rd, Tirupati, Andhra Pradesh 517520",,"MGM2+F2G, Karakambadi Rd",Tirupati,,Andhra Pradesh,IN,https://www.google.com/maps/place/Eid+Ga/data=!4m7!3m6!1s0x3a4d49e09e36d3dd:0x8bc8bb73e31f3f27!8m2!3d13.6836828!4d79.5000717!16s%2Fg%2F11g25g8hb4!19sChIJ3dM2nuBJTToRJz8f43O7yIs?authuser=0&hl=en&rclk=1,"13.6836828,79.50007169999999"
Abu Ubaida Masjidh/mosque,Mosque,"JCPR+GR2 Abu Ubaida Masjidh/mosque, Sujatha Nagar, Mangalam, Tirupati, Andhra Pradesh 517501","Sujatha Nagar, Mangalam",JCPR+GR2,Tirupati,517501,Andhra Pradesh,IN,https://www.google.com/maps/place/Abu+Ubaida+Masjidh%2Fmosque/data=!4m7!3m6!1s0x3a4d4bf052ccffe7:0x43b37827e84871d9!8m2!3d13.6354873!4d79.4418631!16s%2Fg%2F11t05x4lk6!19sChIJ5__MUvBLTToR2XFI6Cd4s0M?authuser=0&hl=en&rclk=1,"13.6354873,79.44186309999999"
QUBA MASJID,Mosque,"JC9G+PC4 QUBA MASJID, Padmavathipuram, Tirupati, Andhra Pradesh 517501",Padmavathipuram,JC9G+PC4,Tirupati,517501,Andhra Pradesh,IN,https://www.google.com/maps/place/QUBA+MASJID/data=!4m7!3m6!1s0x3a4d4b03877dde05:0x27e6f5997418ad1f!8m2!3d13.6192544!4d79.4260811!16s%2Fg%2F11t1rgrbkj!19sChIJBd59hwNLTToRH60YdJn15ic?authuser=0&hl=en&rclk=1,"13.619254399999999,79.42608109999999"
renigunta Eidgah,Mosque,"JFPX+J9X renigunta Eidgah, Renigunta, Tirupati, Andhra Pradesh 517520",,JFPX+J9X,"Renigunta, Tirupati",,Andhra Pradesh,IN,https://www.google.com/maps/place/renigunta+Eidgah/data=!4m7!3m6!1s0x3a4d49369a0ffadf:0x7634b41826b3c8ce!8m2!3d13.6366039!4d79.4984788!16s%2Fg%2F11f7shz4v9!19sChIJ3_oPmjZJTToRzsizJhi0NHY?authuser=0&hl=en&rclk=1,"13.636603899999999,79.4984788"
Akkarampalle,,"Akkarampalle, Tirupati, Andhra Pradesh",Akkarampalle,,Tirupati,,Andhra Pradesh,IN,https://www.google.com/maps/place/Akkarampalle/data=!4m7!3m6!1s0x3a4d4bb0d009acdd:0xb56ee11b38fd4d24!8m2!3d13.6425173!4d79.435929!16zL20vMGRfejc0!19sChIJ3awJ0LBLTToRJE39OBvhbrU?authuser=0&hl=en&rclk=1,"13.6425173,79.435929"
