name,main_category,address,address_ward,address_street,address_city,address_postal_code,address_state,address_country_code,link,coordinates
"Jama Masjid Harthala, Moradabad",Mosque,"VPFR+XQF Jama Masjid Harthala, Moradabad, Kanth Rd, Harthala, Moradabad, Uttar Pradesh 244001",Harthala,"VPFR+XQF, Kanth Rd",Moradabad,244001,Uttar Pradesh,IN,"https://www.google.com/maps/place/Jama+Masjid+Harthala,+Moradabad/data=!4m7!3m6!1s0x390afeb5ffb4ef8d:0x3547f048090d1756!8m2!3d28.8749497!4d78.7419085!16s%2Fg%2F12625mvmc!19sChIJje-0_7X-CjkRVhcNCUjwRzU?authuser=0&hl=en&rclk=1","28.8749497,78.7419085"
Lal Masjid Kanth,Mosque,"3J7H+QR8 Lal Masjid Kanth, Kanth, Uttar Pradesh 244501",,3J7H+QR8,Kanth,244501,Uttar Pradesh,IN,https://www.google.com/maps/place/Lal+Masjid+Kanth/data=!4m7!3m6!1s0x390bace68dfe1ce3:0xb3e3b351edf9304a!8m2!3d29.0644178!4d78.6295899!16s%2Fg%2F11g9qczgpx!19sChIJ4xz-jeasCzkRSjD57VGz47M?authuser=0&hl=en&rclk=1,"29.064417799999998,78.6295899"
Madina Masjid,Mosque,"Madina Masjid, Near Brass Line Export, Bakery Waali Gali,, 2, Kanth Rd, Harthala, Moradabad, Uttar Pradesh 244001",Harthala,"Near Brass Line Export, Bakery Waali Gali,, 2, Kanth Rd",Moradabad,244001,Uttar Pradesh,IN,https://www.google.com/maps/place/Madina+Masjid/data=!4m7!3m6!1s0x390afeb436f91a6d:0x2addc46090ef5207!8m2!3d28.8717496!4d78.7431788!16s%2Fg%2F11c20crnqy!19sChIJbRr5NrT-CjkRB1LvkGDE3So?authuser=0&hl=en&rclk=1,"28.871749599999998,78.7431788"
Jama Masjid,Mosque,"3J6J+57R Jama Masjid, Kanth, Uttar Pradesh 244501",,3J6J+57R,Kanth,244501,Uttar Pradesh,IN,https://www.google.com/maps/place/Jama+Masjid/data=!4m7!3m6!1s0x390bace89b350161:0x349ccdb101dfb67c!8m2!3d29.0604811!4d78.6306434!16s%2Fg%2F11g9q718lx!19sChIJYQE1m-isCzkRfLbfAbHNnDQ?authuser=0&hl=en&rclk=1,"29.060481099999997,78.6306434"
Moti Masjid,Mosque,"3J3G+WRC Moti Masjid, Kanth, Uttar Pradesh 244501",,3J3G+WRC,Kanth,244501,Uttar Pradesh,IN,https://www.google.com/maps/place/Moti+Masjid/data=!4m7!3m6!1s0x390bacec206c9bef:0xe0e1cc73de4df244!8m2!3d29.0548242!4d78.6270107!16s%2Fg%2F11clfw931z!19sChIJ75tsIOysCzkRRPJN3nPM4eA?authuser=0&hl=en&rclk=1,"29.0548242,78.6270107"
Mahigiran Masjid,Mosque,"Mahigiran Masjid, MOHALLA PATTIWALA NEW TEHSEEL ROAD KANTH, Moradabad, Uttar Pradesh",,MOHALLA PATTIWALA NEW TEHSEEL ROAD KANTH,"Moradabad, Kanth",,Uttar Pradesh,IN,https://www.google.com/maps/place/Mahigiran+Masjid/data=!4m7!3m6!1s0x390baceec72fadc9:0x62ece3ff54f8a933!8m2!3d29.0564452!4d78.6273674!16s%2Fg%2F11g7z69j_y!19sChIJya0vx-6sCzkRM6n4VP_j7GI?authuser=0&hl=en&rclk=1,"29.0564452,78.6273674"
Chaprewali Masjid,Mosque,"3J5G+V94 Chaprewali Masjid, Kanth, Uttar Pradesh 244501",,3J5G+V94,Kanth,244501,Uttar Pradesh,IN,https://www.google.com/maps/place/Chaprewali+Masjid/data=!4m7!3m6!1s0x390bacef76e1cfaf:0x8295d2754307fb04!8m2!3d29.0596379!4d78.6259405!16s%2Fg%2F11hbhj0nz2!19sChIJr8_hdu-sCzkRBPsHQ3XSlYI?authuser=0&hl=en&rclk=1,"29.0596379,78.6259405"
Madina Masjid,Mosque,"3JGJ+59J Madina Masjid, kasampur, Kanth, Uttar Pradesh 244501",,"3JGJ+59J, kasampur","Kanth, Gajraula Dhyansingh",244501,Uttar Pradesh,IN,https://www.google.com/maps/place/Madina+Masjid/data=!4m7!3m6!1s0x390bade19ff0b79f:0xa3def36fb826681d!8m2!3d29.0754542!4d78.6308787!16s%2Fg%2F11n0g90jbc!19sChIJn7fwn-GtCzkRHWgmuG_z3qM?authuser=0&hl=en&rclk=1,"29.0754542,78.6308787"
Masjid Sharif,Mosque,"3J5H+FP4 Masjid Sharif, Kanth, Uttar Pradesh 244501",,3J5H+FP4,Kanth,244501,Uttar Pradesh,IN,https://www.google.com/maps/place/Masjid+Sharif/data=!4m7!3m6!1s0x390bace8dac87155:0x8ee26993bffbe00!8m2!3d29.0586318!4d78.6293301!16s%2Fg%2F11fy4jm29f!19sChIJVXHI2uisCzkRAL7_O5km7gg?authuser=0&hl=en&rclk=1,"29.058631799999997,78.62933009999999"
Qabristan Wali Masjid,Mosque,"3J7M+C3V Qabristan Wali Masjid, Kanth, Pattimaura, Uttar Pradesh 244501",,"3J7M+C3V, Kanth",Pattimaura,244501,Uttar Pradesh,IN,https://www.google.com/maps/place/Qabristan+Wali+Masjid/data=!4m7!3m6!1s0x390bace7a18c5db5:0xed0d444260d10973!8m2!3d29.0636052!4d78.6326774!16s%2Fg%2F11fzs1d4dj!19sChIJtV2MoeesCzkRcwnRYEJEDe0?authuser=0&hl=en&rclk=1,"29.063605199999998,78.63267739999999"
The royals,Mosque,"The royals, Meena Mkt Rd, near masjid banjaran, Kanth, Moradabad, Uttar Pradesh 244501",,"Meena Mkt Rd, near masjid banjaran","Kanth, Moradabad",244501,Uttar Pradesh,IN,https://www.google.com/maps/place/The+royals/data=!4m7!3m6!1s0x390bace60cc94a85:0x32bf10532db9a7dd!8m2!3d29.0622055!4d78.6289901!16s%2Fg%2F11fy4jgb15!19sChIJhUrJDOasCzkR3ae5LVMQvzI?authuser=0&hl=en&rclk=1,"29.062205499999997,78.6289901"
msjid masjid akbarpur chedriy,Mosque,"3JPV+24M msjid masjid akbarpur chedriy, Unnamed Road, Kanth, Uttar Pradesh 244501",,"3JPV+24M, Unnamed Road",Kanth,244501,Uttar Pradesh,IN,https://www.google.com/maps/place/%E0%A4%AE%E0%A4%B8%E0%A5%8D%E0%A4%9C%E0%A4%BF%E0%A4%A6+masjid+akbarpur+chedriy/data=!4m7!3m6!1s0x390bad8bcbabc143:0xff110a8ca6d23028!8m2!3d29.085078!4d78.642794!16s%2Fg%2F11h4bnklyk!19sChIJQ8Gry4utCzkRKDDSpowKEf8?authuser=0&hl=en&rclk=1,"29.085078,78.642794"
JAMAL MASJID KANTH jml msjd,Mosque,"3J8M+4QP JAMAL MASJID KANTH jml msjd, Pattimaura, Uttar Pradesh 244501",,3J8M+4QP,Pattimaura,244501,Uttar Pradesh,IN,https://www.google.com/maps/place/JAMAL+MASJID+KANTH+%D8%AC%D9%85%D8%A7%D9%84+%D9%85%D8%B3%D8%AC%D8%AF%E2%80%AD/data=!4m7!3m6!1s0x390badc2ffc4991f:0xe6de886e1dd3cf76!8m2!3d29.065333!4d78.6344498!16s%2Fg%2F11nxp9r0mg!19sChIJH5nE_8KtCzkRds_THW6I3uY?authuser=0&hl=en&rclk=1,"29.065333,78.6344498"
Jamia Masjid,Mosque,"3J7H+4X5 Jamia Masjid, Kanth, Uttar Pradesh 244501",,3J7H+4X5,Kanth,244501,Uttar Pradesh,IN,https://www.google.com/maps/place/Jamia+Masjid/data=!4m7!3m6!1s0x390bace6420db293:0xdb710c2dbf2e4d43!8m2!3d29.0627518!4d78.6299775!16s%2Fg%2F11f15kgrc0!19sChIJk7INQuasCzkRQ00uvy0Mcds?authuser=0&hl=en&rclk=1,"29.062751799999997,78.6299775"
Jama Masjid,Mosque,"2M55+P5W Jama Masjid, Matlabpur - Kanth Rd, Khalilpur Kadim, Uttar Pradesh 244501",,"2M55+P5W, Matlabpur - Kanth Rd",Khalilpur Kadim,244501,Uttar Pradesh,IN,https://www.google.com/maps/place/Jama+Masjid/data=!4m7!3m6!1s0x390a5557cdc29f31:0x36d1feaa4aef6b1c!8m2!3d29.0091892!4d78.6578011!16s%2Fg%2F11jzpl65g1!19sChIJMZ_CzVdVCjkRHGvvSqr-0TY?authuser=0&hl=en&rclk=1,"29.009189199999998,78.6578011"
Masjid Abubakar,Mosque,"3JPV+QVG Masjid Abubakar, Akbarpur Rd, Tehsil, Kanth, Salempur Khas, Uttar Pradesh 244501",Tehsil,"3JPV+QVG, Akbarpur Rd","Kanth, Salempur Khas",244501,Uttar Pradesh,IN,https://www.google.com/maps/place/Masjid+Abubakar/data=!4m7!3m6!1s0x390bad3a90dae3a9:0xf83dda307096c162!8m2!3d29.0869446!4d78.6446978!16s%2Fg%2F11fzf2ms88!19sChIJqePakDqtCzkRYsGWcDDaPfg?authuser=0&hl=en&rclk=1,"29.0869446,78.6446978"
Sunehri Masjid,Mosque,"3J5H+RRP Sunehri Masjid, Kanth, Uttar Pradesh 244501",,3J5H+RRP,Kanth,244501,Uttar Pradesh,IN,https://www.google.com/maps/place/Sunehri+Masjid/data=!4m7!3m6!1s0x390bad1f7ab07559:0xd4b4e929dc8d4148!8m2!3d29.0595797!4d78.6295765!16s%2Fg%2F11j0j59wdh!19sChIJWXWweh-tCzkRSEGN3CnptNQ?authuser=0&hl=en&rclk=1,"29.0595797,78.6295765"
Mosque,Mosque,"3JHQ+99M Mosque, Kanth Road, Harthala, Kasampur, Uttar Pradesh",,"3JHQ+99M, Kanth Road, Harthala",Kasampur,,Uttar Pradesh,IN,https://www.google.com/maps/place/Mosque/data=!4m7!3m6!1s0x390bad2077973dd1:0xa22f6c458b7da506!8m2!3d29.078473!4d78.6384074!16s%2Fg%2F11jynqc4t5!19sChIJ0T2XdyCtCzkRBqV9i0VsL6I?authuser=0&hl=en&rclk=1,"29.078473,78.63840739999999"
Madina masjid name paar,Housing society,"3J6M+J4W Madina masjid name paar, Al sifa road name par, mohall chuk bazar, Kanth",,"3J6M+J4W, Al sifa road name par, mohall chuk bazar",Kanth,,Uttar Pradesh,IN,https://www.google.com/maps/place/Madina+masjid+name+paar/data=!4m7!3m6!1s0x390bad0470a6c6b1:0x871e4b88960fae2b!8m2!3d29.0616123!4d78.632828!16s%2Fg%2F11l6v9rr8m!19sChIJscamcAStCzkRK64PlohLHoc?authuser=0&hl=en&rclk=1,"29.0616123,78.632828"
Madina Masjid Lakarhait,Mosque,"XHXQ+XGM Madina Masjid Lakarhait, Kanth, Chhajjupur Abbal, Uttar Pradesh 244501",,XHXQ+XGM,"Kanth, Chhajjupur Abbal",244501,Uttar Pradesh,IN,https://www.google.com/maps/place/Madina+Masjid+Lakarhait/data=!4m7!3m6!1s0x390bab5be073b013:0x61bb2b44ddafcb6d!8m2!3d28.9999583!4d78.5887951!16s%2Fg%2F11jsqtb7rb!19sChIJE7Bz4FurCzkRbcuv3UQru2E?authuser=0&hl=en&rclk=1,"28.9999583,78.5887951"
