name,main_category,address,address_ward,address_street,address_city,address_postal_code,address_state,address_country_code,link,coordinates
Jama Masjid,Mosque,"MGGQ+F5Q Jama Masjid, Jama Masjid Rd, Mahalaxmiwada, Adilabad, Telangana 504001",Mahalaxmiwada,"MGGQ+F5Q, Jama Masjid Rd",Adilabad,504001,Telangana,IN,https://www.google.com/maps/place/Jama+Masjid/data=!4m7!3m6!1s0x3bd25c75f87e8a01:0x25a95ee1fbab37d0!8m2!3d19.6762137!4d78.5379985!16s%2Fg%2F1tlqnfwv!19sChIJAYp--HVc0jsR0Der--FeqSU?authuser=0&hl=en&rclk=1,"19.676213699999998,78.5379985"
Gulzaar Masjid,Mosque,"MGCR+66Q Gulzaar Masjid, Bokkalguda St, Brahmanwadi, Adilabad, Telangana 504001",Brahmanwadi,"MGCR+66Q, Bokkalguda St",Adilabad,504001,Telangana,IN,https://www.google.com/maps/place/Gulzaar+Masjid/data=!4m7!3m6!1s0x3bd25c7477d00337:0x3dc61fe7489f62b1!8m2!3d19.6704596!4d78.5395986!16s%2Fg%2F1tcz6sjz!19sChIJNwPQd3Rc0jsRsWKfSOcfxj0?authuser=0&hl=en&rclk=1,"19.670459599999997,78.53959859999999"
Masjid-E-Taneem,Mosque,"MG8P+GJ2 Masjid-E-Taneem, Shanti Nagar, Adilabad, Telangana 504001",Shanti Nagar,MG8P+GJ2,Adilabad,504001,Telangana,IN,https://www.google.com/maps/place/Masjid-E-Taneem/data=!4m7!3m6!1s0x3bd25c7196951817:0xe1695f659d337d7!8m2!3d19.6662707!4d78.5365283!16s%2Fg%2F11c52zx1f3!19sChIJFxiVlnFc0jsR1zfTWfaVFg4?authuser=0&hl=en&rclk=1,"19.6662707,78.5365283"
Masjid e Noor Khursheed Nagar,Mosque,"Masjid e Noor Khursheed Nagar, khursheed Nagar, Adilabad, Telangana 504001",khursheed Nagar,,Adilabad,,Telangana,IN,https://www.google.com/maps/place/Masjid+e+Noor+Khursheed+Nagar/data=!4m7!3m6!1s0x3bd25b7f77891187:0xd64d9d2522c68201!8m2!3d19.6780656!4d78.5199255!16s%2Fg%2F1pp2x6dd1!19sChIJhxGJd39b0jsRAYLGIiWdTdY?authuser=0&hl=en&rclk=1,"19.6780656,78.5199255"
Mohammadia Masjid,Mosque,"MGFH+M8P Mohammadia Masjid, NH 44, Vidya Nagar, Adilabad, Telangana 504001",Vidya Nagar,"MGFH+M8P, NH 44",Adilabad,504001,Telangana,IN,https://www.google.com/maps/place/Mohammadia+Masjid/data=!4m7!3m6!1s0x3bd25c7892a2eb3b:0x89c3b0daf8ff360!8m2!3d19.6742243!4d78.5283275!16s%2Fg%2F1tjz1t_5!19sChIJO-uiknhc0jsRYPOPrw07nAg?authuser=0&hl=en&rclk=1,"19.6742243,78.5283275"
Masjid_E_Quba,Mosque,"Masjid_E_Quba, 2-5-216, beside Masjid E Quba Khila, Mohalla Badh, Adilabad, Telangana 504001",Mohalla Badh,"2-5-216, beside Masjid E Quba Khila",Adilabad,504001,Telangana,IN,https://www.google.com/maps/place/Masjid_E_Quba/data=!4m7!3m6!1s0x3bd25bedeaaaaaab:0xe29f9a411d92289b!8m2!3d19.6793188!4d78.5406475!16s%2Fg%2F11bwkvtnj8!19sChIJq6qq6u1b0jsRmyiSHUGan-I?authuser=0&hl=en&rclk=1,"19.6793188,78.54064749999999"
Masjid-e-Meraj,Mosque,"Masjid-e-Meraj, Police lane, Sanjay Nagar, Adilabad, Bhattisavargaon, Telangana 504001",Sanjay Nagar,Police lane,"Adilabad, Bhattisavargaon",504001,Telangana,IN,https://www.google.com/maps/place/Masjid-e-Meraj/data=!4m7!3m6!1s0x3bd25c80a40634d7:0x99b706696d47a613!8m2!3d19.6674917!4d78.5163997!16s%2Fg%2F1tr7b846!19sChIJ1zQGpIBc0jsRE6ZHbWkGt5k?authuser=0&hl=en&rclk=1,"19.6674917,78.5163997"
Masjid E Abubaker,Mosque,"MG8V+54F Masjid E Abubaker, Shanti Nagar, Adilabad, Telangana 504001",Shanti Nagar,MG8V+54F,Adilabad,504001,Telangana,IN,https://www.google.com/maps/place/Masjid+E+Abubaker/data=!4m7!3m6!1s0x3bd25c72afd994d1:0x55e84f035f33b282!8m2!3d19.6654385!4d78.542794!16s%2Fg%2F11c1wsmygw!19sChIJ0ZTZr3Jc0jsRgrIzXwNP6FU?authuser=0&hl=en&rclk=1,"19.6654385,78.542794"
Jama Masjid,Mosque,"9WF4+RQQ Jama Masjid, Jainoor, Telangana 504313",,9WF4+RQQ,Jainoor,504313,Telangana,IN,https://www.google.com/maps/place/Jama+Masjid/data=!4m7!3m6!1s0x3bd29a35900ac135:0x7391ef599ce08a2c!8m2!3d19.3745916!4d78.9069837!16s%2Fg%2F11f34m3m7b!19sChIJNcEKkDWa0jsRLIrgnFnvkXM?authuser=0&hl=en&rclk=1,"19.3745916,78.9069837"
Madina Masjid mdynh msjd,Mosque,"MGCJ+GX8 Madina Masjid mdynh msjd, Netaji Chowk Rd, Ponnar, Bhuktapur, Telangana 504001",Ponnar,"MGCJ+GX8, Netaji Chowk Rd",Bhuktapur,504001,Telangana,IN,https://www.google.com/maps/place/Madina+Masjid+%D9%85%D8%AF%DB%8C%D9%86%DB%81+%D9%85%D8%B3%D8%AC%D8%AF%E2%80%AD/data=!4m7!3m6!1s0x3bd25c7742dd0b05:0xf2fb259a889bfa78!8m2!3d19.6712846!4d78.5324561!16s%2Fg%2F11fzzxxq7l!19sChIJBQvdQndc0jsRePqbiJol-_I?authuser=0&hl=en&rclk=1,"19.6712846,78.53245609999999"
Masjid E Tawheed Ahle Hadees,Mosque,"MG9R+3FF Masjid E Tawheed Ahle Hadees, Bokkalguda St, Opp. Sanober Urdu School, Shanti Nagar, Adilabad, Telangana 504001",Shanti Nagar,"MG9R+3FF, Bokkalguda St, Opp. Sanober Urdu School",Adilabad,504001,Telangana,IN,https://www.google.com/maps/place/Masjid+E+Tawheed+Ahle+Hadees/data=!4m7!3m6!1s0x3bd25c72fd255f2d:0x9b9a25549484aac6!8m2!3d19.6676945!4d78.5411635!16s%2Fg%2F11b6wlm0t4!19sChIJLV8l_XJc0jsRxqqElFQlmps?authuser=0&hl=en&rclk=1,"19.6676945,78.5411635"
Muhammadiya Masjid,Mosque,"MG29+X76 Muhammadiya Masjid, Ramnagar Colony, Adilabad, Telangana 504001",Ramnagar Colony,MG29+X76,Adilabad,504001,Telangana,IN,https://www.google.com/maps/place/Muhammadiya+Masjid/data=!4m7!3m6!1s0x3bd25c8ad95e1f51:0xc9001b8ca6d7fd64!8m2!3d19.6524043!4d78.5181462!16s%2Fg%2F11cn7qqr7d!19sChIJUR9e2Ypc0jsRZP3XpowbAMk?authuser=0&hl=en&rclk=1,"19.6524043,78.51814619999999"
Abubakr masjid,Mosque,"MG8R+J7F Abubakr masjid, Shanti Nagar, Adilabad, Telangana 504001",Shanti Nagar,MG8R+J7F,Adilabad,504001,Telangana,IN,https://www.google.com/maps/place/Abubakr+masjid/data=!4m7!3m6!1s0x3bd25c72f6f46bc9:0xcd16458f413f5d2e!8m2!3d19.6665675!4d78.5406681!16s%2Fg%2F11c607nzf4!19sChIJyWv09nJc0jsRLl0_QY9FFs0?authuser=0&hl=en&rclk=1,"19.6665675,78.54066809999999"
Fathima Masjid,Mosque,"MGFF+676 Fathima Masjid, Sanjay Nagar, Adilabad, Telangana 504001",Sanjay Nagar,MGFF+676,Adilabad,504001,Telangana,IN,https://www.google.com/maps/place/Fathima+Masjid/data=!4m7!3m6!1s0x3bd25c7fa619132f:0x3fc5279c8cd8c162!8m2!3d19.6730467!4d78.5231404!16s%2Fg%2F11g65c9p2q!19sChIJLxMZpn9c0jsRYsHYjJwnxT8?authuser=0&hl=en&rclk=1,"19.6730467,78.5231404"
MASJID-E-Bilal,Mosque,"MGHQ+H25 MASJID-E-Bilal, Adilabad - Nagpur Rd, Panjesha, Adilabad, Telangana 504001",Panjesha,"MGHQ+H25, Adilabad - Nagpur Rd",Adilabad,504001,Telangana,IN,https://www.google.com/maps/place/MASJID-E-Bilal/data=!4m7!3m6!1s0x3bd25b89846e6659:0x31ee36077b20474f!8m2!3d19.6788851!4d78.5375982!16s%2Fg%2F11gclzc6pn!19sChIJWWZuhIlb0jsRT0cgewc27jE?authuser=0&hl=en&rclk=1,"19.6788851,78.53759819999999"
Masjid E Hassan,Mosque,"MG8V+QPM Masjid E Hassan, Unnamed Road, Shanti Nagar, Adilabad, Telangana 504001",Shanti Nagar,"MG8V+QPM, Unnamed Road",Adilabad,504001,Telangana,IN,https://www.google.com/maps/place/Masjid+E+Hassan/data=!4m7!3m6!1s0x3bd25c0d29000079:0xa0cc092090b96993!8m2!3d19.6669651!4d78.5443022!16s%2Fg%2F11dfk_8lt4!19sChIJeQAAKQ1c0jsRk2m5kCAJzKA?authuser=0&hl=en&rclk=1,"19.6669651,78.54430219999999"
Masjid-e-Garib Nawaz,Mosque,"MGPP+943 Masjid-e-Garib Nawaz, raza chowk, Jai Jawan Nagar, Tatiguda Colony, Adilabad, Telangana 504001","Kranti Nagar, Tatiguda Colony","MGPP+943, raza chowk, Jai Jawan Nagar",Adilabad,504001,Telangana,IN,https://www.google.com/maps/place/Masjid-e-Garib+Nawaz/data=!4m7!3m6!1s0x3bd25b8e4eca922b:0x9859180dd7cc6aa7!8m2!3d19.6858886!4d78.5352986!16s%2Fg%2F11g889_zry!19sChIJK5LKTo5b0jsRp2rM1w0YWZg?authuser=0&hl=en&rclk=1,"19.6858886,78.53529859999999"
JAMA MASJID SULTANGUDA,Mosque,"C2RR+XGF JAMA MASJID SULTANGUDA, Sultanguda, Kerimeri, Adilabad, Telangana 504313",Sultanguda,C2RR+XGF,"Kerimeri, Adilabad",,Telangana,IN,https://www.google.com/maps/place/JAMA+MASJID+SULTANGUDA/data=!4m7!3m6!1s0x3bd2bd475cdd2b39:0x2b52fccf2d27bcc0!8m2!3d19.4424339!4d79.0413029!16s%2Fg%2F11d_5drtt9!19sChIJOSvdXEe90jsRwLwnLc_8Uis?authuser=0&hl=en&rclk=1,"19.442433899999997,79.04130289999999"
MADEENA MASJID ECHODA,Mosque,"CFG3+256 MADEENA MASJID ECHODA, Ichoda, Telangana 504307",,CFG3+256,Ichoda,504307,Telangana,IN,https://www.google.com/maps/place/MADEENA+MASJID+ECHODA/data=!4m7!3m6!1s0x3bd26f98044820f1:0xb0592db733389086!8m2!3d19.42503!4d78.4529037!16s%2Fg%2F11c3tqr4t1!19sChIJ8SBIBJhv0jsRhpA4M7ctWbA?authuser=0&hl=en&rclk=1,"19.42503,78.4529037"
MASJID E MAHEBOOB E SUBHANI ( Markaz e Ahle Sunnat ),Mosque,"MASJID E MAHEBOOB E SUBHANI ( Markaz e Ahle Sunnat ), Sanjay Nagar, Adilabad, Telangana 504001",Sanjay Nagar,,Adilabad,504001,Telangana,IN,https://www.google.com/maps/place/MASJID+E+MAHEBOOB+E+SUBHANI+%28+Markaz+e+Ahle+Sunnat+%29/data=!4m7!3m6!1s0x3bd25c7cd0000001:0xe56e990e56fe962c!8m2!3d19.6669356!4d78.5213162!16s%2Fg%2F11c2kk77hk!19sChIJAQAA0Hxc0jsRLJb-Vg6ZbuU?authuser=0&hl=en&rclk=1,"19.6669356,78.5213162"
Masjid e Ishaat-e-Islam,Mosque,"MH33+H28 Masjid e Ishaat-e-Islam, Adilabad, Telangana 504001",,MH33+H28,Adilabad,504001,Telangana,IN,https://www.google.com/maps/place/Masjid+e+Ishaat-e-Islam/data=!4m7!3m6!1s0x3bd25c17d761b9e3:0x9051e74decccc3da!8m2!3d19.653917!4d78.552592!16s%2Fg%2F11g9vtzndj!19sChIJ47lh1xdc0jsR2sPM7E3nUZA?authuser=0&hl=en&rclk=1,"19.653917,78.55259199999999"
Masjid,Mosque,"HFPR+4Q8 Masjid, Adilabad, Telangana 504308",,HFPR+4Q8,Adilabad,504308,Telangana,IN,https://www.google.com/maps/place/Masjid/data=!4m7!3m6!1s0x3bd25d5bfe1eb429:0x753a217332ff9baa!8m2!3d19.5852914!4d78.4919588!16s%2Fg%2F11dxq2d28t!19sChIJKbQe_ltd0jsRqpv_MnMhOnU?authuser=0&hl=en&rclk=1,"19.5852914,78.49195879999999"
Masjid Badar,Mosque,"MG8C+44M Masjid Badar, Rickshaw Colony, Adilabad, Telangana 504001",Rickshaw Colony,MG8C+44M,Adilabad,504001,Telangana,IN,https://www.google.com/maps/place/Masjid+Badar/data=!4m7!3m6!1s0x3bd25c878e7870c1:0x8e24c92e23dce198!8m2!3d19.6653455!4d78.5202985!16s%2Fg%2F11bbrlytdq!19sChIJwXB4jodc0jsRmOHcIy7JJI4?authuser=0&hl=en&rclk=1,"19.6653455,78.5202985"
ILAHIYA MASJID,Mosque,"MGMH+97P ILAHIYA MASJID, Indira Nagar Rd, Bhagya Nagar, Adilabad, Telangana 504001",Bhagya Nagar,"MGMH+97P, Indira Nagar Rd",Adilabad,504001,Telangana,IN,https://www.google.com/maps/place/ILAHIYA+MASJID/data=!4m7!3m6!1s0x3bd25b8444ebd13f:0xe27cf6a1114241d4!8m2!3d19.6834654!4d78.5282048!16s%2Fg%2F11fzfhsmc2!19sChIJP9HrRIRb0jsR1EFCEaH2fOI?authuser=0&hl=en&rclk=1,"19.6834654,78.5282048"
Jama Masjid,Mosque,"GJ2X+6JW Jama Masjid, Keslaguda, Telangana 504346",,GJ2X+6JW,Keslaguda,504346,Telangana,IN,https://www.google.com/maps/place/Jama+Masjid/data=!4m7!3m6!1s0x3bd261f970258be5:0x54b1787a0dcfac1b!8m2!3d19.5006085!4d78.6490645!16s%2Fg%2F11b6c8wzlm!19sChIJ5YslcPlh0jsRG6zPDXp4sVQ?authuser=0&hl=en&rclk=1,"19.5006085,78.6490645"
masjid e noor,Mosque,"MG4Q+H92 masjid e noor, Sri Rama Colony, Adilabad, Telangana 504001",Sri Rama Colony,MG4Q+H92,Adilabad,504001,Telangana,IN,https://www.google.com/maps/place/masjid+e+noor/data=!4m7!3m6!1s0x3bd25c6bd009a42f:0x83777eaad70e454d!8m2!3d19.6563983!4d78.5384053!16s%2Fg%2F11c5t1smfj!19sChIJL6QJ0Gtc0jsRTUUO16p-d4M?authuser=0&hl=en&rclk=1,"19.6563983,78.5384053"
Masjid E-munawar,Mosque,"MGHG+WFR Masjid E-munawar, Indira Nagar, Bhagya Nagar, Adilabad, Telangana 504001","Indira Nagar, Bhagya Nagar",MGHG+WFR,Adilabad,504001,Telangana,IN,https://www.google.com/maps/place/Masjid+E-munawar/data=!4m7!3m6!1s0x3bd25b814a89a5d1:0x13757a533e5d9127!8m2!3d19.6798716!4d78.5261472!16s%2Fg%2F11g5_f9f2n!19sChIJ0aWJSoFb0jsRJ5FdPlN6dRM?authuser=0&hl=en&rclk=1,"19.6798716,78.5261472"
Masjid e Bilala,Mosque,"Masjid e Bilala, Adilabad-Asifabad Rd, Jainoor, Telangana 504313",,Adilabad-Asifabad Rd,Jainoor,504313,Telangana,IN,https://www.google.com/maps/place/Masjid+e+Bilala/data=!4m7!3m6!1s0x3bd29bb7204a9e0f:0x706dab2553f72b79!8m2!3d19.3750134!4d78.9120455!16s%2Fg%2F11f6qq3rwz!19sChIJD55KILeb0jsReSv3UyWrbXA?authuser=0&hl=en&rclk=1,"19.3750134,78.91204549999999"
Masjid-e-hanfia,Mosque,"MGPM+2C4 Masjid-e-hanfia, Kranti Nagar, Gandhi Nagar, Adilabad, Telangana 504001","Kranti Nagar, Gandhi Nagar",MGPM+2C4,Adilabad,504001,Telangana,IN,https://www.google.com/maps/place/Masjid-e-hanfia/data=!4m7!3m6!1s0x3bd25b8fa218f2e1:0x18f2829bdf51eaf4!8m2!3d19.6850231!4d78.5335857!16s%2Fg%2F11dd_qtmkm!19sChIJ4fIYoo9b0jsR9OpR35uC8hg?authuser=0&hl=en&rclk=1,"19.6850231,78.5335857"
Khanka E Mohammadi,Mosque,"MGJV+P72 Khanka E Mohammadi, Tirupally, Adilabad, Telangana 504001",Tirupally,MGJV+P72,Adilabad,504001,Telangana,IN,https://www.google.com/maps/place/Khanka+E+Mohammadi/data=!4m7!3m6!1s0x3bd25bd22744411f:0x22b8cbaf2829e2c7!8m2!3d19.6817626!4d78.5431504!16s%2Fg%2F11g1rbmtkk!19sChIJH0FEJ9Jb0jsRx-IpKK_LuCI?authuser=0&hl=en&rclk=1,"19.6817626,78.5431504"
Masjid-E- Rahimaniya,Mosque,"MGRR+5G5 Masjid-E- Rahimaniya, Tirupally, Adilabad, Telangana 504001",Tirupally,MGRR+5G5,Adilabad,504001,Telangana,IN,https://www.google.com/maps/place/Masjid-E-+Rahimaniya/data=!4m7!3m6!1s0x3bd25ba3e27d5519:0x3ff2f3403e845bff!8m2!3d19.6903884!4d78.5413572!16s%2Fg%2F11gmblynz2!19sChIJGVV94qNb0jsR_1uEPkDz8j8?authuser=0&hl=en&rclk=1,"19.6903884,78.5413572"
Jama Masjid Bazar Hathnoor,Mosque,"F952+7MR Jama Masjid Bazar Hathnoor, Bazarhatnoor, Telangana 504304",,F952+7MR,Bazarhatnoor,504304,Telangana,IN,https://www.google.com/maps/place/Jama+Masjid+Bazar+Hathnoor/data=!4m7!3m6!1s0x3bd26c68c7cf939b:0xc6ede85c8413c632!8m2!3d19.4582258!4d78.3516474!16s%2Fg%2F11gdqfb5kj!19sChIJm5PPx2hs0jsRMsYThFzo7cY?authuser=0&hl=en&rclk=1,"19.458225799999997,78.35164739999999"
Jama Masjid,Mosque,"Jama Masjid, Bus Station, Old, Utnur, Telangana 504311",Sevadas Nagar,"Bus Station, Old",Utnur,504311,Telangana,IN,https://www.google.com/maps/place/Jama+Masjid/data=!4m7!3m6!1s0x3bd285b42543f7db:0xfbc9083caa3eda41!8m2!3d19.3679744!4d78.7738921!16s%2Fg%2F11c2p12cr7!19sChIJ2_dDJbSF0jsRQdo-qjwIyfs?authuser=0&hl=en&rclk=1,"19.367974399999998,78.7738921"
Masjid E Namrah,Mosque,"MGGM+7CV Masjid E Namrah, Ambedkar Chowk, Bhuktapur, Telangana 504001",,"MGGM+7CV, Ambedkar Chowk",Bhuktapur,,Telangana,IN,https://www.google.com/maps/place/Masjid+E+Namrah/data=!4m7!3m6!1s0x3bd25b8829cd21e7:0xb871a2b68c3b292c!8m2!3d19.6757458!4d78.5335363!16s%2Fg%2F11b6v0h3n3!19sChIJ5yHNKYhb0jsRLCk7jLaicbg?authuser=0&hl=en&rclk=1,"19.675745799999998,78.5335363"
Masjid -e- Dawathul Haq,Mosque,"CFH2+G89 Masjid -e- Dawathul Haq, Ichoda Main Rd, Ichoda, Telangana 504307",,"CFH2+G89, Ichoda Main Rd",Ichoda,504307,Telangana,IN,https://www.google.com/maps/place/Masjid+-e-+Dawathul+Haq/data=!4m7!3m6!1s0x3bd26fa240811f53:0x84ebb182ea5a35e4!8m2!3d19.4287993!4d78.4508528!16s%2Fg%2F11b75hw8dx!19sChIJUx-BQKJv0jsR5DVa6oKx64Q?authuser=0&hl=en&rclk=1,"19.428799299999998,78.45085279999999"
Makka Masjid,Mosque,"CFG3+QPG Makka Masjid, Ichoda, Telangana 504307",,CFG3+QPG,Ichoda,504307,Telangana,IN,https://www.google.com/maps/place/Makka+Masjid/data=!4m7!3m6!1s0x3bd26f985b7ba91f:0xff30f7087fea8336!8m2!3d19.4269309!4d78.4543422!16s%2Fg%2F11fxx3q066!19sChIJH6l7W5hv0jsRNoPqfwj3MP8?authuser=0&hl=en&rclk=1,"19.4269309,78.4543422"
Masjid-E-Noor,Mosque,"9Q8G+JJX Masjid-E-Noor, Mominpura, Sevadas Nagar, Utnur, Telangana 504311","Mominpura, Sevadas Nagar",9Q8G+JJX,Utnur,,Telangana,IN,https://www.google.com/maps/place/Masjid-E-Noor/data=!4m7!3m6!1s0x3bd285b3f2afb185:0x2ec78038b9f918ae!8m2!3d19.3675545!4d78.7769558!16s%2Fg%2F1pp2tk8bd!19sChIJhbGv8rOF0jsRrhj5uTiAxy4?authuser=0&hl=en&rclk=1,"19.3675545,78.7769558"
jm` msjd ndr wyly. (Jama Masjid indervelly ),Mosque,"FMVF+HC2 jm` msjd ndr wyly. (Jama Masjid indervelly ), Indervelly, Telangana 504346",,FMVF+HC2,Indervelly,504346,Telangana,IN,https://www.google.com/maps/place/%D8%AC%D8%A7%D9%85%D8%B9+%D9%85%D8%B3%D8%AC%D8%AF+%D8%A7%D9%86%D8%AF%D8%B1+%D9%88%DB%8C%D9%84%DB%8C%DB%94+%28Jama+Masjid+indervelly+%29%E2%80%AD/data=!4m7!3m6!1s0x3bd289e8469486f1:0xf56a332b39f02da9!8m2!3d19.4938815!4d78.6735064!16s%2Fg%2F11h21prn9w!19sChIJ8YaURuiJ0jsRqS3wOSszavU?authuser=0&hl=en&rclk=1,"19.4938815,78.6735064"
NOORANI JAMA MASJID,Mosque,"NOORANI JAMA MASJID, Narnoor, Telangana 504311",,,Narnoor,504311,Telangana,IN,https://www.google.com/maps/place/NOORANI+JAMA+MASJID/data=!4m7!3m6!1s0x3bd291faf32c3cc1:0x9b5e439f89b47085!8m2!3d19.4987577!4d78.8481544!16s%2Fg%2F11g9mh63k9!19sChIJwTws8_qR0jsRhXC0iZ9DXps?authuser=0&hl=en&rclk=1,"19.4987577,78.8481544"
Umar Masjid,Mosque,"MG2H+9J7 Umar Masjid, Pittalwada, Khoja Colony, Adilabad, Telangana 504001","Pittalwada, Khoja Colony",MG2H+9J7,Adilabad,504001,Telangana,IN,https://www.google.com/maps/place/Umar+Masjid/data=!4m7!3m6!1s0x3bd25c5d9e45a7ff:0xd9937a4c4bfe8c53!8m2!3d19.6509166!4d78.5290486!16s%2Fg%2F11fx95lqmp!19sChIJ_6dFnl1c0jsRU4z-S0x6k9k?authuser=0&hl=en&rclk=1,"19.6509166,78.5290486"
Ek Minar Masjid,Place of worship,"MG3G+PFJ Ek Minar Masjid, Dasnapur, Sapthagiri Colony, chaitanyapuri, Adilabad, Telangana 504001","Dasnapur, Sapthagiri Colony, chaitanyapuri",MG3G+PFJ,Adilabad,504001,Telangana,IN,https://www.google.com/maps/place/Ek+Minar+Masjid/data=!4m7!3m6!1s0x3bd25c60d3c814ab:0xfe7d18a2a1544cb9!8m2!3d19.6543445!4d78.5261453!16s%2Fg%2F11b80hc6nt!19sChIJqxTI02Bc0jsRuUxUoaIYff4?authuser=0&hl=en&rclk=1,"19.6543445,78.5261453"
Masjid E Umar Farooq,Mosque,"CFG3+GFW Masjid E Umar Farooq, Ichoda, Telangana 504307",,CFG3+GFW,Ichoda,504307,Telangana,IN,https://www.google.com/maps/place/Masjid+E+Umar+Farooq/data=!4m7!3m6!1s0x3bd26f986a32f5f1:0xa79367774c71be95!8m2!3d19.4263502!4d78.4537135!16s%2Fg%2F11f03zm31b!19sChIJ8fUyaphv0jsRlb5xTHdnk6c?authuser=0&hl=en&rclk=1,"19.426350199999998,78.45371349999999"
Jama Masjid Ghotkuri,Mosque,"PGM5+G6V Jama Masjid Ghotkuri, Ghotkuri, Telangana 504312",,PGM5+G6V,Ghotkuri,504312,Telangana,IN,https://www.google.com/maps/place/Jama+Masjid+Ghotkuri/data=!4m7!3m6!1s0x3bd25b8331a0a60d:0x41ef8cf68b67feef!8m2!3d19.7338744!4d78.5080623!16s%2Fg%2F11gyyzzys3!19sChIJDaagMYNb0jsR7_5ni_aM70E?authuser=0&hl=en&rclk=1,"19.733874399999998,78.50806229999999"
Masjid E IBrahimiya,Mosque,"Masjid E IBrahimiya, Shanti Nagar, Adilabad, Telangana 504001",Shanti Nagar,,Adilabad,504001,Telangana,IN,https://www.google.com/maps/place/Masjid+E+IBrahimiya/data=!4m7!3m6!1s0x3bd25d44b0027dc7:0x5b9c582e308fceb0!8m2!3d19.6688451!4d78.5432386!16s%2Fg%2F11flbsbk92!19sChIJx30CsERd0jsRsM6PMC5YnFs?authuser=0&hl=en&rclk=1,"19.6688451,78.5432386"
MOHAMMAD IS MASJID,Mosque,"GHF6+VQ6 MOHAMMAD IS MASJID, Tosham, Telangana 504308",,GHF6+VQ6,Tosham,504308,Telangana,IN,https://www.google.com/maps/place/MOHAMMAD+IS+MASJID/data=!4m7!3m6!1s0x3bd267780b316d2b:0x43def7ea72223fa!8m2!3d19.5246611!4d78.5618857!16s%2Fg%2F11fjyxlpk6!19sChIJK20xC3hn0jsR-iMip37vPQQ?authuser=0&hl=en&rclk=1,"19.5246611,78.56188569999999"
Jama masjid,Mosque,"CFH3+8WC Jama masjid, Ichoda, Telangana 504307",,CFH3+8WC,Ichoda,504307,Telangana,IN,https://www.google.com/maps/place/Jama+masjid/data=!4m7!3m6!1s0x3bd26fcb3b2536e3:0x24b38adada85879e!8m2!3d19.4283175!4d78.454781!16s%2Fg%2F11ppybzh_0!19sChIJ4zYlO8tv0jsRnoeF2tqKsyQ?authuser=0&hl=en&rclk=1,"19.4283175,78.454781"
MASJID - E - WASIL,Mosque,"9Q7C+W9C MASJID - E - WASIL, Utnur, Telangana 504311",,9Q7C+W9C,Utnur,504311,Telangana,IN,https://www.google.com/maps/place/MASJID+-+E+-+WASIL/data=!4m7!3m6!1s0x3bd285b568212b3b:0xd48a9da29da1160e!8m2!3d19.3648093!4d78.7708923!16s%2Fg%2F11g6q_z_ty!19sChIJOyshaLWF0jsRDhahnaKditQ?authuser=0&hl=en&rclk=1,"19.364809299999997,78.7708923"
Masjid e Noorani,Mosque,"MGMQ+P66 Masjid e Noorani, Mahalaxmiwada, Adilabad, Telangana 504001",Mahalaxmiwada,MGMQ+P66,Adilabad,504001,Telangana,IN,https://www.google.com/maps/place/Masjid+e+Noorani/data=!4m7!3m6!1s0x3bd25b71656d7da1:0x9db65c4943296ea6!8m2!3d19.6842802!4d78.5380187!16s%2Fg%2F11gphd3bdg!19sChIJoX1tZXFb0jsRpm4pQ0lctp0?authuser=0&hl=en&rclk=1,"19.6842802,78.5380187"
Nagina Mosque,Mosque,"MGJM+HP5 Nagina Mosque, Tatiguda Colony, Adilabad, Telangana 504001",Tatiguda Colony,MGJM+HP5,Adilabad,504001,Telangana,IN,https://www.google.com/maps/place/Nagina+Mosque/data=!4m7!3m6!1s0x3bd25b4ce49791ef:0x49520374c45c5a0!8m2!3d19.6813908!4d78.5343507!16s%2Fg%2F11h6tjfc17!19sChIJ75GX5Exb0jsRoMVFTDcglQQ?authuser=0&hl=en&rclk=1,"19.6813908,78.53435069999999"
Eid-Gah Adilabad,Mosque,"MGFH+76M Eid-Gah Adilabad, Vidya Nagar, Adilabad, Telangana 504001",Vidya Nagar,MGFH+76M,Adilabad,504001,Telangana,IN,https://www.google.com/maps/place/Eid-Gah+Adilabad/data=!4m7!3m6!1s0x3bd25dc51f70cbab:0xb53df29e2fcc553b!8m2!3d19.6732088!4d78.5280509!16s%2Fg%2F11rd28b2_c!19sChIJq8twH8Vd0jsRO1XML57yPbU?authuser=0&hl=en&rclk=1,"19.673208799999998,78.5280509"
Masjid Mohammadia,Mosque,"9QCG+VR7 Masjid Mohammadia, Utnoor Rd, Utnur, Telangana 504311",,"9QCG+VR7, Utnoor Rd",Utnur,504311,Telangana,IN,https://www.google.com/maps/place/Masjid+Mohammadia/data=!4m7!3m6!1s0x3bd285b0dc0d26a7:0xf6fa3333ae2948b7!8m2!3d19.3721507!4d78.7770528!16s%2Fg%2F11c2p105cs!19sChIJpyYN3LCF0jsRt0gprjMz-vY?authuser=0&hl=en&rclk=1,"19.3721507,78.77705279999999"
Masjid-E-Zohra,Mosque,"Masjid-E-Zohra, Masjid-E- Zohra, Ambedkar Nagar, Khanapur, Telangana 504001",Ambedkar Nagar,Masjid-E- Zohra,Khanapur,504001,Telangana,IN,https://www.google.com/maps/place/Masjid-E-Zohra/data=!4m7!3m6!1s0x3bd25dbaced23b33:0xe16af2c30b24656!8m2!3d19.6729258!4d78.5447961!16s%2Fg%2F11j000cqb1!19sChIJMzvSzrpd0jsRVkayMCyvFg4?authuser=0&hl=en&rclk=1,"19.672925799999998,78.5447961"
Masjid-E-Aqsa,Mosque,"Masjid-E-Aqsa, Masjid-E-Aqsa Khanapur, Ambedkar Nagar, Khanapur, Telangana 504001",Ambedkar Nagar,Masjid-E-Aqsa Khanapur,Khanapur,504001,Telangana,IN,https://www.google.com/maps/place/Masjid-E-Aqsa/data=!4m7!3m6!1s0x3bd25dcc44670e61:0x730f194bf8b6847d!8m2!3d19.6716338!4d78.5448989!16s%2Fg%2F11j07wlncw!19sChIJYQ5nRMxd0jsRfYS2-EsZD3M?authuser=0&hl=en&rclk=1,"19.6716338,78.54489889999999"
Masjid e Raza,Mosque,"MG9V+JPV Masjid e Raza, Shanti Nagar, Adilabad, Telangana 504001",Shanti Nagar,MG9V+JPV,Adilabad,504001,Telangana,IN,https://www.google.com/maps/place/Masjid+e+Raza/data=!4m7!3m6!1s0x3bd25d7fcd7b7ccd:0xe8779b7a8f75f499!8m2!3d19.6691213!4d78.5442846!16s%2Fg%2F11kh3x29df!19sChIJzXx7zX9d0jsRmfR1j3qbd-g?authuser=0&hl=en&rclk=1,"19.6691213,78.5442846"
Masjid-e- Amina,Mosque,"MGFR+G3G Masjid-e- Amina, Brahmanwadi, Adilabad, Telangana 504001",Brahmanwadi,MGFR+G3G,Adilabad,504001,Telangana,IN,https://www.google.com/maps/place/Masjid-e-+Amina/data=!4m7!3m6!1s0x3bd25ddc88f570b9:0x22cb1f0c107c4bc6!8m2!3d19.6738162!4d78.5401916!16s%2Fg%2F11k7xv923r!19sChIJuXD1iNxd0jsRxkt8EAwfyyI?authuser=0&hl=en&rclk=1,"19.673816199999997,78.5401916"
MASJID-E-AQSA,Mosque,"9QCM+6FG MASJID-E-AQSA, Utnur, Telangana 504311",,9QCM+6FG,Utnur,504311,Telangana,IN,https://www.google.com/maps/place/MASJID-E-AQSA/data=!4m7!3m6!1s0x3bd285ae68120e2d:0x511a2112271c67ab!8m2!3d19.3705709!4d78.7836997!16s%2Fg%2F11d_8_t86t!19sChIJLQ4SaK6F0jsRq2ccJxIhGlE?authuser=0&hl=en&rclk=1,"19.3705709,78.7836997"
Monammadia Masjid,Mosque,"FMX7+QP5 Monammadia Masjid, HEERAPUR, Indervelly, Heerapur, Telangana 504346",HEERAPUR,FMX7+QP5,"Indervelly, Heerapur",,Telangana,IN,https://www.google.com/maps/place/Monammadia+Masjid/data=!4m7!3m6!1s0x3bd28b5088306d5f:0x145d9a5d18c98ff!8m2!3d19.4993952!4d78.6643571!16s%2Fg%2F11gr5_09c8!19sChIJX20wiFCL0jsR_5iM0aXZRQE?authuser=0&hl=en&rclk=1,"19.4993952,78.66435709999999"
Madina Masjid,Mosque,"FRXW+J8M Madina Masjid, Narnoor, Telangana 504311",,FRXW+J8M,Narnoor,504311,Telangana,IN,https://www.google.com/maps/place/Madina+Masjid/data=!4m7!3m6!1s0x3bd291fb09c29f61:0x3a9088300dabf574!8m2!3d19.4990794!4d78.8457857!16s%2Fg%2F11fy93lty3!19sChIJYZ_CCfuR0jsRdPWrDTCIkDo?authuser=0&hl=en&rclk=1,"19.4990794,78.8457857"
Masjid-e-Hazrat Syedna Ali,Mosque,"Masjid-e-Hazrat Syedna Ali, Tatiguda Colony, Adilabad, Telangana 504001",Tatiguda Colony,,Adilabad,504001,Telangana,IN,https://www.google.com/maps/place/Masjid-e-Hazrat+Syedna+Ali/data=!4m7!3m6!1s0x3bd25b054f1b7477:0xbe5511ba6cbe653a!8m2!3d19.6844778!4d78.5344335!16s%2Fg%2F11h_488z3f!19sChIJd3QbTwVb0jsROmW-bLoRVb4?authuser=0&hl=en&rclk=1,"19.6844778,78.53443349999999"
Masjid-e-Siddique,Mosque,"MG78+GG3 Masjid-e-Siddique, Unnamed Road, Subhash Nagar, Adilabad, Telangana 504001",Subhash Nagar,"MG78+GG3, Unnamed Road",Adilabad,504001,Telangana,IN,https://www.google.com/maps/place/Masjid-e-Siddique/data=!4m7!3m6!1s0x3bd25ddfdb658e8d:0x40be051be107f7ff!8m2!3d19.66377!4d78.516291!16s%2Fg%2F11h6mnz8kz!19sChIJjY5l299d0jsR__cH4RsFvkA?authuser=0&hl=en&rclk=1,"19.66377,78.516291"
Osmania Masjid,Mosque,"MGGH+J95 Osmania Masjid, Unnamed Road, Osmania Nagar, Adilabad, Telangana 504001",Osmania Nagar,"MGGH+J95, Unnamed Road",Adilabad,504001,Telangana,IN,https://www.google.com/maps/place/Osmania+Masjid/data=!4m7!3m6!1s0x3bd25be4233f9883:0xb2c0a1b37d2b2191!8m2!3d19.6765118!4d78.5284822!16s%2Fg%2F11h76l8r35!19sChIJg5g_I-Rb0jsRkSErfbOhwLI?authuser=0&hl=en&rclk=1,"19.6765118,78.5284822"
MASJID E IBRAHIMIA,Mosque,"MASJID E IBRAHIMIA, 2-5-275/1, tirpally, Adilabad, Telangana 504001",tirpally,2-5-275/1,Adilabad,504001,Telangana,IN,https://www.google.com/maps/place/MASJID+E+IBRAHIMIA/data=!4m7!3m6!1s0x3bd25b8b6628a527:0x550e60c0cd80575a!8m2!3d19.6814941!4d78.5416637!16s%2Fg%2F11f15jwjc0!19sChIJJ6UoZotb0jsRWleAzcBgDlU?authuser=0&hl=en&rclk=1,"19.6814941,78.5416637"
"Madarsa Jamia Kanzul Iman, Tajushariya Colony",Mosque,"Madarsa Jamia Kanzul Iman, Tajushariya Colony, Tajushshariah colony, sathnala road, Adilabad, Telangana 504001",,"Tajushshariah colony, sathnala road",Adilabad,504001,Telangana,IN,"https://www.google.com/maps/place/Madarsa+Jamia+Kanzul+Iman,+Tajushariya+Colony/data=!4m7!3m6!1s0x3bd25bf7e96ee307:0x951a6fc37998f72e!8m2!3d19.6781047!4d78.5569819!16s%2Fg%2F11tsz_q5km!19sChIJB-Nu6fdb0jsRLveYecNvGpU?authuser=0&hl=en&rclk=1","19.6781047,78.5569819"
Jama Masjid,Mosque,"MH8H+G5R Jama Masjid, Bangariguda, Telangana 504001",,MH8H+G5R,Bangariguda,504001,Telangana,IN,https://www.google.com/maps/place/Jama+Masjid/data=!4m7!3m6!1s0x3bd25ebaa488962f:0x7c9c4576ec3277f6!8m2!3d19.6663678!4d78.5778967!16s%2Fg%2F11bxfjsvl4!19sChIJL5aIpLpe0jsR9ncy7HZFnHw?authuser=0&hl=en&rclk=1,"19.6663678,78.5778967"
Jama Masjid,Mosque,"FFMW+HFQ Jama Masjid, Mannur, Telangana 504308",,FFMW+HFQ,Mannur,,Telangana,IN,https://www.google.com/maps/place/Jama+Masjid/data=!4m7!3m6!1s0x3bd265e0439525af:0xbcf454f7611c69b0!8m2!3d19.4839707!4d78.4962288!16s%2Fg%2F11gfn_jq8n!19sChIJryWVQ-Bl0jsRsGkcYfdU9Lw?authuser=0&hl=en&rclk=1,"19.4839707,78.4962288"
Masjid E Umar,Mosque,"PG3V+48M Masjid E Umar, Adilabad, Telangana 504001",,PG3V+48M,Adilabad,,Telangana,IN,https://www.google.com/maps/place/Masjid+E+Umar/data=!4m7!3m6!1s0x3bd25bdf0118b5d3:0x62b0f5a28ee4880c!8m2!3d19.7028448!4d78.5433019!16s%2Fg%2F11ns53vp9f!19sChIJ07UYAd9b0jsRDIjkjqL1sGI?authuser=0&hl=en&rclk=1,"19.702844799999998,78.5433019"
Masjid e Afsana,Mosque,"JGRP+7WM Masjid e Afsana, KRK Rd, KRK Colony, Khoja Colony, Adilabad, Telangana 504001","KRK Colony, Khoja Colony","JGRP+7WM, KRK Rd",Adilabad,504001,Telangana,IN,https://www.google.com/maps/place/Masjid+e+Afsana/data=!4m7!3m6!1s0x3bd25d5d2e428473:0xd94d955bdaa63bd4!8m2!3d19.6407052!4d78.5372911!16s%2Fg%2F11t4wlk9cp!19sChIJc4RCLl1d0jsR1Dum2luVTdk?authuser=0&hl=en&rclk=1,"19.6407052,78.53729109999999"
MOSQUE,Mosque,"FW74+MMH MOSQUE, Unnamed Road, Patnapur, Telangana 504311",,"FW74+MMH, Unnamed Road",Patnapur,504311,Telangana,IN,https://www.google.com/maps/place/MOSQUE/data=!4m7!3m6!1s0x3bd29171978b6b7d:0xf6c2e30fdc4b6e09!8m2!3d19.464189!4d78.906724!16s%2Fg%2F11n_v2540n!19sChIJfWuLl3GR0jsRCW5L3A_jwvY?authuser=0&hl=en&rclk=1,"19.464188999999998,78.906724"
Masjid E Hamza Ramnagar Adilabad,Mosque,"MG4C+F8M Masjid E Hamza Ramnagar Adilabad, Ramnagar Colony, Adilabad, Telangana 504001",Ramnagar Colony,MG4C+F8M,Adilabad,504001,Telangana,IN,https://www.google.com/maps/place/Masjid+E+Hamza+Ramnagar+Adilabad/data=!4m7!3m6!1s0x3bd25d6d632224ef:0xc12bfcc836f7600c!8m2!3d19.6562608!4d78.5213636!16s%2Fg%2F11r_w2kkk1!19sChIJ7yQiY21d0jsRDGD3Nsj8K8E?authuser=0&hl=en&rclk=1,"19.6562608,78.5213636"
JAMA MASJID TOSHAM,Mosque,"GHH7+PQH JAMA MASJID TOSHAM, Tosham, Telangana 504308",,GHH7+PQH,Tosham,504308,Telangana,IN,https://www.google.com/maps/place/JAMA+MASJID+TOSHAM/data=!4m7!3m6!1s0x3bd2679d129ca44d:0x37c41b1b017dded8!8m2!3d19.529309!4d78.5644921!16s%2Fg%2F11llhm5gzr!19sChIJTaScEp1n0jsR2N59ARsbxDc?authuser=0&hl=en&rclk=1,"19.529308999999998,78.5644921"
Masjid e umar,Mosque,"9W95+WC9 Masjid e umar, Jainoor, Telangana 504313",,9W95+WC9,Jainoor,504313,Telangana,IN,https://www.google.com/maps/place/Masjid+e+umar/data=!4m7!3m6!1s0x3bd29b093593e477:0xe65cd53a2848ead0!8m2!3d19.3700184!4d78.9089038!16s%2Fg%2F11t27x9_rj!19sChIJd-STNQmb0jsR0OpIKDrVXOY?authuser=0&hl=en&rclk=1,"19.3700184,78.90890379999999"
JAMA MASJID Patnapur,Mosque,"FV7X+CXQ JAMA MASJID Patnapur, Karimguda patnapur, distt, asifabad, Telangana",,"FV7X+CXQ, Karimguda patnapur, distt","asifabad, Nagolkonda",,Telangana,IN,https://www.google.com/maps/place/JAMA+MASJID+Patnapur/data=!4m7!3m6!1s0x3bd291e86e1a7d69:0x9834c04e32b8b593!8m2!3d19.4635955!4d78.8999868!16s%2Fg%2F11s42vdj81!19sChIJaX0abuiR0jsRk7W4Mk7ANJg?authuser=0&hl=en&rclk=1,"19.4635955,78.8999868"
Mohammadia Masjid,Mosque,"GGG7+V2V Mohammadia Masjid, Gudihathinur, Telangana 504308",,GGG7+V2V,Gudihathinur,,Telangana,IN,https://www.google.com/maps/place/Mohammadia+Masjid/data=!4m7!3m6!1s0x3bd2672db3af8d75:0xa3d2136c5bb1609!8m2!3d19.5272339!4d78.5125611!16s%2Fg%2F11fljg89lb!19sChIJdY2vsy1n0jsRCRa7xTYhPQo?authuser=0&hl=en&rclk=1,"19.5272339,78.5125611"
DARGAH HAZRATH SYED SADIQ PUNJABI R.A.,Mosque,"9QFH+82V DARGAH HAZRATH SYED SADIQ PUNJABI R.A., Utnoor Rd, Utnur, Telangana 504311",,"9QFH+82V, Utnoor Rd",Utnur,,Telangana,IN,https://www.google.com/maps/place/DARGAH+HAZRATH+SYED+SADIQ+PUNJABI+R.A./data=!4m7!3m6!1s0x3bd285e8982a5b59:0xa6f27cae7e3b2eb8!8m2!3d19.37336!4d78.7775539!16s%2Fg%2F11q3lkmfrb!19sChIJWVsqmOiF0jsRuC47fq588qY?authuser=0&hl=en&rclk=1,"19.373359999999998,78.7775539"
Masjid-e-umarfarooq,Mosque,"9QCH+PGP Masjid-e-umarfarooq, Rahmathpura, Utnur, Telangana 504311",Rahmathpura,9QCH+PGP,Utnur,,Telangana,IN,https://www.google.com/maps/place/Masjid-e-umarfarooq/data=!4m7!3m6!1s0x3bd2857a91093a6b:0x26c68fcbfbdadda6!8m2!3d19.3718367!4d78.7788405!16s%2Fg%2F11g1bbd1gd!19sChIJazoJkXqF0jsRpt3a-8uPxiY?authuser=0&hl=en&rclk=1,"19.3718367,78.7788405"
Masjid,Mosque,"CQ24+936 Masjid, X-Road, Nagapur, Telangana 504311",X-Road,CQ24+936,Nagapur,504311,Telangana,IN,https://www.google.com/maps/place/Masjid/data=!4m7!3m6!1s0x3bd28542302b9163:0x87197ab60c077a2c!8m2!3d19.4009106!4d78.7551464!16s%2Fg%2F11qnl8lv7j!19sChIJY5ErMEKF0jsRLHoHDLZ6GYc?authuser=0&hl=en&rclk=1,"19.4009106,78.7551464"
Masjid-E-Kausar,Mosque,"MG8Q+6M8 Masjid-E-Kausar, Shanti Nagar, Adilabad, Telangana 504001",Shanti Nagar,MG8Q+6M8,Adilabad,504001,Telangana,IN,https://www.google.com/maps/place/Masjid-E-Kausar/data=!4m7!3m6!1s0x3bd25c726cbfffff:0xdcc8a30755b4260c!8m2!3d19.6655322!4d78.5391992!16s%2Fg%2F11txmzh9h_!19sChIJ__-_bHJc0jsRDCa0VQejyNw?authuser=0&hl=en&rclk=1,"19.665532199999998,78.5391992"
Jama masjid,Mosque,"CQ8W+HQ Jama masjid, Hasnapur, Telangana 504311",,CQ8W+HQ,Hasnapur,504311,Telangana,IN,https://www.google.com/maps/place/Jama+masjid/data=!4m7!3m6!1s0x3bd28f3b13450bef:0x6a2f533252729bc0!8m2!3d19.4159327!4d78.7972924!16s%2Fg%2F11t2sb2b39!19sChIJ7wtFEzuP0jsRwJtyUjJTL2o?authuser=0&hl=en&rclk=1,"19.4159327,78.7972924"
Makkah Masjid,Mosque,"JGVP+75 Makkah Masjid, Khoja Colony, Adilabad, Telangana 504001",Khoja Colony,JGVP+75,Adilabad,504001,Telangana,IN,https://www.google.com/maps/place/Makkah+Masjid/data=!4m7!3m6!1s0x3bd25d02ee832577:0x98776ac946be5479!8m2!3d19.6431637!4d78.5353692!16s%2Fg%2F11r_wlfhm2!19sChIJdyWD7gJd0jsReVS-Rslqd5g?authuser=0&hl=en&rclk=1,"19.6431637,78.53536919999999"
Masjid-E-ibraheem bin abbas,Mosque,"MGGX+2JV Masjid-E-ibraheem bin abbas, Ambedkar Nagar, Adilabad, Telangana 504001",Ambedkar Nagar,MGGX+2JV,Adilabad,504001,Telangana,IN,https://www.google.com/maps/place/Masjid-E-ibraheem+bin+abbas/data=!4m7!3m6!1s0x3bd25dca817e57db:0x80929612f281e68c!8m2!3d19.6751132!4d78.5490388!16s%2Fg%2F11jz2dzlg7!19sChIJ21d-gcpd0jsRjOaB8hKWkoA?authuser=0&hl=en&rclk=1,"19.6751132,78.54903879999999"
Masjeed hussainii,Mosque,"MJ54+CQV Masjeed hussainii, Yapalguda, Telangana 504001",,MJ54+CQV,Yapalguda,,Telangana,IN,https://www.google.com/maps/place/Masjeed+hussainii/data=!4m7!3m6!1s0x3bd25fe833a409f1:0xf693abfb159c949f!8m2!3d19.6586194!4d78.6069226!16s%2Fg%2F11ptn63pkq!19sChIJ8QmkM-hf0jsRn5ScFfurk_Y?authuser=0&hl=en&rclk=1,"19.6586194,78.60692259999999"
JAMA MASJID,Mosque,"GGJ7+3R2 JAMA MASJID, Bazar road, Gudihathinur, Telangana 504308",,"GGJ7+3R2, Bazar road",Gudihathinur,504308,Telangana,IN,https://www.google.com/maps/place/JAMA+MASJID/data=!4m7!3m6!1s0x3bd2679cecb7be7b:0x2adf95c1083f777b!8m2!3d19.5301375!4d78.5145156!16s%2Fg%2F11sq265ndj!19sChIJe7637Jxn0jsRe3c_CMGV3yo?authuser=0&hl=en&rclk=1,"19.5301375,78.5145156"
Jama masjid,Mosque,"9C9X+FR5 Jama masjid, Mukhra-B, Telangana 504307",,9C9X+FR5,Mukhra-B,504307,Telangana,IN,https://www.google.com/maps/place/Jama+masjid/data=!4m7!3m6!1s0x3bd271baede69955:0x5d9ae47fedd0e556!8m2!3d19.3686472!4d78.4496168!16s%2Fg%2F11qb3ykyy3!19sChIJVZnm7bpx0jsRVuXQ7X_kml0?authuser=0&hl=en&rclk=1,"19.368647199999998,78.4496168"
Masjid e Rahmania.,Mosque,"C4PQ+J2F Masjid e Rahmania., Surdhapur, Telangana 504293",,C4PQ+J2F,Surdhapur,504293,Telangana,IN,https://www.google.com/maps/place/Masjid+e+Rahmania./data=!4m7!3m6!1s0x3bd2bb9aeef31f5d:0x8ab4045f2e1b1acf!8m2!3d19.4365628!4d79.1375524!16s%2Fg%2F11h171bwhp!19sChIJXR_z7pq70jsRzxobLl8EtIo?authuser=0&hl=en&rclk=1,"19.4365628,79.13755239999999"
Masjid-e-Umar Faruq,Mosque,"Masjid-e-Umar Faruq, 5-990, near Bhim Nagar, Indervelly, Telangana 504346",,"5-990, near Bhim Nagar",Indervelly,504346,Telangana,IN,https://www.google.com/maps/place/Masjid-e-Umar+Faruq/data=!4m7!3m6!1s0x3bd28977e7eaf70d:0x8258704df043e015!8m2!3d19.4936269!4d78.6706737!16s%2Fg%2F11st_xzdb0!19sChIJDffq53eJ0jsRFeBD8E1wWII?authuser=0&hl=en&rclk=1,"19.4936269,78.6706737"
MOHAMMADIA MASJID,Mosque,"FMVC+JFR MOHAMMADIA MASJID, Heerapur, Indervelly, Telangana",,"FMVC+JFR, Heerapur",Indervelly,,Telangana,IN,https://www.google.com/maps/place/MOHAMMADIA+MASJID/data=!4m7!3m6!1s0x3bd289c55f8ff47d:0x2d649ece3f38847e!8m2!3d19.494116!4d78.6711451!16s%2Fg%2F11fcnd7c7s!19sChIJffSPX8WJ0jsRfoQ4P86eZC0?authuser=0&hl=en&rclk=1,"19.494115999999998,78.67114509999999"
Madina masjid,Mosque,"HJX5+HJ6 Madina masjid, Lokari, Telangana 504001",,HJX5+HJ6,Lokari,504001,Telangana,IN,https://www.google.com/maps/place/Madina+masjid/data=!4m7!3m6!1s0x3bd25fd0b85e3af7:0x58b0d4e158d49e84!8m2!3d19.5986215!4d78.6098443!16s%2Fg%2F11s39q45km!19sChIJ9zpeuNBf0jsRhJ7UWOHUsFg?authuser=0&hl=en&rclk=1,"19.5986215,78.60984429999999"
Madina Masjid,Mosque,"9Q7H+P3C Madina Masjid, Mominpura, Utnur, Telangana 504311",Mominpura,9Q7H+P3C,Utnur,504311,Telangana,IN,https://www.google.com/maps/place/Madina+Masjid/data=!4m7!3m6!1s0x3bd285b33e155555:0x13e010187828103f!8m2!3d19.3643116!4d78.777638!16s%2Fg%2F11txmzdqbx!19sChIJVVUVPrOF0jsRPxAoeBgQ4BM?authuser=0&hl=en&rclk=1,"19.3643116,78.777638"
MASJID SHANTAPUR,Mosque,"FGFP+C5C MASJID SHANTAPUR, Gudihathnoor Mandal, Shantapur, Telangana 504308",,FGFP+C5C Gudihathnoor Mandal,Shantapur,504308,Telangana,IN,https://www.google.com/maps/place/MASJID+SHANTAPUR/data=!4m7!3m6!1s0x3bd2654db6a04cab:0xf7f3553ee06f6434!8m2!3d19.4739955!4d78.5351779!16s%2Fg%2F11tgc9r3cf!19sChIJq0ygtk1l0jsRNGRv4D5V8_c?authuser=0&hl=en&rclk=1,"19.473995499999997,78.5351779"
Jama masjid satnala,Mosque,"JMW5+PWX Jama masjid satnala, Unnamed Road, Mangurla, Telangana 504346",,"JMW5+PWX, Unnamed Road",Mangurla,504346,Telangana,IN,https://www.google.com/maps/place/Jama+masjid+satnala/data=!4m7!3m6!1s0x3bd2f53a1390b167:0xc9c9d6206d487239!8m2!3d19.6468623!4d78.6598444!16s%2Fg%2F11ry277d9p!19sChIJZ7GQEzr10jsROXJIbSDWyck?authuser=0&hl=en&rclk=1,"19.6468623,78.6598444"
Masjid e Abu Hurera,Mosque,"MG3R+8F Masjid e Abu Hurera, Adilabad, Telangana 504001",,MG3R+8F,Adilabad,,Telangana,IN,https://www.google.com/maps/place/Masjid+e+Abu+Hurera/data=!4m7!3m6!1s0x3bd25d2ea7388ce5:0x955ec3718d1b00a1!8m2!3d19.6532544!4d78.5411588!16s%2Fg%2F11twgyhbqr!19sChIJ5Yw4py5d0jsRoQAbjXHDXpU?authuser=0&hl=en&rclk=1,"19.653254399999998,78.54115879999999"
Late Shakkar baap bhai's House,Mosque,"9Q8G+XPH Late Shakkar baap bhai's House, Utnur, Telangana 504311",,9Q8G+XPH,Utnur,,Telangana,IN,https://www.google.com/maps/place/Late+Shakkar+baap+bhai%27s+House/data=!4m7!3m6!1s0x3bd28599f6383c27:0x19c105667d80cd2a!8m2!3d19.367426!4d78.7768553!16s%2Fg%2F11t7x70mz7!19sChIJJzw49pmF0jsRKs2AfWYFwRk?authuser=0&hl=en&rclk=1,"19.367426,78.7768553"
Masjid e Muhammadiya Mangurla,Mosque,"JMQ7+G2 Masjid e Muhammadiya Mangurla, Mangurla, Telangana 504346",,JMQ7+G2,Mangurla,504346,Telangana,IN,https://www.google.com/maps/place/Masjid+e+Muhammadiya+Mangurla/data=!4m7!3m6!1s0x3bd2f580fd42be85:0x16a5654839535615!8m2!3d19.6388015!4d78.6625003!16s%2Fg%2F11s6xpgq0r!19sChIJhb5C_YD10jsRFVZTOUhlpRY?authuser=0&hl=en&rclk=1,"19.6388015,78.66250029999999"
KHANKHA E MOHAMMADI ADILABAD,Mosque,"MG7H+84G KHANKHA E MOHAMMADI ADILABAD, Adilabad Main Rd, Satnala Quarters, chaitanyapuri, Adilabad, Telangana 504001","Satnala Quarters, chaitanyapuri","MG7H+84G, Adilabad Main Rd",Adilabad,504001,Telangana,IN,https://www.google.com/maps/place/KHANKHA+E+MOHAMMADI+ADILABAD/data=!4m7!3m6!1s0x3bd25d7de627a569:0x4868af4429eca682!8m2!3d19.6633136!4d78.5278399!16s%2Fg%2F11nxrkqmlw!19sChIJaaUn5n1d0jsRgqbsKUSvaEg?authuser=0&hl=en&rclk=1,"19.6633136,78.52783989999999"
masjid,Mosque,"MGFX+R5C masjid, Ambedkar Nagar, Adilabad, Telangana 504001",Ambedkar Nagar,MGFX+R5C,Adilabad,504001,Telangana,IN,https://www.google.com/maps/place/masjid/data=!4m7!3m6!1s0x3bd25dea5bc85cff:0xa139fac0fe5bfbe8!8m2!3d19.6750538!4d78.549016!16s%2Fg%2F11tg1ql3mw!19sChIJ_1zIW-pd0jsR6Ptb_sD6OaE?authuser=0&hl=en&rclk=1,"19.6750538,78.549016"
Masjid-e-afreen,Mosque,"MGGF+4FV Masjid-e-afreen, khursheed Nagar, Adilabad, Telangana 504001",khursheed Nagar,MGGF+4FV,Adilabad,504001,Telangana,IN,https://www.google.com/maps/place/Masjid-e-afreen/data=!4m7!3m6!1s0x3bd25b038e0e96e3:0x1f892d183a40c1ab!8m2!3d19.6753577!4d78.5236845!16s%2Fg%2F11nn1rkr2z!19sChIJ45YOjgNb0jsRq8FAOhgtiR8?authuser=0&hl=en&rclk=1,"19.6753577,78.5236845"
Aamena masjid,Mosque,"JGX6+87J Aamena masjid, Dasnapur, Adilabad, Bhattisavargaon, Telangana 504001",Dasnapur,JGX6+87J,"Adilabad, Bhattisavargaon",504001,Telangana,IN,https://www.google.com/maps/place/Aamena+masjid/data=!4m7!3m6!1s0x3bd25d2e87707821:0x7a8dc8944d703c82!8m2!3d19.6483397!4d78.5106279!16s%2Fg%2F11tgg9_s_q!19sChIJIXhwhy5d0jsRgjxwTZTIjXo?authuser=0&hl=en&rclk=1,"19.648339699999998,78.5106279"
Mecca masjid,Mosque,"MGP8+9W4 Mecca masjid, Ranadive Nagar, Adilabad, Telangana 504001",Ranadive Nagar,MGP8+9W4,Adilabad,504001,Telangana,IN,https://www.google.com/maps/place/Mecca+masjid/data=!4m7!3m6!1s0x3bd25bb7b3fb23e1:0x87b034458c3a1168!8m2!3d19.6862525!4d78.5171874!16s%2Fg%2F11stb2lqs3!19sChIJ4SP7s7db0jsRaBE6jEU0sIc?authuser=0&hl=en&rclk=1,"19.6862525,78.5171874"
Jama masjid,Mosque,"JH4C+4PC Jama masjid, Unnamed Road, Ankoli, Telangana 504001",,"JH4C+4PC, Unnamed Road",Ankoli,504001,Telangana,IN,https://www.google.com/maps/place/Jama+masjid/data=!4m7!3m6!1s0x3bd25fc7d4192163:0xfea41342f3369d98!8m2!3d19.6053134!4d78.5717622!16s%2Fg%2F11rxymlw57!19sChIJYyEZ1Mdf0jsRmJ0280ITpP4?authuser=0&hl=en&rclk=1,"19.6053134,78.5717622"
Masjid-E-Ayesha,Mosque,"MGCQ+XRX Masjid-E-Ayesha, Brahmanwadi, Adilabad, Telangana 504001",Brahmanwadi,MGCQ+XRX,Adilabad,504001,Telangana,IN,https://www.google.com/maps/place/Masjid-E-Ayesha/data=!4m7!3m6!1s0x3bd25c7445a55555:0xe3f8a99466fc71ef!8m2!3d19.6724753!4d78.5395986!16s%2Fg%2F11sscsfbvt!19sChIJVVWlRXRc0jsR73H8ZpSp-OM?authuser=0&hl=en&rclk=1,"19.6724753,78.53959859999999"
Baba Shadullah Dargah,Mosque,"JGVM+X4J Baba Shadullah Dargah, KRK Colony, Khoja Colony, Adilabad, Telangana 504001","KRK Colony, Khoja Colony",JGVM+X4J,Adilabad,504001,Telangana,IN,https://www.google.com/maps/place/Baba+Shadullah+Dargah/data=!4m7!3m6!1s0x3bd25dde609dddf1:0xb10548e403faacef!8m2!3d19.6449191!4d78.5327293!16s%2Fg%2F11kpt652yk!19sChIJ8d2dYN5d0jsR76z6A-RIBbE?authuser=0&hl=en&rclk=1,"19.6449191,78.5327293"
DARUL ULOOM HUSSAINIA ARABIC RESIDENTIAL SCHOOL,Mosque,"DARUL ULOOM HUSSAINIA ARABIC RESIDENTIAL SCHOOL, e Ibrahim, Road, New Housing Board 4th Zone, Wadi, Adilabad, Telangana 504001","New Housing Board 4th Zone, Wadi","e Ibrahim, Road",Adilabad,504001,Telangana,IN,https://www.google.com/maps/place/DARUL+ULOOM+HUSSAINIA+ARABIC+RESIDENTIAL+SCHOOL/data=!4m7!3m6!1s0x3bd25d078c55b7e3:0x84991b5134a69ea3!8m2!3d19.6585896!4d78.5114721!16s%2Fg%2F11t2c1_7d8!19sChIJ47dVjAdd0jsRo56mNFEbmYQ?authuser=0&hl=en&rclk=1,"19.6585896,78.51147209999999"
Masjide Mera,Mosque,"Masjide Mera, Police line, Old Housing Board Colony, Ravindra Nagar Colony, Adilabad, Telangana 504001","Old Housing Board Colony, Ravindra Nagar Colony",Police line,Adilabad,,Telangana,IN,https://www.google.com/maps/place/Masjide+Mera/data=!4m7!3m6!1s0x3bd25d4f276d7737:0xfba7d6c285a2493a!8m2!3d19.6640624!4d78.5320107!16s%2Fg%2F11jt228q6b!19sChIJN3dtJ09d0jsROkmihcLWp_s?authuser=0&hl=en&rclk=1,"19.6640624,78.5320107"
Masjid e Aqsa,Mosque,"9CPV+55W Masjid e Aqsa, Islamnagar, Telangana 504307",,9CPV+55W,Islamnagar,504307,Telangana,IN,https://www.google.com/maps/place/Masjid+e+Aqsa/data=!4m7!3m6!1s0x3bd271c95b560a13:0xeac4c3253af1fd04!8m2!3d19.3854802!4d78.4429394!16s%2Fg%2F11vdh6g0fk!19sChIJEwpWW8lx0jsRBP3xOiXDxOo?authuser=0&hl=en&rclk=1,"19.3854802,78.4429394"
Jama e masjid,Mosque,"CHP6+V5V Jama e masjid, Sirikonda, Telangana 504307",,CHP6+V5V,Sirikonda,504307,Telangana,IN,https://www.google.com/maps/place/Jama+e+masjid/data=!4m7!3m6!1s0x3bd265a0c4b67e19:0xeef9904049bc52ba!8m2!3d19.4372379!4d78.5604069!16s%2Fg%2F11t6n00ddy!19sChIJGX62xKBl0jsRulK8SUCQ-e4?authuser=0&hl=en&rclk=1,"19.4372379,78.56040689999999"
Moulana feroz khan,Mosque,"MJ3G+CQ Moulana feroz khan, Khoja Colony, Ramai, Adilabad, Telangana 504001",Khoja Colony,MJ3G+CQ,"Ramai, Adilabad",,Telangana,IN,https://www.google.com/maps/place/Moulana+feroz+khan/data=!4m7!3m6!1s0x3bd25dd4b09ad475:0x3afbebe3f84f5e37!8m2!3d19.6435498!4d78.5406584!16s%2Fg%2F11jyld9kx6!19sChIJddSasNRd0jsRN15P-OPr-zo?authuser=0&hl=en&rclk=1,"19.6435498,78.5406584"
Masjid e Meena,Mosque,"MGP9+8H Masjid e Meena, Gandi Nagar, Gandhi Nagar, Adilabad, Telangana 504001","Gandi Nagar, Gandhi Nagar",MGP9+8H,Adilabad,504001,Telangana,IN,https://www.google.com/maps/place/Masjid+e+Meena/data=!4m7!3m6!1s0x3bd25b2d5ed8222d:0x771014856dfdca9c!8m2!3d19.685762!4d78.5189931!16s%2Fg%2F11tw_8y348!19sChIJLSLYXi1b0jsRnMr9bYUUEHc?authuser=0&hl=en&rclk=1,"19.685762,78.5189931"
Sudarah Nagar Patan kirana Feroza khan,Mosque,"Sudarah Nagar Patan kirana Feroza khan, Masjid e durdana, Sundaraiah Nagar, khursheed Nagar, Adilabad, Telangana 504001","Sundaraiah Nagar, khursheed Nagar",Masjid e durdana,Adilabad,,Telangana,IN,https://www.google.com/maps/place/Sudarah+Nagar+Patan+kirana+Feroza+khan/data=!4m7!3m6!1s0x3bd25bdb37aefa07:0x2a1a0c954e06593f!8m2!3d19.6769183!4d78.5171223!16s%2Fg%2F11s8_g6_vk!19sChIJB_quN9tb0jsRP1kGTpUMGio?authuser=0&hl=en&rclk=1,"19.6769183,78.5171223"
Nirmal,Mosque,"MG7J+FM7 Nirmal, Ravindra Nagar Colony, Nirmal, Adilabad, Telangana 504001",Ravindra Nagar Colony,MG7J+FM7,"Nirmal, Adilabad",,Telangana,IN,https://www.google.com/maps/place/Nirmal/data=!4m7!3m6!1s0x3bd25d0be6d4dcc7:0x851c659ed80ab906!8m2!3d19.6636686!4d78.5316792!16s%2Fg%2F11vcm4jw2n!19sChIJx9zU5gtd0jsRBrkK2J5lHIU?authuser=0&hl=en&rclk=1,"19.663668599999998,78.5316792"
Abbubakar masjid,Mosque,"9WG5+JJV Abbubakar masjid, Jainoor, Telangana 504313",,9WG5+JJV,Jainoor,504313,Telangana,IN,https://www.google.com/maps/place/Abbubakar+masjid/data=!4m7!3m6!1s0x3bd29bab25333f2b:0x3b3f437925c3c48c!8m2!3d19.3766247!4d78.909049!16s%2Fg%2F11rs2wxm5k!19sChIJKz8zJaub0jsRjMTDJXlDPzs?authuser=0&hl=en&rclk=1,"19.3766247,78.909049"
Madarsa Khadijatul Kubra Lil Bannat,Mosque,"MGG9+GCV Madarsa Khadijatul Kubra Lil Bannat, Sundaraiah Nagar, khursheed Nagar, Adilabad, Telangana 504001","Sundaraiah Nagar, khursheed Nagar",MGG9+GCV,Adilabad,504001,Telangana,IN,https://www.google.com/maps/place/Madarsa+Khadijatul+Kubra+Lil+Bannat/data=!4m7!3m6!1s0x3bd25b201ee5067f:0x80545817c42b082e!8m2!3d19.6759908!4d78.5188593!16s%2Fg%2F11t7pd0mjz!19sChIJfwblHiBb0jsRLggrxBdYVIA?authuser=0&hl=en&rclk=1,"19.675990799999997,78.5188593"
Masjid e Umar,Mosque,"88W9+PMV Masjid e Umar, Boath Buzurg, Telangana 504304",,88W9+PMV,Boath Buzurg,504304,Telangana,IN,https://www.google.com/maps/place/Masjid+e+Umar/data=!4m7!3m6!1s0x3bd273af0b80cd5d:0x4344839cf7d24f12!8m2!3d19.3467375!4d78.319247!16s%2Fg%2F11t7b7gxtw!19sChIJXc2AC69z0jsREk_S95yDREM?authuser=0&hl=en&rclk=1,"19.3467375,78.31924699999999"
Jama-masjid,Mosque,"8RG9+858 Jama-masjid, danthanpalli, Utnur, Danthanpalle, Telangana 504311",,"8RG9+858, danthanpalli","Utnur, Danthanpalle",504311,Telangana,IN,https://www.google.com/maps/place/Jama-masjid/data=!4m7!3m6!1s0x3bd2854382fca6b1:0x7f6af6c9c5f66375!8m2!3d19.3257758!4d78.8177888!16s%2Fg%2F11t_m6qb3v!19sChIJsab8gkOF0jsRdWP2xcn2an8?authuser=0&hl=en&rclk=1,"19.3257758,78.8177888"
Masjie e qadriya rizviya,Mosque,"MGG9+F74 Masjie e qadriya rizviya, Sundaraiah Nagar, khursheed Nagar, Adilabad, Telangana 504001","Sundaraiah Nagar, khursheed Nagar",MGG9+F74,Adilabad,504001,Telangana,IN,https://www.google.com/maps/place/Masjie+e+qadriya+rizviya/data=!4m7!3m6!1s0x3bd25be0522f7487:0xdb13d5620f1365f0!8m2!3d19.676138!4d78.5182022!16s%2Fg%2F11ht41v1ck!19sChIJh3QvUuBb0jsR8GUTD2LVE9s?authuser=0&hl=en&rclk=1,"19.676137999999998,78.51820219999999"
Eid Gah and muslim burial ground,Mosque,"F942+CJP Eid Gah and muslim burial ground, Bazarhatnoor Rd, Bazarhatnoor, Telangana 504304",,"F942+CJP, Bazarhatnoor Rd",Bazarhatnoor,504304,Telangana,IN,https://www.google.com/maps/place/Eid+Gah+and+muslim+burial+ground/data=!4m7!3m6!1s0x3bd26c68f55bd4df:0x37802d22bc216b99!8m2!3d19.4560996!4d78.3515659!16s%2Fg%2F11cmv2275y!19sChIJ39Rb9Whs0jsRmWshvCItgDc?authuser=0&hl=en&rclk=1,"19.456099599999998,78.3515659"
Masjid E Gohar,Mosque,"PPFC+P83 Masjid E Gohar, Sirsanna, Telangana 504309",,PPFC+P83,Sirsanna,504309,Telangana,IN,https://www.google.com/maps/place/Masjid+E+Gohar/data=!4m7!3m6!1s0x3bd2f7eb0dbb98bb:0x482b941a64ade016!8m2!3d19.7242612!4d78.7207925!16s%2Fg%2F11tg51brq2!19sChIJu5i7Dev30jsRFuCtZBqUK0g?authuser=0&hl=en&rclk=1,"19.7242612,78.7207925"
MASJID,Mosque,"88VH+QXG MASJID, Boath Buzurg, Telangana 504304",,88VH+QXG,Boath Buzurg,504304,Telangana,IN,https://www.google.com/maps/place/MASJID/data=!4m7!3m6!1s0x3bd273a5ccb6c791:0xf37853e1363ccaa0!8m2!3d19.344726!4d78.330825!16s%2Fg%2F11snwzzbc5!19sChIJkce2zKVz0jsRoMo8NuFTePM?authuser=0&hl=en&rclk=1,"19.344725999999998,78.33082499999999"
Dongargao eidgha,Mosque,"GG95+FRR Dongargao eidgha, Dongargaon, Gudihathinur, Telangana 504308",,GG95+FRR,"Dongargaon, Gudihathinur",,Telangana,IN,https://www.google.com/maps/place/Dongargao+eidgha/data=!4m7!3m6!1s0x3bd2672897490ae7:0x77f77cd4973b7dd8!8m2!3d19.5187376!4d78.5095172!16s%2Fg%2F11k46qqdyg!19sChIJ5wpJlyhn0jsR2H07l9R893c?authuser=0&hl=en&rclk=1,"19.518737599999998,78.50951719999999"
Madarsa Imdadul uloom,Mosque,"MHH3+X3 Madarsa Imdadul uloom, Adilabad, Telangana 504001",,MHH3+X3,Adilabad,,Telangana,IN,https://www.google.com/maps/place/Madarsa+Imdadul+uloom/data=!4m7!3m6!1s0x3bd25b469a2a59b5:0x398d9511bd9f4f1!8m2!3d19.6798862!4d78.5526843!16s%2Fg%2F11s4t771x_!19sChIJtVkqmkZb0jsR8fTZG1HZmAM?authuser=0&hl=en&rclk=1,"19.6798862,78.5526843"
