name,main_category,address,address_ward,address_street,address_city,address_postal_code,address_state,address_country_code,link,coordinates
Jama Masjid (Okhla),Mosque,"Jama Masjid (Okhla), 21/4,Okhla Bazar, Okhla Main Market Rd, Jamia Nagar, Okhla Village, Okhla, New Delhi, Delhi 110025","Jamia Nagar, Okhla Village, Okhla","21/4,Okhla Bazar, Okhla Main Market Rd",New Delhi,110025,Delhi,IN,https://www.google.com/maps/place/Jama+Masjid+%28Okhla%29/data=!4m7!3m6!1s0x390ce474e657e7f9:0x9680577c25554efa!8m2!3d28.5631627!4d77.2900565!16s%2Fg%2F1tk6ywjp!19sChIJ-edX5nTkDDkR-k5VJXxXgJY?authuser=0&hl=en&rclk=1,"28.5631627,77.29005649999999"
Masjid Mujeeb Bagh,Mosque,"H74R+R4J Masjid Mujeeb Bagh, Mujeeb Bagh, Jamia Nagar, Okhla, New Delhi, Delhi 110025","Mujeeb Bagh, Jamia Nagar, Okhla",H74R+R4J,New Delhi,110025,Delhi,IN,https://www.google.com/maps/place/Masjid+Mujeeb+Bagh/data=!4m7!3m6!1s0x390ce40bc79e1ce9:0x18ab01f5fdcf10b3!8m2!3d28.5570856!4d77.2902574!16s%2Fg%2F11hbvrlrnj!19sChIJ6RyexwvkDDkRsxDP_fUBqxg?authuser=0&hl=en&rclk=1,"28.557085599999997,77.2902574"
"Ghausia Masjid, Jasola",Mosque,"Ghausia Masjid, Jasola, 171, Jasola, Jasola Vihar, New Delhi, Delhi 110025","Jasola, Jasola Vihar",171,New Delhi,110025,Delhi,IN,"https://www.google.com/maps/place/Ghausia+Masjid,+Jasola/data=!4m7!3m6!1s0x390ce5c200a37205:0xfebb591e8a3c8619!8m2!3d28.5488829!4d77.2921906!16s%2Fg%2F11nl7bc3f7!19sChIJBXKjAMLlDDkRGYY8ih5Zu_4?authuser=0&hl=en&rclk=1","28.5488829,77.2921906"
Khalilullah Masjid,Mosque,"Khalilullah Masjid, KHALILULLAH masjid, I 80/A, Batla House, Jamia Nagar, Okhla, New Delhi, Delhi 110025","Batla House, Jamia Nagar, Okhla","KHALILULLAH masjid, I 80/A",New Delhi,110025,Delhi,IN,https://www.google.com/maps/place/Khalilullah+Masjid/data=!4m7!3m6!1s0x390ce475d1de5d13:0xe00156a6e547ab99!8m2!3d28.566411!4d77.2889085!16s%2Fg%2F1tj1kwt5!19sChIJE13e0XXkDDkRmatH5aZWAeA?authuser=0&hl=en&rclk=1,"28.566411,77.28890849999999"
Masjid Shahab,Mosque,"H78P+VWV Masjid Shahab, Jamia, Batla House, Jamia Nagar, Okhla, New Delhi, Delhi 110025","Jamia, Batla House, Jamia Nagar, Okhla",H78P+VWV,New Delhi,110025,Delhi,IN,https://www.google.com/maps/place/Masjid+Shahab/data=!4m7!3m6!1s0x390ce4760f556f8d:0xc0285f5f2f62012c!8m2!3d28.5672496!4d77.2873032!16s%2Fg%2F1hhm006pz!19sChIJjW9VD3bkDDkRLAFiL19fKMA?authuser=0&hl=en&rclk=1,"28.5672496,77.2873032"
Jama Masjid (Shaheen Bagh),Mosque,"Jama Masjid (Shaheen Bagh), 12, Kalindi Kunj Rd, Block B, Jamia Nagar, Jasola, New Delhi, Delhi 110025","Block B, Jamia Nagar, Jasola","12, Kalindi Kunj Rd",New Delhi,110025,Delhi,IN,https://www.google.com/maps/place/Jama+Masjid+%28Shaheen+Bagh%29/data=!4m7!3m6!1s0x390ce41a3d9d581b:0xc7b0e62465b11de9!8m2!3d28.5496905!4d77.3028252!16s%2Fg%2F11g7p2t2hd!19sChIJG1idPRrkDDkR6R2xZSTmsMc?authuser=0&hl=en&rclk=1,"28.549690499999997,77.3028252"
Sabz Masjid,Mosque,"Sabz Masjid, 3571, Lalkuan Bazar Rd, Bazar Sirkiwalan, Lal Kuan Bazar, Chandni Chowk, Delhi, 110006","Bazar Sirkiwalan, Lal Kuan Bazar, Chandni Chowk","3571, Lalkuan Bazar Rd",Delhi,110006,Delhi,IN,https://www.google.com/maps/place/Sabz+Masjid/data=!4m7!3m6!1s0x390cfd16a94877a7:0x7b35bb653cd42e20!8m2!3d28.652163!4d77.223599!16s%2Fm%2F04q247t!19sChIJp3dIqRb9DDkRIC7UPGW7NXs?authuser=0&hl=en&rclk=1,"28.652162999999998,77.223599"
"Jama Masjid, Khadda Colony jm` msjd",Mosque,"Jama Masjid, Khadda Colony jm` msjd, D-202, near by Jama Masjid Gali, Jaitpur Extension Part II, Khadda Colony, Badarpur, New Delhi, Delhi 110044","Jaitpur Extension Part II, Khadda Colony, Badarpur","D-202, near by Jama Masjid Gali",New Delhi,110044,Delhi,IN,"https://www.google.com/maps/place/Jama+Masjid,+Khadda+Colony+%D8%AC%D8%A7%D9%85%D8%B9+%D9%85%D8%B3%D8%AC%D8%AF%E2%80%AD/data=!4m7!3m6!1s0x390ce65a1cc2d345:0x508d72d241ba7c2f!8m2!3d28.5094725!4d77.3384064!16s%2Fg%2F11b_23cdbd!19sChIJRdPCHFrmDDkRL3y6QdJyjVA?authuser=0&hl=en&rclk=1","28.509472499999998,77.3384064"
Masjid Faizane Ghausia and Madarsa,Mosque,"Masjid Faizane Ghausia and Madarsa, D-100, Maulana Azad Rd, Shaheen Bagh, Jamia Nagar, Okhla, New Delhi, Delhi 110025","Shaheen Bagh, Jamia Nagar, Okhla","D-100, Maulana Azad Rd",New Delhi,110025,Delhi,IN,https://www.google.com/maps/place/Masjid+Faizane+Ghausia+and+Madarsa/data=!4m7!3m6!1s0x390ce41ba6415db1:0xa9911783ddc9514d!8m2!3d28.5472543!4d77.3012896!16s%2Fg%2F11b6pk_b3y!19sChIJsV1BphvkDDkRTVHJ3YMXkak?authuser=0&hl=en&rclk=1,"28.5472543,77.30128959999999"
Masjid Umar Farooq,Mosque,"Masjid Umar Farooq, F-56, Allama Shibli Nomani Road, Shaheen Bagh, Okhla, New Delhi, Delhi 110025","Shaheen Bagh, Okhla","F-56, Allama Shibli Nomani Road",New Delhi,110025,Delhi,IN,https://www.google.com/maps/place/Masjid+Umar+Farooq/data=!4m7!3m6!1s0x390ce41c85bb1f59:0x6e5c74657b2ef350!8m2!3d28.5444786!4d77.3006375!16s%2Fg%2F12qfsrfxd!19sChIJWR-7hRzkDDkRUPMue2V0XG4?authuser=0&hl=en&rclk=1,"28.544478599999998,77.3006375"
Chhappar Wali Masjid,Mosque,"Chhappar Wali Masjid, 48, Okhla Rd, Jamia Nagar, Okhla, New Delhi, Delhi 110025","Jamia Nagar, Okhla","48, Okhla Rd",New Delhi,110025,Delhi,IN,https://www.google.com/maps/place/Chhappar+Wali+Masjid/data=!4m7!3m6!1s0x390ce47512f9ba69:0xdab55473377f5c32!8m2!3d28.5632638!4d77.2880895!16s%2Fg%2F11cn9tyv1h!19sChIJabr5EnXkDDkRMlx_N3NUtdo?authuser=0&hl=en&rclk=1,"28.563263799999998,77.2880895"
Masjid Umar,Mosque,"Masjid Umar, H Block, Abul Fazal Enclave, Jamia Nagar, Okhla, New Delhi, Delhi 110025","Abul Fazal Enclave, Jamia Nagar, Okhla",H Block,New Delhi,110025,Delhi,IN,https://www.google.com/maps/place/Masjid+Umar/data=!4m7!3m6!1s0x390ce40e52efde7f:0x5e0487c814d4c357!8m2!3d28.5535005!4d77.2956955!16s%2Fg%2F11b6snzn79!19sChIJf97vUg7kDDkRV8PUFMiHBF4?authuser=0&hl=en&rclk=1,"28.5535005,77.2956955"
Masjid and Madarsa,Mosque,"H78P+G28 Masjid and Madarsa, Jamia, Batla House, Jamia Nagar, Okhla, New Delhi, Delhi 110025","Jamia, Batla House, Jamia Nagar, Okhla",H78P+G28,New Delhi,110025,Delhi,IN,https://www.google.com/maps/place/Masjid+and+Madarsa/data=!4m7!3m6!1s0x390ce38a18a5d97f:0xdcfc61f3d0f88168!8m2!3d28.5662905!4d77.2850829!16s%2Fg%2F1hg4wfd46!19sChIJf9mlGIrjDDkRaIH40PNh_Nw?authuser=0&hl=en&rclk=1,"28.566290499999997,77.28508289999999"
"Sitara Masjid, Abul Fazal, New Delhi.",Mosque,"Sitara Masjid, Abul Fazal, New Delhi., Part 1, G 3, Abul Fazal Enclave Rd, Part 1 Abul Fazal Enclave, Block G, Jamia Nagar, Okhla, New Delhi, Delhi 110025","Abul Fazal Enclave Part 1, Part 1 Abul Fazal Enclave, Block G, Jamia Nagar, Okhla","Part 1, G 3, Abul Fazal Enclave Rd",New Delhi,110025,Delhi,IN,"https://www.google.com/maps/place/Sitara+Masjid,+Abul+Fazal,+New+Delhi./data=!4m7!3m6!1s0x390ce40eef01b2f9:0x7aafe71b234ab52c!8m2!3d28.5541142!4d77.2941962!16s%2Fg%2F11c0xyx2h5!19sChIJ-bIB7w7kDDkRLLVKIxvnr3o?authuser=0&hl=en&rclk=1","28.554114199999997,77.2941962"
Masjid Hayat Madarsa Sahabia,Mosque,"F7XW+9R3 Masjid Hayat Madarsa Sahabia, Mehrauli - Badarpur Rd, Mittal Colony, Block RZ H, Pul Pehlad Pur, New Delhi, Faridabad, Delhi 110044","Mittal Colony, Block RZ H, Pul Pehlad Pur","F7XW+9R3, Mehrauli - Badarpur Rd","New Delhi, Faridabad",110044,Delhi,IN,https://www.google.com/maps/place/Masjid+Hayat+Madarsa+Sahabia/data=!4m7!3m6!1s0x390ce6d74f08cf85:0xcf35c38ec0e866ca!8m2!3d28.4983917!4d77.2970623!16s%2Fg%2F12hkbl23n!19sChIJhc8IT9fmDDkRymbowI7DNc8?authuser=0&hl=en&rclk=1,"28.4983917,77.2970623"
Jama Masjid jm` msjd,Mosque,"J855+M79 Jama Masjid jm` msjd, Block 15, Part 2, Trilokpuri, New Delhi, Delhi, 110091","Block 15, Part 2, Trilokpuri",J855+M79,"New Delhi, Delhi",110091,Delhi,IN,https://www.google.com/maps/place/Jama+Masjid+%D8%AC%D8%A7%D9%85%D8%B9+%D9%85%D8%B3%D8%AC%D8%AF%E2%80%AD/data=!4m7!3m6!1s0x390ce4bfe1b12b91:0xfecd74e7cb8ce1c7!8m2!3d28.6091721!4d77.3082433!16s%2Fg%2F11g8djm1rv!19sChIJkSux4b_kDDkRx-GMy-d0zf4?authuser=0&hl=en&rclk=1,"28.6091721,77.3082433"
Kalimullah Masjid,Mosque,"Kalimullah Masjid, Makki Masjid, 145, Gali Number B, Block 2, Madanpur Khadar Phase 3, Madanpur Khadar, New Delhi, Delhi 110076","Block 2, Madanpur Khadar Phase 3, Madanpur Khadar","Makki Masjid, 145, Gali Number B",New Delhi,110076,Delhi,IN,https://www.google.com/maps/place/Kalimullah+Masjid/data=!4m7!3m6!1s0x390ce6897ef8478d:0x2304370c8a3d48bf!8m2!3d28.525354!4d77.3294863!16s%2Fg%2F11gckhfvpp!19sChIJjUf4fonmDDkRv0g9igw3BCM?authuser=0&hl=en&rclk=1,"28.525354,77.3294863"
Abdul Salam Masjid,Mosque,"Abdul Salam Masjid, Gali No.13, Subhas Mohalla, North Ghonda, Delhi, 110053","Block C, Subash Vihar, Shahdara","Gali No.13, Subhas Mohalla, North Ghonda",Delhi,110053,Delhi,IN,https://www.google.com/maps/place/Abdul+Salam+Masjid/data=!4m7!3m6!1s0x390cfc6cea81d02d:0x4eff761b07605697!8m2!3d28.6956007!4d77.2705344!16s%2Fg%2F1jgly4_2k!19sChIJLdCB6mz8DDkRl1ZgBxt2_04?authuser=0&hl=en&rclk=1,"28.6956007,77.2705344"
Ahle Sunnat wal jamaat RazaeMuhammadi Masjid,Mosque,"J6X8+JC2 Ahle Sunnat wal jamaat RazaeMuhammadi Masjid, Aram Nagar, Paharganj, New Delhi, Delhi 110055","Aram Nagar, Paharganj",J6X8+JC2,New Delhi,110055,Delhi,IN,https://www.google.com/maps/place/Ahle+Sunnat+wal+jamaat+RazaeMuhammadi+Masjid/data=!4m7!3m6!1s0x390cfd6b1c55570b:0xb6cbdaabca9cc6b2!8m2!3d28.6490022!4d77.2160178!16s%2Fg%2F11g6mj_5x9!19sChIJC1dVHGv9DDkRssacyqvay7Y?authuser=0&hl=en&rclk=1,"28.649002199999998,77.2160178"
Puliya Wali Masjid,Mosque,"J6R9+Q48 Puliya Wali Masjid, Main Bazar Rd, Ratan Lal Market, Aram Bagh, Paharganj, New Delhi, Delhi, 110055","Ratan Lal Market, Aram Bagh, Paharganj","J6R9+Q48, Main Bazar Rd","New Delhi, Delhi",110055,Delhi,IN,https://www.google.com/maps/place/Puliya+Wali+Masjid/data=!4m7!3m6!1s0x390cfd3f5dcc4137:0x1ed0072a0c155076!8m2!3d28.6419015!4d77.2178423!16s%2Fg%2F12q4q_hw8!19sChIJN0HMXT_9DDkRdlAVDCoH0B4?authuser=0&hl=en&rclk=1,"28.6419015,77.2178423"
Gausia Masjid (Ishtiyak),Mosque,"Gausia Masjid (Ishtiyak), gali no.24 L block 110080, Sangam Vihar, New Delhi, Delhi 110080","Block L 2, Devli, Sangam Vihar",gali no.24 L block 110080,New Delhi,110080,Delhi,IN,https://www.google.com/maps/place/Gausia+Masjid+%28Ishtiyak%29/data=!4m7!3m6!1s0x390ce1af8789b4d3:0x9a3ff5f69c351894!8m2!3d28.4984758!4d77.2312984!16s%2Fg%2F11g9djgs2m!19sChIJ07SJh6_hDDkRlBg1nPb1P5o?authuser=0&hl=en&rclk=1,"28.498475799999998,77.2312984"
Alivardipur Masjid,Mosque,"GCPQ+55R Alivardipur Masjid, Kulesara, Noida, Greater Noida, Uttar Pradesh 201306",Kulesara,GCPQ+55R,"Noida, Greater Noida",201306,Uttar Pradesh,IN,https://www.google.com/maps/place/Alivardipur+Masjid/data=!4m7!3m6!1s0x390ce93b63454b07:0x55a00fd129bd3d7!8m2!3d28.5354898!4d77.4378761!16s%2Fg%2F11f15dmk8s!19sChIJB0tFYzvpDDkR19ObEv0AWgU?authuser=0&hl=en&rclk=1,"28.535489799999997,77.4378761"
Jama Masjid jm` msjd,Mosque,"J843+3MM Jama Masjid jm` msjd, Block 27, Himmatpuri, Trilokpuri, New Delhi, Delhi, 110091","Block 27, Himmatpuri, Trilokpuri",J843+3MM,"New Delhi, Delhi",110091,Delhi,IN,https://www.google.com/maps/place/Jama+Masjid+%D8%AC%D8%A7%D9%85%D8%B9+%D9%85%D8%B3%D8%AC%D8%AF%E2%80%AD/data=!4m7!3m6!1s0x390ce4942f142731:0x8999e160c41d9279!8m2!3d28.6052014!4d77.3041871!16s%2Fg%2F11f3m8097m!19sChIJMScUL5TkDDkReZIdxGDhmYk?authuser=0&hl=en&rclk=1,"28.6052014,77.3041871"
Jama Masjid,Mosque,"Jama Masjid, F-132, Kalindi Kunj Rd, Abul Fazal Enclave Part 1, Part 1 Abul Fazal Enclave, Block C, Jamia Nagar, Okhla, New Delhi, Delhi 110025","Abul Fazal Enclave Part 1, Part 1 Abul Fazal Enclave, Block C, Jamia Nagar, Okhla","F-132, Kalindi Kunj Rd",New Delhi,110025,Delhi,IN,https://www.google.com/maps/place/Jama+Masjid/data=!4m7!3m6!1s0x390ce474fc283e6d:0xbf47a3d3e25a4cad!8m2!3d28.560132!4d77.294788!16s%2Fg%2F12hkzr6p1!19sChIJbT4o_HTkDDkRrUxa4tOjR78?authuser=0&hl=en&rclk=1,"28.560132,77.294788"
"Masjid Madarsa Faizyab ISBT, Sarai Kale Khan Nizamuddin",Mosque,"Masjid Madarsa Faizyab ISBT, Sarai Kale Khan Nizamuddin, ISBT Sarai Kale Khan, Sarai Kale Khan, New Delhi, Delhi 110013","ISBT Sarai Kale Khan, Sarai Kale Khan",,New Delhi,110013,Delhi,IN,"https://www.google.com/maps/place/Masjid+Madarsa+Faizyab+ISBT,+Sarai+Kale+Khan+Nizamuddin/data=!4m7!3m6!1s0x390ce30be59a7b59:0x3d13dab7c7eb962f!8m2!3d28.586186!4d77.2584179!16s%2Fg%2F11ddwzrlh3!19sChIJWXua5QvjDDkRL5brx7faEz0?authuser=0&hl=en&rclk=1","28.586185999999998,77.2584179"
MASJID KHASTA GUL,Mosque,"MASJID KHASTA GUL, T16353, Goutampuri, Shahdara, Delhi, 110053","Goutampuri, Shahdara",T16353,Delhi,110053,Delhi,IN,https://www.google.com/maps/place/MASJID+KHASTA+GUL/data=!4m7!3m6!1s0x390cfc674ffe69a9:0xf03028dcb171102a!8m2!3d28.6802209!4d77.2642006!16s%2Fg%2F11g8ngh1ss!19sChIJqWn-T2f8DDkRKhBxsdwoMPA?authuser=0&hl=en&rclk=1,"28.6802209,77.2642006"
Fakhrul Masjid msjd,Mosque,"Fakhrul Masjid msjd, 1268, Bara Bazar Rd, Chabi Ganj, Kashmere Gate, New Delhi, Delhi, 110006","Chabi Ganj, Kashmere Gate","1268, Bara Bazar Rd","New Delhi, Delhi",110006,Delhi,IN,https://www.google.com/maps/place/Fakhrul+Masjid+%D9%85%D8%B3%D8%AC%D8%AF%E2%80%AD/data=!4m7!3m6!1s0x390cfd060683b301:0xc9d92074bb420992!8m2!3d28.665012!4d77.2295583!16s%2Fg%2F11cmytc3k3!19sChIJAbODBgb9DDkRkglCu3Qg2ck?authuser=0&hl=en&rclk=1,"28.665011999999997,77.2295583"
Firdos Masjid AhleHadees,Mosque,"G86P+PR2 Firdos Masjid AhleHadees, Gali Number 7, Jaitpur Extension Part II, Khadda Colony, Jaitpur, New Delhi, Delhi 110044","Jaitpur Extension Part II, Khadda Colony, Jaitpur","G86P+PR2, Gali Number 7",New Delhi,110044,Delhi,IN,https://www.google.com/maps/place/Firdos+Masjid+AhleHadees/data=!4m7!3m6!1s0x390ce6590e703723:0x2cb2a552b0f6b6e7!8m2!3d28.5117621!4d77.337006!16s%2Fg%2F11gcx_25d8!19sChIJIzdwDlnmDDkR57b2sFKlsiw?authuser=0&hl=en&rclk=1,"28.5117621,77.337006"
Masjid-e-Anjum,Mosque,"Masjid-e-Anjum, Indira Gandhi Camp Part 2, New Friends Colony, New Delhi, Delhi 110065","Block A, Taimoor Nagar, New Friends Colony","Indira Gandhi Camp Part 2, New Friends Colony",New Delhi,110065,Delhi,IN,https://www.google.com/maps/place/Masjid-e-Anjum/data=!4m7!3m6!1s0x390ce39a2cbe5dad:0x263099a5cc320902!8m2!3d28.573773!4d77.2696933!16s%2Fg%2F11ckkxbn_t!19sChIJrV2-LJrjDDkRAgkyzKWZMCY?authuser=0&hl=en&rclk=1,"28.573773,77.2696933"
masjid fathulbari,Mosque,"P758+2G6 masjid fathulbari, Gali Number 1, Moonga Nagar, Tukhmirpur, Delhi, 110094","Moonga Nagar, Tukhmirpur","P758+2G6, Gali Number 1",Delhi,110094,Delhi,IN,https://www.google.com/maps/place/masjid+fathulbari/data=!4m7!3m6!1s0x390cfc179d36d02b:0xfa85f08206a9e6a!8m2!3d28.7075451!4d77.266267!16s%2Fg%2F11g9k203s1!19sChIJK9A2nRf8DDkRap5qIAhfqA8?authuser=0&hl=en&rclk=1,"28.707545099999997,77.266267"
Masjid Badi msjd,Mosque,"Masjid Badi msjd, 893,, Chittli Qabar Bazar Rd, Jama Masjid, Chandni Chowk, New Delhi, Delhi 110006","Bazar Chitli Qabar, Kucha Chelan, Jama Masjid, Chandni Chowk","893,, Chittli Qabar Bazar Rd","New Delhi, Delhi",110006,Delhi,IN,https://www.google.com/maps/place/Masjid+Badi+%D9%85%D8%B3%D8%AC%D8%AF%E2%80%AD/data=!4m7!3m6!1s0x390cfd219cfec1f3:0x93ccacb281d71709!8m2!3d28.645321!4d77.2357133!16s%2Fg%2F12m98gjn5!19sChIJ88H-nCH9DDkRCRfXgbKszJM?authuser=0&hl=en&rclk=1,"28.645321,77.2357133"
"Gausia Masjid, Jasola",Mosque,"G7XR+RC7 Gausia Masjid, Jasola, Old Village Jasola Rd, Pocket 12, Jasola, New Delhi, Delhi 110025","Pocket 12, Jasola","G7XR+RC7, Old Village Jasola Rd",New Delhi,110025,Delhi,IN,"https://www.google.com/maps/place/Gausia+Masjid,+Jasola/data=!4m7!3m6!1s0x390ce40619ac3b31:0xf18a33ef1ccbe9bc!8m2!3d28.5495399!4d77.2910367!16s%2Fg%2F11fz_kdztn!19sChIJMTusGQbkDDkRvOnLHO8zivE?authuser=0&hl=en&rclk=1","28.5495399,77.29103669999999"
Mustafa Masjid Ahle Sunnat Wal Jamat mSTfy msjd,Mosque,"J8CH+RX6 Mustafa Masjid Ahle Sunnat Wal Jamat mSTfy msjd, Mulla Colony, Rajbir Colony, Gharoli Extension, Gharoli, Delhi, 96","Mulla Colony, Rajbir Colony, Gharoli Extension, Gharoli",J8CH+RX6,Delhi,96,Delhi,IN,https://www.google.com/maps/place/Mustafa+Masjid+Ahle+Sunnat+Wal+Jamat+%D9%85%D8%B5%D8%B7%D9%81%DB%8C+%D9%85%D8%B3%D8%AC%D8%AF%E2%80%AD/data=!4m7!3m6!1s0x390ce577af585fed:0xaf67853a70c52ff9!8m2!3d28.6220404!4d77.329894!16s%2Fg%2F11h_9xcl8q!19sChIJ7V9Yr3flDDkR-S_FcDqFZ68?authuser=0&hl=en&rclk=1,"28.6220404,77.329894"
Masjid Nalwali msjd,Mosque,"H6RV+C2F Masjid Nalwali msjd, Nizamuddin, Nizammudin West Slum, Nizamuddin West, New Delhi, Delhi 110013","Nizamuddin, Nizammudin West Slum, Nizamuddin West",H6RV+C2F,New Delhi,110013,Delhi,IN,https://www.google.com/maps/place/Masjid+Nalwali+%D9%85%D8%B3%D8%AC%D8%AF%E2%80%AD/data=!4m7!3m6!1s0x390ce302d2730367:0x324f36ed7bad214!8m2!3d28.591058!4d77.2425509!16s%2Fg%2F11d_txk_bj!19sChIJZwNz0gLjDDkRFNK6127zJAM?authuser=0&hl=en&rclk=1,"28.591058,77.2425509"
Masjid Sultani,Mosque,"Masjid Sultani, M-99 Gali no 12, Batla House, Okhla, New Delhi, Delhi 110025","Batla House, Okhla",M-99 Gali no 12,New Delhi,110025,Delhi,IN,https://www.google.com/maps/place/Masjid+Sultani/data=!4m7!3m6!1s0x390ce4770555a743:0xddc26b798b59ecce!8m2!3d28.5707577!4d77.2900673!16s%2Fg%2F11hd24hr29!19sChIJQ6dVBXfkDDkRzuxZi3lrwt0?authuser=0&hl=en&rclk=1,"28.570757699999998,77.29006729999999"
MASJID GOUSUL WARA,Mosque,"G79M+8MW MASJID GOUSUL WARA, Tekhand, Okhla Phase I, Okhla Industrial Estate, New Delhi, Delhi 110020","Tekhand, Okhla Phase I, Okhla Industrial Estate",G79M+8MW,New Delhi,110020,Delhi,IN,https://www.google.com/maps/place/MASJID+GOUSUL+WARA/data=!4m7!3m6!1s0x390ce15f4f8ec11b:0x9d50897d641b8031!8m2!3d28.5183625!4d77.2842054!16s%2Fg%2F11sy5qrxj3!19sChIJG8GOT1_hDDkRMYAbZH2JUJ0?authuser=0&hl=en&rclk=1,"28.5183625,77.28420539999999"
SHAHI JAMA MASJID jm` msjd shhy,Mosque,"SHAHI JAMA MASJID jm` msjd shhy, 22, foot road, Shram Vihar, Pocket N, Madanpur Khadar, New Delhi, Delhi 110025","Shram Vihar, Pocket N, Madanpur Khadar","22, foot road",New Delhi,110025,Delhi,IN,https://www.google.com/maps/place/SHAHI+JAMA+MASJID+%D8%AC%D8%A7%D9%85%D8%B9+%D9%85%D8%B3%D8%AC%D8%AF+%D8%B4%D8%A7%DA%BE%DB%8C%E2%80%AD/data=!4m7!3m6!1s0x390ce5a36ba3a95d:0x7cb7c1435cda3fd2!8m2!3d28.5405938!4d77.3038368!16s%2Fg%2F11n733rllr!19sChIJXamja6PlDDkR0j_aXEPBt3w?authuser=0&hl=en&rclk=1,"28.5405938,77.3038368"
Masjid Sanauji,Mosque,"Masjid Sanauji, Shop No. 1630, Lal Kuan, Lalkuan Bazar Rd, Baradari, Chandni Chowk, New Delhi, Delhi 110006","Bazar Sirkiwalan, Baradari, Chandni Chowk","Shop No. 1630, Lal Kuan, Lalkuan Bazar Rd","New Delhi, Delhi",110006,Delhi,IN,https://www.google.com/maps/place/Masjid+Sanauji/data=!4m7!3m6!1s0x390cfd13fe3ea72d:0x27ea23bc5f650202!8m2!3d28.6529317!4d77.2232485!16s%2Fg%2F12hplq4pp!19sChIJLac-_hP9DDkRAgJlX7wj6ic?authuser=0&hl=en&rclk=1,"28.6529317,77.2232485"
Subhanallah masjid,Mosque,"P77J+M63 Subhanallah masjid, Indra Vihar II, Phase 1, Indra Vihar, New Mustafabad, Delhi, 110094","Indra Vihar II, Phase 1, Indra Vihar, New Mustafabad",P77J+M63,Delhi,110094,Delhi,IN,https://www.google.com/maps/place/Subhanallah+masjid/data=!4m7!3m6!1s0x390cfd73e42a428d:0x9775315c361b368f!8m2!3d28.7141446!4d77.280536!16s%2Fg%2F11q1r51bwh!19sChIJjUIq5HP9DDkRjzYbNlwxdZc?authuser=0&hl=en&rclk=1,"28.714144599999997,77.280536"
Mosque msjd,Mosque,"J76X+W9R Mosque msjd, New, Kotla Village, Mayur Vihar, New Delhi, Delhi 110091","Kotla Village, Mayur Vihar","J76X+W9R, New","New Delhi, Delhi",110091,Delhi,IN,https://www.google.com/maps/place/Mosque+%D9%85%D8%B3%D8%AC%D8%AF%E2%80%AD/data=!4m7!3m6!1s0x390ce4bcc9c6272b:0x172c875eb9dd78e2!8m2!3d28.612373!4d77.2984052!16s%2Fg%2F11c3182y_w!19sChIJKyfGybzkDDkR4njduV6HLBc?authuser=0&hl=en&rclk=1,"28.612372999999998,77.29840519999999"
Baghwali Masjid msjd bG wly,Mosque,"Baghwali Masjid msjd bG wly, 785, Nicholson Rd, Kashmere Gate, New Delhi, Delhi 110006","Ganda Nala Bazar, Kashmere Gate","785, Nicholson Rd","New Delhi, Delhi",110006,Delhi,IN,https://www.google.com/maps/place/Baghwali+Masjid+%D9%85%D8%B3%D8%AC%D8%AF+%D8%A8%D8%A7%D8%BA+%D9%88%D8%A7%D9%84%DB%8C%E2%80%AD/data=!4m7!3m6!1s0x390cfd092767785b:0xd4966cf4d21cbda8!8m2!3d28.6653187!4d77.2261277!16s%2Fg%2F12llwbr4n!19sChIJW3hnJwn9DDkRqL0c0vRsltQ?authuser=0&hl=en&rclk=1,"28.6653187,77.22612769999999"
Masjid,Mosque,"H77Q+868 Masjid, Okhla Village, Okhla, New Delhi, Delhi 110025","Okhla Village, Okhla",H77Q+868,New Delhi,110025,Delhi,IN,https://www.google.com/maps/place/Masjid/data=!4m7!3m6!1s0x390ce47512f7aa2b:0x544337a9b9e5d7a2!8m2!3d28.5632814!4d77.2880932!16s%2Fg%2F11gbtpj5td!19sChIJK6r3EnXkDDkRotfluak3Q1Q?authuser=0&hl=en&rclk=1,"28.563281399999997,77.28809319999999"
Ishaq Masjid,Mosque,"Ishaq Masjid, Ishaq Masjid Wali Gali, Block C, Sarai Kale Khan, New Delhi, Delhi 110013","Block C, Sarai Kale Khan",Ishaq Masjid Wali Gali,New Delhi,110013,Delhi,IN,https://www.google.com/maps/place/Ishaq+Masjid/data=!4m7!3m6!1s0x390ce376f8a80f59:0x43d242dbd3376818!8m2!3d28.5849571!4d77.2565889!16s%2Fg%2F11q2tx_6x1!19sChIJWQ-o-HbjDDkRGGg309tC0kM?authuser=0&hl=en&rclk=1,"28.5849571,77.2565889"
Mr.SAHEEM MALIK,Mosque,"Mr.SAHEEM MALIK, Gali no. 3 - Tirpal Factory Mustafabad, near Ayisha masjid, 25 Futa Rd, near by Aisha Masjid, chowk, Delhi 110094","Shakti Vihar, Old Mustafabad, chowk","Gali no. 3 - Tirpal Factory Mustafabad, near Ayisha masjid, 25 Futa Rd, near by Aisha Masjid",Delhi,110094,Delhi,IN,https://www.google.com/maps/place/Mr.SAHEEM+MALIK/data=!4m7!3m6!1s0x390cfd9a44cd4997:0xffdc8860c53e3f2b!8m2!3d28.7159667!4d77.272238!16s%2Fg%2F11h3cwgc8y!19sChIJl0nNRJr9DDkRKz8-xWCI3P8?authuser=0&hl=en&rclk=1,"28.7159667,77.272238"
Masjid,Mosque,"Q6MJ+5H5 Masjid, Badarpur, Madanpur Khadar, New Delhi, 110084",Madanpur Khadar,"Q6MJ+5H5, Badarpur","New Delhi, Delhi",110084,Delhi,IN,https://www.google.com/maps/place/Masjid/data=!4m7!3m6!1s0x390cffb780460377:0x9fe224e9c653e965!8m2!3d28.7828891!4d77.2314704!16s%2Fg%2F11qn790lvq!19sChIJdwNGgLf_DDkRZelTxukk4p8?authuser=0&hl=en&rclk=1,"28.7828891,77.23147039999999"
Masjid,Mosque,"Q7JJ+7WC Masjid, Pavi Sadakpur, Uttar Pradesh 201102",,Q7JJ+7WC,Pavi Sadakpur,201102,Uttar Pradesh,IN,https://www.google.com/maps/place/Masjid/data=!4m7!3m6!1s0x390cff3247b3c4d7:0xf1b7407f946dd8cc!8m2!3d28.7806806!4d77.2822504!16s%2Fg%2F11ggz8tfhy!19sChIJ18SzRzL_DDkRzNhtlH9At_E?authuser=0&hl=en&rclk=1,"28.7806806,77.2822504"
Masjid Tariq Ul Saqib,Mosque,"H72X+XVH Masjid Tariq Ul Saqib, Abul Fazal Enclave Part 2, Jamia Nagar, Okhla, New Delhi, Delhi 110025","Abul Fazal Enclave Part 2, Jamia Nagar, Okhla",H72X+XVH,New Delhi,110025,Delhi,IN,https://www.google.com/maps/place/Masjid+Tariq+Ul+Saqib/data=!4m7!3m6!1s0x390ce5f89a22443d:0x7f1f8010c76175ea!8m2!3d28.5524415!4d77.2997285!16s%2Fg%2F11pdr6sc4g!19sChIJPUQimvjlDDkR6nVhxxCAH38?authuser=0&hl=en&rclk=1,"28.5524415,77.2997285"
Masjid Suhailwali,Mosque,"G59P+JVH Masjid Suhailwali, Archeological Pk Trl, Ladha Sarai Village, Mehrauli, New Delhi, Delhi 110030","Ladha Sarai Village, Mehrauli",G59P+JVH Archeological Pk Trl,New Delhi,110030,Delhi,IN,https://www.google.com/maps/place/Masjid+Suhailwali/data=!4m7!3m6!1s0x390d1f7c153e757f:0xd87f61dba133c08f!8m2!3d28.5182244!4d77.1874102!16s%2Fg%2F11k39wfxml!19sChIJf3U-FXwfDTkRj8Azodthf9g?authuser=0&hl=en&rclk=1,"28.518224399999998,77.1874102"
Masjid Ghausiya,Mosque,"H7P3+463 Masjid Ghausiya, Jaipur Estata, Nizamuddin East, New Delhi, Delhi 110013","Jaipur Estata, Nizamuddin East",H7P3+463,New Delhi,110013,Delhi,IN,https://www.google.com/maps/place/Masjid+Ghausiya/data=!4m7!3m6!1s0x390ce308bdf9e56d:0xab682202cc3a5df!8m2!3d28.585259!4d77.2530424!16s%2Fg%2F11f4km8bxw!19sChIJbeX5vQjjDDkR36XDLCCCtgo?authuser=0&hl=en&rclk=1,"28.585258999999997,77.2530424"
Old Mugal Masjid,Mosque,"J6X9+P3V Old Mugal Masjid, Qutab Rd, Ram Nagar Market, Aram Nagar, Paharganj, New Delhi, Delhi, 110055","Ram Nagar Market, Aram Nagar, Paharganj","J6X9+P3V, Qutab Rd","New Delhi, Delhi",110055,Delhi,IN,https://www.google.com/maps/place/Old+Mugal+Masjid/data=!4m7!3m6!1s0x390cfd152b1b0125:0x49e032c4a3927074!8m2!3d28.6493546!4d77.2176682!16s%2Fg%2F11ggw008kv!19sChIJJQEbKxX9DDkRdHCSo8Qy4Ek?authuser=0&hl=en&rclk=1,"28.6493546,77.21766819999999"
msjid,Mosque,"msjid, 249, Swami Amardev Marg, Bara Bazar, Maharam Mohalla, Shahdara, Delhi, 110032","Bara Bazar, Maharam Mohalla, Shahdara","249, Swami Amardev Marg",Delhi,110032,Delhi,IN,https://www.google.com/maps/place/%E0%A4%AE%E0%A4%B8%E0%A5%8D%E0%A4%9C%E0%A4%BF%E0%A4%A6/data=!4m7!3m6!1s0x390cfb490b84c709:0x30ecad58f89bafaa!8m2!3d28.6687399!4d77.2917355!16s%2Fg%2F11n03hfp8k!19sChIJCceEC0n7DDkRqq-b-Fit7DA?authuser=0&hl=en&rclk=1,"28.6687399,77.2917355"
HADHRAT UMAR MASJID ALMAROOF CHOTI MASJID,Mosque,"HADHRAT UMAR MASJID ALMAROOF CHOTI MASJID, Chotti Masjid, Street number 9, Mulla Colony, Gharoli Extension, Gharoli, Delhi, 110096","Mulla Colony, Gharoli Extension, Gharoli","Chotti Masjid, Street number 9",Delhi,110096,Delhi,IN,https://www.google.com/maps/place/HADHRAT+UMAR+MASJID+ALMAROOF+CHOTI+MASJID/data=!4m7!3m6!1s0x390ce5c6cf830b2f:0x6bb8084dadf0d513!8m2!3d28.6213398!4d77.3314246!16s%2Fg%2F11sy4vfb7s!19sChIJLwuDz8blDDkRE9XwrU0IuGs?authuser=0&hl=en&rclk=1,"28.621339799999998,77.33142459999999"
Masjid,Mosque,"Masjid, 2508, Fasil Rd, Gali Sakko Wali, Shah Ganj, Chandni Chowk, New Delhi, Delhi, 110006","Gali Sakko Wali, Shah Ganj, Chandni Chowk","2508, Fasil Rd","New Delhi, Delhi",110006,Delhi,IN,https://www.google.com/maps/place/Masjid/data=!4m7!3m6!1s0x390cfd15c9a8a4b1:0xf975aada141da03e!8m2!3d28.6491552!4d77.2220471!16s%2Fg%2F1hm4gjxkd!19sChIJsaSoyRX9DDkRPqAdFNqqdfk?authuser=0&hl=en&rclk=1,"28.6491552,77.2220471"
Mosque,Mosque,"H77M+WWG Mosque, Jamia Nagar, Okhla, New Delhi, Delhi 110025","Jamia Nagar, Okhla",H77M+WWG,New Delhi,110025,Delhi,IN,https://www.google.com/maps/place/Mosque/data=!4m7!3m6!1s0x390ce3056adf2343:0x8df512d7aa631433!8m2!3d28.5648133!4d77.2848259!16s%2Fg%2F11n16y696z!19sChIJQyPfagXjDDkRMxRjqtcS9Y0?authuser=0&hl=en&rclk=1,"28.564813299999997,77.2848259"
Masjid Aaisha (AhleHadees) msjd `y'shh,Mosque,"G8R2+7VC Masjid Aaisha (AhleHadees) msjd `y'shh, Abu Huraira Rd, Shram Vihar, Pocket N, Madanpur Khadar, New Delhi, Delhi 110025","Shram Vihar, Pocket N, Madanpur Khadar","G8R2+7VC, Abu Huraira Rd",New Delhi,110025,Delhi,IN,https://www.google.com/maps/place/Masjid+Aaisha+%28AhleHadees%29+%D9%85%D8%B3%D8%AC%D8%AF+%D8%B9%D8%A7%D8%A6%D8%B4%DB%81%E2%80%AD/data=!4m7!3m6!1s0x390ce5b89893a5af:0x11e8971831978edd!8m2!3d28.5406801!4d77.3021456!16s%2Fg%2F11n04m8twz!19sChIJr6WTmLjlDDkR3Y6XMRiX6BE?authuser=0&hl=en&rclk=1,"28.5406801,77.3021456"
Masjid al Falah Mosque Fortis Parking,Mosque,"H76F+5R4 Masjid al Falah Mosque Fortis Parking, Parking of Fortis Escorts Hospital, New Friends Colony, New Delhi, Delhi 110025",New Friends Colony,"H76F+5R4, Parking of Fortis Escorts Hospital",New Delhi,110025,Delhi,IN,https://www.google.com/maps/place/Masjid+al+Falah+Mosque+Fortis+Parking/data=!4m7!3m6!1s0x390ce31901b1b3b9:0x29cea9a0d787acde!8m2!3d28.5603823!4d77.2745841!16s%2Fg%2F11j0z5n52q!19sChIJubOxARnjDDkR3qyH16Cpzik?authuser=0&hl=en&rclk=1,"28.560382299999997,77.2745841"
Masjid musalla,Mosque,"Masjid musalla, A-89, A Block, Sector 10, Noida, Uttar Pradesh 201301","A Block, Sector 10",A-89,Noida,201301,Uttar Pradesh,IN,https://www.google.com/maps/place/Masjid+musalla/data=!4m7!3m6!1s0x390ce5901959d42b:0x7fb1c9f04066b8b5!8m2!3d28.5883346!4d77.3290123!16s%2Fg%2F11kbpj87y4!19sChIJK9RZGZDlDDkRtbhmQPDJsX8?authuser=0&hl=en&rclk=1,"28.5883346,77.3290123"
Masjid,Mosque,"Masjid, Molarband, Badarpur, New Delhi, Delhi 110044","Molarband, Badarpur",,New Delhi,110044,Delhi,IN,https://www.google.com/maps/place/Masjid/data=!4m7!3m6!1s0x390ce75604c9317b:0x95388f2bb1f0f9b2!8m2!3d28.5063324!4d77.3130947!16s%2Fg%2F11rkpbdy5r!19sChIJezHJBFbnDDkRsvnwsSuPOJU?authuser=0&hl=en&rclk=1,"28.506332399999998,77.3130947"
Masjid Shamsul Qamar @ Suraj wali Masjid,Mosque,"Masjid Shamsul Qamar @ Suraj wali Masjid, 318, Dariba Kalan Rd, Kucha Alam, Chandni Chowk, New Delhi, Delhi, 110006","Kucha Alam, Chandni Chowk","318, Dariba Kalan Rd","New Delhi, Delhi",110006,Delhi,IN,https://www.google.com/maps/place/Masjid+Shamsul+Qamar+@+Suraj+wali+Masjid/data=!4m7!3m6!1s0x390cfd1be6cf6f7b:0x43ed1fadfe18a46c!8m2!3d28.6540031!4d77.233588!16s%2Fg%2F11fzwh0881!19sChIJe2_P5hv9DDkRbKQY_q0f7UM?authuser=0&hl=en&rclk=1,"28.654003099999997,77.233588"
Jafar Nagar Masjid,Mosque,"GCPW+CX Jafar Nagar Masjid, Kulesara, Greater Noida, Uttar Pradesh 201306",Kulesara,GCPW+CX,Greater Noida,,Uttar Pradesh,IN,https://www.google.com/maps/place/Jafar+Nagar+Masjid/data=!4m7!3m6!1s0x390ce9ad38dcdb91:0x2d6a8e92f67c00d1!8m2!3d28.5360757!4d77.4474791!16s%2Fg%2F11swrzhqlk!19sChIJkdvcOK3pDDkR0QB89pKOai0?authuser=0&hl=en&rclk=1,"28.536075699999998,77.4474791"
Syed Hasan Masjid,Mosque,"Syed Hasan Masjid, 124, Sector C, Gole Market, New Delhi, Delhi 110001","Sector C, Gole Market",124,New Delhi,110001,Delhi,IN,https://www.google.com/maps/place/Syed+Hasan+Masjid/data=!4m7!3m6!1s0x390cfd263f536697:0x174e102183d9d2d1!8m2!3d28.63939!4d77.2065116!16s%2Fg%2F11pvclr7q6!19sChIJl2ZTPyb9DDkR0dLZgyEQThc?authuser=0&hl=en&rclk=1,"28.63939,77.2065116"
juma masjid,Mosque,"GJRW+WVM juma masjid, Noorpur, Uttar Pradesh 203207",,GJRW+WVM,Noorpur,203207,Uttar Pradesh,IN,https://www.google.com/maps/place/juma+masjid/data=!4m7!3m6!1s0x390c94241aa7a273:0x61f889779f039af7!8m2!3d28.5423256!4d77.647175!16s%2Fg%2F11f3_g60qx!19sChIJc6KnGiSUDDkR95oDn3eJ-GE?authuser=0&hl=en&rclk=1,"28.542325599999998,77.64717499999999"
Masjid,Mosque,"RX4J+M39 Masjid, Rajoli, Sulela, Haryana 122104",,RX4J+M39,"Rajoli, Sulela",122104,Haryana,IN,https://www.google.com/maps/place/Masjid/data=!4m7!3m6!1s0x3972c534275ef4ab:0xdc27d3a7ace97738!8m2!3d27.8066544!4d76.9802205!16s%2Fg%2F11j3xmhg73!19sChIJq_ReJzTFcjkROHfprKfTJ9w?authuser=0&hl=en&rclk=1,"27.8066544,76.9802205"
Masjid,Mosque,"9M74+66G Masjid, Hirnoti, Uttar Pradesh 203203",,9M74+66G,Hirnoti,203203,Uttar Pradesh,IN,https://www.google.com/maps/place/Masjid/data=!4m7!3m6!1s0x390cbbdfa6584727:0x4a1e67c0bd32dfaf!8m2!3d28.36306!4d77.6555641!16s%2Fg%2F11dzwm3m09!19sChIJJ0dYpt-7DDkRr98yvcBnHko?authuser=0&hl=en&rclk=1,"28.363059999999997,77.65556409999999"
Sannaut masjid,Mosque,"9XHR+Q4V Sannaut masjid, Sannaut, Uttar Pradesh 203150",,9XHR+Q4V,Sannaut,203150,Uttar Pradesh,IN,https://www.google.com/maps/place/Sannaut+masjid/data=!4m7!3m6!1s0x390b590a5d0b0e25:0xeaff554327474052!8m2!3d28.3794979!4d77.9903021!16s%2Fg%2F11h7cp0j52!19sChIJJQ4LXQpZCzkRUkBHJ0NV_-o?authuser=0&hl=en&rclk=1,"28.379497899999997,77.9903021"
Masjid quwwatul islam,Mosque,"Masjid quwwatul islam, 357, Block T, Chowk Nai Basti, Sadar Bazaar, Delhi, 110006","Block T, Chowk Nai Basti, Sadar Bazaar",357,Delhi,110006,Delhi,IN,https://www.google.com/maps/place/Masjid+quwwatul+islam/data=!4m7!3m6!1s0x390cfd9c705c4e2b:0x298cefbe95121ef1!8m2!3d28.657458!4d77.206855!16s%2Fg%2F11vk_pyptp!19sChIJK05ccJz9DDkR8R4Slb7vjCk?authuser=0&hl=en&rclk=1,"28.657458,77.20685499999999"
Masjid,Mosque,"Masjid, 8/2, Budh Bazar, Block L 1, Devli, Sangam Vihar, New Delhi, Delhi 110062","Budh Bazar, Block L 1, Devli, Sangam Vihar",8/2,New Delhi,110062,Delhi,IN,https://www.google.com/maps/place/Masjid/data=!4m7!3m6!1s0x390ce1dde82b3bc3:0x4d3537cacd38aec4!8m2!3d28.4940769!4d77.2261653!16s%2Fg%2F11rk33_10p!19sChIJwzsr6N3hDDkRxK44zco3NU0?authuser=0&hl=en&rclk=1,"28.4940769,77.22616529999999"
Masjid Sumbul Islam,Mosque,"Masjid Sumbul Islam, 2176, Tilak Bazar, Naya Bazar, Khari Baoli, Chandni Chowk, New Delhi, Delhi, 110006","Tilak Bazar, Naya Bazar, Khari Baoli, Chandni Chowk","2176, Tilak Bazar","New Delhi, Delhi",110006,Delhi,IN,https://www.google.com/maps/place/Masjid+Sumbul+Islam/data=!4m7!3m6!1s0x390cfd0d9b001377:0xd7847d9de7a9acbd!8m2!3d28.6588039!4d77.2208348!16s%2Fg%2F11cncrfn0v!19sChIJdxMAmw39DDkRvayp5519hNc?authuser=0&hl=en&rclk=1,"28.6588039,77.22083479999999"
Masjid Shatoot Wali,Mosque,"M67H+G5Q Masjid Shatoot Wali, Chhota Bazar, Mori Gate, New Delhi, Delhi, 110006","Chhota Bazar, Mori Gate",M67H+G5Q,"New Delhi, Delhi",110006,Delhi,IN,https://www.google.com/maps/place/Masjid+Shatoot+Wali/data=!4m7!3m6!1s0x390cfdd8114d08fd:0x326042596014276a!8m2!3d28.663827!4d77.2279973!16s%2Fg%2F11g4h_zjtj!19sChIJ_QhNEdj9DDkRaicUYFlCYDI?authuser=0&hl=en&rclk=1,"28.663826999999998,77.2279973"
Masjid,Mosque,"Masjid, Gali No 19, Gali Number 1, Mustafabad Extn, New Mustafabad, Delhi, 110094","E2 Block, Mustafabad Extn, New Mustafabad","Gali No 19, Gali Number 1",Delhi,110094,Delhi,IN,https://www.google.com/maps/place/Masjid/data=!4m7!3m6!1s0x390cfc1b020b0e91:0xb48a3c3233e41cbd!8m2!3d28.711773!4d77.272563!16s%2Fg%2F12hpqnhjr!19sChIJkQ4LAhv8DDkRvRzkMzI8irQ?authuser=0&hl=en&rclk=1,"28.711772999999997,77.27256299999999"
Musalla Masjid,Mosque,"Musalla Masjid, A84, Gali Number 19, Block B, Bharat Vihar, Madhu Vihar, New Delhi, Delhi, 110059","Block B, Bharat Vihar, Madhu Vihar","A84, Gali Number 19","New Delhi, Delhi",110059,Delhi,IN,https://www.google.com/maps/place/Musalla+Masjid/data=!4m7!3m6!1s0x390d1b5228eab2b5:0x4c225624c80dfd40!8m2!3d28.6062216!4d77.0614438!16s%2Fg%2F11t6nng3_f!19sChIJtbLqKFIbDTkRQP0NyCRWIkw?authuser=0&hl=en&rclk=1,"28.606221599999998,77.06144379999999"
jm`h msjd,Mosque,"ph-2, jm`h msjd, C-53, Inder Enclave Rd., near makki masjid, Suleiman nagar, Inder Enclave, Kirari Suleman Nagar, Delhi, 110086","Suleiman nagar, Inder Enclave, Kirari Suleman Nagar","ph-2, C-53, Inder Enclave Rd., near makki masjid",Delhi,110086,Delhi,IN,https://www.google.com/maps/place/%D8%AC%D9%85%D8%B9%DB%81+%D9%85%D8%B3%D8%AC%D8%AF%E2%80%AD/data=!4m7!3m6!1s0x390d07f8347c5bbd:0x4ed06140531a57b6!8m2!3d28.7075125!4d77.0477122!16s%2Fg%2F11rn76sn5_!19sChIJvVt8NPgHDTkRtlcaU0Bh0E4?authuser=0&hl=en&rclk=1,"28.7075125,77.04771219999999"
Masjid Qureshiyaan,Mosque,"GMJ3+348 Masjid Qureshiyaan, Mohalla Abbas Nagar, Chholas, Uttar Pradesh 203207",Mohalla Abbas Nagar,GMJ3+348,Chholas,203207,Uttar Pradesh,IN,https://www.google.com/maps/place/Masjid+Qureshiyaan/data=!4m7!3m6!1s0x390c942a6e346be7:0x1eafc690a5d649ff!8m2!3d28.5301699!4d77.652825!16s%2Fg%2F11c1rfrv0f!19sChIJ52s0biqUDDkR_0nWpZDGrx4?authuser=0&hl=en&rclk=1,"28.530169899999997,77.65282499999999"
Jama masjid,Mosque,"9XWW+79M Jama masjid, Shivali, Uttar Pradesh 203150",,9XWW+79M,Shivali,203150,Uttar Pradesh,IN,https://www.google.com/maps/place/Jama+masjid/data=!4m7!3m6!1s0x390b5983b5ffb76d:0x6b38afbb2ee272d3!8m2!3d28.3957182!4d77.9959259!16s%2Fg%2F11h3nvs7kx!19sChIJbbf_tYNZCzkR03LiLruvOGs?authuser=0&hl=en&rclk=1,"28.395718199999997,77.9959259"
Jamete islami Markaz Masjid,Mosque,"H73W+G6F Jamete islami Markaz Masjid, Abul Fazal Enclave Part 2, Jamia Nagar, Okhla, New Delhi, Delhi 110025","Abul Fazal Enclave Part 2, Jamia Nagar, Okhla",H73W+G6F,New Delhi,110025,Delhi,IN,https://www.google.com/maps/place/Jamete+islami+Markaz+Masjid/data=!4m7!3m6!1s0x390ce584b6f10bd5:0xdadc52adbd2e5235!8m2!3d28.5538228!4d77.2955576!16s%2Fg%2F11t061tn1_!19sChIJ1QvxtoTlDDkRNVIuva1S3No?authuser=0&hl=en&rclk=1,"28.5538228,77.2955576"
Masjid,Mosque,"Masjid, 94L, Adarsh Mohalla, Block P, Mayur Vihar, Delhi, 110091","Adarsh Mohalla, Block P, Mayur Vihar",94L,Delhi,110091,Delhi,IN,https://www.google.com/maps/place/Masjid/data=!4m7!3m6!1s0x390ce594aaf9a4ed:0x7705b6bd1214d779!8m2!3d28.6097585!4d77.2915521!16s%2Fg%2F11vdfgxvzr!19sChIJ7aT5qpTlDDkRedcUEr22BXc?authuser=0&hl=en&rclk=1,"28.609758499999998,77.29155209999999"
Mosque,Mosque,"Mosque, H-16/62 shop no-11 khurana complex gali no-4, Tank Rd, opp. gurudwara parking side, Mata Rameshwari Nehru Nagar, Karol Bagh, Delhi, 110005","Mata Rameshwari Nehru Nagar, Karol Bagh","H-16/62 shop no-11 khurana complex gali no-4, Tank Rd, opp. gurudwara parking side",Delhi,110005,Delhi,IN,https://www.google.com/maps/place/Mosque/data=!4m7!3m6!1s0x390d03c67a8aab33:0x21498747997e95e0!8m2!3d28.6504768!4d77.1804367!16s%2Fg%2F11s5wlsy8v!19sChIJM6uKesYDDTkR4JV-mUeHSSE?authuser=0&hl=en&rclk=1,"28.6504768,77.1804367"
Masjid,Mosque,"Shop No: 5035, Masjid, Netaji Subhash Marg, Daryaganj, New Delhi, Delhi, 110002",Daryaganj,"Shop No: 5035, Netaji Subhash Marg","New Delhi, Delhi",110002,Delhi,IN,https://www.google.com/maps/place/Masjid/data=!4m7!3m6!1s0x390cfdf175041b95:0x8ef57a2bc9f92c1c!8m2!3d28.6480954!4d77.2403964!16s%2Fg%2F11s664lvxh!19sChIJlRsEdfH9DDkRHCz5ySt69Y4?authuser=0&hl=en&rclk=1,"28.6480954,77.2403964"
Masjid Ya Rasulullah,Mosque,"Masjid Ya Rasulullah, Masjid Ya Rasulullah nai basti Gauri patti, Nithora Rd, near rashid ali gate, Loni, Ghaziabad, Uttar Pradesh 201102",Loni,"Masjid Ya Rasulullah nai basti Gauri patti, Nithora Rd, near rashid ali gate",Ghaziabad,201102,Uttar Pradesh,IN,https://www.google.com/maps/place/Masjid+Ya+Rasulullah/data=!4m7!3m6!1s0x390cf9bb8dd690b1:0xc8f519f09e17bc26!8m2!3d28.7517452!4d77.2924957!16s%2Fg%2F11rtlkkxzm!19sChIJsZDWjbv5DDkRJrwXnvAZ9cg?authuser=0&hl=en&rclk=1,"28.7517452,77.2924957"
Masjid,Mosque,"Masjid, L385, Block L, JJ Colony No 3, Nangloi, New Delhi, Delhi, 110041","Block L, JJ Colony No 3, Nangloi",L385,"New Delhi, Delhi",110041,Delhi,IN,https://www.google.com/maps/place/Masjid/data=!4m7!3m6!1s0x390d0530462f99ad:0xf47aa8290ce093fa!8m2!3d28.6842352!4d77.0742041!16s%2Fg%2F11smtj7p27!19sChIJrZkvRjAFDTkR-pPgDCmoevQ?authuser=0&hl=en&rclk=1,"28.6842352,77.0742041"
