name,main_category,address,address_ward,address_street,address_city,address_postal_code,address_state,address_country_code,link,coordinates
Moti Masjid,Museum,"Moti Masjid, Baheri, Uttar Pradesh 243201",,,Baheri,243201,Uttar Pradesh,IN,https://www.google.com/maps/place/Moti+Masjid/data=!4m7!3m6!1s0x39a071772e3d7c95:0xeabf276e551b582f!8m2!3d28.7726378!4d79.4961397!16s%2Fg%2F11gxmcv7t1!19sChIJlXw9LndxoDkRL1gbVW4nv-o?authuser=0&hl=en&rclk=1,"28.7726378,79.4961397"
Jama Masjid Premchakurf Umarganj Ballia UP,Mosque,"Q45Q+639 Jama Masjid Premchakurf Umarganj Ballia UP, Baheri, Ballia, Uttar Pradesh 277001",,Q45Q+639,"Baheri, Ballia",277001,Uttar Pradesh,IN,https://www.google.com/maps/place/Jama+Masjid+Premchakurf+Umarganj+Ballia+UP/data=!4m7!3m6!1s0x399265609108bd79:0x47598f740065aacc!8m2!3d25.758047!4d84.1377304!16s%2Fg%2F11gr2jq2t_!19sChIJeb0IkWBlkjkRzKplAHSPWUc?authuser=0&hl=en&rclk=1,"25.758046999999998,84.1377304"
msjd myN wly Masjid Miyan Wali,Religious destination,"QGF2+345 msjd myN wly Masjid Miyan Wali, Baheri, Uttar Pradesh 243201",,QGF2+345,Baheri,243201,Uttar Pradesh,IN,https://www.google.com/maps/place/%D9%85%D8%B3%D8%AC%D8%AF+%D9%85%DB%8C%D8%A7%DA%BA+%D9%88%D8%A7%D9%84%DB%8C+Masjid+Miyan+Wali%E2%80%AD/data=!4m7!3m6!1s0x39a0711db334e0cf:0x1304bfcf2e37e5d!8m2!3d28.7726267!4d79.5003586!16s%2Fg%2F11g8yghmbz!19sChIJz-A0sx1xoDkRXX7j8vxLMAE?authuser=0&hl=en&rclk=1,"28.7726267,79.5003586"
Baheri Eidgah,Religious organization,"QFHX+VQH Baheri Eidgah, SH 37, Baheri, Uttar Pradesh 243201",,"QFHX+VQH, SH 37",Baheri,243201,Uttar Pradesh,IN,https://www.google.com/maps/place/Baheri+Eidgah/data=!4m7!3m6!1s0x39a070e3c3d5047d:0xabcfe9645929881d!8m2!3d28.779686!4d79.4994756!16s%2Fg%2F1hc11ydyp!19sChIJfQTVw-NwoDkRHYgpWWTpz6s?authuser=0&hl=en&rclk=1,"28.779685999999998,79.4994756"
Baheri jama masjid. bhyry jm` msjd bherii jaamaa msjid,Mosque,"Baheri jama masjid. bhyry jm` msjd bherii jaamaa msjid, Village baheri pandre, distt, Bamhrouli, Uttar Pradesh 227814",,"Village baheri pandre, distt",Bamhrouli,,Uttar Pradesh,IN,https://www.google.com/maps/place/Baheri+jama+masjid.+%D8%A8%DB%81%DB%8C%D8%B1%DB%8C+%D8%AC%D8%A7%D9%85%D8%B9+%D9%85%D8%B3%D8%AC%D8%AF+%E0%A4%AC%E0%A4%B9%E0%A5%87%E0%A4%B0%E0%A5%80+%E0%A4%9C%E0%A4%BE%E0%A4%AE%E0%A4%BE+%E0%A4%AE%E0%A4%B8%E0%A5%8D%E0%A4%9C%E0%A4%BF%E0%A4%A6%E2%80%AD/data=!4m7!3m6!1s0x399a6dcb95ef54d7:0x6b0893b03fb09580!8m2!3d26.4798718!4d81.9957354!16s%2Fg%2F11sb7ttxfz!19sChIJ11TvlcttmjkRgJWwP7CTCGs?authuser=0&hl=en&rclk=1,"26.479871799999998,81.9957354"
Abu Bakar Jama Masjid Baheri Ballia,Place of worship,"Q46M+2CG Abu Bakar Jama Masjid Baheri Ballia, Baheri, Ballia, Uttar Pradesh 277001",,Q46M+2CG,"Baheri, Ballia",277001,Uttar Pradesh,IN,https://www.google.com/maps/place/Abu+Bakar+Jama+Masjid+Baheri+Ballia/data=!4m7!3m6!1s0x3992651825555555:0x8f137a34d985c996!8m2!3d25.7600533!4d84.1335823!16s%2Fg%2F11clhqsf3b!19sChIJVVVVJRhlkjkRlsmF2TR6E48?authuser=0&hl=en&rclk=1,"25.7600533,84.1335823"
Moti maszid,Mosque,"XQHW+9XF Moti maszid, Baheri Brehamanan, Uttar Pradesh 244402",,XQHW+9XF,Baheri Brehamanan,244402,Uttar Pradesh,IN,https://www.google.com/maps/place/Moti+maszid/data=!4m7!3m6!1s0x390a57b3ec6f2bfb:0x42cf7b1fc5b36a4d!8m2!3d28.9784363!4d78.7974327!16s%2Fg%2F11fy_dy5p1!19sChIJ-ytv7LNXCjkRTWqzxR97z0I?authuser=0&hl=en&rclk=1,"28.9784363,78.7974327"
Tajdare Madina Masjid,Mosque,"Q46M+2CG Tajdare Madina Masjid, Baheri, Ballia, Uttar Pradesh 277001",,Q46M+2CG,"Baheri, Ballia",277001,Uttar Pradesh,IN,https://www.google.com/maps/place/Tajdare+Madina+Masjid/data=!4m7!3m6!1s0x3992652e37b71fb1:0x883bec5b0e70d553!8m2!3d25.7600533!4d84.1335823!16s%2Fg%2F11j7xw58q_!19sChIJsR-3Ny5lkjkRU9VwDlvsO4g?authuser=0&hl=en&rclk=1,"25.7600533,84.1335823"
Chand Masjid,Mosque,"2VPQ+25P Chand Masjid, Sitapur Road, Baheri, Uttar Pradesh 244402",Baheri,"2VPQ+25P, Sitapur Road",,244402,Uttar Pradesh,IN,https://www.google.com/maps/place/Chand+Masjid/data=!4m7!3m6!1s0x390a59f0a926f14b:0x89281d8b679cc45c!8m2!3d29.0350779!4d78.8879639!16s%2Fg%2F11h3rsc9wp!19sChIJS_EmqfBZCjkRXMScZ4sdKIk?authuser=0&hl=en&rclk=1,"29.035077899999997,78.8879639"
Baheri Bazar Masjid,Mosque,"W2WW+2WQ Baheri Bazar Masjid, Baheri Bazar, Baheri, Bihar 847105",Baheri Bazar,W2WW+2WQ,Baheri,847105,Bihar,IN,https://www.google.com/maps/place/Baheri+Bazar+Masjid/data=!4m7!3m6!1s0x39ede93f9fbf5f23:0xabe649aef712709b!8m2!3d25.9450841!4d86.0473743!16s%2Fg%2F11mv55sld2!19sChIJI1-_nz_p7TkRm3AS965J5qs?authuser=0&hl=en&rclk=1,"25.9450841,86.0473743"
drgaah shriiph,Mosque,"XQJX+3GW drgaah shriiph, Jama Masjid Rd, Baheri Brehamanan, Uttar Pradesh 244402",,"XQJX+3GW, Jama Masjid Rd",Baheri Brehamanan,244402,Uttar Pradesh,IN,https://www.google.com/maps/place/%E0%A4%A6%E0%A4%B0%E0%A4%97%E0%A4%BE%E0%A4%B9+%E0%A4%B6%E0%A4%B0%E0%A5%80%E0%A4%AB/data=!4m7!3m6!1s0x390a57da6c88e5e1:0x8f8bf9b38f634a25!8m2!3d28.9803116!4d78.7989077!16s%2Fg%2F11s58gw1b_!19sChIJ4eWIbNpXCjkRJUpjj7P5i48?authuser=0&hl=en&rclk=1,"28.9803116,78.7989077"
jamia masjid noor baheri khurd,Mosque,"67WH+H22 jamia masjid noor baheri khurd, Baheri Khurd, Narowal, Punjab, Pakistan",,67WH+H22,Baheri Khurd,,"Narowal, Punjab",PK,https://www.google.com/maps/place/jamia+masjid+noor+baheri+khurd/data=!4m7!3m6!1s0x391c0b6a498beceb:0x645466eeafb64000!8m2!3d32.2463979!4d75.277514!16s%2Fg%2F11qgyf4tcr!19sChIJ6-yLSWoLHDkRAEC2r-5mVGQ?authuser=0&hl=en&rclk=1,"32.2463979,75.277514"
Masjid,Mosque,"Masjid, Railway Station, Railway Station Rd, near Baheri, Baheri, Uttar Pradesh 243201",,"Railway Station, Railway Station Rd, near Baheri",Baheri,243201,Uttar Pradesh,IN,https://www.google.com/maps/place/Masjid/data=!4m7!3m6!1s0x39a07123424f6eb7:0xf3eb67276004b86d!8m2!3d28.7789517!4d79.5001461!16s%2Fg%2F11l35885zn!19sChIJt25PQiNxoDkRbbgEYCdn6_M?authuser=0&hl=en&rclk=1,"28.7789517,79.5001461"
Abdullah choudhry Imam bada baheri,Mosque,"QFGW+95G Abdullah choudhry Imam bada baheri, Baheri, Uttar Pradesh 243201",,QFGW+95G,Baheri,243201,Uttar Pradesh,IN,https://www.google.com/maps/place/Abdullah+choudhry+Imam+bada+baheri/data=!4m7!3m6!1s0x39a071db63fa5f25:0x18eb0b3480203efd!8m2!3d28.7759422!4d79.4954395!16s%2Fg%2F11s7bbzzsy!19sChIJJV_6Y9txoDkR_T4ggDQL6xg?authuser=0&hl=en&rclk=1,"28.7759422,79.4954395"
Noori Masjid Roshanpur Baheri,Mosque,"2VPH+C6M Noori Masjid Roshanpur Baheri, Roshanpur, Baheri, Daulpuri, Uttar Pradesh 244402",Baheri,"2VPH+C6M, Roshanpur",Daulpuri,244402,Uttar Pradesh,IN,https://www.google.com/maps/place/Noori+Masjid+Roshanpur+Baheri/data=!4m7!3m6!1s0x390a598355ae15a3:0x11eeb8b84b6e03df!8m2!3d29.0360858!4d78.8780409!16s%2Fg%2F11f_1h3smz!19sChIJoxWuVYNZCjkR3wNuS7i47hE?authuser=0&hl=en&rclk=1,"29.0360858,78.8780409"
Jama Masjid,Mosque,"PMQG+X4M Jama Masjid, Faridpur, Baheri, Uttar Pradesh 243201",,PMQG+X4M,"Faridpur, Baheri",243201,Uttar Pradesh,IN,https://www.google.com/maps/place/Jama+Masjid/data=!4m7!3m6!1s0x39a06b9ac3798e4f:0xd5024af94d4b9261!8m2!3d28.7399696!4d79.6753054!16s%2Fg%2F11vj31h0r2!19sChIJT455w5proDkRYZJLTflKAtU?authuser=0&hl=en&rclk=1,"28.7399696,79.6753054"
BILAL MASJID,,"QFJV+82M BILAL MASJID, Baheri Bypass Rd, Baheri, Uttar Pradesh 243201",,"QFJV+82M, Baheri Bypass Rd",Baheri,243201,Uttar Pradesh,IN,https://www.google.com/maps/place/BILAL+MASJID/data=!4m7!3m6!1s0x39a070ddfe7b931f:0xe7d2a5f0fa8fdad4!8m2!3d28.7808294!4d79.492562!16s%2Fg%2F11vl9g03lc!19sChIJH5N7_t1woDkR1NqP-vCl0uc?authuser=0&hl=en&rclk=1,"28.7808294,79.49256199999999"
Eid gaah ala hazrat baheri,Mosque,"QGF3+JQV Eid gaah ala hazrat baheri, Paiga, Uttar Pradesh 243201",,QGF3+JQV,Paiga,,Uttar Pradesh,IN,https://www.google.com/maps/place/Eid+gaah+ala+hazrat+baheri/data=!4m7!3m6!1s0x39a071fb34f5fc17:0x2607cd5121b82b0a!8m2!3d28.7741061!4d79.5044092!16s%2Fg%2F11rzpqkplc!19sChIJF_z1NPtxoDkRCiu4IVHNByY?authuser=0&hl=en&rclk=1,"28.774106099999997,79.5044092"
Qadri masjid baheri,Mosque,"QFHW+V8G Qadri masjid baheri, Baheri, Uttar Pradesh 243201",,QFHW+V8G,Baheri,243201,Uttar Pradesh,IN,https://www.google.com/maps/place/Qadri+masjid+baheri/data=!4m7!3m6!1s0x39a07193c1e9f829:0x12387885a7f9a717!8m2!3d28.7796776!4d79.4958368!16s%2Fg%2F11szbpyy3v!19sChIJKfjpwZNxoDkRF6f5p4V4OBI?authuser=0&hl=en&rclk=1,"28.7796776,79.49583679999999"
