name,main_category,address,address_ward,address_street,address_city,address_postal_code,address_state,address_country_code,link,coordinates
Masjid E Arafat msjd `rft,Mosque,"Masjid E Arafat msjd `rft, Paki Pura, Amravati, Maharashtra 444601",Paki Pura,Paki Pura,Amravati,444601,Maharashtra,IN,https://www.google.com/maps/place/Masjid+E+Arafat+%D9%85%D8%B3%D8%AC%D8%AF+%D8%B9%D8%B1%D9%81%D8%A7%D8%AA%E2%80%AD/data=!4m7!3m6!1s0x3bd6bcabe5555555:0x40996c78b2aa142b!8m2!3d20.9386296!4d77.7395375!16s%2Fg%2F11c6sm6v7d!19sChIJVVVV5au81jsRKxSqsnhsmUA?authuser=0&hl=en&rclk=1,"20.9386296,77.7395375"
Masjid Siddique-E-Akbar(Ahle Sunnat),Mosque,"WPQR+7H7 Masjid Siddique-E-Akbar(Ahle Sunnat), Pathan Chowk Rd, Pathan Chowk, Muzaffar Pura, Amravati, Maharashtra 444601","Pathan Chowk, Muzaffar Pura","WPQR+7H7, Pathan Chowk Rd",Amravati,444601,Maharashtra,IN,https://www.google.com/maps/place/Masjid+Siddique-E-Akbar%28Ahle+Sunnat%29/data=!4m7!3m6!1s0x3bd6bcabb305ed37:0xe23c8d6cf3d00e54!8m2!3d20.9381699!4d77.7414112!16s%2Fg%2F11c6psgwj9!19sChIJN-0Fs6u81jsRVA7Q82yNPOI?authuser=0&hl=en&rclk=1,"20.9381699,77.7414112"
Jama Masjid Markaz Sabanpura Amravati,Mosque,"WPJX+5P6 Jama Masjid Markaz Sabanpura Amravati, Amravati, Maharashtra 444601",,WPJX+5P6,Amravati,444601,Maharashtra,IN,https://www.google.com/maps/place/Jama+Masjid+Markaz+Sabanpura+Amravati/data=!4m7!3m6!1s0x3bd6a4ab85042fff:0x34bf1191ea5cf2b2!8m2!3d20.9303455!4d77.7486073!16s%2Fg%2F11b6tl2y06!19sChIJ_y8Ehauk1jsRsvJc6pERvzQ?authuser=0&hl=en&rclk=1,"20.930345499999998,77.7486073"
Usmania Masjid,Mosque,"WQH6+MQM Usmania Masjid, Near Bus Stand, Maltekdi, Amravati, Maharashtra 444606",Maltekdi,"WQH6+MQM, Near Bus Stand",Amravati,444606,Maharashtra,IN,https://www.google.com/maps/place/Usmania+Masjid/data=!4m7!3m6!1s0x3bd6a55b855e21db:0xd3cf430d3e30a119!8m2!3d20.9292145!4d77.7619139!16s%2Fg%2F11hdj9h9w4!19sChIJ2yFehVul1jsRGaEwPg1Dz9M?authuser=0&hl=en&rclk=1,"20.9292145,77.7619139"
Masjid-E-Khizra,Mosque,"XP2V+99F Masjid-E-Khizra, Paradise Colony, Amravati, Maharashtra 444601",Paradise Colony,XP2V+99F,Amravati,444601,Maharashtra,IN,https://www.google.com/maps/place/Masjid-E-Khizra/data=!4m7!3m6!1s0x3bd6bcb313fea4dd:0xbb48f61f50d2ae64!8m2!3d20.9509498!4d77.7434258!16s%2Fg%2F1pyqhccbd!19sChIJ3aT-E7O81jsRZK7SUB_2SLs?authuser=0&hl=en&rclk=1,"20.9509498,77.7434258"
Miskeen Shah Masjid Markaz E Ahle Sunnat Amravati,Mosque,"WPMW+X8V Miskeen Shah Masjid Markaz E Ahle Sunnat Amravati, hatipura, Amravati, Maharashtra 444601",,"WPMW+X8V, hatipura",Amravati,444601,Maharashtra,IN,https://www.google.com/maps/place/Miskeen+Shah+Masjid+Markaz+E+Ahle+Sunnat+Amravati/data=!4m7!3m6!1s0x3bd6a4aaaf30564d:0xf21c7dfe2952bb44!8m2!3d20.9349966!4d77.745797!16s%2Fg%2F1ptxkky6r!19sChIJTVYwr6qk1jsRRLtSKf59HPI?authuser=0&hl=en&rclk=1,"20.934996599999998,77.745797"
Masjid E Aqsa,Mosque,"WPRR+34G Masjid E Aqsa, Chayanagar,, Amravati, Maharashtra",Paki Pura,"WPRR+34G, Chayanagar,",Amravati,,Maharashtra,IN,https://www.google.com/maps/place/Masjid+E+Aqsa/data=!4m7!3m6!1s0x3bd6bcabf03ab74f:0x7bba63b735a6edad!8m2!3d20.9401832!4d77.7403307!16s%2Fg%2F1hm2664ng!19sChIJT7c68Ku81jsRre2mNbdjuns?authuser=0&hl=en&rclk=1,"20.9401832,77.7403307"
Dargah Masjid Chaman Shah Wali(Ahle Sunnat),Mosque,"WQRM+6V4 Dargah Masjid Chaman Shah Wali(Ahle Sunnat), Chaman Shah Wali, Amravati, Maharashtra 444602",Chaman Shah Wali,WQRM+6V4,Amravati,444602,Maharashtra,IN,https://www.google.com/maps/place/Dargah+Masjid+Chaman+Shah+Wali%28Ahle+Sunnat%29/data=!4m7!3m6!1s0x3bd6a37dd060cc31:0xc9a29c08c9651455!8m2!3d20.9405144!4d77.7847061!16s%2Fg%2F1pyqm94wr!19sChIJMcxg0H2j1jsRVRRlyQicosk?authuser=0&hl=en&rclk=1,"20.940514399999998,77.7847061"
Rasheediya Masjid rshydyh msjd,Mosque,"WPRQ+WR6 Rasheediya Masjid rshydyh msjd, Walgaon Rd, Masjid, Transport Nagar, Amravati, Maharashtra 444601","Masjid, Transport Nagar","WPRQ+WR6, Walgaon Rd",Amravati,444601,Maharashtra,IN,https://www.google.com/maps/place/Rasheediya+Masjid+%D8%B1%D8%B4%DB%8C%D8%AF%DB%8C%DB%81+%D9%85%D8%B3%D8%AC%D8%AF%E2%80%AD/data=!4m7!3m6!1s0x3bd6bcac20222bc3:0x33a31ef74f806035!8m2!3d20.9422985!4d77.7395304!16s%2Fg%2F11g6l_glh5!19sChIJwysiIKy81jsRNWCAT_ceozM?authuser=0&hl=en&rclk=1,"20.9422985,77.73953039999999"
Itwara Jama Masjid,Mosque,"Itwara Jama Masjid, Itwara Bazar, sabzi mandi, Habib Nagar, Amravati, Maharashtra 444601",Habib Nagar,"Itwara Bazar, sabzi mandi",Amravati,444601,Maharashtra,IN,https://www.google.com/maps/place/Itwara+Jama+Masjid/data=!4m7!3m6!1s0x3bd6a4a9a5e64833:0xf1d32a70b217c5d3!8m2!3d20.934423!4d77.7508071!16s%2Fg%2F1pyqjbnth!19sChIJM0jmpamk1jsR08UXsnAq0_E?authuser=0&hl=en&rclk=1,"20.934423,77.7508071"
Masjid E Quba msjd qb,Mosque,"WPRR+QPF Masjid E Quba msjd qb, Maulana Azad colony, Zakir Colony, Amravati, Maharashtra 444601",Zakir Colony,"WPRR+QPF, Maulana Azad colony",Amravati,444601,Maharashtra,IN,https://www.google.com/maps/place/Masjid+E+Quba+%D9%85%D8%B3%D8%AC%D8%AF+%D9%82%D8%A8%D8%A7%D8%A1%E2%80%AD/data=!4m7!3m6!1s0x3bd6bcac64ff2093:0x54c9e95a2600309b!8m2!3d20.9419283!4d77.7418056!16s%2Fg%2F11cs6b5jzx!19sChIJkyD_ZKy81jsRmzAAJlrpyVQ?authuser=0&hl=en&rclk=1,"20.9419283,77.74180559999999"
Masjid Zakariya msjd zkhry,Mosque,"WPVW+FQ6 Masjid Zakariya msjd zkhry, AL Hilal Cooperative Housing Society, Hazrat Bilal Nagar, Amravati, Maharashtra 444601","AL Hilal Cooperative Housing Society, Hazrat Bilal Nagar",WPVW+FQ6,Amravati,444601,Maharashtra,IN,https://www.google.com/maps/place/Masjid+Zakariya+%D9%85%D8%B3%D8%AC%D8%AF+%D8%B2%DA%A9%D8%B1%DB%8C%D8%A7%E2%80%AD/data=!4m7!3m6!1s0x3bd6a35319cf1aa1:0xc294ae66b39428e7!8m2!3d20.9436551!4d77.7468846!16s%2Fg%2F1hdz8hrxq!19sChIJoRrPGVOj1jsR5yiUs2aulMI?authuser=0&hl=en&rclk=1,"20.943655099999997,77.7468846"
Masjid Noor-ul-Islaam msjd nwrlslm,Mosque,"WPQP+W8H Masjid Noor-ul-Islaam msjd nwrlslm, Taj Nagar, Amravati, Maharashtra 444601",Taj Nagar,WPQP+W8H,Amravati,444601,Maharashtra,IN,https://www.google.com/maps/place/Masjid+Noor-ul-Islaam+%D9%85%D8%B3%D8%AC%D8%AF+%D9%86%D9%88%D8%B1%D8%A7%D9%84%D8%A7%D8%B3%D9%84%D8%A7%D9%85%E2%80%AD/data=!4m7!3m6!1s0x3bd6bca938ad5aad:0xf6ad058970cf700e!8m2!3d20.9395266!4d77.7380531!16s%2Fg%2F11f55j_4l6!19sChIJrVqtOKm81jsRDnDPcIkFrfY?authuser=0&hl=en&rclk=1,"20.9395266,77.7380531"
Masjid E Almas Badnera,Mosque,"VP8M+MXF Masjid E Almas Badnera, Juni Basti, Amravati, Maharashtra 444607",Juni Basti,VP8M+MXF,Amravati,444607,Maharashtra,IN,https://www.google.com/maps/place/Masjid+E+Almas+Badnera/data=!4m7!3m6!1s0x3bd6bac8668b1e09:0x6fa5c65a8e5de3eb!8m2!3d20.8666758!4d77.7349183!16s%2Fg%2F11g6z3nsjt!19sChIJCR6LZsi61jsR6-NdjlrGpW8?authuser=0&hl=en&rclk=1,"20.8666758,77.73491829999999"
Markaz Masjid Badnera,Mosque,"VP8P+QWR Markaz Masjid Badnera, Juni Basti, Badnera, Amravati, Maharashtra 444701","Almas Nagar, Badnera","VP8P+QWR, Juni Basti",Amravati,444701,Maharashtra,IN,https://www.google.com/maps/place/Markaz+Masjid+Badnera/data=!4m7!3m6!1s0x3bd6bac83b1e26f9:0x7cae9a0904247a23!8m2!3d20.8669869!4d77.7372514!16s%2Fg%2F1tnmq56p!19sChIJ-SYeO8i61jsRI3okBAmarnw?authuser=0&hl=en&rclk=1,"20.8669869,77.73725139999999"
Masjid E Chishtiya Quadriya (Ahle Sunnat),Mosque,"WPWQ+6H2 Masjid E Chishtiya Quadriya (Ahle Sunnat), Jameel Colony, Transport Nagar, Amravati, Maharashtra 444601","Jameel Colony, Transport Nagar",WPWQ+6H2,Amravati,444601,Maharashtra,IN,https://www.google.com/maps/place/Masjid+E+Chishtiya+Quadriya+%28Ahle+Sunnat%29/data=!4m7!3m6!1s0x3bd6bcae0dce5709:0xfe77b008cf7e869e!8m2!3d20.9455003!4d77.7389054!16s%2Fg%2F11c55w7j08!19sChIJCVfODa681jsRnoZ-zwiwd_4?authuser=0&hl=en&rclk=1,"20.9455003,77.7389054"
Madina Kacchi Sunni Masjid,Mosque,"WPRV+VQQ Madina Kacchi Sunni Masjid, Habib Nagar, Hazrat Bilal Nagar, Amravati, Maharashtra 444601","Habib Nagar, Hazrat Bilal Nagar",WPRV+VQQ,Amravati,444601,Maharashtra,IN,https://www.google.com/maps/place/Madina+Kacchi+Sunni+Masjid/data=!4m7!3m6!1s0x3bd6bcacba749f6f:0x37961aa629bcd091!8m2!3d20.9422101!4d77.7444804!16s%2Fg%2F11fxqtr0py!19sChIJb590uqy81jsRkdC8KaYaljc?authuser=0&hl=en&rclk=1,"20.9422101,77.7444804"
Gawlipura Masjid,Mosque,"WPPX+PJ5 Gawlipura Masjid, Habib Nagar, Amravati, Maharashtra 444601",Habib Nagar,WPPX+PJ5,Amravati,444601,Maharashtra,IN,https://www.google.com/maps/place/Gawlipura+Masjid/data=!4m7!3m6!1s0x3bd6a355915019c5:0x6db28a134ad612fc!8m2!3d20.9367526!4d77.7490963!16s%2Fg%2F1pyqhbpxy!19sChIJxRlQkVWj1jsR_BLWShOKsm0?authuser=0&hl=en&rclk=1,"20.9367526,77.74909629999999"
Masjid e Mahdavia,Mosque,"WPRR+CC6 Masjid e Mahdavia, Paki Pura, Amravati, Maharashtra 444601",Paki Pura,WPRR+CC6,Amravati,444601,Maharashtra,IN,https://www.google.com/maps/place/Masjid+e+Mahdavia/data=!4m7!3m6!1s0x3bd6bcac7515caf1:0x72ec210fc3f80408!8m2!3d20.9410264!4d77.7410163!16s%2Fg%2F11c601klfh!19sChIJ8coVday81jsRCAT4ww8h7HI?authuser=0&hl=en&rclk=1,"20.9410264,77.7410163"
Usmaan Masjid Sufiyan Nagar,Mosque,"XP5J+9QJ Usmaan Masjid Sufiyan Nagar, Amravati, Maharashtra 444602",,XP5J+9QJ,Amravati,444602,Maharashtra,IN,https://www.google.com/maps/place/Usmaan+Masjid+Sufiyan+Nagar/data=!4m7!3m6!1s0x3bd6bcb809ec0b0b:0x47b836834041680f!8m2!3d20.9584687!4d77.7318938!16s%2Fg%2F11c2pjcbnw!19sChIJCwvsCbi81jsRD2hBQIM2uEc?authuser=0&hl=en&rclk=1,"20.958468699999997,77.7318938"
Masjid-E-Tauheed,Mosque,"WPXV+2RM Masjid-E-Tauheed, Wahdat Nagar, Amravati, Maharashtra 444601",Wahdat Nagar,WPXV+2RM,Amravati,444601,Maharashtra,IN,https://www.google.com/maps/place/Masjid-E-Tauheed/data=!4m7!3m6!1s0x3bd6bcb2af80c5c5:0x2c2d3fbaf6108a3d!8m2!3d20.9475925!4d77.7445564!16s%2Fg%2F1pyqvxfgs!19sChIJxcWAr7K81jsRPYoQ9ro_LSw?authuser=0&hl=en&rclk=1,"20.9475925,77.7445564"
Haji Basheer Masjid,Mosque,"XP5P+2R9 Haji Basheer Masjid, Navsaari, Amravati, Maharashtra 444602",Navsaari,XP5P+2R9,Amravati,444602,Maharashtra,IN,https://www.google.com/maps/place/Haji+Basheer+Masjid/data=!4m7!3m6!1s0x3bd6bcb631d4987d:0x8ec2f89fc03579d2!8m2!3d20.9575439!4d77.737114!16s%2Fg%2F11c6dpj4rp!19sChIJfZjUMba81jsR0nk1wJ_4wo4?authuser=0&hl=en&rclk=1,"20.957543899999997,77.73711399999999"
Masjid E Taibah (Tabligi Jamat),Mosque,"WPRW+CPR Masjid E Taibah (Tabligi Jamat), Janta Colony, Habib Nagar, No.1, Amravati, Maharashtra 444601","Janta Colony, Habib Nagar, No.1",WPRW+CPR,Amravati,444601,Maharashtra,IN,https://www.google.com/maps/place/Masjid+E+Taibah+%28Tabligi+Jamat%29/data=!4m7!3m6!1s0x3bd6a3549f119567:0xf90a42c997eb7d0c!8m2!3d20.9411013!4d77.7467564!16s%2Fg%2F11gfc9j_2r!19sChIJZ5URn1Sj1jsRDH3rl8lCCvk?authuser=0&hl=en&rclk=1,"20.9411013,77.7467564"
Rehmatiya Masjid,Mosque,"Rehmatiya Masjid, Aseer Colony, Habib Nagar, Hazrat Bilal Nagar, Amravati, Maharashtra 444601","Habib Nagar, Hazrat Bilal Nagar",Aseer Colony,Amravati,,Maharashtra,IN,https://www.google.com/maps/place/Rehmatiya+Masjid/data=!4m7!3m6!1s0x3bd6bcad3ee19721:0x7b365a3d1375af21!8m2!3d20.9453247!4d77.744015!16s%2Fg%2F11bv6pcl1f!19sChIJIZfhPq281jsRIa91Ez1aNns?authuser=0&hl=en&rclk=1,"20.9453247,77.74401499999999"
JAMA MASJID JUNI BASTI BADNERA,Mosque,"JAMA MASJID JUNI BASTI BADNERA, Juni Basti, Amravati, Maharashtra 444607",Juni Basti,,Amravati,444607,Maharashtra,IN,https://www.google.com/maps/place/JAMA+MASJID+JUNI+BASTI+BADNERA/data=!4m7!3m6!1s0x3bd6bac80f70b7a7:0x6aa854275b49e9cb!8m2!3d20.8650435!4d77.7342833!16s%2Fg%2F11c327nchn!19sChIJp7dwD8i61jsRy-lJWydUqGo?authuser=0&hl=en&rclk=1,"20.8650435,77.7342833"
Hazrat Umar Farukh Masjid,Mosque,"VPCQ+63X Hazrat Umar Farukh Masjid, Badnera, Amravati, Maharashtra 444607",Badnera,VPCQ+63X,Amravati,444607,Maharashtra,IN,https://www.google.com/maps/place/Hazrat+Umar+Farukh+Masjid/data=!4m7!3m6!1s0x3bd6bb3e3b16cbed:0x809c4b41297e81b4!8m2!3d20.8706157!4d77.7377352!16s%2Fg%2F11gvy11h48!19sChIJ7csWOz671jsRtIF-KUFLnIA?authuser=0&hl=en&rclk=1,"20.8706157,77.7377352"
Masjid Siddique,Mosque,"Masjid Siddique, No.1, Habib Nagar, Amravati, Maharashtra 444601",Habib Nagar,"No.1, Habib Nagar",Amravati,444601,Maharashtra,IN,https://www.google.com/maps/place/Masjid+Siddique/data=!4m7!3m6!1s0x3bd6a354a815828d:0x5d5796e068ee8885!8m2!3d20.9411868!4d77.7458362!16s%2Fg%2F11g6jqfcck!19sChIJjYIVqFSj1jsRhYjuaOCWV10?authuser=0&hl=en&rclk=1,"20.9411868,77.7458362"
Madina Masjid,Mosque,"WQJM+43Q Madina Masjid, old police chawki, Camp Rd, Chaprasi Pura, Amravati, Maharashtra 444602","Chaprasi Pura, Apratim Colony","WQJM+43Q, old police chawki, Camp Rd",Amravati,444602,Maharashtra,IN,https://www.google.com/maps/place/Madina+Masjid/data=!4m7!3m6!1s0x3bd6a48459576e1d:0x9d0c4a7ba67a2432!8m2!3d20.9303411!4d77.7827408!16s%2Fg%2F11g8lktsvw!19sChIJHW5XWYSk1jsRMiR6pntKDJ0?authuser=0&hl=en&rclk=1,"20.9303411,77.7827408"
Halima Masjid Hlymh msjd,Mosque,"Halima Masjid Hlymh msjd, Sufiyan Nagar, Rd Number 1, Transport Nagar, Amravati, Maharashtra 444602",Transport Nagar,"Sufiyan Nagar, Rd Number 1",Amravati,444602,Maharashtra,IN,https://www.google.com/maps/place/Halima+Masjid+%D8%AD%D9%84%DB%8C%D9%85%DB%81+%D9%85%D8%B3%D8%AC%D8%AF%E2%80%AD/data=!4m7!3m6!1s0x3bd6bcb78c8a649b:0x4626cc944d1926ba!8m2!3d20.9563648!4d77.7341211!16s%2Fg%2F11f4m5fwsj!19sChIJm2SKjLe81jsRuiYZTZTMJkY?authuser=0&hl=en&rclk=1,"20.9563648,77.7341211"
Masjid Chistiya Rehbariya (Aahele Sunnat)),Mosque,"WPVW+75F Masjid Chistiya Rehbariya (Aahele Sunnat)), AL Hilal Cooperative Housing Society, Hazrat Bilal Nagar, Amravati, Maharashtra 444601","AL Hilal Cooperative Housing Society, Hazrat Bilal Nagar",WPVW+75F,Amravati,444601,Maharashtra,IN,https://www.google.com/maps/place/Masjid+Chistiya+Rehbariya+%28Aahele+Sunnat%29%29/data=!4m7!3m6!1s0x3bd6a35333a5a67f:0x432c193707487571!8m2!3d20.9431975!4d77.7454191!16s%2Fg%2F11ggz9119w!19sChIJf6alM1Oj1jsRcXVIBzcZLEM?authuser=0&hl=en&rclk=1,"20.9431975,77.74541909999999"
Harmain Masjid (Ahle Sunnat),Mosque,"VP9Q+43W Harmain Masjid (Ahle Sunnat), Juni Basti, Amravati, Maharashtra 444607",Juni Basti,VP9Q+43W,Amravati,444607,Maharashtra,IN,https://www.google.com/maps/place/Harmain+Masjid+%28Ahle+Sunnat%29/data=!4m7!3m6!1s0x3bd6bac90c1f3c5f:0xd68bb9c6dc574bd6!8m2!3d20.867866!4d77.737715!16s%2Fg%2F11c80hxv42!19sChIJXzwfDMm61jsR1ktX3Ma5i9Y?authuser=0&hl=en&rclk=1,"20.867866,77.737715"
Darus Salam Masjid,Mosque,"WPQR+CRP Darus Salam Masjid, Unnamed Road, Chhaya Nagar, Zakir Colony, Amravati, Maharashtra 444601","Chhaya Nagar, Zakir Colony","WPQR+CRP, Unnamed Road",Amravati,444601,Maharashtra,IN,https://www.google.com/maps/place/Darus+Salam+Masjid/data=!4m7!3m6!1s0x3bd6bcaba362b8c5:0xb14080ab4fcbe2b9!8m2!3d20.9385809!4d77.7420902!16s%2Fg%2F11gcqwhrns!19sChIJxbhio6u81jsRueLLT6uAQLE?authuser=0&hl=en&rclk=1,"20.938580899999998,77.74209019999999"
AKBARI MASJID. AKBER NAGAR,Mosque,"WPVM+5J8 AKBARI MASJID. AKBER NAGAR, Transport Nagar, Amravati, Maharashtra 444601",Transport Nagar,WPVM+5J8,Amravati,444601,Maharashtra,IN,https://www.google.com/maps/place/AKBARI+MASJID.+AKBER+NAGAR/data=!4m7!3m6!1s0x3bd6bcaf7c0dce6b:0xf58041c633475815!8m2!3d20.9429081!4d77.7340756!16s%2Fg%2F11gb3qtbxv!19sChIJa84NfK-81jsRFVhHM8ZBgPU?authuser=0&hl=en&rclk=1,"20.9429081,77.7340756"
Masjid-E-Ammar,Mosque,"Masjid-E-Ammar, Mirza Naim Nishat Colony, Paradise Colony, Amravati, Maharashtra 444601","Mirza Naim Nishat Colony, Paradise Colony",,Amravati,444601,Maharashtra,IN,https://www.google.com/maps/place/Masjid-E-Ammar/data=!4m7!3m6!1s0x3bd6bd381913af5b:0xaecf6c9a1944b1c5!8m2!3d20.9530962!4d77.7417965!16s%2Fg%2F11rvc65ttm!19sChIJW68TGTi91jsRxbFEGZpsz64?authuser=0&hl=en&rclk=1,"20.953096199999997,77.74179649999999"
Choti Masjid Islami Chowk,Mosque,"VP8M+9MM Choti Masjid Islami Chowk, Badnera Rd, Islami Chowk, Juni Basti, Amravati, Maharashtra 444701","Islami Chowk, Juni Basti","VP8M+9MM, Badnera Rd",Amravati,444701,Maharashtra,IN,https://www.google.com/maps/place/Choti+Masjid+Islami+Chowk/data=!4m7!3m6!1s0x3bd6bac873e5e0a1:0x653ee49571cec319!8m2!3d20.8659715!4d77.734169!16s%2Fg%2F11fy_5_bf8!19sChIJoeDlc8i61jsRGcPOcZXkPmU?authuser=0&hl=en&rclk=1,"20.8659715,77.734169"
Masjid - E - Gulzar,Mosque,"WPRM+79Q Masjid - E - Gulzar, Gulzar Nagar, Amravati, Maharashtra 444601",Gulzar Nagar,WPRM+79Q,Amravati,444601,Maharashtra,IN,https://www.google.com/maps/place/Masjid+-+E+-+Gulzar/data=!4m7!3m6!1s0x3bd6bca5feb6fccd:0x23f6083cfc81be44!8m2!3d20.9407033!4d77.7334806!16s%2Fg%2F11hb8cs87_!19sChIJzfy2_qW81jsRRL6B_DwI9iM?authuser=0&hl=en&rclk=1,"20.9407033,77.7334806"
Abu Bakar Masjid,Mosque,"WPVP+VXH Abu Bakar Masjid, Gulistan Nagar, Transport Nagar, Amravati, Maharashtra 444601","Gulistan Nagar, Transport Nagar",WPVP+VXH,Amravati,,Maharashtra,IN,https://www.google.com/maps/place/Abu+Bakar+Masjid/data=!4m7!3m6!1s0x3bd6bd7c51ca87d7:0x43897ae341b9de8f!8m2!3d20.944686!4d77.7374963!16s%2Fg%2F11f6z3lz3x!19sChIJ14fKUXy91jsRj965QeN6iUM?authuser=0&hl=en&rclk=1,"20.944686,77.73749629999999"
Masjid Madni,Mosque,"WPWQ+MPF Masjid Madni, Walgaon Rd, Masjid, Transport Nagar, Amravati, Maharashtra 444601","Masjid, Transport Nagar","WPWQ+MPF, Walgaon Rd",Amravati,444601,Maharashtra,IN,https://www.google.com/maps/place/Masjid+Madni/data=!4m7!3m6!1s0x3bd6bcb1fe3280f5:0x7518a482c6c16232!8m2!3d20.9467!4d77.739296!16s%2Fg%2F11hd6wnp1k!19sChIJ9YAy_rG81jsRMmLBxoKkGHU?authuser=0&hl=en&rclk=1,"20.9467,77.739296"
Masjid Darussalam,Mosque,"Masjid Darussalam, Badnera, Amravati, Maharashtra 444607",Badnera,,Amravati,444607,Maharashtra,IN,https://www.google.com/maps/place/Masjid+Darussalam/data=!4m7!3m6!1s0x3bd6bbfe7a3eab85:0x61ed13be8de039a1!8m2!3d20.8664922!4d77.7303094!16s%2Fg%2F11tf3p70j6!19sChIJhas-ev671jsRoTngjb4T7WE?authuser=0&hl=en&rclk=1,"20.8664922,77.7303094"
Masjid e aziziya,Mosque,"Masjid e aziziya, near Sunni masjid, Jameel Colony, Yasmin Nagar, Amravati, Maharashtra 444601","Jameel Colony, Yasmin Nagar",near Sunni masjid,Amravati,444601,Maharashtra,IN,https://www.google.com/maps/place/Masjid+e+aziziya/data=!4m7!3m6!1s0x3bd6bcb01fa16efd:0xc3601489d40775d5!8m2!3d20.9464448!4d77.7335145!16s%2Fg%2F11g71d333t!19sChIJ_W6hH7C81jsR1XUH1IkUYMM?authuser=0&hl=en&rclk=1,"20.9464448,77.7335145"
Inamia Masjid,Mosque,"WPPM+X4R Inamia Masjid, Muzaffar Pura, Amravati, Maharashtra 444601",Muzaffar Pura,WPPM+X4R,Amravati,444601,Maharashtra,IN,https://www.google.com/maps/place/Inamia+Masjid/data=!4m7!3m6!1s0x3bd6bca63314c5f5:0x84f4c56b4c168118!8m2!3d20.9374865!4d77.7327785!16s%2Fg%2F11gf16kd2s!19sChIJ9cUUM6a81jsRGIEWTGvF9IQ?authuser=0&hl=en&rclk=1,"20.9374865,77.7327785"
Madina Masjid Tarkheda Amravati,Mosque,"WPPR+8JH Madina Masjid Tarkheda Amravati, Pathan Chowk, Amravati, Maharashtra 444601",Pathan Chowk,WPPR+8JH,Amravati,444601,Maharashtra,IN,https://www.google.com/maps/place/Madina+Masjid+Tarkheda+Amravati/data=!4m7!3m6!1s0x3bd6bd9a38c4762b:0x982febec63515f9c!8m2!3d20.9358203!4d77.7416006!16s%2Fg%2F11fkrt5bmw!19sChIJK3bEOJq91jsRnF9RY-zrL5g?authuser=0&hl=en&rclk=1,"20.9358203,77.7416006"
Masjid-E-Noor,Mosque,"WPQV+V74 Masjid-E-Noor, Zakir Colony, Amravati, Maharashtra 444601",Zakir Colony,WPQV+V74,Amravati,444601,Maharashtra,IN,https://www.google.com/maps/place/Masjid-E-Noor/data=!4m7!3m6!1s0x3bd6bcab6d31e279:0x34ee6e4575a3d2bc!8m2!3d20.9396365!4d77.7431963!16s%2Fg%2F11g68w_n2m!19sChIJeeIxbau81jsRvNKjdUVu7jQ?authuser=0&hl=en&rclk=1,"20.9396365,77.7431963"
JAMA Masjid (Ahle Sunnat Wal Jamat),Mosque,"VP3M+FFJ JAMA Masjid (Ahle Sunnat Wal Jamat), Badnera Rd, Nai Basti, Amravati, Maharashtra 444701",Nai Basti,"VP3M+FFJ, Badnera Rd",Amravati,444701,Maharashtra,IN,https://www.google.com/maps/place/JAMA+Masjid+%28Ahle+Sunnat+Wal+Jamat%29/data=!4m7!3m6!1s0x3bd6babaa0fa7ceb:0x22f58b8bdec5a7a5!8m2!3d20.8537137!4d77.7336481!16s%2Fg%2F11dfldj375!19sChIJ63z6oLq61jsRpafF3ouL9SI?authuser=0&hl=en&rclk=1,"20.8537137,77.7336481"
NAGINA MASJID,Mosque,"NAGINA MASJID, Azad Chowk, Nai Basti, Badnera, Amravati, Maharashtra 444701",Badnera,"Azad Chowk, Nai Basti",Amravati,444701,Maharashtra,IN,https://www.google.com/maps/place/NAGINA+MASJID/data=!4m7!3m6!1s0x3bd6bba3c6dbb0dd:0xd229265695e14738!8m2!3d20.8529558!4d77.731936!16s%2Fg%2F11fj4hm33r!19sChIJ3bDbxqO71jsROEfhlVYmKdI?authuser=0&hl=en&rclk=1,"20.8529558,77.73193599999999"
Ajmer Masjid,Mosque,"WPMW+73G Ajmer Masjid, Patvipura, Indra Prastha, Amravati, Maharashtra 444601","Patvipura, Indra Prastha",WPMW+73G,Amravati,444601,Maharashtra,IN,https://www.google.com/maps/place/Ajmer+Masjid/data=!4m7!3m6!1s0x3bd6bb5532ad121f:0xb9b89904b983919a!8m2!3d20.9332!4d77.7452!16s%2Fg%2F1pyqhqgn_!19sChIJHxKtMlW71jsRmpGDuQSZuLk?authuser=0&hl=en&rclk=1,"20.9332,77.7452"
Wahed Masjid,Mosque,"WPQW+MQ5 Wahed Masjid, Habib Nagar, Ansar Nagar, Amravati, Maharashtra 444601","Habib Nagar, Ansar Nagar",WPQW+MQ5,Amravati,444601,Maharashtra,IN,https://www.google.com/maps/place/Wahed+Masjid/data=!4m7!3m6!1s0x3bd6a354e61f65f1:0xbfd2d38e75bd6cc9!8m2!3d20.9391287!4d77.7469716!16s%2Fg%2F11ggnc0x4v!19sChIJ8WUf5lSj1jsRyWy9dY7T0r8?authuser=0&hl=en&rclk=1,"20.939128699999998,77.7469716"
Shia Imambada,Mosque,"WPMW+GJF Shia Imambada, Nawabpura near, Sarafa Bazar Rd, Chandni Chowk, Amravati, Maharashtra 444601",Chandni Chowk,"WPMW+GJF, Nawabpura near, Sarafa Bazar Rd",Amravati,444601,Maharashtra,IN,https://www.google.com/maps/place/Shia+Imambada/data=!4m7!3m6!1s0x3bd6a5c24501e547:0x4504b764a6304b5d!8m2!3d20.9338013!4d77.7465527!16s%2Fg%2F11gj72yt9h!19sChIJR-UBRcKl1jsRXUswpmS3BEU?authuser=0&hl=en&rclk=1,"20.9338013,77.7465527"
Masjid E Zaibunnisa,Mosque,"Masjid E Zaibunnisa, Afwan park No 2, Maharashtra 444602",Lalkhedi,Afwan park No 2,Amravati,444602,Maharashtra,IN,https://www.google.com/maps/place/Masjid+E+Zaibunnisa/data=!4m7!3m6!1s0x3bd6bd61888e8b13:0x1b62477924ec04ba!8m2!3d20.9518021!4d77.7306499!16s%2Fg%2F11gv217wkr!19sChIJE4uOiGG91jsRugTsJHlHYhs?authuser=0&hl=en&rclk=1,"20.9518021,77.7306499"
AnwaareRaza Masjid,Mosque,"XP2P+5C5 AnwaareRaza Masjid, Noor Nagar, Transport Nagar, Amravati, Maharashtra 444601","Noor Nagar, Transport Nagar",XP2P+5C5,Amravati,444601,Maharashtra,IN,https://www.google.com/maps/place/AnwaareRaza+Masjid/data=!4m7!3m6!1s0x3bd6bcb0e433ff97:0x73fb2fde84b55902!8m2!3d20.9503834!4d77.7361096!16s%2Fg%2F11g6bhtbw0!19sChIJl_8z5LC81jsRAlm1hN4v-3M?authuser=0&hl=en&rclk=1,"20.9503834,77.73610959999999"
RAZA MASJID,Mosque,"RAZA MASJID, Habib Nagar, ansar nagar, Amravati, Maharashtra 444601","Habib Nagar, ansar nagar",,Amravati,444601,Maharashtra,IN,https://www.google.com/maps/place/RAZA+MASJID/data=!4m7!3m6!1s0x3bd6a38156689617:0x3d2c84f4233cad8d!8m2!3d20.9400401!4d77.7479624!16s%2Fg%2F11lg5djw0b!19sChIJF5ZoVoGj1jsRja08I_SELD0?authuser=0&hl=en&rclk=1,"20.940040099999997,77.74796239999999"
Masjid E Ammar,Mosque,"WPQM+RQP Masjid E Ammar, masjid e ammar alim nagar amravati add naseem akhtar gulzar nagar, 444601",Taj Nagar,"WPQM+RQP, masjid e ammar alim nagar amravati add naseem akhtar gulzar nagar",Amravati,444601,Maharashtra,IN,https://www.google.com/maps/place/Masjid+E+Ammar/data=!4m7!3m6!1s0x3bd6bd67b847254d:0x1039b67d6a9eb2f4!8m2!3d20.939582!4d77.7344419!16s%2Fg%2F11gtylyz35!19sChIJTSVHuGe91jsR9LKean22ORA?authuser=0&hl=en&rclk=1,"20.939581999999998,77.7344419"
Garib Nawaz Badi Masjid,Mosque,"VP9J+499 Garib Nawaz Badi Masjid, Badnera Rd, Juni Basti, Amravati, Maharashtra 444607",Juni Basti,"VP9J+499, Badnera Rd",Amravati,444607,Maharashtra,IN,https://www.google.com/maps/place/Garib+Nawaz+Badi+Masjid/data=!4m7!3m6!1s0x3bd6bac65842692b:0xf43efe5dedd2a7b9!8m2!3d20.8677845!4d77.7309949!16s%2Fg%2F11gbkxhdgg!19sChIJK2lCWMa61jsRuafS7V3-PvQ?authuser=0&hl=en&rclk=1,"20.8677845,77.7309949"
Anarwali Masjid msjd nr wly,Mosque,"Anarwali Masjid msjd nr wly, hno.230/ mandavali, 3, Mandawali Main Road, Fazalpur, Railway Colony, Mandawali, Delhi, 110092","Railway Colony, Mandawali","hno.230/ mandavali, 3, Mandawali Main Road, Fazalpur, Railway Colony, Mandawali",Delhi,110092,Delhi,IN,https://www.google.com/maps/place/Anarwali+Masjid+%D9%85%D8%B3%D8%AC%D8%AF+%D8%A7%D9%86%D8%A7%D8%B1+%D9%88%D8%A7%D9%84%DB%8C%E2%80%AD/data=!4m7!3m6!1s0x390ce4aceaaaaaab:0xf35cfc3b5a9a894a!8m2!3d28.6291881!4d77.2936695!16s%2Fg%2F11cmfdyfyg!19sChIJq6qq6qzkDDkRSomaWjv8XPM?authuser=0&hl=en&rclk=1,"28.6291881,77.2936695"
Taj Ul Awaliya Masjid (Ahle Sunnat),Mosque,"WPXH+C68 Taj Ul Awaliya Masjid (Ahle Sunnat), Lalkhedi, Amravati, Maharashtra 444602",Lalkhedi,WPXH+C68,Amravati,444602,Maharashtra,IN,https://www.google.com/maps/place/Taj+Ul+Awaliya+Masjid+%28Ahle+Sunnat%29/data=!4m7!3m6!1s0x3bd6bcbb7e3ab091:0xc4fa0d546576e96e!8m2!3d20.9485376!4d77.7280869!16s%2Fg%2F11hc_126fq!19sChIJkbA6fru81jsRbul2ZVQN-sQ?authuser=0&hl=en&rclk=1,"20.948537599999998,77.7280869"
Nizamiya Masjid,Mosque,"WPVP+54M Nizamiya Masjid, Transport Nagar, Amravati, Maharashtra 444601",Transport Nagar,WPVP+54M,Amravati,444601,Maharashtra,IN,https://www.google.com/maps/place/Nizamiya+Masjid/data=!4m7!3m6!1s0x3bd6bcaf0ceb44df:0xf152d576c66052f4!8m2!3d20.9429716!4d77.7353022!16s%2Fg%2F11dz16qkn8!19sChIJ30TrDK-81jsR9FJgxnbVUvE?authuser=0&hl=en&rclk=1,"20.9429716,77.73530219999999"
"Choti Alimgir Masjid, Frezarpura",Mosque,"WQFC+HRQ Choti Alimgir Masjid, Frezarpura, Frezerpura, Shyam Nagar, Amravati, Maharashtra 444606","Frezerpura, Shyam Nagar",WQFC+HRQ,Amravati,444606,Maharashtra,IN,"https://www.google.com/maps/place/Choti+Alimgir+Masjid,+Frezarpura/data=!4m7!3m6!1s0x3bd6a49713b75099:0x95f7fd478e5d93ff!8m2!3d20.9239724!4d77.7721143!16s%2Fg%2F11clmbdp5r!19sChIJmVC3E5ek1jsR_5Ndjkf995U?authuser=0&hl=en&rclk=1","20.9239724,77.7721143"
Hayatul-Islam Masjid,Mosque,"Hayatul-Islam Masjid, Jameel Colony, Transport Nagar, Amravati, Maharashtra 444601","Jameel Colony, Transport Nagar",,Amravati,444601,Maharashtra,IN,https://www.google.com/maps/place/Hayatul-Islam+Masjid/data=!4m7!3m6!1s0x3bd6bcafe3f0733d:0xab243039c168009!8m2!3d20.9459193!4d77.7347655!16s%2Fg%2F11c1wkdqph!19sChIJPXPw46-81jsRCYAWnANDsgo?authuser=0&hl=en&rclk=1,"20.9459193,77.7347655"
Ahemadia Masjid,Mosque,"WPXQ+347 Ahemadia Masjid, Transport Nagar, Amravati, Maharashtra 444601",Transport Nagar,WPXQ+347,Amravati,444601,Maharashtra,IN,https://www.google.com/maps/place/Ahemadia+Masjid/data=!4m7!3m6!1s0x3bd6bdd53b49d8bd:0x6c8870550494983c!8m2!3d20.9476736!4d77.7378016!16s%2Fg%2F11ghvc21ds!19sChIJvdhJO9W91jsRPJiUBFVwiGw?authuser=0&hl=en&rclk=1,"20.947673599999998,77.7378016"
Rabiya Masjid,Mosque,"XP2P+W59 Rabiya Masjid, Bilal Colony, Wahed Khan D.Ed College, Road, Amravati, 444604",Transport Nagar,"XP2P+W59, Bilal Colony, Wahed Khan D.Ed College, Road",Amravati,444604,Maharashtra,IN,https://www.google.com/maps/place/Rabiya+Masjid/data=!4m7!3m6!1s0x3bd6bd48e63a1a75:0x70c67c495d85ef73!8m2!3d20.9522853!4d77.7354994!16s%2Fg%2F11gxzsyl2w!19sChIJdRo65ki91jsRc--FXUl8xnA?authuser=0&hl=en&rclk=1,"20.9522853,77.7354994"
Al Raza Masjid,Mosque,"WPRW+5PH Al Raza Masjid, Ansar Nagar, Habib Nagar, Hazrat Bilal Nagar, Amravati, Maharashtra 444601","Habib Nagar, Hazrat Bilal Nagar","WPRW+5PH, Ansar Nagar",Amravati,444601,Maharashtra,IN,https://www.google.com/maps/place/Al+Raza+Masjid/data=!4m7!3m6!1s0x3bd6a3910f44c1ab:0x802c1bc9e58df895!8m2!3d20.9404313!4d77.7468632!16s%2Fg%2F11f669tyvt!19sChIJq8FED5Gj1jsRlfiN5ckbLIA?authuser=0&hl=en&rclk=1,"20.9404313,77.74686319999999"
"Khwaja Garib Nawaz Masjid, Lalkhadi",Mosque,"WPVF+Q7R Khwaja Garib Nawaz Masjid, Lalkhadi, Lalkhedi, Amravati, Maharashtra 444602",Lalkhedi,WPVF+Q7R,Amravati,444602,Maharashtra,IN,"https://www.google.com/maps/place/Khwaja+Garib+Nawaz+Masjid,+Lalkhadi/data=!4m7!3m6!1s0x3bd6bca2bb3e5305:0x77c855e21b23ee50!8m2!3d20.9444883!4d77.7231553!16s%2Fg%2F11g03c2r5x!19sChIJBVM-u6K81jsRUO4jG-JVyHc?authuser=0&hl=en&rclk=1","20.9444883,77.7231553"
Masjid E Chishtiya Nizamiya,Mosque,"Masjid E Chishtiya Nizamiya, Taj Nagar, Amravati, Maharashtra 444601",Taj Nagar,,Amravati,444601,Maharashtra,IN,https://www.google.com/maps/place/Masjid+E+Chishtiya+Nizamiya/data=!4m7!3m6!1s0x3bd6bd9cc2d65bc1:0x501d92bdce91ffe2!8m2!3d20.9410824!4d77.7369982!16s%2Fg%2F11gtd4qfn2!19sChIJwVvWwpy91jsR4v-Rzr2SHVA?authuser=0&hl=en&rclk=1,"20.9410824,77.7369982"
Sharifa masjid,Mosque,"Sharifa masjid, ASIM NAGAR, Transport Nagar, Amravati, Maharashtra 444602",Transport Nagar,ASIM NAGAR,Amravati,444602,Maharashtra,IN,https://www.google.com/maps/place/Sharifa+masjid/data=!4m7!3m6!1s0x3bd6bd83029ad96d:0x73ebc24ffaba031!8m2!3d20.9541783!4d77.7357552!16s%2Fg%2F11h12t4lgx!19sChIJbdmaAoO91jsRMaCr_yS8Pgc?authuser=0&hl=en&rclk=1,"20.9541783,77.7357552"
Mehdavia masjid,Mosque,"Mehdavia masjid, Sufiyan nagar 2, Amravati, Maharashtra 444602",,Sufiyan nagar 2,Amravati,,Maharashtra,IN,https://www.google.com/maps/place/Mehdavia+masjid/data=!4m7!3m6!1s0x3bd6bda50aedd319:0xcac706470f65da8d!8m2!3d20.9574901!4d77.7319149!16s%2Fg%2F11tmcc4d31!19sChIJGdPtCqW91jsRjdplD0cGx8o?authuser=0&hl=en&rclk=1,"20.957490099999998,77.73191489999999"
Choti Nagina Masjid,Mosque,"WQFF+JQR Choti Nagina Masjid, Baba goreshah Nagar, Shyam Nagar, Amravati, Maharashtra 444606",Shyam Nagar,"WQFF+JQR, Baba goreshah Nagar",Amravati,,Maharashtra,IN,https://www.google.com/maps/place/Choti+Nagina+Masjid/data=!4m7!3m6!1s0x3bd6a490c85823d1:0x30e03d9866dc5f70!8m2!3d20.924108!4d77.7743988!16s%2Fg%2F11fzh_tyvv!19sChIJ0SNYyJCk1jsRcF_cZpg94DA?authuser=0&hl=en&rclk=1,"20.924108,77.7743988"
Madinah Masjid,Mosque,"VP2J+6FF Madinah Masjid, Qureshi Nagar, Nai Basti, Amravati, Maharashtra 444701","Qureshi Nagar, Nai Basti",VP2J+6FF,Amravati,444701,Maharashtra,IN,https://www.google.com/maps/place/Madinah+Masjid/data=!4m7!3m6!1s0x3bd6bbebf47e60f5:0xb83ea25e8d7be255!8m2!3d20.8505648!4d77.7311579!16s%2Fg%2F11fj5_fvjt!19sChIJ9WB-9Ou71jsRVeJ7jV6iPrg?authuser=0&hl=en&rclk=1,"20.8505648,77.7311579"
Choti Masjid Yasmin Nagar,Mosque,"WPXM+9J5 Choti Masjid Yasmin Nagar, Pakiza Colony, Transport Nagar, Amravati, Maharashtra 444601","Pakiza Colony, Transport Nagar",WPXM+9J5,Amravati,444601,Maharashtra,IN,https://www.google.com/maps/place/Choti+Masjid+Yasmin+Nagar/data=!4m7!3m6!1s0x3bd6bcb0774b1bdb:0x3fccc827fa20e75d!8m2!3d20.9483971!4d77.7341133!16s%2Fg%2F11hctpxl00!19sChIJ2xtLd7C81jsRXecg-ifIzD8?authuser=0&hl=en&rclk=1,"20.948397099999998,77.73411329999999"
MASJID E NOORIA AFZALIA,Mosque,"MASJID E NOORIA AFZALIA, Ahtesham Nagar, Lalkhedi, Amravati, Maharashtra 444601",Lalkhedi,Ahtesham Nagar,Amravati,444601,Maharashtra,IN,https://www.google.com/maps/place/MASJID+E+NOORIA+AFZALIA/data=!4m7!3m6!1s0x3bd6bd452975bf3f:0xdd1316b45bdd4bea!8m2!3d20.9427214!4d77.7323247!16s%2Fg%2F11g07sxrtp!19sChIJP791KUW91jsR6kvdW7QWE90?authuser=0&hl=en&rclk=1,"20.9427214,77.73232469999999"
Baage Ashhar Masjid Taj Ul Auliya,Mosque,"WPXH+86P Baage Ashhar Masjid Taj Ul Auliya, Lalkhedi, Amravati, Maharashtra 444602",Lalkhedi,WPXH+86P,Amravati,444602,Maharashtra,IN,https://www.google.com/maps/place/Baage+Ashhar+Masjid+Taj+Ul+Auliya/data=!4m7!3m6!1s0x3bd6bcbb7d92749f:0x24daae990296d3a6!8m2!3d20.9483295!4d77.7280776!16s%2Fg%2F11ggs79vmc!19sChIJn3SSfbu81jsRptOWApmu2iQ?authuser=0&hl=en&rclk=1,"20.9483295,77.72807759999999"
Masjid Faizan e Usman e Ghani,Mosque,"WPXF+CQ7 Masjid Faizan e Usman e Ghani, Unnamed Road, Lalkhedi, Amravati, Maharashtra 444602",Lalkhedi,"WPXF+CQ7, Unnamed Road",Amravati,444602,Maharashtra,IN,https://www.google.com/maps/place/Masjid+Faizan+e+Usman+e+Ghani/data=!4m7!3m6!1s0x3bd6bd3710bd41d7:0x741944dab297c7fa!8m2!3d20.9485318!4d77.7244347!16s%2Fg%2F11pg9s8tj4!19sChIJ10G9EDe91jsR-seXstpEGXQ?authuser=0&hl=en&rclk=1,"20.948531799999998,77.7244347"
Masjid-e-Zubaida (msjdi zbydh),Mosque,"WPWJ+XCH Masjid-e-Zubaida (msjdi zbydh), Lalkhedi, Amravati, Maharashtra 444602",Lalkhedi,WPWJ+XCH,Amravati,444602,Maharashtra,IN,https://www.google.com/maps/place/Masjid-e-Zubaida+%28%D9%85%D8%B3%D8%AC%D8%AF%D9%90+%D8%B2%D8%A8%DB%8C%D8%AF%DB%81%29%E2%80%AD/data=!4m7!3m6!1s0x3bd6bd2f3e1833fb:0x23f732f162c964c3!8m2!3d20.947427!4d77.7311136!16s%2Fg%2F11rgwrqsp0!19sChIJ-zMYPi-91jsRw2TJYvEy9yM?authuser=0&hl=en&rclk=1,"20.947426999999998,77.7311136"
Madina Masjid,Mosque,"Madina Masjid, SH 200, Noorani Chowk, Chara Bazaar, Amravati, Maharashtra 444601","Hanuman Nagar, Muzaffar Pura","SH 200, Noorani Chowk, Chara Bazaar",Amravati,444601,Maharashtra,IN,https://www.google.com/maps/place/Madina+Masjid/data=!4m7!3m6!1s0x3bd6bca9fd74f3b9:0x840acdd11abad357!8m2!3d20.9349694!4d77.7389282!16s%2Fg%2F11g68zwzxk!19sChIJufN0_am81jsRV9O6GtHNCoQ?authuser=0&hl=en&rclk=1,"20.9349694,77.73892819999999"
Baba Haji Abdul Sattar Masjid,Mosque,"VP8H+JX3 Baba Haji Abdul Sattar Masjid, Juni Basti, Amravati, Maharashtra 444607",Juni Basti,VP8H+JX3,Amravati,444607,Maharashtra,IN,https://www.google.com/maps/place/Baba+Haji+Abdul+Sattar+Masjid/data=!4m7!3m6!1s0x3bd6bb2f29f67d93:0xe5798abb8210423a!8m2!3d20.8665168!4d77.7299254!16s%2Fg%2F11gyw88jvz!19sChIJk332KS-71jsROkIQgruKeeU?authuser=0&hl=en&rclk=1,"20.8665168,77.7299254"
Nal Saheb Pura Masjid,Mosque,"WPMR+R74 Nal Saheb Pura Masjid, Nal Saheb Pura, near pathan chowk, Bhaji Bazar, Nalsaheb Pura, Amravati, Maharashtra 444601","Bhaji Bazar, Nalsaheb Pura","WPMR+R74, Nal Saheb Pura, near pathan chowk",Amravati,444601,Maharashtra,IN,https://www.google.com/maps/place/Nal+Saheb+Pura+Masjid/data=!4m7!3m6!1s0x3bd6bbc3dd4ff609:0x92cad67da1e9b11c!8m2!3d20.9345066!4d77.7406901!16s%2Fg%2F11fmzgp4tg!19sChIJCfZP3cO71jsRHLHpoX3WypI?authuser=0&hl=en&rclk=1,"20.9345066,77.7406901"
Masjid Ziya-ul-Huda,Mosque,"WPXG+WMF Masjid Ziya-ul-Huda, Jamia Nagar, Lalkhedi, Amravati, Maharashtra 444602","Jamia Nagar, Lalkhedi",WPXG+WMF,Amravati,444602,Maharashtra,IN,https://www.google.com/maps/place/Masjid+Ziya-ul-Huda/data=!4m7!3m6!1s0x3bd6bd1e22f1c4c1:0xd0110203a0593c26!8m2!3d20.949823!4d77.7266852!16s%2Fg%2F11mw2tzyps!19sChIJwcTxIh691jsRJjxZoAMCEdA?authuser=0&hl=en&rclk=1,"20.949823,77.72668519999999"
Akoli Masjid,Mosque,"VPWH+5CX Akoli Masjid, Akoli Rd, Akoli, Sai Nagar, Amravati, Maharashtra 444607","Akoli, Sai Nagar","VPWH+5CX, Akoli Rd",Amravati,444607,Maharashtra,IN,https://www.google.com/maps/place/Akoli+Masjid/data=!4m7!3m6!1s0x3bd6bb8cc46c3269:0xaa0a5b66781a4cec!8m2!3d20.8954892!4d77.7285995!16s%2Fg%2F11fp4217qh!19sChIJaTJsxIy71jsR7EwaeGZbCqo?authuser=0&hl=en&rclk=1,"20.8954892,77.7285995"
"Masjid-E-Razaviya. Nagma Park, Amravati",Mosque,"XP2H+W5 Masjid-E-Razaviya. Nagma Park, Amravati, Amravati, Maharashtra 444602",,XP2H+W5,Amravati,444602,Maharashtra,IN,"https://www.google.com/maps/place/Masjid-E-Razaviya.+Nagma+Park,+Amravati/data=!4m7!3m6!1s0x3bd6bd13f0b28eeb:0x30e2794b8cdad49!8m2!3d20.9533288!4d77.7284633!16s%2Fg%2F11vbj0mhdt!19sChIJ646y8BO91jsRSa3NuJQnDgM?authuser=0&hl=en&rclk=1","20.953328799999998,77.7284633"
Masjid e Anwar,Mosque,"XP7M+JJC Masjid e Anwar, Navsari Rd, Navsaari, Amravati, Maharashtra 444602",Navsaari,"XP7M+JJC, Navsari Rd",Amravati,444602,Maharashtra,IN,https://www.google.com/maps/place/Masjid+e+Anwar/data=!4m7!3m6!1s0x3bd6bdc34476dc01:0xda412627b2699a4a!8m2!3d20.9640675!4d77.7340287!16s%2Fg%2F11pxnlc7ks!19sChIJAdx2RMO91jsRSpppsicmQdo?authuser=0&hl=en&rclk=1,"20.9640675,77.7340287"
Madrasi Baba Masjid Rahmat Nagar,Mosque,"WPQJ+724 Madrasi Baba Masjid Rahmat Nagar, Muzaffar Pura, Amravati, Maharashtra 444601",Muzaffar Pura,WPQJ+724,Amravati,444601,Maharashtra,IN,https://www.google.com/maps/place/Madrasi+Baba+Masjid+Rahmat+Nagar/data=!4m7!3m6!1s0x3bd6bd2b59a63be9:0xf91a6d95bee32743!8m2!3d20.9373296!4d77.7295898!16s%2Fg%2F11s_z11q9m!19sChIJ6TumWSu91jsRQyfjvpVtGvk?authuser=0&hl=en&rclk=1,"20.937329599999998,77.7295898"
Masjid Umar,Mosque,"WPVW+G37 Masjid Umar, AL Hilal Cooperative Housing Society, Hazrat Bilal Nagar, Amravati, Maharashtra 444601","AL Hilal Cooperative Housing Society, Hazrat Bilal Nagar",WPVW+G37,Amravati,444601,Maharashtra,IN,https://www.google.com/maps/place/Masjid+Umar/data=!4m7!3m6!1s0x3bd6bd7ca2c914e3:0x8c170cd262726652!8m2!3d20.9437885!4d77.7451603!16s%2Fg%2F11rt_8qp7g!19sChIJ4xTJony91jsRUmZyYtIMF4w?authuser=0&hl=en&rclk=1,"20.9437885,77.7451603"
Masjid Tajushariya,Mosque,"WPPP+6VF Masjid Tajushariya, Hanuman Nagar, Muzaffar Pura, Amravati, Maharashtra 444601","Hanuman Nagar, Muzaffar Pura",WPPP+6VF,Amravati,444601,Maharashtra,IN,https://www.google.com/maps/place/Masjid+Tajushariya/data=!4m7!3m6!1s0x3bd6bca9ce2e1c8f:0x1663d4740fd56f45!8m2!3d20.9355521!4d77.7371744!16s%2Fg%2F11hd4ytp70!19sChIJjxwuzqm81jsRRW_VD3TUYxY?authuser=0&hl=en&rclk=1,"20.9355521,77.7371744"
Teen Minara Masjid,Mosque,"WPMR+R74 Teen Minara Masjid, Bhaji Bazar, Nalsaheb Pura, Amravati, Maharashtra 444601","Bhaji Bazar, Nalsaheb Pura",WPMR+R74,Amravati,444601,Maharashtra,IN,https://www.google.com/maps/place/Teen+Minara+Masjid/data=!4m7!3m6!1s0x3bd6bb8caa74d74b:0x6a69c4b05479c715!8m2!3d20.9345025!4d77.7406908!16s%2Fg%2F11g4g60410!19sChIJS9d0qoy71jsRFcd5VLDEaWo?authuser=0&hl=en&rclk=1,"20.9345025,77.7406908"
Masjid Bibi Fatima,Mosque,"WPXH+VMM Masjid Bibi Fatima, teacher, Musjid Bibi Fatima golden nagar, Lalkhedi, Amravati, Maharashtra 444605",Lalkhedi,"WPXH+VMM teacher, Musjid Bibi Fatima golden nagar",Amravati,444605,Maharashtra,IN,https://www.google.com/maps/place/Masjid+Bibi+Fatima/data=!4m7!3m6!1s0x3bd6bd7dda38a729:0xb394132263d0a9ac!8m2!3d20.949724!4d77.7289155!16s%2Fg%2F11nyrft7gl!19sChIJKac42n291jsRrKnQYyITlLM?authuser=0&hl=en&rclk=1,"20.949724,77.7289155"
Markas masjid old town badnera,Mosque,"Markas masjid old town badnera, 444701, Juni Basti, Amravati, Maharashtra 444607",Juni Basti,444701,Amravati,444607,Maharashtra,IN,https://www.google.com/maps/place/Markas+masjid+old+town+badnera/data=!4m7!3m6!1s0x3bd6bb007648540d:0xc1fcb30c067a3734!8m2!3d20.8651!4d77.735724!16s%2Fg%2F11lkw1s1bq!19sChIJDVRIdgC71jsRNDd6Bgyz_ME?authuser=0&hl=en&rclk=1,"20.865099999999998,77.73572399999999"
Masjid Raza e mustafa,Mosque,"WPPR+VCG Masjid Raza e mustafa, Pathan Chowk, Paki Pura, Amravati, Maharashtra 444601","Pathan Chowk, Paki Pura",WPPR+VCG,Amravati,444601,Maharashtra,IN,https://www.google.com/maps/place/Masjid+Raza+e+mustafa/data=!4m7!3m6!1s0x3bd6bcaa47cd18df:0xe7be9cf5284ae4f1!8m2!3d20.9371801!4d77.7410873!16s%2Fg%2F11gbxc4jtp!19sChIJ3xjNR6q81jsR8eRKKPWcvuc?authuser=0&hl=en&rclk=1,"20.9371801,77.74108729999999"
Madras masjid,Mosque,"WQRM+6QR Madras masjid, Chaman Shah Wali, Amravati, Maharashtra 444602",Chaman Shah Wali,WQRM+6QR,Amravati,444602,Maharashtra,IN,https://www.google.com/maps/place/Madras+masjid/data=!4m7!3m6!1s0x3bd6a337a915075d:0x5ed4ad3ae8e99f25!8m2!3d20.9406079!4d77.7843939!16s%2Fg%2F11fl3yw31_!19sChIJXQcVqTej1jsRJZ_p6Dqt1F4?authuser=0&hl=en&rclk=1,"20.9406079,77.7843939"
Masjid e Noor Uddin,Mosque,"Masjid e Noor Uddin, Sufiyan nagar, Powerr house, Walgaon Rd, Transport Nagar, Amravati, Maharashtra 444601",Transport Nagar,"Sufiyan nagar, Powerr house, Walgaon Rd",Amravati,444601,Maharashtra,IN,https://www.google.com/maps/place/Masjid+e+Noor+Uddin/data=!4m7!3m6!1s0x3bd6bdf06f07c8b9:0x173fa38fe5f4bac5!8m2!3d20.9595295!4d77.7306915!16s%2Fg%2F11pkmgrkjl!19sChIJucgHb_C91jsRxbr05Y-jPxc?authuser=0&hl=en&rclk=1,"20.9595295,77.73069149999999"
Masjid Ameer e Mauviya,Mosque,"WPWP+GP6 Masjid Ameer e Mauviya, Jameel Colony, Transport Nagar, Amravati, Maharashtra 444601","Jameel Colony, Transport Nagar",WPWP+GP6,Amravati,444601,Maharashtra,IN,https://www.google.com/maps/place/Masjid+Ameer+e+Mauviya/data=!4m7!3m6!1s0x3bd6bd5cebfa96c3:0xa76d56cfab09d7cf!8m2!3d20.9464216!4d77.7362604!16s%2Fg%2F11t1jfwkt1!19sChIJw5b661y91jsRz9cJq89Wbac?authuser=0&hl=en&rclk=1,"20.9464216,77.73626039999999"
Masjid e zahid,Mosque,"XP4P+73M Masjid e zahid, Transport Nagar, Amravati, Maharashtra 444602",Transport Nagar,XP4P+73M,Amravati,444602,Maharashtra,IN,https://www.google.com/maps/place/Masjid+e+zahid/data=!4m7!3m6!1s0x3bd6bd2ac1d3a195:0x426d66091b718edc!8m2!3d20.9552432!4d77.735607!16s%2Fg%2F11v44slm_0!19sChIJlaHTwSq91jsR3I5xGwlmbUI?authuser=0&hl=en&rclk=1,"20.955243199999998,77.735607"
Masjid-E- zaitun Zam Zam nagar Amravati,Mosque,"XP4R+238 Masjid-E- zaitun Zam Zam nagar Amravati, Navsaari, Amravati, Maharashtra 444602",Navsaari,XP4R+238,Amravati,444602,Maharashtra,IN,https://www.google.com/maps/place/Masjid-E-+zaitun+Zam+Zam+nagar+Amravati/data=!4m7!3m6!1s0x3bd6bd851c12bb8b:0x3fef43a2f7ebf42!8m2!3d20.9550431!4d77.7402009!16s%2Fg%2F11n0sct26n!19sChIJi7sSHIW91jsRQr9-Lzr0_gM?authuser=0&hl=en&rclk=1,"20.955043099999997,77.74020089999999"
iidgaah mshiid Eidgah Masjid,Mosque,"WQGP+W75 iidgaah mshiid Eidgah Masjid, Shyam Nagar, Amravati, Maharashtra 444602",Shyam Nagar,WQGP+W75,Amravati,444602,Maharashtra,IN,https://www.google.com/maps/place/%E0%A4%88%E0%A4%A6%E0%A4%97%E0%A4%BE%E0%A4%B9+%E0%A4%AE%E0%A4%B6%E0%A5%80%E0%A4%A6+Eidgah+Masjid/data=!4m7!3m6!1s0x3bd6a5e8ac80c09f:0xf3d0b1716a020ef6!8m2!3d20.9272665!4d77.7857254!16s%2Fg%2F11rrp0j8mw!19sChIJn8CArOil1jsR9g4CanGx0PM?authuser=0&hl=en&rclk=1,"20.927266499999998,77.78572539999999"
Madni Masjid Ahle Sunnat,Mosque,"WPWM+33Q Madni Masjid Ahle Sunnat, Unnamed Road, Jameel Colony, Transport Nagar, Amravati, Maharashtra 444601","Jameel Colony, Transport Nagar","WPWM+33Q, Unnamed Road",Amravati,444601,Maharashtra,IN,https://www.google.com/maps/place/Madni+Masjid+Ahle+Sunnat/data=!4m7!3m6!1s0x3bd6bd614c99c3f7:0x337d6ce92992ff96!8m2!3d20.9452048!4d77.732734!16s%2Fg%2F11h8m37j2t!19sChIJ98OZTGG91jsRlv-SKelsfTM?authuser=0&hl=en&rclk=1,"20.9452048,77.732734"
Masjid e Musheer,Mosque,"XP3P+C6H Masjid e Musheer, Masjid e musheer, arfat colony, Transport Nagar, Amravati, Maharashtra 444602","arfat colony, Transport Nagar","XP3P+C6H, Masjid e musheer",Amravati,,Maharashtra,IN,https://www.google.com/maps/place/Masjid+e+Musheer/data=!4m7!3m6!1s0x3bd6bd69e0186311:0xb322fc6746294912!8m2!3d20.9535543!4d77.7356077!16s%2Fg%2F11hj08nym1!19sChIJEWMY4Gm91jsREkkpRmf8IrM?authuser=0&hl=en&rclk=1,"20.9535543,77.7356077"
Masjid Al Habib ( msjd lHbyb ),Mosque,"WPMM+QPJ Masjid Al Habib ( msjd lHbyb ), Muzaffar Pura, Amravati, Maharashtra 444601",Muzaffar Pura,WPMM+QPJ,Amravati,444601,Maharashtra,IN,https://www.google.com/maps/place/Masjid+Al+Habib+%28+%D9%85%D8%B3%D8%AC%D8%AF+%D8%A7%D9%84%D8%AD%D8%A8%D9%8A%D8%A8+%29%E2%80%AD/data=!4m7!3m6!1s0x3bd6bbc42fa76b3b:0x59c4a6c2efe7ac06!8m2!3d20.9337394!4d77.7337593!16s%2Fg%2F11t63_48hy!19sChIJO2unL8S71jsRBqzn78KmxFk?authuser=0&hl=en&rclk=1,"20.9337394,77.7337593"
Masjid - e - Saad,Mosque,"Masjid - e - Saad, Vir Tanaji Nagar, Shivneri Colony, Amravati, Maharashtra 444602","Vir Tanaji Nagar, Shivneri Colony",,Amravati,,Maharashtra,IN,https://www.google.com/maps/place/Masjid+-+e+-+Saad/data=!4m7!3m6!1s0x3bd6a482acb24e0d:0xd6444fb3d673a027!8m2!3d20.9374238!4d77.7795513!16s%2Fg%2F11hcbbpplw!19sChIJDU6yrIKk1jsRJ6Bz1rNPRNY?authuser=0&hl=en&rclk=1,"20.937423799999998,77.7795513"
Masjid Maula Ali,Mosque,"XP4Q+F9J Masjid Maula Ali, Navsaari, Amravati, Maharashtra 444602",Navsaari,XP4Q+F9J,Amravati,444602,Maharashtra,IN,https://www.google.com/maps/place/Masjid+Maula+Ali/data=!4m7!3m6!1s0x3bd6bd8255f8620b:0xae4539f46f6d3289!8m2!3d20.9561737!4d77.7385671!16s%2Fg%2F11s1ty7x2h!19sChIJC2L4VYK91jsRiTJtb_Q5Ra4?authuser=0&hl=en&rclk=1,"20.9561737,77.7385671"
Masjid NOOH as,Mosque,"WPWG+R69 Masjid NOOH as, Lalkhedi, Amravati, Maharashtra 444602",Lalkhedi,WPWG+R69,Amravati,444602,Maharashtra,IN,https://www.google.com/maps/place/Masjid+NOOH+as/data=!4m7!3m6!1s0x3bd6bd267ffe650d:0x230205fb2135e4d5!8m2!3d20.9470262!4d77.7256245!16s%2Fg%2F11txnykzhh!19sChIJDWX-fya91jsR1eQ1IfsFAiM?authuser=0&hl=en&rclk=1,"20.9470262,77.7256245"
Masjid Firdos Firdos Colony,Mosque,"XP2M+J24 Masjid Firdos Firdos Colony, Transport Nagar, Amravati, Maharashtra 444602",Transport Nagar,XP2M+J24,Amravati,444602,Maharashtra,IN,https://www.google.com/maps/place/Masjid+Firdos+Firdos+Colony/data=!4m7!3m6!1s0x3bd6bd7ed28d9bd5:0xc76c1aaf2e81c346!8m2!3d20.9496861!4d77.732214!16s%2Fg%2F11sdd8ls6j!19sChIJ1ZuN0n691jsRRsOBLq8abMc?authuser=0&hl=en&rclk=1,"20.949686099999997,77.732214"
Mecca Masjid Ahle Sunnat,Mosque,"WPPM+CGP Mecca Masjid Ahle Sunnat, Muzaffar Pura, Amravati, Maharashtra 444601",Muzaffar Pura,WPPM+CGP,Amravati,444601,Maharashtra,IN,https://www.google.com/maps/place/Mecca+Masjid+Ahle+Sunnat/data=!4m7!3m6!1s0x3bd6bd33d71ee5cf:0x8721ccfdd52d4756!8m2!3d20.9360983!4d77.7338361!16s%2Fg%2F11gjx0p0cf!19sChIJz-Ue1zO91jsRVkct1f3MIYc?authuser=0&hl=en&rclk=1,"20.936098299999998,77.73383609999999"
Masjid e saad,Mosque,"XP4P+VXG Masjid e saad, Haji Bashir nagar, Amravati",Navsaari,"XP4P+VXG, Haji Bashir nagar",Amravati,,Maharashtra,IN,https://www.google.com/maps/place/Masjid+e+saad/data=!4m7!3m6!1s0x3bd6bdd6e61cc6c3:0x91c2098349c4550!8m2!3d20.9571953!4d77.7374394!16s%2Fg%2F11nnshy036!19sChIJw8Yc5ta91jsRUEWcNJggHAk?authuser=0&hl=en&rclk=1,"20.9571953,77.7374394"
Masjid Imam e Hussain,Mosque,"WPVH+X66 Masjid Imam e Hussain, Lalkhedi, Amravati, Maharashtra 444602",Lalkhedi,WPVH+X66,Amravati,444602,Maharashtra,IN,https://www.google.com/maps/place/Masjid+Imam+e+Hussain/data=!4m7!3m6!1s0x3bd6bd9bca005dbd:0x5d8718e33a0fd1!8m2!3d20.9449211!4d77.7280039!16s%2Fg%2F11s_z0xwqx!19sChIJvV0Aypu91jsR0Q864xiHXQA?authuser=0&hl=en&rclk=1,"20.9449211,77.72800389999999"
Masjid-e-Umar,Mosque,"WPPJ+XGF Masjid-e-Umar, Rahmat Nagar, Amravati, Maharashtra 444601",Rahmat Nagar,WPPJ+XGF,Amravati,444601,Maharashtra,IN,https://www.google.com/maps/place/Masjid-e-Umar/data=!4m7!3m6!1s0x3bd6bd1e042ba8e9:0x200e0b6240e882f3!8m2!3d20.9369977!4d77.7314965!16s%2Fg%2F11rqsz6gkv!19sChIJ6agrBB691jsR84LoQGILDiA?authuser=0&hl=en&rclk=1,"20.9369977,77.73149649999999"
Masjid,Mosque,"XP7H+VCW Masjid, Amravati, Maharashtra 444602",,XP7H+VCW,Amravati,,Maharashtra,IN,https://www.google.com/maps/place/Masjid/data=!4m7!3m6!1s0x3bd6bd79fc581e7b:0x6152c787c9d122a6!8m2!3d20.9647488!4d77.7285682!16s%2Fg%2F11y1kkcyl7!19sChIJex5Y_Hm91jsRpiLRyYfHUmE?authuser=0&hl=en&rclk=1,"20.9647488,77.7285682"
MASJID,Mosque,"WPXM+G3J MASJID, Transport Nagar, Amravati, Maharashtra 444602",Transport Nagar,WPXM+G3J,Amravati,444602,Maharashtra,IN,https://www.google.com/maps/place/MASJID/data=!4m7!3m6!1s0x3bd6bd8b86721757:0x3f6c2c0ecebd8c67!8m2!3d20.9488369!4d77.7326472!16s%2Fg%2F11k4gpl912!19sChIJVxdyhou91jsRZ4y9zg4sbD8?authuser=0&hl=en&rclk=1,"20.9488369,77.7326472"
Masjide-e-Umar,Mosque,"No.2, Masjide-e-Umar, Walgaon Rd, near Best Hospital, Habib Nagar, Transport Nagar, Amravati, Maharashtra 444601","Habib Nagar, Transport Nagar","No.2, Walgaon Rd, near Best Hospital",Amravati,444601,Maharashtra,IN,https://www.google.com/maps/place/Masjide-e-Umar/data=!4m7!3m6!1s0x3bd6bd9e59e39435:0x39f02dd5af0660ba!8m2!3d20.9468391!4d77.7422479!16s%2Fg%2F11qyw2pl3j!19sChIJNZTjWZ691jsRumAGr9Ut8Dk?authuser=0&hl=en&rclk=1,"20.9468391,77.7422479"
Zakir colony masjid,Mosque,"WQJ2+QWV Zakir colony masjid, Amrawati Tahsil, Amravati, Maharashtra 444601",Amrawati Tahsil,WQJ2+QWV,Amravati,,Maharashtra,IN,https://www.google.com/maps/place/Zakir+colony+masjid/data=!4m7!3m6!1s0x3bd6a55f61757667:0x38f3c1204e2b102!8m2!3d20.9319821!4d77.7523039!16s%2Fg%2F11j13g_fv6!19sChIJZ3Z1YV-l1jsRArHiBBI8jwM?authuser=0&hl=en&rclk=1,"20.9319821,77.7523039"
Sufi Masjid Maslika Ala Hazrat R.A,Mosque,"XQ32+3H5 Sufi Masjid Maslika Ala Hazrat R.A, Praveen Nagar, Hazrat Bilal Nagar, Amravati, Maharashtra 444601","Praveen Nagar, Hazrat Bilal Nagar",XQ32+3H5,Amravati,444601,Maharashtra,IN,https://www.google.com/maps/place/Sufi+Masjid+Maslika+Ala+Hazrat+R.A/data=!4m7!3m6!1s0x3bd6a31a69b95a41:0x275f6ae61f381699!8m2!3d20.9526303!4d77.7514991!16s%2Fg%2F11ss9r0kc9!19sChIJQVq5aRqj1jsRmRY4H-ZqXyc?authuser=0&hl=en&rclk=1,"20.9526303,77.75149909999999"
Mahajan pura masjid,Mosque,"WPHQ+FXJ Mahajan pura masjid, Patvipura, Mahajan Pura, Amravati, Maharashtra 444601","Patvipura, Mahajan Pura",WPHQ+FXJ,Amravati,444601,Maharashtra,IN,https://www.google.com/maps/place/Mahajan+pura+masjid/data=!4m7!3m6!1s0x3bd6bb9ac080989d:0xafcb3cf115d4d325!8m2!3d20.9287101!4d77.7398833!16s%2Fg%2F11txdnvjn5!19sChIJnZiAwJq71jsRJdPUFfE8y68?authuser=0&hl=en&rclk=1,"20.9287101,77.7398833"
Masjid Nooriya Rizviya Rahamat nagar,Mosque,"WPQJ+4J4 Masjid Nooriya Rizviya Rahamat nagar, Rahmat Nagar, Amravati, Maharashtra 444601",Rahmat Nagar,WPQJ+4J4,Amravati,444601,Maharashtra,IN,https://www.google.com/maps/place/Masjid+Nooriya+Rizviya+Rahamat+nagar/data=!4m7!3m6!1s0x3bd6bd8aed42ec8d:0x3e498577e04a7770!8m2!3d20.9377779!4d77.7316848!16s%2Fg%2F11s_z0_mwm!19sChIJjexC7Yq91jsRcHdK4HeFST4?authuser=0&hl=en&rclk=1,"20.9377779,77.7316848"
Masjid A Zubeda.,Mosque,"VP8Q+MG7 Masjid A Zubeda., Juni Basti, Amravati, Maharashtra 444607",Juni Basti,VP8Q+MG7,Amravati,444607,Maharashtra,IN,https://www.google.com/maps/place/Masjid+A+Zubeda./data=!4m7!3m6!1s0x3bd6bbd6fa7c9cff:0xdcba63c39c2ff691!8m2!3d20.8666592!4d77.7388002!16s%2Fg%2F11tn0nllyc!19sChIJ_5x8-ta71jsRkfYvnMNjutw?authuser=0&hl=en&rclk=1,"20.866659199999997,77.7388002"
Masjid Imam Bukhari,Mosque,"XP3H+9V Masjid Imam Bukhari, Amravati, Maharashtra 444602",,XP3H+9V,Amravati,444602,Maharashtra,IN,https://www.google.com/maps/place/Masjid+Imam+Bukhari/data=!4m7!3m6!1s0x3bd6bd4ec3672287:0xd8ad948a5fd8b859!8m2!3d20.9531945!4d77.7301004!16s%2Fg%2F11s_z0nn5s!19sChIJhyJnw0691jsRWbjYX4qUrdg?authuser=0&hl=en&rclk=1,"20.9531945,77.7301004"
Masjid e sadiya,Mosque,"Masjid e sadiya, Sadiya nagar, Amrawati Tahsil, Amravati, Maharashtra 444601",Amrawati Tahsil,Sadiya nagar,Amravati,,Maharashtra,IN,https://www.google.com/maps/place/Masjid+e+sadiya/data=!4m7!3m6!1s0x3bd6a5a002f282a9:0xa9c9ae9f336f9ace!8m2!3d20.9319821!4d77.7523039!16s%2Fg%2F11tmk0b3dj!19sChIJqYLyAqCl1jsRzppvM5-uyak?authuser=0&hl=en&rclk=1,"20.9319821,77.7523039"
Abubakr masjid gulista nager,Mosque,"WPVP+W8X Abubakr masjid gulista nager, Jameel Colony, Transport Nagar, Amravati, Maharashtra 444601","Jameel Colony, Transport Nagar",WPVP+W8X,Amravati,444601,Maharashtra,IN,https://www.google.com/maps/place/Abubakr+masjid+gulista+nager/data=!4m7!3m6!1s0x3bd6bd517d182119:0x153dfe1a880cd178!8m2!3d20.9449004!4d77.7358001!16s%2Fg%2F11vf6c9ptv!19sChIJGSEYfVG91jsReNEMiBr-PRU?authuser=0&hl=en&rclk=1,"20.944900399999998,77.73580009999999"
Chistiya Faridiya Masjid Roshan Nagar,Mosque,"WPQJ+Q29 Chistiya Faridiya Masjid Roshan Nagar, Muzaffar Pura, Amravati, Maharashtra 444601",Muzaffar Pura,WPQJ+Q29,Amravati,444601,Maharashtra,IN,https://www.google.com/maps/place/Chistiya+Faridiya+Masjid+Roshan+Nagar/data=!4m7!3m6!1s0x3bd6bdb5582f76ad:0x787a3c35a8f3023!8m2!3d20.9396778!4d77.7297376!16s%2Fg%2F11s_z0v4yf!19sChIJrXYvWLW91jsRIzCPWsOjhwc?authuser=0&hl=en&rclk=1,"20.9396778,77.72973759999999"
