name,main_category,address,address_ward,address_street,address_city,address_postal_code,address_state,address_country_code,link,coordinates
Raza Jama Masjid Tarakulawa Masih Khan,Mosque,"2J95+J4C Raza Jama Masjid Tarakulawa Masih Khan, Tarakulawa, Uttar Pradesh 273302",,2J95+J4C,Tarakulawa,273302,Uttar Pradesh,IN,https://www.google.com/maps/place/Raza+Jama+Masjid+Tarakulawa+Masih+Khan/data=!4m7!3m6!1s0x3993fff18f9e18eb:0x17e96f6bc5bfa94f!8m2!3d27.0190675!4d83.6077682!16s%2Fg%2F11g8xf_rc4!19sChIJ6xiej_H_kzkRT6m_xWtv6Rc?authuser=0&hl=en&rclk=1,"27.0190675,83.6077682"
sunni noori masjid,Mosque,"2JCV+9XJ sunni noori masjid, Jagadishpur, Uttar Pradesh 273151",,2JCV+9XJ,Jagadishpur,273151,Uttar Pradesh,IN,https://www.google.com/maps/place/sunni+noori+masjid/data=!4m7!3m6!1s0x3993ff7ad06714d7:0x5fe71588ea2ceba3!8m2!3d27.0209583!4d83.6448869!16s%2Fg%2F11c54cty15!19sChIJ1xRn0Hr_kzkRo-ss6ogV518?authuser=0&hl=en&rclk=1,"27.0209583,83.6448869"
Nori masjid msjd Rampur Bujurg,Mosque,"Nori masjid msjd Rampur Bujurg, Maharajganj, Lakhima Tharua, Uttar Pradesh 273303",,,"Maharajganj, Lakhima Tharua",273303,Uttar Pradesh,IN,https://www.google.com/maps/place/Nori+masjid+%D9%85%D8%B3%D8%AC%D8%AF+Rampur+Bujurg%E2%80%AD/data=!4m7!3m6!1s0x3996a9a49589c35f:0x29166ace5c23f0e7!8m2!3d27.1758756!4d83.5443366!16s%2Fg%2F11fk86s313!19sChIJX8OJlaSpljkR5_AjXM5qFik?authuser=0&hl=en&rclk=1,"27.175875599999998,83.5443366"
Partawal Masjid,Mosque,"XH8Q+P93 Partawal Masjid, SH 81, Partawal, Nagarauli, Uttar Pradesh 273301",,"XH8Q+P93, SH 81","Partawal, Nagarauli",273301,Uttar Pradesh,IN,https://www.google.com/maps/place/Partawal+Masjid/data=!4m7!3m6!1s0x39915588e652b0c3:0xd6ddc9c1bfb0696b!8m2!3d26.9667585!4d83.5884374!16s%2Fg%2F1trxc315!19sChIJw7BS5ohVkTkRa2mwv8HJ3dY?authuser=0&hl=en&rclk=1,"26.966758499999997,83.58843739999999"
Old Masjid Siyarhi Bhar,Mosque,"XHV3+CX3 Old Masjid Siyarhi Bhar, Laxmipur, Uttar Pradesh 273301",,XHV3+CX3,Laxmipur,273301,Uttar Pradesh,IN,https://www.google.com/maps/place/Old+Masjid+Siyarhi+Bhar/data=!4m7!3m6!1s0x3991551c8249696f:0x5d0a7f722fbec507!8m2!3d26.9935166!4d83.554922!16s%2Fg%2F1pt_vc4zn!19sChIJb2lJghxVkTkRB8W-L3J_Cl0?authuser=0&hl=en&rclk=1,"26.9935166,83.55492199999999"
Jama Masjid,Mosque,"5H66+F9V Jama Masjid, Gabarua, Maharajganj, Uttar Pradesh 273303",Gabarua,5H66+F9V,Maharajganj,273303,Uttar Pradesh,IN,https://www.google.com/maps/place/Jama+Masjid/data=!4m7!3m6!1s0x3996a9b202af896b:0x6860720e9b4b333a!8m2!3d27.1612496!4d83.5609334!16s%2Fg%2F11fx7mvn1v!19sChIJa4mvArKpljkROjNLmw5yYGg?authuser=0&hl=en&rclk=1,"27.161249599999998,83.5609334"
Noori Jama Masjid,Mosque,"4HX7+V5W Noori Jama Masjid, Bismil Nagar, Maharajganj, Uttar Pradesh 273303",Bismil Nagar,4HX7+V5W,Maharajganj,273303,Uttar Pradesh,IN,https://www.google.com/maps/place/Noori+Jama+Masjid/data=!4m7!3m6!1s0x3996a9bb7f8f4da5:0x4843da392d1f4bcd!8m2!3d27.1497348!4d83.562953!16s%2Fg%2F11c5xmgqgc!19sChIJpU2Pf7upljkRzUsfLTnaQ0g?authuser=0&hl=en&rclk=1,"27.149734799999997,83.562953"
Chhapiya Village Masjid,Mosque,"2H2V+7GV Chhapiya Village Masjid, Chhapiya Village Rd, Uttar Pradesh 273301",,"2H2V+7GV, Chhapiya Village Rd",,273301,Uttar Pradesh,IN,https://www.google.com/maps/place/Chhapiya+Village+Masjid/data=!4m7!3m6!1s0x3993ffdf12f93c15:0xd6fd6b610b0062e3!8m2!3d27.0007251!4d83.5937925!16s%2Fg%2F1ptylq248!19sChIJFTz5Et__kzkR42IAC2Fr_dY?authuser=0&hl=en&rclk=1,"27.0007251,83.59379249999999"
Pipara Jaddu Masjid,Mosque,"XHRC+MFQ Pipara Jaddu Masjid, Piparajaddu, Uttar Pradesh 273301",,XHRC+MFQ,Piparajaddu,273301,Uttar Pradesh,IN,https://www.google.com/maps/place/Pipara+Jaddu+Masjid/data=!4m7!3m6!1s0x39915572aa207993:0x8698d663a44f41d7!8m2!3d26.9917125!4d83.5712344!16s%2Fg%2F11hbr2r3zj!19sChIJk3kgqnJVkTkR10FPpGPWmIY?authuser=0&hl=en&rclk=1,"26.9917125,83.5712344"
Falak Taj Masjid,Mosque,"2GXR+X8P Falak Taj Masjid, Laxmipur Deurawa, Uttar Pradesh 273302",,2GXR+X8P,Laxmipur Deurawa,273302,Uttar Pradesh,IN,https://www.google.com/maps/place/Falak+Taj+Masjid/data=!4m7!3m6!1s0x3996ab186efd0d57:0x4bae4f2c749e340!8m2!3d27.0499615!4d83.5408266!16s%2Fg%2F11cn5r6k_f!19sChIJVw39bhirljkRQONJx_LkugQ?authuser=0&hl=en&rclk=1,"27.0499615,83.5408266"
Neta Surhurawa Jama Masjid,Mosque,"4G2G+7GP Neta Surhurawa Jama Masjid, Netasurhurawa, Uttar Pradesh 273303",,4G2G+7GP,Netasurhurawa,,Uttar Pradesh,IN,https://www.google.com/maps/place/Neta+Surhurawa+Jama+Masjid/data=!4m7!3m6!1s0x3996ab9c157df32b:0x65ee68e0f95c9e89!8m2!3d27.100701!4d83.526342!16s%2Fg%2F11gl28mwt8!19sChIJK_N9FZyrljkRiZ5c-eBo7mU?authuser=0&hl=en&rclk=1,"27.100700999999997,83.526342"
Noori Masjid Derawa,Mosque,"2HFR+78W Noori Masjid Derawa, Derawa, Uttar Pradesh 273302",,2HFR+78W,Derawa,273302,Uttar Pradesh,IN,https://www.google.com/maps/place/Noori+Masjid+Derawa/data=!4m7!3m6!1s0x39915559b82a8a3d:0xa343b556a0bb25c9!8m2!3d27.0232304!4d83.5908161!16s%2Fg%2F11h234xh4m!19sChIJPYoquFlVkTkRySW7oFa1Q6M?authuser=0&hl=en&rclk=1,"27.0232304,83.5908161"
Noori Masjid Pipra Babu Ansari Tola,Mosque,"4HGJ+H8P Noori Masjid Pipra Babu Ansari Tola, Siswa Babu, Uttar Pradesh 273303",,4HGJ+H8P,Siswa Babu,273303,Uttar Pradesh,IN,https://www.google.com/maps/place/Noori+Masjid+Pipra+Babu+Ansari+Tola/data=!4m7!3m6!1s0x3996a9f74e4c025f:0x7c605c967982a49c!8m2!3d27.1264639!4d83.5808428!16s%2Fg%2F11gc9gc_pn!19sChIJXwJMTvepljkRnKSCeZZcYHw?authuser=0&hl=en&rclk=1,"27.126463899999997,83.5808428"
Gangrai Mosque,Mosque,"2HMQ+J6J Gangrai Mosque, Gangarai, Uttar Pradesh 273302",,2HMQ+J6J,Gangarai,273302,Uttar Pradesh,IN,https://www.google.com/maps/place/Gangrai+Mosque/data=!4m7!3m6!1s0x3996aaa95bf46b03:0xcb196dfe7537c800!8m2!3d27.0340835!4d83.5880042!16s%2Fg%2F11f2xpw0ms!19sChIJA2v0W6mqljkRAMg3df5tGcs?authuser=0&hl=en&rclk=1,"27.034083499999998,83.5880042"
Kamhariya Masjid,Mosque,"2H4J+VCX Kamhariya Masjid, Kamhariya Khurd, Uttar Pradesh 273301",,2H4J+VCX,Kamhariya Khurd,,Uttar Pradesh,IN,https://www.google.com/maps/place/Kamhariya+Masjid/data=!4m7!3m6!1s0x3991555bb1d3c945:0x47d114d51a05682b!8m2!3d27.0072261!4d83.5811109!16s%2Fg%2F11gwmdxgp8!19sChIJRcnTsVtVkTkRK2gFGtUU0Uc?authuser=0&hl=en&rclk=1,"27.0072261,83.5811109"
Jama Masjid,Mosque,"3937+X8J Jama Masjid, Mohammadpur Urf Hargna, Uttar Pradesh 273158",,3937+X8J,Mohammadpur Urf Hargna,273158,Uttar Pradesh,IN,https://www.google.com/maps/place/Jama+Masjid/data=!4m7!3m6!1s0x3996b30e7b9628a3:0x24def2173ff0a383!8m2!3d27.0549572!4d83.3632672!16s%2Fg%2F11c438h7rd!19sChIJoyiWew6zljkRg6PwPxfy3iQ?authuser=0&hl=en&rclk=1,"27.0549572,83.3632672"
Gausul Wara Masjid,Mosque,"5HPM+X38 Gausul Wara Masjid, Panewa Panei, Sonara, Uttar Pradesh 273303",,5HPM+X38,"Panewa Panei, Sonara",273303,Uttar Pradesh,IN,https://www.google.com/maps/place/Gausul+Wara+Masjid/data=!4m7!3m6!1s0x3996a82339ef5281:0xb30fe23a3e52b2c!8m2!3d27.1874215!4d83.5826893!16s%2Fg%2F11hd1qnhdm!19sChIJgVLvOSOoljkRLCvloyP-MAs?authuser=0&hl=en&rclk=1,"27.1874215,83.5826893"
Eidgah,Mosque,"6H7X+9R3 Eidgah, Kasmaria, Uttar Pradesh 273303",,6H7X+9R3,Kasmaria,273303,Uttar Pradesh,IN,https://www.google.com/maps/place/Eidgah/data=!4m7!3m6!1s0x399402acf012bffb:0xc063b2ac72bf56f1!8m2!3d27.2133787!4d83.599551!16s%2Fg%2F11d_d2bg57!19sChIJ-78S8KwClDkR8Va_cqyyY8A?authuser=0&hl=en&rclk=1,"27.2133787,83.59955099999999"
RUDLAPUR MASJID,Mosque,"473G+668 RUDLAPUR MASJID, Anand Nagar, Uttar Pradesh 273155",,473G+668,Anand Nagar,273155,Uttar Pradesh,IN,https://www.google.com/maps/place/RUDLAPUR+MASJID/data=!4m7!3m6!1s0x3996b5deef1e0811:0xf6c58f898aae51bb!8m2!3d27.1030297!4d83.2755826!16s%2Fg%2F11f3n1tc1s!19sChIJEQge7961ljkRu1GuiomPxfY?authuser=0&hl=en&rclk=1,"27.1030297,83.27558259999999"
Chhapiya Masjid,Mosque,"XJW2+RP2 Chhapiya Masjid, Chhapiya, Uttar Pradesh 273301",,XJW2+RP2,Chhapiya,273301,Uttar Pradesh,IN,https://www.google.com/maps/place/Chhapiya+Masjid/data=!4m7!3m6!1s0x3993ffdb16fed3f1:0x1232b92cf3d373d8!8m2!3d26.997013!4d83.6017666!16s%2Fg%2F1ptyw83kh!19sChIJ8dP-Ftv_kzkR2HPT8yy5MhI?authuser=0&hl=en&rclk=1,"26.997013,83.60176659999999"
msjid raampur mhuavaa,Mosque,"4JMC+GGX msjid raampur mhuavaa, Shikarpur - Senduria Rd, Ballo Khas, Uttar Pradesh 273302",,"4JMC+GGX, Shikarpur - Senduria Rd",Ballo Khas,273302,Uttar Pradesh,IN,https://www.google.com/maps/place/%E0%A4%AE%E0%A4%B8%E0%A5%8D%E0%A4%9C%E0%A4%BF%E0%A4%A6+%E0%A4%B0%E0%A4%BE%E0%A4%AE%E0%A4%AA%E0%A5%81%E0%A4%B0+%E0%A4%AE%E0%A4%B9%E0%A5%81%E0%A4%85%E0%A4%B5%E0%A4%BE/data=!4m7!3m6!1s0x3994030434393981:0xc794087aa09da770!8m2!3d27.1338562!4d83.6213461!16s%2Fg%2F11fsjf7g55!19sChIJgTk5NAQDlDkRcKedoHoIlMc?authuser=0&hl=en&rclk=1,"27.1338562,83.6213461"
Madeena Masjid,Mosque,"5H47+8FX Madeena Masjid, Chowk Rd, Azad Nagar, Bismil Nagar, Maharajganj, Uttar Pradesh 273303","Azad Nagar, Bismil Nagar","5H47+8FX, Chowk Rd",Maharajganj,273303,Uttar Pradesh,IN,https://www.google.com/maps/place/Madeena+Masjid/data=!4m7!3m6!1s0x3996a9b09c9fef21:0x1976ac3d7cc9ef35!8m2!3d27.1558549!4d83.5637273!16s%2Fg%2F11dxbd5rw8!19sChIJIe-fnLCpljkRNe_JfD2sdhk?authuser=0&hl=en&rclk=1,"27.155854899999998,83.5637273"
Al Aqsa Masjid,Mosque,"4HW4+5GM Al Aqsa Masjid, Unnamed Road, Shastri Nagar, Maharajganj, Uttar Pradesh 273303",Shastri Nagar,"4HW4+5GM, Unnamed Road",Maharajganj,273303,Uttar Pradesh,IN,https://www.google.com/maps/place/Al+Aqsa+Masjid/data=!4m7!3m6!1s0x3996a918851a0aa3:0x1f96573e7cf75e15!8m2!3d27.1454722!4d83.5563124!16s%2Fg%2F11ghtr_m3q!19sChIJowoahRipljkRFV73fD5Xlh8?authuser=0&hl=en&rclk=1,"27.1454722,83.5563124"
Eidgaah Gabarua,Mosque,"Eidgaah Gabarua, gabaduan eidgaah, Azad Nagar, Gabarua, Maharajganj, Uttar Pradesh 273303","Azad Nagar, Gabarua",gabaduan eidgaah,Maharajganj,273303,Uttar Pradesh,IN,https://www.google.com/maps/place/Eidgaah+Gabarua/data=!4m7!3m6!1s0x3996a9b0653629a9:0x33967a52664bed1a!8m2!3d27.1558281!4d83.5623604!16s%2Fg%2F11cjj1m811!19sChIJqSk2ZbCpljkRGu1LZlJ6ljM?authuser=0&hl=en&rclk=1,"27.155828099999997,83.5623604"
Masjid,Mosque,"XJV5+8G6 Masjid, Sohasha Baspaar, Uttar Pradesh 273301",,XJV5+8G6,Sohasha Baspaar,273301,Uttar Pradesh,IN,https://www.google.com/maps/place/Masjid/data=!4m7!3m6!1s0x3993ffc8a8fb3401:0xaaade1a494c67286!8m2!3d26.9932839!4d83.6087711!16s%2Fg%2F11f10dxb2c!19sChIJATT7qMj_kzkRhnLGlKThrao?authuser=0&hl=en&rclk=1,"26.993283899999998,83.6087711"
Jamma Masjid,Mosque,"2HMJ+X2M Jamma Masjid, Sisawa Munshi, Uttar Pradesh 273302",,2HMJ+X2M,Sisawa Munshi,273302,Uttar Pradesh,IN,https://www.google.com/maps/place/Jamma+Masjid/data=!4m7!3m6!1s0x3996aab1bee99ffb:0x3ed47c8de128acd5!8m2!3d27.0349528!4d83.5800492!16s%2Fg%2F11gb3n4q0z!19sChIJ-5_pvrGqljkR1awo4Y181D4?authuser=0&hl=en&rclk=1,"27.0349528,83.58004919999999"
Sahid Baba Majar,Mosque,"XH95+22M Sahid Baba Majar, Unnamed Road, Budhirampur, Maharajganj, Uttar Pradesh 273301",Budhirampur,"XH95+22M, Unnamed Road",Maharajganj,273301,Uttar Pradesh,IN,https://www.google.com/maps/place/Sahid+Baba+Majar/data=!4m7!3m6!1s0x39915552cf688c57:0xe067797d2deb98bf!8m2!3d26.9675926!4d83.5575475!16s%2Fg%2F11qh8bh9h3!19sChIJV4xoz1JVkTkRv5jrLX15Z-A?authuser=0&hl=en&rclk=1,"26.9675926,83.5575475"
Nooran Tola mosque,Mosque,"2HC8+8F3 Nooran Tola mosque, Maharajganj, Uttar Pradesh 273302",,2HC8+8F3,Maharajganj,,Uttar Pradesh,IN,https://www.google.com/maps/place/Nooran+Tola+mosque/data=!4m7!3m6!1s0x3991552c6db20a3b:0xb77efa3b8d53b168!8m2!3d27.0207516!4d83.5661698!16s%2Fg%2F11gw2kjfqn!19sChIJOwqybSxVkTkRaLFTjTv6frc?authuser=0&hl=en&rclk=1,"27.0207516,83.5661698"
Masjid,Mosque,"5JQ3+MJC Masjid, Baulia Raja, Uttar Pradesh 273303",,5JQ3+MJC,Baulia Raja,273303,Uttar Pradesh,IN,https://www.google.com/maps/place/Masjid/data=!4m7!3m6!1s0x39940297737bf853:0x748bceddec117a9d!8m2!3d27.1891793!4d83.6040182!16s%2Fg%2F11fxd_ngtv!19sChIJU_h7c5cClDkRnXoR7N3Oi3Q?authuser=0&hl=en&rclk=1,"27.1891793,83.6040182"
Masjid,Mosque,"2CFF+RX8 Masjid, Jungal Barahara, Uttar Pradesh 273303",,2CFF+RX8,Jungal Barahara,273303,Uttar Pradesh,IN,https://www.google.com/maps/place/Masjid/data=!4m7!3m6!1s0x3996ad5448509cff:0xbecfb9939fb47d41!8m2!3d27.024527!4d83.4249577!16s%2Fg%2F11c7146lv0!19sChIJ_5xQSFStljkRQX20n5O5z74?authuser=0&hl=en&rclk=1,"27.024527,83.4249577"
Rudhauli Masjid,Mosque,"4GC4+727 Rudhauli Masjid, Rodhauli Bhawachak, Uttar Pradesh 273303",,4GC4+727,Rodhauli Bhawachak,273303,Uttar Pradesh,IN,https://www.google.com/maps/place/Rudhauli+Masjid/data=!4m7!3m6!1s0x3996affc82ed4fc5:0xd7ebd4949a7e7d8e!8m2!3d27.1206502!4d83.5050391!16s%2Fg%2F11h9bfpk7n!19sChIJxU_tgvyvljkRjn1-mpTU69c?authuser=0&hl=en&rclk=1,"27.1206502,83.50503909999999"
Masjid balua,Mosque,"2H5V+FJR Masjid balua, Gorakhpur Mahrajganj Marg, Balua, Uttar Pradesh 273302",,"2H5V+FJR, Gorakhpur Mahrajganj Marg",Balua,273302,Uttar Pradesh,IN,https://www.google.com/maps/place/Masjid+balua/data=!4m7!3m6!1s0x3993fffddfa35a01:0x49af33ca71183d2a!8m2!3d27.0087313!4d83.5940108!16s%2Fg%2F11g1ly05x5!19sChIJAVqj3_3_kzkRKj0Yccozr0k?authuser=0&hl=en&rclk=1,"27.008731299999997,83.59401079999999"
iidgaah mhdevaa,Mosque,"XHM6+66G iidgaah mhdevaa, Mahdeva, Uttar Pradesh 273301",,XHM6+66G,Mahdeva,273301,Uttar Pradesh,IN,https://www.google.com/maps/place/%E0%A4%88%E0%A4%A6%E0%A4%97%E0%A4%BE%E0%A4%B9+%E0%A4%AE%E0%A4%B9%E0%A4%A6%E0%A5%87%E0%A4%B5%E0%A4%BE/data=!4m7!3m6!1s0x3991550883715d43:0x2a07e4f59c704557!8m2!3d26.9830539!4d83.5605716!16s%2Fg%2F11gbxc0c4d!19sChIJQ11xgwhVkTkRV0VwnPXkByo?authuser=0&hl=en&rclk=1,"26.983053899999998,83.5605716"
Raza Jama Masjid tarkulwa Tiwari,Mosque,"2JC4+8FP Raza Jama Masjid tarkulwa Tiwari, Tarakulawa, Uttar Pradesh 273302",,2JC4+8FP,Tarakulawa,273302,Uttar Pradesh,IN,https://www.google.com/maps/place/Raza+Jama+Masjid+tarkulwa+Tiwari/data=!4m7!3m6!1s0x3993ff26aec3d2a9:0x40b71cc417f72dfb!8m2!3d27.0208454!4d83.6061934!16s%2Fg%2F11h77wm85n!19sChIJqdLDrib_kzkR-y33F8Qct0A?authuser=0&hl=en&rclk=1,"27.0208454,83.6061934"
Shaheed Tipu Sultan jama maszid,Mosque,"2J95+8P5 Shaheed Tipu Sultan jama maszid, Tarakulawa, Uttar Pradesh 273302",,2J95+8P5,Tarakulawa,273302,Uttar Pradesh,IN,https://www.google.com/maps/place/Shaheed+Tipu+Sultan+jama+maszid/data=!4m7!3m6!1s0x3993ff830bedeeb9:0xfdfccb3318928786!8m2!3d27.0182529!4d83.6093708!16s%2Fg%2F11g4jz6k3n!19sChIJue7tC4P_kzkRhoeSGDPL_P0?authuser=0&hl=en&rclk=1,"27.0182529,83.6093708"
msjid raampurvaa,Mosque,"4HCM+J3G msjid raampurvaa, raampurvaa cauraahaa, Maharajganj, Siswa Babu, Uttar Pradesh 273303",,4HCM+J3G raampurvaa cauraahaa,"Maharajganj, Siswa Babu",273303,Uttar Pradesh,IN,https://www.google.com/maps/place/%E0%A4%AE%E0%A4%B8%E0%A5%8D%E0%A4%9C%E0%A4%BF%E0%A4%A6+%E0%A4%B0%E0%A4%BE%E0%A4%AE%E0%A4%AA%E0%A5%81%E0%A4%B0%E0%A4%B5%E0%A4%BE/data=!4m7!3m6!1s0x3996a9f80c6bd317:0x60c7f30d017865af!8m2!3d27.1215625!4d83.5826875!16s%2Fg%2F11gc1sl6y_!19sChIJF9NrDPipljkRr2V4AQ3zx2A?authuser=0&hl=en&rclk=1,"27.1215625,83.58268749999999"
Umar Ibn Al Khattab Masjid,Mosque,"2J93+7HJ Umar Ibn Al Khattab Masjid, Gorakhpur-Maharajganj Marg, Tarakulawa Tiwari, Uttar Pradesh 273302",,"2J93+7HJ, Gorakhpur-Maharajganj Marg",Tarakulawa Tiwari,273302,Uttar Pradesh,IN,https://www.google.com/maps/place/Umar+Ibn+Al+Khattab+Masjid/data=!4m7!3m6!1s0x3993fff06ca9952b:0x841e05f3019d2953!8m2!3d27.0182215!4d83.6039045!16s%2Fg%2F11fzwh2mm7!19sChIJK5WpbPD_kzkRUymdAfMFHoQ?authuser=0&hl=en&rclk=1,"27.0182215,83.6039045"
NOORI MASJID,Mosque,"NOORI MASJID, Unnamed Road, Khuruhuri, Uttar Pradesh 273163",,Unnamed Road,Khuruhuri,273163,Uttar Pradesh,IN,https://www.google.com/maps/place/NOORI+MASJID/data=!4m7!3m6!1s0x3994058b82821f9b:0x7b637f296ba9cefa!8m2!3d27.1267109!4d83.7000458!16s%2Fg%2F11gxthcrpm!19sChIJmx-CgosFlDkR-s6payl_Y3s?authuser=0&hl=en&rclk=1,"27.1267109,83.7000458"
MASJID-E-MUHAMMADIA,Mosque,"MASJID-E-MUHAMMADIA, Chaupariya, Maharajganj, Mahuawa, Uttar Pradesh 273303",Chaupariya,,"Maharajganj, Mahuawa",273303,Uttar Pradesh,IN,https://www.google.com/maps/place/MASJID-E-MUHAMMADIA/data=!4m7!3m6!1s0x3996a90fddf26d63:0x43cca23771de1add!8m2!3d27.1423024!4d83.5371338!16s%2Fg%2F11hz_t3pp_!19sChIJY23y3Q-pljkR3RrecTeizEM?authuser=0&hl=en&rclk=1,"27.1423024,83.53713379999999"
Laxmipur Jarlahiya Masjid,Mosque,"Laxmipur Jarlahiya Masjid, Laxmipur Jarlahiya, Harpur Tiwari, Maharajganj Uttar Pradesh 273301 IN, Partawal",,"Laxmipur Jarlahiya, Harpur Tiwari, Maharajganj Uttar Pradesh 273301 IN","Partawal, Harpur",,Uttar Pradesh,IN,https://www.google.com/maps/place/Laxmipur+Jarlahiya+Masjid/data=!4m7!3m6!1s0x399155425de4b439:0x73ed498edfb6d06f!8m2!3d26.98798!4d83.5580231!16s%2Fg%2F11s1w2glgn!19sChIJObTkXUJVkTkRb9C2345J7XM?authuser=0&hl=en&rclk=1,"26.98798,83.5580231"
SOHRAUNA RAJA JAMA MASJID,Mosque,"2JJC+627 SOHRAUNA RAJA JAMA MASJID, Sohrauna, Uttar Pradesh 273302",,2JJC+627,Sohrauna,,Uttar Pradesh,IN,https://www.google.com/maps/place/SOHRAUNA+RAJA+JAMA+MASJID/data=!4m7!3m6!1s0x399401f8b97abde3:0x68782f9379554a22!8m2!3d27.0305433!4d83.6200359!16s%2Fg%2F11rxqc4b02!19sChIJ4716ufgBlDkRIkpVeZMveGg?authuser=0&hl=en&rclk=1,"27.030543299999998,83.62003589999999"
"Sunni masjid, Rajmandir",Mosque,"Sunni masjid, Rajmandir, Rajmandir, Lalakarpur, Uttar Pradesh 273302",,,"Rajmandir, Lalakarpur",273302,Uttar Pradesh,IN,"https://www.google.com/maps/place/Sunni+masjid,+Rajmandir/data=!4m7!3m6!1s0x3996abde98ea93af:0x6e0345739005d848!8m2!3d27.0786083!4d83.5695015!16s%2Fg%2F11qmrlp6z4!19sChIJr5PqmN6rljkRSNgFkHNFA24?authuser=0&hl=en&rclk=1","27.0786083,83.5695015"
Balua Jama Masjid,Mosque,"2H7W+652 Balua Jama Masjid, Balua, Uttar Pradesh 273302",,2H7W+652,Balua,273302,Uttar Pradesh,IN,https://www.google.com/maps/place/Balua+Jama+Masjid/data=!4m7!3m6!1s0x3993ff8e9a23bb1b:0x151be255b943135e!8m2!3d27.0130232!4d83.5954022!16s%2Fg%2F11gsbhd4jw!19sChIJG7sjmo7_kzkRXhNDuVXiGxU?authuser=0&hl=en&rclk=1,"27.0130232,83.5954022"
Naturi Masjid,Mosque,"Naturi Masjid, Naturi, Bagahi, Uttar Pradesh 273163",,,"Naturi, Bagahi",273163,Uttar Pradesh,IN,https://www.google.com/maps/place/Naturi+Masjid/data=!4m7!3m6!1s0x3994058fec43d3bb:0x59eaeb0c5b4522fa!8m2!3d27.2107233!4d83.7193293!16s%2Fg%2F11ry1k2mxl!19sChIJu9ND7I8FlDkR-iJFWwzr6lk?authuser=0&hl=en&rclk=1,"27.210723299999998,83.7193293"
Jumma Masjid jummaa mszid,Mosque,"68HG+76V Jumma Masjid jummaa mszid, Rajmandir Khurd, Laxmipur, Uttar Pradesh 273157",,"68HG+76V, Rajmandir Khurd","Laxmipur, Rajmandir Khurd",273157,Uttar Pradesh,IN,https://www.google.com/maps/place/Jumma+Masjid+%E0%A4%9C%E0%A5%81%E0%A4%AE%E0%A5%8D%E0%A4%AE%E0%A4%BE+%E0%A4%AE%E0%A4%B8%E0%A5%8D%E0%A5%9B%E0%A4%BF%E0%A4%A6/data=!4m7!3m6!1s0x3996b9399bfdbefd:0x3a6ce3cb28d2769f!8m2!3d27.2282307!4d83.3255453!16s%2Fg%2F11gvzw7235!19sChIJ_b79mzm5ljkRn3bSKMvjbDo?authuser=0&hl=en&rclk=1,"27.228230699999997,83.3255453"
Madina Masjid Haskhori Mahuawa,Mosque,"3F5Q+858 Madina Masjid Haskhori Mahuawa, Haskhori, Khaincha, Uttar Pradesh 273310",,3F5Q+858,"Haskhori, Khaincha",273310,Uttar Pradesh,IN,https://www.google.com/maps/place/Madina+Masjid+Haskhori+Mahuawa/data=!4m7!3m6!1s0x3996ada1cab7eb29:0x24c1589ac88d2726!8m2!3d27.0582996!4d83.4879479!16s%2Fg%2F11h3jjdhs6!19sChIJKeu3yqGtljkRJieNyJpYwSQ?authuser=0&hl=en&rclk=1,"27.058299599999998,83.4879479"
JAAMA MASJID PANIYARA,Mosque,"XFW8+FHW JAAMA MASJID PANIYARA, Paniyara, Uttar Pradesh 273310",,XFW8+FHW,Paniyara,273310,Uttar Pradesh,IN,https://www.google.com/maps/place/JAAMA+MASJID+PANIYARA/data=!4m7!3m6!1s0x399153701e7d7577:0xb461c99876ed9ee8!8m2!3d26.9962415!4d83.466457!16s%2Fg%2F11hyz8ms45!19sChIJd3V9HnBTkTkR6J7tdpjJYbQ?authuser=0&hl=en&rclk=1,"26.9962415,83.46645699999999"
RazaJama masjid,Mosque,"6H7W+QPP RazaJama masjid, Kasmaria Rd, Khajuria, Kasmaria, Uttar Pradesh 273303",,"6H7W+QPP, Kasmaria Rd","Khajuria, Kasmaria",273303,Uttar Pradesh,IN,https://www.google.com/maps/place/RazaJama+masjid/data=!4m7!3m6!1s0x39940319a7e84435:0xa3ec2eacb41ed157!8m2!3d27.2144566!4d83.5968231!16s%2Fg%2F11q_c26wz7!19sChIJNUTopxkDlDkRV9EetKwu7KM?authuser=0&hl=en&rclk=1,"27.2144566,83.5968231"
Parasameer Sunni Masjid,Mosque,"6J8V+XM4 Parasameer Sunni Masjid, Unnamed Road, Patarengawan, Uttar Pradesh 273207",,"6J8V+XM4, Unnamed Road",Patarengawan,273207,Uttar Pradesh,IN,https://www.google.com/maps/place/Parasameer+Sunni+Masjid/data=!4m7!3m6!1s0x399403e29dabfdb5:0x8a2855ff82bb6e75!8m2!3d27.217384!4d83.6441953!16s%2Fg%2F11hzx3v5rz!19sChIJtf2rneIDlDkRdW67gv9VKIo?authuser=0&hl=en&rclk=1,"27.217384,83.64419529999999"
Gopala Masjid,Mosque,"2H44+HCR Gopala Masjid, Gopala, Uttar Pradesh 273301",,2H44+HCR,Gopala,273301,Uttar Pradesh,IN,https://www.google.com/maps/place/Gopala+Masjid/data=!4m7!3m6!1s0x399155d6e57100ab:0x230aead0b9253d00!8m2!3d27.0064829!4d83.556022!16s%2Fg%2F11j843g4hy!19sChIJqwBx5dZVkTkRAD0ludDqCiM?authuser=0&hl=en&rclk=1,"27.006482899999998,83.556022"
BANSPAR BAIJAULI CHAWANI MASJID,Mosque,"4GGW+363 BANSPAR BAIJAULI CHAWANI MASJID, Kotwali Rode, Baspar Baijauli, Uttar Pradesh 273303",,"4GGW+363, Kotwali Rode",Baspar Baijauli,273303,Uttar Pradesh,IN,https://www.google.com/maps/place/BANSPAR+BAIJAULI+CHAWANI+MASJID/data=!4m7!3m6!1s0x3996a9d16e5240ed:0x2408a74a4d5c9771!8m2!3d27.1251294!4d83.5455443!16s%2Fg%2F11h6r2zt9j!19sChIJ7UBSbtGpljkRcZdcTUqnCCQ?authuser=0&hl=en&rclk=1,"27.1251294,83.5455443"
juma masjid,Mosque,"2H74+H22 juma masjid, Mirzapur Pakadi, Gopala, Uttar Pradesh 273301",,2H74+H22,"Mirzapur Pakadi, Gopala",273301,Uttar Pradesh,IN,https://www.google.com/maps/place/juma+masjid/data=!4m7!3m6!1s0x399155f814f93115:0x5b8876e73ebed1e1!8m2!3d27.0138783!4d83.5550221!16s%2Fg%2F11f66zb_46!19sChIJFTH5FPhVkTkR4dG-Pud2iFs?authuser=0&hl=en&rclk=1,"27.0138783,83.5550221"
nurii msjid,Mosque,"2MJJ+M7V nurii msjid, Basntpur, Uttar Pradesh 273151",,2MJJ+M7V,Basntpur,273151,Uttar Pradesh,IN,https://www.google.com/maps/place/%E0%A4%A8%E0%A5%81%E0%A4%B0%E0%A5%80+%E0%A4%AE%E0%A4%B8%E0%A5%8D%E0%A4%9C%E0%A4%BF%E0%A4%A6/data=!4m7!3m6!1s0x3993f8aa7832b01d:0x4885ab16efc377bb!8m2!3d27.0317308!4d83.6806716!16s%2Fg%2F11hd062qhs!19sChIJHbAyeKr4kzkRu3fD7xarhUg?authuser=0&hl=en&rclk=1,"27.0317308,83.6806716"
Khanpur Masjid,Mosque,"2P66+QJG Khanpur Masjid, Belawa, Uttar Pradesh 273151",,2P66+QJG,Belawa,273151,Uttar Pradesh,IN,https://www.google.com/maps/place/Khanpur+Masjid/data=!4m7!3m6!1s0x3993f88d1b6faa77:0x8ea32a1b13208d33!8m2!3d27.0119405!4d83.7115639!16s%2Fg%2F11hcmkc5pn!19sChIJd6pvG434kzkRM40gExsqo44?authuser=0&hl=en&rclk=1,"27.011940499999998,83.7115639"
mzaar shriiph,Mosque,"3FGJ+GQ3 mzaar shriiph, Unnamed Road, Murila, Uttar Pradesh 273303",,"3FGJ+GQ3, Unnamed Road",Murila,273303,Uttar Pradesh,IN,https://www.google.com/maps/place/%E0%A4%AE%E0%A5%9B%E0%A4%BE%E0%A4%B0+%E0%A4%B6%E0%A4%B0%E0%A5%80%E0%A4%AB/data=!4m7!3m6!1s0x3996ad969a349ae5:0xba6e5786df433a63!8m2!3d27.0762567!4d83.4819302!16s%2Fg%2F11j0bp16g8!19sChIJ5Zo0mpatljkRYzpD34ZXbro?authuser=0&hl=en&rclk=1,"27.0762567,83.4819302"
Masjid_e_ Nizamia Harpur Mahanth ( Darji Tola),Mosque,"3J2X+9JV Masjid_e_ Nizamia Harpur Mahanth ( Darji Tola), Harpur, Uttar Pradesh 273151",,3J2X+9JV,Harpur,273151,Uttar Pradesh,IN,https://www.google.com/maps/place/Masjid_e_+Nizamia+Harpur+Mahanth+%28+Darji+Tola%29/data=!4m7!3m6!1s0x399401ce855ccd11:0xdcfed3c929b48989!8m2!3d27.050998!4d83.6490336!16s%2Fg%2F11s42x6275!19sChIJEc1chc4BlDkRiYm0KcnT_tw?authuser=0&hl=en&rclk=1,"27.050998,83.6490336"
EIDGAAH PANEWA,Mosque,"EIDGAAH PANEWA, 165, Panewa Panei, Uttar Pradesh 273303",,165,"Panewa Panei, Siswania",273303,Uttar Pradesh,IN,https://www.google.com/maps/place/EIDGAAH+PANEWA/data=!4m7!3m6!1s0x3996a9f6068cb0d5:0x47c096a362e9d5ef!8m2!3d27.1903164!4d83.5806661!16s%2Fg%2F11h6nkhzbg!19sChIJ1bCMBvapljkR79XpYqOWwEc?authuser=0&hl=en&rclk=1,"27.1903164,83.5806661"
Big jama mosque,Mosque,"3HVM+PFR Big jama mosque, Imlia, Uttar Pradesh 273302",,3HVM+PFR,Imlia,273302,Uttar Pradesh,IN,https://www.google.com/maps/place/Big+jama+mosque/data=!4m7!3m6!1s0x3996ab0eba7228b5:0x9997347bfc36e2c4!8m2!3d27.0943725!4d83.5836441!16s%2Fg%2F11rxj2hm7d!19sChIJtShyug6rljkRxOI2_Hs0l5k?authuser=0&hl=en&rclk=1,"27.0943725,83.5836441"
BARIGAON JAMA MASJID,Mosque,"XM6G+4HP BARIGAON JAMA MASJID, Pipara Barhaman Urf Bari, Uttar Pradesh 273301",,XM6G+4HP,Pipara Barhaman Urf Bari,,Uttar Pradesh,IN,https://www.google.com/maps/place/BARIGAON+JAMA+MASJID/data=!4m7!3m6!1s0x3993ff9ea440637d:0x4bec1294beb45247!8m2!3d26.9603436!4d83.6764589!16s%2Fg%2F11nckd47rw!19sChIJfWNApJ7_kzkRR1K0vpQS7Es?authuser=0&hl=en&rclk=1,"26.960343599999998,83.6764589"
EID GAAH PIPRIYA,Mosque,"4P9W+7G2 EID GAAH PIPRIYA, Maharajganj, Barwa Salikram, Uttar Pradesh 273163",,4P9W+7G2,"Maharajganj, Barwa Salikram",,Uttar Pradesh,IN,https://www.google.com/maps/place/EID+GAAH+PIPRIYA/data=!4m7!3m6!1s0x399407349ef0cf79:0x4553464b9176a823!8m2!3d27.1181411!4d83.746251!16s%2Fg%2F11swr2gjmp!19sChIJec_wnjQHlDkRI6h2kUtGU0U?authuser=0&hl=en&rclk=1,"27.1181411,83.746251"
Babhnauli Jama Masjid,Mosque,"XFRJ+4CV Babhnauli Jama Masjid, Babhnauli, Mahrajganj Forest Range, Uttar Pradesh 273310",,XFRJ+4CV,"Babhnauli, Mahrajganj Forest Range",273310,Uttar Pradesh,IN,https://www.google.com/maps/place/Babhnauli+Jama+Masjid/data=!4m7!3m6!1s0x399153491281ab87:0xa218976560b59dfd!8m2!3d26.9903522!4d83.4810536!16s%2Fg%2F11tn5bb7r_!19sChIJh6uBEklTkTkR_Z21YGWXGKI?authuser=0&hl=en&rclk=1,"26.9903522,83.4810536"
Maszid,Mosque,"2CWG+P4P Maszid, Girgitia, Uttar Pradesh 273303",,2CWG+P4P,Girgitia,273303,Uttar Pradesh,IN,https://www.google.com/maps/place/Maszid/data=!4m7!3m6!1s0x3996ad69bc2583d1:0x72f96e04b7ccbe40!8m2!3d27.0468456!4d83.4253327!16s%2Fg%2F11g0ss3kcv!19sChIJ0YMlvGmtljkRQL7MtwRu-XI?authuser=0&hl=en&rclk=1,"27.046845599999997,83.4253327"
Masjid kauaathor mujuri,Mosque,"29FX+FJ8 Masjid kauaathor mujuri, Satguru, Uttar Pradesh 273303",,29FX+FJ8,Satguru,,Uttar Pradesh,IN,https://www.google.com/maps/place/Masjid+kauaathor+mujuri/data=!4m7!3m6!1s0x3996b3c2ecbed1a7:0x5e7f74cb26f41ec4!8m2!3d27.0237057!4d83.3991276!16s%2Fg%2F11q9cq850x!19sChIJp9G-7MKzljkRxB70Jst0f14?authuser=0&hl=en&rclk=1,"27.023705699999997,83.3991276"
KARBALA SINDURIA,Mosque,"6J3W+GGR KARBALA SINDURIA, Senduria, Uttar Pradesh 273207",,6J3W+GGR,Senduria,273207,Uttar Pradesh,IN,https://www.google.com/maps/place/KARBALA+SINDURIA/data=!4m7!3m6!1s0x39940340649b0989:0x41522f8219077b0b!8m2!3d27.2038624!4d83.6462594!16s%2Fg%2F11fn77rv1k!19sChIJiQmbZEADlDkRC3sHGYIvUkE?authuser=0&hl=en&rclk=1,"27.2038624,83.64625939999999"
Masjid E Umar,Mosque,"5HFG+6F5 Masjid E Umar, Ashok Nagar, Dhnewa Dhanei, Uttar Pradesh 273303",Ashok Nagar,5HFG+6F5,Dhnewa Dhanei,273303,Uttar Pradesh,IN,https://www.google.com/maps/place/Masjid+E+Umar/data=!4m7!3m6!1s0x3996a94c16486fc9:0x1bd55054780de098!8m2!3d27.173011!4d83.5762422!16s%2Fg%2F11n2bk8_8f!19sChIJyW9IFkypljkRmOANeFRQ1Rs?authuser=0&hl=en&rclk=1,"27.173011,83.5762422"
Quba Masjid,Mosque,"5H65+6HW Quba Masjid, Unnamed Road, Gabarua, Maharajganj, Uttar Pradesh 273303",Gabarua,"5H65+6HW, Unnamed Road",Maharajganj,273303,Uttar Pradesh,IN,https://www.google.com/maps/place/Quba+Masjid/data=!4m7!3m6!1s0x3996a921a0c8898f:0xc3c5f9430ee6f809!8m2!3d27.1606141!4d83.5589657!16s%2Fg%2F11f9wwpngy!19sChIJj4nIoCGpljkRCfjmDkP5xcM?authuser=0&hl=en&rclk=1,"27.1606141,83.5589657"
Badahara khash,Mosque,"house no 85, Badahara khash, Bahara khas, Maharajganj, Barahara, Uttar Pradesh 273303",,"house no 85, Bahara khas","Maharajganj, Barahara",,Uttar Pradesh,IN,https://www.google.com/maps/place/Badahara+khash/data=!4m7!3m6!1s0x3996ad5e07f50f63:0x1a419b58945bb4!8m2!3d27.0809611!4d83.5045212!16s%2Fg%2F11t0rg8rwf!19sChIJYw_1B16tljkRtFuUWJtBGgA?authuser=0&hl=en&rclk=1,"27.0809611,83.5045212"
Hazarat Saheed Baba,Mosque,"4HX7+FPH Hazarat Saheed Baba, Bismil Nagar, Maharajganj, Uttar Pradesh 273303",Bismil Nagar,4HX7+FPH,Maharajganj,273303,Uttar Pradesh,IN,https://www.google.com/maps/place/Hazarat+Saheed+Baba/data=!4m7!3m6!1s0x3996a9bc1330bd4b:0x23ab512da75a1e13!8m2!3d27.1486864!4d83.5643452!16s%2Fg%2F11hd7flmqr!19sChIJS70wE7ypljkREx5apy1RqyM?authuser=0&hl=en&rclk=1,"27.1486864,83.56434519999999"
MASJID PIPRIYA (msjid pipriiyaa),Mosque,"4P8R+RR2 MASJID PIPRIYA (msjid pipriiyaa), Siswa Bazar, Madhwalia, Uttar Pradesh 273163",,4P8R+RR2,"Siswa Bazar, Madhwalia",273163,Uttar Pradesh,IN,https://www.google.com/maps/place/MASJID+PIPRIYA+%28%E0%A4%AE%E0%A4%B8%E0%A5%8D%E0%A4%9C%E0%A4%BF%E0%A4%A6+%E0%A4%AA%E0%A4%BF%E0%A4%AA%E0%A4%B0%E0%A5%80%E0%A4%AF%E0%A4%BE%29/data=!4m7!3m6!1s0x399407032d828c09:0xe8f6d5e2a513e37!8m2!3d27.1170065!4d83.7420121!16s%2Fg%2F11rv36x7ws!19sChIJCYyCLQMHlDkRNz5RKl5tjw4?authuser=0&hl=en&rclk=1,"27.1170065,83.7420121"
Masjid,Mosque,"6G38+7W3 Masjid, Bagapar, Uttar Pradesh 273303",,6G38+7W3,Bagapar,273303,Uttar Pradesh,IN,https://www.google.com/maps/place/Masjid/data=!4m7!3m6!1s0x3996a8af78a86eaf:0x9c8d2cbc5be7b06f!8m2!3d27.2031333!4d83.517311!16s%2Fg%2F11f_zzxx9f!19sChIJr26oeK-oljkRb7DnW7wsjZw?authuser=0&hl=en&rclk=1,"27.203133299999998,83.51731099999999"
Masjid pachrukhia,Mosque,"2JV9+2WG Masjid pachrukhia, Panch Rukhia, Uttar Pradesh 273302",,2JV9+2WG,Panch Rukhia,273302,Uttar Pradesh,IN,https://www.google.com/maps/place/Masjid+pachrukhia/data=!4m7!3m6!1s0x399401294d074657:0xefbdf9082becf5d0!8m2!3d27.0425623!4d83.6198308!16s%2Fg%2F11rspmrwss!19sChIJV0YHTSkBlDkR0PXsKwj5ve8?authuser=0&hl=en&rclk=1,"27.0425623,83.6198308"
Masjid Bagapar,Mosque,"5GX9+HR2 Masjid Bagapar, Bagapar, Uttar Pradesh 273303",,5GX9+HR2,Bagapar,273303,Uttar Pradesh,IN,https://www.google.com/maps/place/Masjid+Bagapar/data=!4m7!3m6!1s0x3996a8bac290b20b:0x39d500ac8dc5352f!8m2!3d27.1988898!4d83.5195308!16s%2Fg%2F11g9m96lg0!19sChIJC7KQwrqoljkRLzXFjawA1Tk?authuser=0&hl=en&rclk=1,"27.1988898,83.5195308"
MASJID-E-BARGADHI (PARTAWAL),Mosque,"2H4C+J4V MASJID-E-BARGADHI (PARTAWAL), Bargadahi, Baragadahi, Uttar Pradesh 273301",,2H4C+J4V,"Bargadahi, Baragadahi",273301,Uttar Pradesh,IN,https://www.google.com/maps/place/MASJID-E-BARGADHI+%28PARTAWAL%29/data=!4m7!3m6!1s0x39915593e86987bd:0xd721d6fa7301205!8m2!3d27.0066017!4d83.5702959!16s%2Fg%2F11qq69f49q!19sChIJvYdp6JNVkTkRBRIwp28dcg0?authuser=0&hl=en&rclk=1,"27.006601699999997,83.57029589999999"
msj'id Ausani Dargah,Mosque,"3F2R+CFC msj'id Ausani Dargah, Khaincha, Uttar Pradesh 273303",,3F2R+CFC,Khaincha,273303,Uttar Pradesh,IN,https://www.google.com/maps/place/%E0%A4%AE%E0%A4%B8%E0%A5%8D%E0%A4%9C%E0%A4%BC%E0%A4%BF%E0%A4%A6+Ausani+Dargah/data=!4m7!3m6!1s0x3996ad11857b6f55:0x161fb551f9bc786!8m2!3d27.0510523!4d83.4911288!16s%2Fg%2F11qqgjkgh4!19sChIJVW97hRGtljkRhsebH1X7YQE?authuser=0&hl=en&rclk=1,"27.0510523,83.4911288"
Sunni Soharwardi Jama Masjid,Mosque,"Sunni Soharwardi Jama Masjid, Front of ssb camp, Chiurahan, Rampur Rd, Uttar Pradesh 273303",,"Front of ssb camp, Chiurahan, Rampur Rd","Chauparia, Maharajganj",273303,Uttar Pradesh,IN,https://www.google.com/maps/place/Sunni+Soharwardi+Jama+Masjid/data=!4m7!3m6!1s0x3996a9d38552e627:0x6f678a63897b5e4c!8m2!3d27.1585442!4d83.5535135!16s%2Fg%2F11q2xx1kgh!19sChIJJ-ZShdOpljkRTF57iWOKZ28?authuser=0&hl=en&rclk=1,"27.158544199999998,83.5535135"
Mohammadi masjid,Mosque,"5H22+V32 Mohammadi masjid, Chiuraha Khas, Maharajganj, Uttar Pradesh 273303",,"5H22+V32, Chiuraha Khas","Maharajganj, Chauparia",273303,Uttar Pradesh,IN,https://www.google.com/maps/place/Mohammadi+masjid/data=!4m7!3m6!1s0x3996a9fca2a586b1:0x58f1b1af38f710c8!8m2!3d27.1521357!4d83.5501276!16s%2Fg%2F11q3nxpfxg!19sChIJsYalovypljkRyBD3OK-x8Vg?authuser=0&hl=en&rclk=1,"27.1521357,83.5501276"
mosque,Mosque,"5H26+FW3 mosque, Ward No 11, Maupakar, Maharajganj, Uttar Pradesh 273303","Ward No 11, Maupakar",5H26+FW3,Maharajganj,273303,Uttar Pradesh,IN,https://www.google.com/maps/place/mosque/data=!4m7!3m6!1s0x3996a9bb0d5e2bf5:0x38aab5e3c466ae61!8m2!3d27.1511293!4d83.5623007!16s%2Fg%2F11c7ssb20y!19sChIJ9SteDbupljkRYa5mxOO1qjg?authuser=0&hl=en&rclk=1,"27.151129299999997,83.5623007"
msjid bdd'hraa raanii,Mosque,"5G56+7VR msjid bdd'hraa raanii, Unnamed Road, Jungal Pharjand Ali, Uttar Pradesh 273303",,"5G56+7VR, Unnamed Road",Jungal Pharjand Ali,273303,Uttar Pradesh,IN,https://www.google.com/maps/place/%E0%A4%AE%E0%A4%B8%E0%A5%8D%E0%A4%9C%E0%A4%BF%E0%A4%A6+%E0%A4%AC%E0%A4%A1%E0%A4%BC%E0%A4%B9%E0%A4%B0%E0%A4%BE+%E0%A4%B0%E0%A4%BE%E0%A4%A8%E0%A5%80/data=!4m7!3m6!1s0x3996a91dd7638a65:0x87b0e020c598fe67!8m2!3d27.1582349!4d83.512144!16s%2Fg%2F11j34hjbp_!19sChIJZYpj1x2pljkRZ_6YxSDgsIc?authuser=0&hl=en&rclk=1,"27.1582349,83.51214399999999"
Noori Maszid,Mosque,"2H6F+HW2 Noori Maszid, Belawa Buzurg, Uttar Pradesh 273302",,2H6F+HW2,Belawa Buzurg,273302,Uttar Pradesh,IN,https://www.google.com/maps/place/Noori+Maszid/data=!4m7!3m6!1s0x399155d9cb8c9c31:0xbb16a2284f9fab18!8m2!3d27.011399!4d83.574781!16s%2Fg%2F11rq6kq6vv!19sChIJMZyMy9lVkTkRGKufTyiiFrs?authuser=0&hl=en&rclk=1,"27.011398999999997,83.574781"
Noori Masjid Rampur Buzurg,Mosque,"5GFR+7M7 Noori Masjid Rampur Buzurg, Rampur Buzurg, Lakhima Tharua, Uttar Pradesh 273303",,5GFR+7M7,"Rampur Buzurg, Lakhima Tharua",273303,Uttar Pradesh,IN,https://www.google.com/maps/place/Noori+Masjid+Rampur+Buzurg/data=!4m7!3m6!1s0x3996a90d3305a45d:0xdb3a1e5c3f1ce394!8m2!3d27.173164!4d83.541661!16s%2Fg%2F11n721bbhp!19sChIJXaQFMw2pljkRlOMcP1weOts?authuser=0&hl=en&rclk=1,"27.173164,83.54166099999999"
Monusameer,Mosque,"4PV8+4P7 Monusameer, Belwa - Siswa Rd, Kuiyan, Uttar Pradesh 273163",,"4PV8+4P7, Belwa - Siswa Rd",Kuiyan,273163,Uttar Pradesh,IN,https://www.google.com/maps/place/Monusameer/data=!4m7!3m6!1s0x399405d5008b4139:0x17ab53098ba2e74!8m2!3d27.1427869!4d83.7167879!16s%2Fg%2F11k9k4rj9d!19sChIJOUGLANUFlDkRdC66mDC1egE?authuser=0&hl=en&rclk=1,"27.142786899999997,83.7167879"
jama mosque,Mosque,"2HGH+HRC jama mosque, Sisawa Munshi, Uttar Pradesh 273302",,2HGH+HRC,Sisawa Munshi,273302,Uttar Pradesh,IN,https://www.google.com/maps/place/jama+mosque/data=!4m7!3m6!1s0x3991554d251bf6b7:0x10ff0f72e6598e9b!8m2!3d27.0264482!4d83.5795105!16s%2Fg%2F11gfk116k5!19sChIJt_YbJU1VkTkRm45Z5nIP_xA?authuser=0&hl=en&rclk=1,"27.026448199999997,83.5795105"
Shoaib Alam,Mosque,"Shoaib Alam, Ashok Nagar, Dhnewa Dhanei, Uttar Pradesh 273303",Ashok Nagar,,Dhnewa Dhanei,273303,Uttar Pradesh,IN,https://www.google.com/maps/place/Shoaib+Alam/data=!4m7!3m6!1s0x3996a9648b6b5455:0x68820206d8a636af!8m2!3d27.1730799!4d83.5765674!16s%2Fg%2F11nx19fwkx!19sChIJVVRri2SpljkRrzam2AYCgmg?authuser=0&hl=en&rclk=1,"27.173079899999998,83.5765674"
Makki masjid mkhy msjd,Mosque,"4HX5+WV9 Makki masjid mkhy msjd, Unnamed Road, Bismil Nagar, Maharajganj, Uttar Pradesh 273303",Bismil Nagar,"4HX5+WV9, Unnamed Road",Maharajganj,273303,Uttar Pradesh,IN,https://www.google.com/maps/place/Makki+masjid+%D9%85%DA%A9%DB%8C+%D9%85%D8%B3%D8%AC%D8%AF%E2%80%AD/data=!4m7!3m6!1s0x3996a9da95d215b5:0xe3f03f7bcd2475ca!8m2!3d27.1497791!4d83.5597497!16s%2Fg%2F11rxrzbpt1!19sChIJtRXSldqpljkRynUkzXs_8OM?authuser=0&hl=en&rclk=1,"27.1497791,83.5597497"
Masjid E Rahmaniya,Mosque,"Masjid E Rahmaniya, Patel Nagar ward number 13, Maharajganj, Uttar Pradesh",,Patel Nagar ward number 13,"Maharajganj, Chauparia",,Uttar Pradesh,IN,https://www.google.com/maps/place/Masjid+E+Rahmaniya/data=!4m7!3m6!1s0x3996a934ea0c9f19:0xf766f05ab9c0f66!8m2!3d27.1513186!4d83.549257!16s%2Fg%2F11h713ycsf!19sChIJGZ8M6jSpljkRZg-cqwVvdg8?authuser=0&hl=en&rclk=1,"27.1513186,83.549257"
Azizi Masjid,Mosque,"5H65+2W4 Azizi Masjid, Gabarua, Maharajganj, Uttar Pradesh 273303",Gabarua,5H65+2W4,Maharajganj,273303,Uttar Pradesh,IN,https://www.google.com/maps/place/Azizi+Masjid/data=!4m7!3m6!1s0x3996a9b734e61b5b:0x8008477330245fa5!8m2!3d27.1600148!4d83.559837!16s%2Fg%2F11j5s5w1k9!19sChIJWxvmNLepljkRpV8kMHNHCIA?authuser=0&hl=en&rclk=1,"27.1600148,83.559837"
Masjid,Mosque,"Masjid, Pant Nagar Ward No 18 Amrutiya Bazar, Nagar Palika Parishad, Anarutia, Maharajganj, Uttar Pradesh 273303",Anarutia,"Pant Nagar Ward No 18 Amrutiya Bazar, Nagar Palika Parishad",Maharajganj,273303,Uttar Pradesh,IN,https://www.google.com/maps/place/Masjid/data=!4m7!3m6!1s0x3996a99ad6cebddd:0xb8632c590b2ed258!8m2!3d27.1457297!4d83.5666824!16s%2Fg%2F11rss7sn26!19sChIJ3b3O1pqpljkRWNIuC1ksY7g?authuser=0&hl=en&rclk=1,"27.1457297,83.56668239999999"
Gausul wara Masjid,Mosque,"4HV6+RWJ Gausul wara Masjid, Lohia Nagar, Bismil Nagar, Maharajganj, Uttar Pradesh 273303","Lohia Nagar, Bismil Nagar",4HV6+RWJ,Maharajganj,,Uttar Pradesh,IN,https://www.google.com/maps/place/Gausul+wara+Masjid/data=!4m7!3m6!1s0x3996a9bd6fadd2c5:0xe09bf575a2fd7a3!8m2!3d27.1445835!4d83.5622505!16s%2Fg%2F11hd1qn0yl!19sChIJxdKtb72pljkRo9cvWle_CQ4?authuser=0&hl=en&rclk=1,"27.1445835,83.56225049999999"
Lakhima msjid,Mosque,"Lakhima msjid, Maharajganj, Lakhima Tharua, Uttar Pradesh 273303",,,"Maharajganj, Lakhima Tharua",273303,Uttar Pradesh,IN,https://www.google.com/maps/place/Lakhima+%E0%A4%AE%E0%A4%B8%E0%A5%8D%E0%A4%9C%E0%A4%BF%E0%A4%A6/data=!4m7!3m6!1s0x3996a90569b361ff:0x9e6b30d75eceeda9!8m2!3d27.1645475!4d83.5374521!16s%2Fg%2F11pzrmhl4f!19sChIJ_2GzaQWpljkRqe3OXtcwa54?authuser=0&hl=en&rclk=1,"27.164547499999998,83.5374521"
Paschim Tola Masjid,Mosque,"XHVH+GC7 Paschim Tola Masjid, Bhargawa Urf Laxmipur, Uttar Pradesh 273301",,XHVH+GC7,Bhargawa Urf Laxmipur,273301,Uttar Pradesh,IN,https://www.google.com/maps/place/Paschim+Tola+Masjid/data=!4m7!3m6!1s0x399155cb1bac8dc3:0x2154885485feeb42!8m2!3d26.9937936!4d83.5785368!16s%2Fg%2F11t88_r3t2!19sChIJw42sG8tVkTkRQuv-hVSIVCE?authuser=0&hl=en&rclk=1,"26.9937936,83.5785368"
Masjid Patarengava,Mosque,"5JWM+25W Masjid Patarengava, Mahrajganj, Narayanpur, Uttar Pradesh 272131",,"5JWM+25W, Mahrajganj",Narayanpur,272131,Uttar Pradesh,IN,https://www.google.com/maps/place/Masjid+Patarengava/data=!4m7!3m6!1s0x399403edaddccfcf:0x3b837f114abbefb7!8m2!3d27.1951099!4d83.6329672!16s%2Fg%2F11r_wsh7gv!19sChIJz8_cre0DlDkRt--7ShF_gzs?authuser=0&hl=en&rclk=1,"27.1951099,83.6329672"
Masjid,Mosque,"594V+P2M Masjid, Talhi, Sinhpur Ayodhya, Uttar Pradesh 273162",,594V+P2M,"Talhi, Sinhpur Ayodhya",273162,Uttar Pradesh,IN,https://www.google.com/maps/place/Masjid/data=!4m7!3m6!1s0x3996b135973b933f:0x22bf034c54ddac2a!8m2!3d27.1568291!4d83.3925402!16s%2Fg%2F11rfp4jr30!19sChIJP5M7lzWxljkRKqzdVEwDvyI?authuser=0&hl=en&rclk=1,"27.1568291,83.3925402"
Masjid Tola,Mosque,"2MQ7+HVJ Masjid Tola, Unnamed Road, Baragadwa Madhopur, Uttar Pradesh 273151",,"2MQ7+HVJ, Unnamed Road",Baragadwa Madhopur,273151,Uttar Pradesh,IN,https://www.google.com/maps/place/Masjid+Tola/data=!4m7!3m6!1s0x399401e42fef98b1:0xeedee4db6d6171f0!8m2!3d27.0389532!4d83.664636!16s%2Fg%2F11pzkrgf3t!19sChIJsZjvL-QBlDkR8HFhbdvk3u4?authuser=0&hl=en&rclk=1,"27.038953199999998,83.664636"
Parsameer Masjid,Mosque,"4G94+3RR Parsameer Masjid, Parsameer, Rodhauli Bhawachak, Uttar Pradesh 273303",,4G94+3RR,"Parsameer, Rodhauli Bhawachak",,Uttar Pradesh,IN,https://www.google.com/maps/place/Parsameer+Masjid/data=!4m7!3m6!1s0x3996af7e8ee894cd:0x9347ce705e3b9ba8!8m2!3d27.1177463!4d83.5070202!16s%2Fg%2F11f781v0h9!19sChIJzZTojn6vljkRqJs7XnDOR5M?authuser=0&hl=en&rclk=1,"27.1177463,83.5070202"
Masjide Hera Gopala,Mosque,"2H33+RJX Masjide Hera Gopala, Barawa Urf Simarahibhar, Uttar Pradesh 273301",,2H33+RJX,Barawa Urf Simarahibhar,273301,Uttar Pradesh,IN,https://www.google.com/maps/place/Masjide+Hera+Gopala/data=!4m7!3m6!1s0x399155eba5940f5d:0x3757ecf9523321bb!8m2!3d27.0047143!4d83.5539691!16s%2Fg%2F11ny1rlgky!19sChIJXQ-UpetVkTkRuyEzUvnsVzc?authuser=0&hl=en&rclk=1,"27.0047143,83.5539691"
MASJID,Mosque,"5G9J+8J4 MASJID, Lakhima Tharua, Uttar Pradesh 273303",,5G9J+8J4,Lakhima Tharua,,Uttar Pradesh,IN,https://www.google.com/maps/place/MASJID/data=!4m7!3m6!1s0x3996a9842e33783b:0x5698cfca173dd994!8m2!3d27.1682737!4d83.5315689!16s%2Fg%2F11q3yfknkq!19sChIJO3gzLoSpljkRlNk9F8rPmFY?authuser=0&hl=en&rclk=1,"27.1682737,83.5315689"
Madina Masjid,Mosque,"4JMC+5XV Madina Masjid, Shikarpur - Senduria Rd, Ballo Khas, Uttar Pradesh 273302",,"4JMC+5XV, Shikarpur - Senduria Rd",Ballo Khas,273302,Uttar Pradesh,IN,https://www.google.com/maps/place/Madina+Masjid/data=!4m7!3m6!1s0x39940326ab34869b:0x1f9c53ab960e99ae!8m2!3d27.1329682!4d83.622424!16s%2Fg%2F11rzpb5l6v!19sChIJm4Y0qyYDlDkRrpkOlqtTnB8?authuser=0&hl=en&rclk=1,"27.1329682,83.622424"
Derwa Eidgah,Mosque,"2HCP+QJ2 Derwa Eidgah, Unnamed Road, Bishunpur Khurd, Uttar Pradesh 273302",,"2HCP+QJ2, Unnamed Road",Bishunpur Khurd,273302,Uttar Pradesh,IN,https://www.google.com/maps/place/Derwa+Eidgah/data=!4m7!3m6!1s0x3991553025a67705:0xcfe8deb1dac4144f!8m2!3d27.0218982!4d83.5865114!16s%2Fg%2F11h7ktjr4b!19sChIJBXemJTBVkTkRTxTE2rHe6M8?authuser=0&hl=en&rclk=1,"27.0218982,83.58651139999999"
Badi Masjid,Mosque,"4HV6+XV5 Badi Masjid, Veer Bahadur Nagar, Bismil Nagar, Maharajganj, Uttar Pradesh 273303","Veer Bahadur Nagar, Bismil Nagar",4HV6+XV5,Maharajganj,273303,Uttar Pradesh,IN,https://www.google.com/maps/place/Badi+Masjid/data=!4m7!3m6!1s0x3996a99817e0095b:0x1bcbc00505824bbf!8m2!3d27.1448902!4d83.562232!16s%2Fg%2F11fqcw9fft!19sChIJWwngF5ipljkRv0uCBQXAyxs?authuser=0&hl=en&rclk=1,"27.1448902,83.562232"
Masjid surhurwa,Mosque,"4G6G+6GW Masjid surhurwa, Maharajganj, Netasurhurawa, Uttar Pradesh 273303",,4G6G+6GW,"Maharajganj, Netasurhurawa",273303,Uttar Pradesh,IN,https://www.google.com/maps/place/Masjid+surhurwa/data=!4m7!3m6!1s0x3996ab485e26d4f9:0x1ad7af59d99848f2!8m2!3d27.1106495!4d83.52627!16s%2Fg%2F11sb5bzg2b!19sChIJ-dQmXkirljkR8kiY2Vmv1xo?authuser=0&hl=en&rclk=1,"27.110649499999997,83.52627"
Islamic house ( Gulamnabi ),Mosque,"4HV6+RVV Islamic house ( Gulamnabi ), Lohia Nagar, Bismil Nagar, Gopi, Maharajganj, Uttar Pradesh 273303","Lohia Nagar, Bismil Nagar",4HV6+RVV,"Gopi, Maharajganj",273303,Uttar Pradesh,IN,https://www.google.com/maps/place/Islamic+house+%28+Gulamnabi+%29/data=!4m7!3m6!1s0x3996a9aef86c11ff:0x9eaf4e5f20e36181!8m2!3d27.1446035!4d83.5621737!16s%2Fg%2F11vhqgm3ct!19sChIJ_xFs-K6pljkRgWHjIF9Or54?authuser=0&hl=en&rclk=1,"27.1446035,83.5621737"
Aalam ganw Gonda,Mosque,"4HV6+RVV Aalam ganw Gonda, Lohia Nagar, Bismil Nagar, Maharajganj, Uttar Pradesh 273303","Lohia Nagar, Bismil Nagar",4HV6+RVV,Maharajganj,,Uttar Pradesh,IN,https://www.google.com/maps/place/Aalam+ganw+Gonda/data=!4m7!3m6!1s0x3996a9199c9c21ff:0x43d1fb4bb6e31a56!8m2!3d27.1446035!4d83.5621737!16s%2Fg%2F11tfd8f2f8!19sChIJ_yGcnBmpljkRVhrjtkv70UM?authuser=0&hl=en&rclk=1,"27.1446035,83.5621737"
Eid Gaaha Patarengava,Mosque,"5JWM+7GW Eid Gaaha Patarengava, Patarengawa, Maharajganj, Uttar Pradesh 272207",Patarengawa,5JWM+7GW,Maharajganj,272207,Uttar Pradesh,IN,https://www.google.com/maps/place/Eid+Gaaha+Patarengava/data=!4m7!3m6!1s0x39940368af2b7915:0xaee07f8990630118!8m2!3d27.1957365!4d83.6338245!16s%2Fg%2F11p66tz8m0!19sChIJFXkrr2gDlDkRGAFjkIl_4K4?authuser=0&hl=en&rclk=1,"27.1957365,83.6338245"
Amjadi Manzil ( siddiqui family ),Mosque,"3HV8+G66 Amjadi Manzil ( siddiqui family ), Pakdi Khurd, Maharajganj, Rapur Khurd, Uttar Pradesh 273303",Pakdi Khurd,3HV8+G66,"Maharajganj, Rapur Khurd",273303,Uttar Pradesh,IN,https://www.google.com/maps/place/Amjadi+Manzil+%28+siddiqui+family+%29/data=!4m7!3m6!1s0x3996aba3159e54ef:0xb029dc8a361a01e!8m2!3d27.0937903!4d83.5655092!16s%2Fg%2F11vhczphxv!19sChIJ71SeFaOrljkRHqBho8idAgs?authuser=0&hl=en&rclk=1,"27.0937903,83.5655092"
Nijami masjid,Mosque,"49XP+F6H Nijami masjid, Bargadwa, Uttar Pradesh 273155",,49XP+F6H,Bargadwa,273155,Uttar Pradesh,IN,https://www.google.com/maps/place/Nijami+masjid/data=!4m7!3m6!1s0x3996b187cbb601d5:0xdce8e2eabf609cf5!8m2!3d27.1486999!4d83.3856232!16s%2Fg%2F11j0qyh_2r!19sChIJ1QG2y4exljkR9Zxgv-ri6Nw?authuser=0&hl=en&rclk=1,"27.1486999,83.3856232"
iidgaah baarvaa cmainiyaaN,Mosque,"2MX7+J6G iidgaah baarvaa cmainiyaaN, Unnamed Road, Barawa Chamainia, Uttar Pradesh 273151",,"2MX7+J6G, Unnamed Road",Barawa Chamainia,273151,Uttar Pradesh,IN,https://www.google.com/maps/place/%E0%A4%88%E0%A4%A6%E0%A4%97%E0%A4%BE%E0%A4%B9+%E0%A4%AC%E0%A4%BE%E0%A4%B0%E0%A4%B5%E0%A4%BE+%E0%A4%9A%E0%A4%AE%E0%A5%88%E0%A4%A8%E0%A4%BF%E0%A4%AF%E0%A4%BE%E0%A4%82/data=!4m7!3m6!1s0x399401c20ad800cd:0x1b4319132003f552!8m2!3d27.0490633!4d83.663073!16s%2Fg%2F11lfcmq_j0!19sChIJzQDYCsIBlDkRUvUDIBMZQxs?authuser=0&hl=en&rclk=1,"27.0490633,83.663073"
Masjid Nauka Tola,Mosque,"2PGR+V8 Masjid Nauka Tola, Nauka Tola, Biraicha, Uttar Pradesh 273151",,2PGR+V8 Nauka Tola,Biraicha,273151,Uttar Pradesh,IN,https://www.google.com/maps/place/Masjid+Nauka+Tola/data=!4m7!3m6!1s0x3993f911b9aa8423:0x722260980c5e568e!8m2!3d27.0272226!4d83.7407846!16s%2Fg%2F11p791wnbg!19sChIJI4SquRH5kzkRjlZeDJhgInI?authuser=0&hl=en&rclk=1,"27.027222599999998,83.7407846"
Gosiya jama masjid,Shrine,"3GV3+QC9 Gosiya jama masjid, Siswa - Nichlaul Rd, Mahadeva, Siswa, Uttar Pradesh 273303",,"3GV3+QC9, Siswa - Nichlaul Rd","Mahadeva, Siswa",273303,Uttar Pradesh,IN,https://www.google.com/maps/place/Gosiya+jama+masjid/data=!4m7!3m6!1s0x3996ad121ecb4ae5:0x34d4a0b92590840!8m2!3d27.0944218!4d83.503613!16s%2Fg%2F11rbyypd2d!19sChIJ5UrLHhKtljkRQAhZkgtKTQM?authuser=0&hl=en&rclk=1,"27.0944218,83.503613"
Jama Masjid Noori Khempipra,Mosque,"4G3X+QR3 Jama Masjid Noori Khempipra, Khempipara, Kotamukundpur, Uttar Pradesh 273303",,4G3X+QR3,"Khempipara, Kotamukundpur",273303,Uttar Pradesh,IN,https://www.google.com/maps/place/Jama+Masjid+Noori+Khempipra/data=!4m7!3m6!1s0x3996abd49862c283:0xeb304b96fa9c9620!8m2!3d27.1043923!4d83.5495465!16s%2Fg%2F11k2c2974y!19sChIJg8JimNSrljkRIJac-pZLMOs?authuser=0&hl=en&rclk=1,"27.104392299999997,83.54954649999999"
rzaa msjid,Mosque,"4PWP+VVM rzaa msjid, Belwa, Uttar Pradesh 273163",,4PWP+VVM,Belwa,,Uttar Pradesh,IN,https://www.google.com/maps/place/%E0%A4%B0%E0%A5%9B%E0%A4%BE+%E0%A4%AE%E0%A4%B8%E0%A5%8D%E0%A4%9C%E0%A4%BF%E0%A4%A6/data=!4m7!3m6!1s0x3994054c883f57ad:0xd6f106c018764d68!8m2!3d27.1472235!4d83.7371794!16s%2Fg%2F11lsznsbjz!19sChIJrVc_iEwFlDkRaE12GMAG8dY?authuser=0&hl=en&rclk=1,"27.1472235,83.7371794"
Masjid mohanapur,Mosque,"5J6H+MWW Masjid mohanapur, Narayanpur, Uttar Pradesh 273207",,5J6H+MWW,Narayanpur,273207,Uttar Pradesh,IN,https://www.google.com/maps/place/Masjid+mohanapur/data=!4m7!3m6!1s0x399403dce7403d2d:0x83cda741d13451d1!8m2!3d27.1617497!4d83.6298402!16s%2Fg%2F11m9thhpzm!19sChIJLT1A59wDlDkR0VE00UGnzYM?authuser=0&hl=en&rclk=1,"27.161749699999998,83.62984019999999"
Katahara khas,Mosque,"5FCX+XW3 Katahara khas, Katahara Khas, Mahrajganj Forest Range, Uttar Pradesh 273303",,5FCX+XW3,"Katahara Khas, Mahrajganj Forest Range",,Uttar Pradesh,IN,https://www.google.com/maps/place/Katahara+khas/data=!4m7!3m6!1s0x3996af0cf483b59b:0x55374b14120dfe7b!8m2!3d27.1723842!4d83.4997969!16s%2Fg%2F11tckr0jzb!19sChIJm7WD9AyvljkRe_4NEhRLN1U?authuser=0&hl=en&rclk=1,"27.1723842,83.49979689999999"
Idgha,Mosque,"6H4P+4QH Idgha, Panewa Panei, Uttar Pradesh 273303",,6H4P+4QH,Panewa Panei,273303,Uttar Pradesh,IN,https://www.google.com/maps/place/Idgha/data=!4m7!3m6!1s0x3996a9261d1b87a5:0xdf1eb3a6ab9d405b!8m2!3d27.2053063!4d83.586998!16s%2Fg%2F11rzgwn714!19sChIJpYcbHSapljkRW0Cdq6azHt8?authuser=0&hl=en&rclk=1,"27.2053063,83.586998"
Masjid a islamiya,Mosque,"5J6H+MWX Masjid a islamiya, Mohanapur, Narayanpur, Uttar Pradesh 273207",,5J6H+MWX,"Mohanapur, Narayanpur",273207,Uttar Pradesh,IN,https://www.google.com/maps/place/Masjid+a+islamiya/data=!4m7!3m6!1s0x3994038a59ed83df:0xa151fca5df5527e9!8m2!3d27.1617349!4d83.629845!16s%2Fg%2F11qyh06l0c!19sChIJ34PtWYoDlDkR6SdV36X8UaE?authuser=0&hl=en&rclk=1,"27.1617349,83.629845"
Qadri masjid,Mosque,"4FHV+WC3 Qadri masjid, Pakari Naunia, Uttar Pradesh 273303",,4FHV+WC3,Pakari Naunia,273303,Uttar Pradesh,IN,https://www.google.com/maps/place/Qadri+masjid/data=!4m7!3m6!1s0x3996afa44ed79cd7:0x6118b1f9577e2841!8m2!3d27.1297502!4d83.4935426!16s%2Fg%2F11sf41_m3j!19sChIJ15zXTqSvljkRQSh-V_mxGGE?authuser=0&hl=en&rclk=1,"27.1297502,83.4935426"
Bagapar Lakhanpur Masjid,Mosque,"6G38+8CP Bagapar Lakhanpur Masjid, Bagapar, Uttar Pradesh 273303",,6G38+8CP,Bagapar,273303,Uttar Pradesh,IN,https://www.google.com/maps/place/Bagapar+Lakhanpur+Masjid/data=!4m7!3m6!1s0x3996a91774d683d1:0x31acab141e6cd81b!8m2!3d27.2033325!4d83.5160903!16s%2Fg%2F11tcbrq71v!19sChIJ0YPWdBepljkRG9hsHhSrrDE?authuser=0&hl=en&rclk=1,"27.2033325,83.5160903"
EIDGAH iidgaah,Mosque,"2H5M+C5G EIDGAH iidgaah, EIDGAH, Kamhariya Khurd, Uttar Pradesh 273302",,2H5M+C5G EIDGAH,Kamhariya Khurd,273302,Uttar Pradesh,IN,https://www.google.com/maps/place/EIDGAH+%E0%A4%88%E0%A4%A6%E0%A4%97%E0%A4%BE%E0%A4%B9/data=!4m7!3m6!1s0x399155c2030c718d:0x433aa460e3daf4!8m2!3d27.008557!4d83.582956!16s%2Fg%2F11t5r3w82k!19sChIJjXEMA8JVkTkR9NrjYKQ6QwA?authuser=0&hl=en&rclk=1,"27.008557,83.582956"
