name,main_category,address,address_ward,address_street,address_city,address_postal_code,address_state,address_country_code,link,coordinates
Noorani Masjid nwrny msjd,Mosque,"Noorani Masjid nwrny msjd, H no.73 Line.no.2 Nayapura, Mohammad Ali Rd, Bhikku Chowk, Gulshanabad, Malegaon, Maharashtra 423203","Bhikku Chowk, Gulshanabad","H no.73 Line.no.2 Nayapura, Mohammad Ali Rd",Malegaon,423203,Maharashtra,IN,https://www.google.com/maps/place/Noorani+Masjid+%D9%86%D9%88%D8%B1%D8%A7%D9%86%DB%8C+%D9%85%D8%B3%D8%AC%D8%AF%E2%80%AD/data=!4m7!3m6!1s0x3bde99b08d64faaf:0x485f219f56c92c9b!8m2!3d20.5482912!4d74.5360103!16s%2Fg%2F1tdjpm2c!19sChIJr_pkjbCZ3jsRmyzJVp8hX0g?authuser=0&hl=en&rclk=1,"20.548291199999998,74.5360103"
Jama Masjid jm` msjid,Mosque,"GGXJ+8HQ Jama Masjid jm` msjid, Opp Qilla Police Station, Nayapura, Malegaon, Maharashtra 423203",Nayapura,"GGXJ+8HQ, Opp Qilla Police Station",Malegaon,423203,Maharashtra,IN,https://www.google.com/maps/place/Jama+Masjid+%D8%AC%D8%A7%D9%85%D8%B9+%D9%85%D8%B3%D8%AC%D9%90%D8%AF%E2%80%AD/data=!4m7!3m6!1s0x3bde99bbb3694067:0x23ccef847d8f5dd!8m2!3d20.5483254!4d74.531488!16s%2Fg%2F11cjkvplps!19sChIJZ0Bps7uZ3jsR3fXYR_jOPAI?authuser=0&hl=en&rclk=1,"20.5483254,74.531488"
Hamidiya Masjid - msjdi Hmydyh,Mosque,"GGXR+63V Hamidiya Masjid - msjdi Hmydyh, Mashriqui Iqbal Rd, Sardar Nagar, Nayapura, Malegaon, Maharashtra 423203","Sardar Nagar, Nayapura","GGXR+63V, Mashriqui Iqbal Rd",Malegaon,423203,Maharashtra,IN,https://www.google.com/maps/place/Hamidiya+Masjid+-+%D9%85%D8%B3%D8%AC%D8%AF%D9%90+%D8%AD%D9%85%DB%8C%D8%AF%DB%8C%DB%81%E2%80%AD/data=!4m7!3m6!1s0x3bde99b181e29569:0x329b6a280b668a99!8m2!3d20.5481!4d74.540183!16s%2Fg%2F1twyx_h9!19sChIJaZXigbGZ3jsRmYpmCyhqmzI?authuser=0&hl=en&rclk=1,"20.548099999999998,74.540183"
Arqam masjid rqm msjd,Mosque,"HG4R+94P Arqam masjid rqm msjd, Old Agra Rd, Bag e Arquam, Malegaon, Maharashtra 423203",Bag e Arquam,"HG4R+94P, Old Agra Rd",Malegaon,423203,Maharashtra,IN,https://www.google.com/maps/place/Arqam+masjid+%D8%A7%D8%B1%D9%82%D9%85+%D9%85%D8%B3%D8%AC%D8%AF%E2%80%AD/data=!4m7!3m6!1s0x3bde99b6084ce6ed:0x5ff117883ae4de34!8m2!3d20.5559519!4d74.5403266!16s%2Fg%2F11cllxr0v_!19sChIJ7eZMCLaZ3jsRNN7kOogX8V8?authuser=0&hl=en&rclk=1,"20.5559519,74.5403266"
Ahle'Sunnat Masjid Ya Rasool'allah ,Mosque,"HG4M+RH7 Ahle'Sunnat Masjid Ya Rasool'allah , MH SH 10, Hudco Colony, Dnyane, Malegaon, Maharashtra 423203","Hudco Colony, Dnyane","HG4M+RH7, MH SH 10",Malegaon,423203,Maharashtra,IN,https://www.google.com/maps/place/Ahle%27Sunnat+Masjid+Ya+Rasool%27allah+%EF%B7%BA%E2%80%AD/data=!4m7!3m6!1s0x3bde99c7ef1aac9f:0x23ec4282ed76bbc3!8m2!3d20.5570403!4d74.5339369!16s%2Fg%2F1tfp0y1x!19sChIJn6wa78eZ3jsRw7t27YJC7CM?authuser=0&hl=en&rclk=1,"20.5570403,74.5339369"
Nai Masjid Belbagh,Mosque,"GGVM+JX9 Nai Masjid Belbagh, Haji Mohammed Yaqub Doman Rd, Gulshanabad, Malegaon, Maharashtra 143001",Gulshanabad,"GGVM+JX9, Haji Mohammed Yaqub Doman Rd",Malegaon,143001,Maharashtra,IN,https://www.google.com/maps/place/Nai+Masjid+Belbagh/data=!4m7!3m6!1s0x3bde99affa143dd1:0xb3f1f7800c99855a!8m2!3d20.544045!4d74.5349719!16s%2Fg%2F1tfrqcw6!19sChIJ0T0U-q-Z3jsRWoWZDID38bM?authuser=0&hl=en&rclk=1,"20.544045,74.5349719"
Rabiya Masjid,Mosque,"Rabiya Masjid, Survey No. 165, Plot No- 101, Firdosh Apartment, Gulshanabad, Malegaon, Maharashtra 423203",Gulshanabad,"Survey No. 165, Plot No- 101, Firdosh Apartment",Malegaon,423203,Maharashtra,IN,https://www.google.com/maps/place/Rabiya+Masjid/data=!4m7!3m6!1s0x3bde984d50e1a741:0xf1a53018d80ade4b!8m2!3d20.5462261!4d74.5469852!16s%2Fg%2F1tlbmm3_!19sChIJQafhUE2Y3jsRS94K2BgwpfE?authuser=0&hl=en&rclk=1,"20.5462261,74.5469852"
Ahle'Sunnat Auliya Masjid,Mosque,"Ahle'Sunnat Auliya Masjid, 423203, Nihal Nagar, Dnyane, Malegaon, Maharashtra 423203","Nihal Nagar, Dnyane",423203,Malegaon,423203,Maharashtra,IN,https://www.google.com/maps/place/Ahle%27Sunnat+Auliya+Masjid/data=!4m7!3m6!1s0x3bde99c66e7ae4c9:0x499a79f173bd6e15!8m2!3d20.5610462!4d74.5328345!16s%2Fg%2F11c6f00rrl!19sChIJyeR6bsaZ3jsRFW69c_F5mkk?authuser=0&hl=en&rclk=1,"20.5610462,74.53283449999999"
Haji Abdur-Rauf Masjid (Laal Masjid),Mosque,"GHX4+4G9 Haji Abdur-Rauf Masjid (Laal Masjid), Mashriqui Iqbal Rd, Malegaon, Maharashtra 423203",,"GHX4+4G9, Mashriqui Iqbal Rd",Malegaon,423203,Maharashtra,IN,https://www.google.com/maps/place/Haji+Abdur-Rauf+Masjid+%28Laal+Masjid%29/data=!4m7!3m6!1s0x3bde984fc1655f27:0x94a1a4f37d75857!8m2!3d20.5477908!4d74.5563722!16s%2Fg%2F1q6jyvc07!19sChIJJ19lwU-Y3jsRV1jXN08aSgk?authuser=0&hl=en&rclk=1,"20.547790799999998,74.5563722"
Juni Masjid,Mosque,"HG2M+7M6 Juni Masjid, Nishat Rd, Somwar Ward, Islampura, Malegaon, Maharashtra 423203","Somwar Ward, Islampura","HG2M+7M6, Nishat Rd",Malegaon,423203,Maharashtra,IN,https://www.google.com/maps/place/Juni+Masjid/data=!4m7!3m6!1s0x3bde99b9f902b81f:0x7b2218921943ba76!8m2!3d20.5506621!4d74.5341307!16s%2Fg%2F1hf3hg5gt!19sChIJH7gC-bmZ3jsRdrpDGZIYIns?authuser=0&hl=en&rclk=1,"20.5506621,74.53413069999999"
Minara Masjid mynrh msjd,Mosque,"GGXQ+736 Minara Masjid mynrh msjd, Lane No 7, Madni Rd, Nayapura, Malegaon, Maharashtra 423203","Bhikku Chowk, Nayapura","GGXQ+736, Lane No 7, Madni Rd",Malegaon,423203,Maharashtra,IN,https://www.google.com/maps/place/Minara+Masjid+%D9%85%DB%8C%D9%86%D8%A7%D8%B1%DB%81+%D9%85%D8%B3%D8%AC%D8%AF%E2%80%AD/data=!4m7!3m6!1s0x3bde99b0e39d0625:0x1557392c852bc707!8m2!3d20.5487245!4d74.53723!16s%2Fg%2F1wg5wgl3!19sChIJJQad47CZ3jsRB8crhSw5VxU?authuser=0&hl=en&rclk=1,"20.5487245,74.53723"
Madni Masjid mdny msjd,Mosque,"Madni Masjid mdny msjd, Madni Masjid, Madni Rd, Sardar Nagar, Nayapura, Malegaon, Maharashtra 423203","Sardar Nagar, Nayapura","Madni Masjid, Madni Rd",Malegaon,423203,Maharashtra,IN,https://www.google.com/maps/place/Madni+Masjid+%D9%85%D8%AF%D9%86%DB%8C+%D9%85%D8%B3%D8%AC%D8%AF%E2%80%AD/data=!4m7!3m6!1s0x3bde99b1108180f1:0xc5f50860fadda893!8m2!3d20.5488607!4d74.5381979!16s%2Fg%2F1tj94wvf!19sChIJ8YCBELGZ3jsRk6jd-mAI9cU?authuser=0&hl=en&rclk=1,"20.5488607,74.5381979"
Malle Ki Masjid,Mosque,"GGXQ+26H Malle Ki Masjid, Mashriqui Iqbal Rd, Sardar Nagar, Gulshanabad, Malegaon, Maharashtra 423203","Sardar Nagar, Gulshanabad","GGXQ+26H, Mashriqui Iqbal Rd",Malegaon,423203,Maharashtra,IN,https://www.google.com/maps/place/Malle+Ki+Masjid/data=!4m7!3m6!1s0x3bde99b1a8c98fb5:0xa4eadfd79d1b009!8m2!3d20.5475588!4d74.5381077!16s%2Fg%2F1tf78kjg!19sChIJtY_JqLGZ3jsRCbDRef2tTgo?authuser=0&hl=en&rclk=1,"20.547558799999997,74.5381077"
Masjid Ahle Hadees Nayapoora msjd hlHdyth ny pwrh,Mosque,"Masjid Ahle Hadees Nayapoora msjd hlHdyth ny pwrh, H no.73 Line.no.2 Nayapura, Mohammad Ali Rd, Bhikku Chowk, Nayapura, Malegaon, Maharashtra 423203","Bhikku Chowk, Nayapura","H no.73 Line.no.2 Nayapura, Mohammad Ali Rd",Malegaon,423203,Maharashtra,IN,https://www.google.com/maps/place/Masjid+Ahle+Hadees+Nayapoora+%D9%85%D8%B3%D8%AC%D8%AF+%D8%A7%DB%81%D9%84%D8%AD%D8%AF%DB%8C%D8%AB+%D9%86%DB%8C%D8%A7+%D9%BE%D9%88%D8%B1%DB%81%E2%80%AD/data=!4m7!3m6!1s0x3bde99b0c1aef693:0xe6eb5f47e390ac24!8m2!3d20.5493888!4d74.5364408!16s%2Fg%2F11cs9lzcqb!19sChIJk_auwbCZ3jsRJKyQ40df6-Y?authuser=0&hl=en&rclk=1,"20.5493888,74.5364408"
Kohinoor Masjid,Mosque,"GGVQ+8G8 Kohinoor Masjid, Maulana Azad Road, Azad Nagar, Malegaon, Maharashtra 423203",Gulshanabad,"GGVQ+8G8, Maulana Azad Road, Azad Nagar",Malegaon,423203,Maharashtra,IN,https://www.google.com/maps/place/Kohinoor+Masjid/data=!4m7!3m6!1s0x3bde99ae41f92143:0x911a9b254d213e76!8m2!3d20.5432954!4d74.5388187!16s%2Fg%2F11fzyr3t9x!19sChIJQyH5Qa6Z3jsRdj4hTSWbGpE?authuser=0&hl=en&rclk=1,"20.543295399999998,74.5388187"
PALTAN MASJID,Mosque,"HG98+857 PALTAN MASJID, Camp, Malegaon, Maharashtra 423105",Camp,HG98+857,Malegaon,423105,Maharashtra,IN,https://www.google.com/maps/place/PALTAN+MASJID/data=!4m7!3m6!1s0x3bde990578e054b9:0xcff632e373d2811b!8m2!3d20.5682844!4d74.5154142!16s%2Fg%2F11h77nxn5g!19sChIJuVTgeAWZ3jsRG4HSc-My9s8?authuser=0&hl=en&rclk=1,"20.5682844,74.5154142"
Masjid Qasmiya,Mosque,"HG6P+M5M Masjid Qasmiya, Ramzanpura, Malegaon, Maharashtra 423203",Ramzanpura,HG6P+M5M,Malegaon,423203,Maharashtra,IN,https://www.google.com/maps/place/Masjid+Qasmiya/data=!4m7!3m6!1s0x3bde99c8b1f09fcd:0x15dc1c65c3f536e7!8m2!3d20.5617193!4d74.5354202!16s%2Fg%2F11c4bctw0z!19sChIJzZ_wsciZ3jsR5zb1w2Uc3BU?authuser=0&hl=en&rclk=1,"20.5617193,74.53542019999999"
Rahemani Masjid - rHmny msjd,Mosque,"HG2Q+256 Rahemani Masjid - rHmny msjd, Sardar Nagar, Nayapura, Malegaon, Maharashtra 423203","Sardar Nagar, Nayapura",HG2Q+256,Malegaon,423203,Maharashtra,IN,https://www.google.com/maps/place/Rahemani+Masjid+-+%D8%B1%D8%AD%D9%85%D8%A7%D9%86%DB%8C+%D9%85%D8%B3%D8%AC%D8%AF%E2%80%AD/data=!4m7!3m6!1s0x3bde99b128a55751:0xb5ea78a7cab2cb2e!8m2!3d20.5500309!4d74.5378925!16s%2Fg%2F1tgbz6q5!19sChIJUVelKLGZ3jsRLsuyyqd46rU?authuser=0&hl=en&rclk=1,"20.5500309,74.5378925"
Masjid Haji Abdur Rauf,Mosque,"GGPP+QM4 Masjid Haji Abdur Rauf, Mohan Baba Nagar, Malegaon, Maharashtra 423203",Gulshanabad,"GGPP+QM4, Mohan Baba Nagar",Malegaon,423203,Maharashtra,IN,https://www.google.com/maps/place/Masjid+Haji+Abdur+Rauf/data=!4m7!3m6!1s0x3bde99a8efd8c819:0xc64285a7d1df9fd6!8m2!3d20.5368886!4d74.5366905!16s%2Fg%2F11gdtgfqy6!19sChIJGcjY76iZ3jsR1p_f0aeFQsY?authuser=0&hl=en&rclk=1,"20.536888599999997,74.53669049999999"
Angnu Seth Masjid . msjdi ngnw sytth,Mosque,"GGVJ+GGC Angnu Seth Masjid . msjdi ngnw sytth, quilla, Allama Iqbal Bridge, Gulshanabad, Malegaon, Maharashtra 423203",Gulshanabad,"GGVJ+GGC, quilla, Allama Iqbal Bridge",Malegaon,423203,Maharashtra,IN,https://www.google.com/maps/place/Angnu+Seth+Masjid+.+%D9%85%D8%B3%D8%AC%D8%AF%D9%90+%D8%A7%D9%86%DA%AF%D9%86%D9%88+%D8%B3%DB%8C%D9%B9%DA%BE%E2%80%AD/data=!4m7!3m6!1s0x3bde99a4d6591c93:0x9ce6a0e6754ba08f!8m2!3d20.5438741!4d74.531503!16s%2Fg%2F11bxfhqjq9!19sChIJkxxZ1qSZ3jsRj6BLdeag5pw?authuser=0&hl=en&rclk=1,"20.5438741,74.531503"
Masjid Yusuf Shukrullah msjd ywsf shukhrllh,Mosque,"Masjid Yusuf Shukrullah msjd ywsf shukhrllh, Gulshan e Masoom, Gulshanabad, Malegaon, Maharashtra 423203",Gulshanabad,Gulshan e Masoom,Malegaon,423203,Maharashtra,IN,https://www.google.com/maps/place/Masjid+Yusuf+Shukrullah+%D9%85%D8%B3%D8%AC%D8%AF+%DB%8C%D9%88%D8%B3%D9%81+%D8%B4%D9%8F%DA%A9%D8%B1%D8%A7%D9%84%D9%84%DB%81%E2%80%AD/data=!4m7!3m6!1s0x3bde99a862a75c1b:0xa7211c04d4738536!8m2!3d20.5360943!4d74.5352569!16s%2Fg%2F11gcg3v4qq!19sChIJG1ynYqiZ3jsRNoVz1AQcIac?authuser=0&hl=en&rclk=1,"20.5360943,74.5352569"
Masjid Umme Mukhtar,Mosque,"HG5P+6F2 Masjid Umme Mukhtar, Imdad Nagar, Malegaon, Maharashtra 423203",Imdad Nagar,HG5P+6F2,Malegaon,423203,Maharashtra,IN,https://www.google.com/maps/place/Masjid+Umme+Mukhtar/data=!4m7!3m6!1s0x3bde99c840483bf9:0xf4925b18f9e3e7b3!8m2!3d20.5580022!4d74.536154!16s%2Fg%2F11gh0lh80w!19sChIJ-TtIQMiZ3jsRs-fj-RhbkvQ?authuser=0&hl=en&rclk=1,"20.5580022,74.536154"
Nagina Masjid msjdi ngynh,Mosque,"GGVM+C8V Nagina Masjid msjdi ngynh, Kapse Ln, Motipura, Gulshanabad, Malegaon, Maharashtra 423203","Motipura, Gulshanabad","GGVM+C8V, Kapse Ln",Malegaon,423203,Maharashtra,IN,https://www.google.com/maps/place/Nagina+Masjid+%D9%85%D8%B3%D8%AC%D8%AF%D9%90+%D9%86%DA%AF%DB%8C%D9%86%DB%81%E2%80%AD/data=!4m7!3m6!1s0x3bde99a5470ecb7f:0xc2198b36f3a75a5b!8m2!3d20.543607!4d74.5332884!16s%2Fg%2F11b8_qmm1z!19sChIJf8sOR6WZ3jsRW1qn8zaLGcI?authuser=0&hl=en&rclk=1,"20.543606999999998,74.5332884"
Faran Masjid frn msjd,Mosque,"Faran Masjid frn msjd, 3, Hudco Colony Main Rd, Hudco Colony, Dnyane, Malegaon, Maharashtra 423203","Hudco Colony, Dnyane","3, Hudco Colony Main Rd",Malegaon,423203,Maharashtra,IN,https://www.google.com/maps/place/Faran+Masjid+%D9%81%D8%A7%D8%B1%D8%A7%D9%86+%D9%85%D8%B3%D8%AC%D8%AF%E2%80%AD/data=!4m7!3m6!1s0x3bde99c7097754fd:0x8586bcd1a0ecbbac!8m2!3d20.5577058!4d74.5317784!16s%2Fg%2F1tx45hf0!19sChIJ_VR3CceZ3jsRrLvsoNG8hoU?authuser=0&hl=en&rclk=1,"20.5577058,74.5317784"
Mukarram Masjid - mkrWm msjd,Mosque,"Mukarram Masjid - mkrWm msjd, Saleem Munshi Nagar, Azad Nagar Rd, near Wali Hafiz Sahab House, Gulshanabad, Malegaon, Maharashtra 423203",Gulshanabad,"Saleem Munshi Nagar, Azad Nagar Rd, near Wali Hafiz Sahab House",Malegaon,423203,Maharashtra,IN,https://www.google.com/maps/place/Mukarram+Masjid+-+%D9%85%D9%83%D8%B1%D9%91%D9%85+%D9%85%D8%B3%D8%AC%D8%AF%E2%80%AD/data=!4m7!3m6!1s0x3bde99ae8c68ebf3:0x22720c7fdc58c260!8m2!3d20.5417555!4d74.5391098!16s%2Fg%2F11cmccf1k8!19sChIJ8-tojK6Z3jsRYMJY3H8MciI?authuser=0&hl=en&rclk=1,"20.5417555,74.53910979999999"
Tawakkal Masjid,Mosque,"GGRR+WVF Tawakkal Masjid, Gulshanabad, Malegaon, Maharashtra 423203",Gulshanabad,GGRR+WVF,Malegaon,423203,Maharashtra,IN,https://www.google.com/maps/place/Tawakkal+Masjid/data=!4m7!3m6!1s0x3bde99ac2ea9fe2d:0x9dbe5c1855babef4!8m2!3d20.5423025!4d74.5421856!16s%2Fg%2F11fpjx6z5g!19sChIJLf6pLqyZ3jsR9L66VRhcvp0?authuser=0&hl=en&rclk=1,"20.542302499999998,74.5421856"
Masjid Anwar-e-Mustafa msjidi nwri muSTfy,Mosque,"HG5P+GHW Masjid Anwar-e-Mustafa msjidi nwri muSTfy, Hazar Kholi,, Malegaon, Maharashtra 423203",Imdad Nagar,"HG5P+GHW, Hazar Kholi,",Malegaon,423203,Maharashtra,IN,https://www.google.com/maps/place/Masjid+Anwar-e-Mustafa+%D9%85%D8%B3%D8%AC%D9%90%D8%AF%D9%90+%D8%A7%D9%86%D9%88%D8%A7%D8%B1%D9%90+%D9%85%D9%8F%D8%B5%D8%B7%D9%81%D9%B0%DB%8C%E2%80%AD/data=!4m7!3m6!1s0x3bde99c85be982f1:0x1967335649fccc91!8m2!3d20.5588546!4d74.5364376!16s%2Fg%2F11cr_g0_0z!19sChIJ8YLpW8iZ3jsRkcz8SVYzZxk?authuser=0&hl=en&rclk=1,"20.5588546,74.5364376"
Nai Masjid,Mosque,"HG2M+J97 Nai Masjid, islampura,, Ansar Rd, Nayapura, Malegaon, Maharashtra 423203","Somwar Ward, Nayapura","HG2M+J97, islampura,, Ansar Rd",Malegaon,423203,Maharashtra,IN,https://www.google.com/maps/place/Nai+Masjid/data=!4m7!3m6!1s0x3bde99b9ebb64097:0xd7a171aa4532817c!8m2!3d20.5515433!4d74.5334272!16s%2Fg%2F11cs0sc1yd!19sChIJl0C267mZ3jsRfIEyRapxodc?authuser=0&hl=en&rclk=1,"20.5515433,74.53342719999999"
Masjid Hidayatul Islam msjd hdyt lslm,Mosque,"HH24+G7J Masjid Hidayatul Islam msjd hdyt lslm, Sardar Nagar, Nayapura, Malegaon, Maharashtra 423203","Sardar Nagar, Nayapura",HH24+G7J,Malegaon,423203,Maharashtra,IN,https://www.google.com/maps/place/Masjid+Hidayatul+Islam+%D9%85%D8%B3%D8%AC%D8%AF+%DB%81%D8%AF%D8%A7%DB%8C%D8%AA+%D8%A7%D9%84%D8%A7%D8%B3%D9%84%D8%A7%D9%85%E2%80%AD/data=!4m7!3m6!1s0x3bde984f0612ac97:0xf3dd8b980e5c32f7!8m2!3d20.5513481!4d74.5556544!16s%2Fg%2F11g6rlb9xz!19sChIJl6wSBk-Y3jsR9zJcDpiL3fM?authuser=0&hl=en&rclk=1,"20.5513481,74.5556544"
Ahle'Sunnat Masjid Saeed Elahiya,Mosque,"HG6P+3XP Ahle'Sunnat Masjid Saeed Elahiya, Imdad Nagar, Malegaon, Maharashtra 423203",Imdad Nagar,HG6P+3XP,Malegaon,423203,Maharashtra,IN,https://www.google.com/maps/place/Ahle%27Sunnat+Masjid+Saeed+Elahiya/data=!4m7!3m6!1s0x3bde99c902c47adf:0xdd6fa7d084bd88f!8m2!3d20.5602084!4d74.537457!16s%2Fg%2F11dxns5w26!19sChIJ33rEAsmZ3jsRj9hLCH361g0?authuser=0&hl=en&rclk=1,"20.5602084,74.537457"
Masjid Jameela,Mosque,"Masjid Jameela, Saleem Munshi Nagar, Gulshanabad, Malegaon, Maharashtra 423203",Gulshanabad,Saleem Munshi Nagar,Malegaon,423203,Maharashtra,IN,https://www.google.com/maps/place/Masjid+Jameela/data=!4m7!3m6!1s0x3bde99aeee6c907d:0x5327a0d9d56d53a5!8m2!3d20.5413161!4d74.5386137!16s%2Fg%2F11c3klkhz0!19sChIJfZBs7q6Z3jsRpVNt1dmgJ1M?authuser=0&hl=en&rclk=1,"20.5413161,74.5386137"
Aasma Masjid - asmh msjd,Mosque,"HH87+6C4 Aasma Masjid - asmh msjd, Malegaon Bypass, Malegaon, Maharashtra 423203",,"HH87+6C4, Malegaon Bypass",Malegaon,423203,Maharashtra,IN,https://www.google.com/maps/place/Aasma+Masjid+-+%D8%A2%D8%B3%D9%85%DB%81+%D9%85%D8%B3%D8%AC%D8%AF%E2%80%AD/data=!4m7!3m6!1s0x3bde983bf7485b85:0x602c6cf5e3749116!8m2!3d20.5655085!4d74.563576!16s%2Fg%2F11g69_3g56!19sChIJhVtI9zuY3jsRFpF04_VsLGA?authuser=0&hl=en&rclk=1,"20.5655085,74.563576"
Masjid Abu Ayyub Ansari msjd bw yWwb nSry ,Mosque,"GGWR+6WJ Masjid Abu Ayyub Ansari msjd bw yWwb nSry , Abdul Hakeem Rd, Sardar Nagar, Hakeem Nagar, Malegaon, Maharashtra 423203","Sardar Nagar, Hakeem Nagar","GGWR+6WJ, Abdul Hakeem Rd",Malegaon,423203,Maharashtra,IN,https://www.google.com/maps/place/Masjid+Abu+Ayyub+Ansari+%D9%85%D8%B3%D8%AC%D8%AF+%D8%A7%D8%A8%D9%88+%D8%A7%DB%8C%D9%91%D9%88%D8%A8+%D8%A7%D9%86%D8%B5%D8%A7%D8%B1%DB%8C+%D8%93%E2%80%AD/data=!4m7!3m6!1s0x3bde99b2715db851:0xa7bd0be3b1cdef7d!8m2!3d20.5455785!4d74.5422669!16s%2Fg%2F11c74dz8_z!19sChIJUbhdcbKZ3jsRfe_NseMLvac?authuser=0&hl=en&rclk=1,"20.545578499999998,74.5422669"
Salamatullah Masjid - slmt llh msjd,Mosque,"GGRX+MVP Salamatullah Masjid - slmt llh msjd, Gulshanabad, Malegaon, Maharashtra 423203",Gulshanabad,GGRX+MVP,Malegaon,423203,Maharashtra,IN,https://www.google.com/maps/place/Salamatullah+Masjid+-+%D8%B3%D9%84%D8%A7%D9%85%D8%AA+%D8%A7%D9%84%D9%84%DB%81+%D9%85%D8%B3%D8%AC%D8%AF%E2%80%AD/data=!4m7!3m6!1s0x3bde9853a20c7ce9:0x6dc10e13825c1b53!8m2!3d20.5417039!4d74.5496899!16s%2Fg%2F11hczd5ph4!19sChIJ6XwMolOY3jsRUxtcghMOwW0?authuser=0&hl=en&rclk=1,"20.541703899999998,74.54968989999999"
Ahle'Sunnat Masjid-e-Raza,Mosque,"HH22+X9F Ahle'Sunnat Masjid-e-Raza, Imam Ahmed Raza Rd, Sardar Nagar, Nayapura, Malegaon, Maharashtra 423203","Sardar Nagar, Nayapura","HH22+X9F, Imam Ahmed Raza Rd",Malegaon,423203,Maharashtra,IN,https://www.google.com/maps/place/Ahle%27Sunnat+Masjid-e-Raza/data=!4m7!3m6!1s0x3bde984bf3a43111:0x262c0fb751334ead!8m2!3d20.5524377!4d74.550932!16s%2Fg%2F1vc6bvpv!19sChIJETGk80uY3jsRrU4zUbcPLCY?authuser=0&hl=en&rclk=1,"20.5524377,74.550932"
Masjid Faizan e Madina - msjdi fyDni mdynh,Mosque,"HG2P+JR7 Masjid Faizan e Madina - msjdi fyDni mdynh, Maulana Shaukat Ali Rd, Sardar Nagar, Nayapura, Malegaon, Maharashtra 423203","Sardar Nagar, Nayapura","HG2P+JR7, Maulana Shaukat Ali Rd",Malegaon,423203,Maharashtra,IN,https://www.google.com/maps/place/Masjid+Faizan+e+Madina+-+%D9%85%D8%B3%D8%AC%D8%AF%D9%90+%D9%81%DB%8C%D8%B6%D8%A7%D9%86%D9%90+%D9%85%D8%AF%DB%8C%D9%86%DB%81%E2%80%AD/data=!4m7!3m6!1s0x3bde99b725c3f565:0x4e01420da363db35!8m2!3d20.5515336!4d74.5370586!16s%2Fg%2F11f1241wcw!19sChIJZfXDJbeZ3jsRNdtjow1CAU4?authuser=0&hl=en&rclk=1,"20.5515336,74.5370586"
Masjid Siddique-E-akbar,Mosque,"GGRV+GX3 Masjid Siddique-E-akbar, Roshanabad, Gulshanabad, Malegaon, Maharashtra 423203","Roshanabad, Gulshanabad",GGRV+GX3,Malegaon,423203,Maharashtra,IN,https://www.google.com/maps/place/Masjid+Siddique-E-akbar/data=!4m7!3m6!1s0x3bde99aceaa847d3:0x6fcbb497006bca94!8m2!3d20.5412625!4d74.5449219!16s%2Fg%2F11c5hkbm9j!19sChIJ00eo6qyZ3jsRlMprAJe0y28?authuser=0&hl=en&rclk=1,"20.5412625,74.54492189999999"
Mustafa,Mosque,"Mustafa, Jafer nagar, Hassanpura, Malegaon, Maharashtra 423203",Hassanpura,Jafer nagar,Malegaon,423203,Maharashtra,IN,https://www.google.com/maps/place/Mustafa/data=!4m7!3m6!1s0x3bde99caa974c7eb:0xbf1a5f0fd38ec34e!8m2!3d20.5574905!4d74.545874!16s%2Fg%2F11csr0tbjg!19sChIJ68d0qcqZ3jsRTsOO0w9fGr8?authuser=0&hl=en&rclk=1,"20.5574905,74.545874"
Yusuf Agadi Masjid - ywsf grry msjd,Mosque,"HG5V+65P Yusuf Agadi Masjid - ywsf grry msjd, Noor Bagh, Ramzanpura, Malegaon, Maharashtra, Malegaon, 423203",Imdad Nagar,"HG5V+65P, Noor Bagh, Ramzanpura, Malegaon, Maharashtra",Malegaon,423203,Maharashtra,IN,https://www.google.com/maps/place/Yusuf+Agadi+Masjid+-+%DB%8C%D9%88%D8%B3%D9%81+%D8%A7%DA%AF%D8%A7%DA%91%DB%8C+%D9%85%D8%B3%D8%AC%D8%AF%E2%80%AD/data=!4m7!3m6!1s0x3bde99ca6419cb45:0x887341bac86e3979!8m2!3d20.5580913!4d74.542946!16s%2Fg%2F11b7hmnfr3!19sChIJRcsZZMqZ3jsReTluyLpBc4g?authuser=0&hl=en&rclk=1,"20.558091299999997,74.542946"
Yaseen Masjid,Mosque,"HG3W+X2P Yaseen Masjid, Mohammad Ali Rd, Sardar Nagar, Hassanpura, Malegaon, Maharashtra 423203","Sardar Nagar, Hassanpura","HG3W+X2P, Mohammad Ali Rd",Malegaon,423203,Maharashtra,IN,https://www.google.com/maps/place/Yaseen+Masjid/data=!4m7!3m6!1s0x3bde99b522e37b1d:0x2311cdb57cc113dc!8m2!3d20.554951!4d74.5450844!16s%2Fg%2F11bxw0msn_!19sChIJHXvjIrWZ3jsR3BPBfLXNESM?authuser=0&hl=en&rclk=1,"20.554951,74.5450844"
Jhopde Ki Masjid jhwnprry khy msjid,Mosque,"Jhopde Ki Masjid jhwnprry khy msjid, 798/72, Haji Mohammed Yaqub Doman Rd, Qilla, Malegaon, Maharashtra 423203",Qilla,"798/72, Haji Mohammed Yaqub Doman Rd",Malegaon,423203,Maharashtra,IN,https://www.google.com/maps/place/Jhopde+Ki+Masjid+%D8%AC%DA%BE%D9%88%D9%86%D9%BE%DA%91%DB%92+%DA%A9%DB%8C+%D9%85%D8%B3%D8%AC%D9%90%D8%AF%E2%80%AD/data=!4m7!3m6!1s0x3bde99a4cba22deb:0x290aa01204ab6ccb!8m2!3d20.5440877!4d74.5304815!16s%2Fg%2F1tqfzs_2!19sChIJ6y2iy6SZ3jsRy2yrBBKgCik?authuser=0&hl=en&rclk=1,"20.5440877,74.5304815"
Masjid Ahle Hadees Jafer Nager Malegaon,Mosque,"HG4V+GWP Masjid Ahle Hadees Jafer Nager Malegaon, Mohammad Ali Rd, Sardar Nagar, Hassanpura, Malegaon, Maharashtra 423203","Sardar Nagar, Hassanpura","HG4V+GWP, Mohammad Ali Rd",Malegaon,423203,Maharashtra,IN,https://www.google.com/maps/place/Masjid+Ahle+Hadees+Jafer+Nager+Malegaon/data=!4m7!3m6!1s0x3bde99b568260329:0x8ff3cf265c5f363c!8m2!3d20.556344!4d74.54482!16s%2Fg%2F11b7q247n_!19sChIJKQMmaLWZ3jsRPDZfXCbP848?authuser=0&hl=en&rclk=1,"20.556344,74.54482"
Munnu Masjid,Mosque,"GGVP+X7W Munnu Masjid, Belbagh, Malegaon, Maharashtra 423203",Gulshanabad,"GGVP+X7W, Belbagh",Malegaon,423203,Maharashtra,IN,https://www.google.com/maps/place/Munnu+Masjid/data=!4m7!3m6!1s0x3bde99b01c20933f:0x59762c242a3da4c2!8m2!3d20.5449819!4d74.5357074!16s%2Fg%2F11dxhgstsv!19sChIJP5MgHLCZ3jsRwqQ9KiQsdlk?authuser=0&hl=en&rclk=1,"20.5449819,74.53570739999999"
Jama Masjid Ahle-Hadees Motipura,Mosque,"GGVJ+XR2 Jama Masjid Ahle-Hadees Motipura, Motipura, Gulshanabad, Malegaon, Maharashtra 423203","Motipura, Gulshanabad",GGVJ+XR2,Malegaon,,Maharashtra,IN,https://www.google.com/maps/place/Jama+Masjid+Ahle-Hadees+Motipura/data=!4m7!3m6!1s0x3bde99bad6ed0581:0x7dbd65b68fff555f!8m2!3d20.5448886!4d74.5320198!16s%2Fg%2F11btxl2w34!19sChIJgQXt1rqZ3jsRX1X_j7ZlvX0?authuser=0&hl=en&rclk=1,"20.5448886,74.5320198"
Hazrat Ji Masjid msjdi HDrt jy,Mosque,"HG3V+C92 Hazrat Ji Masjid msjdi HDrt jy, Biradar Bagh, Malegaon, Maharashtra 423203","Sardar Nagar, Nayapura","HG3V+C92, Biradar Bagh",Malegaon,423203,Maharashtra,IN,https://www.google.com/maps/place/Hazrat+Ji+Masjid+%D9%85%D8%B3%D8%AC%D8%AF%D9%90+%D8%AD%D8%B6%D8%B1%D8%AA+%D8%AC%DB%8C%E2%80%AD/data=!4m7!3m6!1s0x3bde99b4f8141e7f:0x896f7ed65dab3716!8m2!3d20.5535117!4d74.5434004!16s%2Fg%2F11c6ptsgrk!19sChIJfx4U-LSZ3jsRFjerXdZ-b4k?authuser=0&hl=en&rclk=1,"20.553511699999998,74.5434004"
Hawwa Masjid - msjdi HwW,Mosque,"HH43+F7R Hawwa Masjid - msjdi HwW, Sardar Nagar, Malegaon, Maharashtra 423203",Sardar Nagar,HH43+F7R,Malegaon,423203,Maharashtra,IN,https://www.google.com/maps/place/Hawwa+Masjid+-+%D9%85%D8%B3%D8%AC%D8%AF%D9%90+%D8%AD%D9%88%D9%91%D8%A7%E2%80%AD/data=!4m7!3m6!1s0x3bde9849925aaa37:0xbd4ca9e402787aa4!8m2!3d20.5562325!4d74.5531361!16s%2Fg%2F11c0x8bj7c!19sChIJN6pakkmY3jsRpHp4AuSpTL0?authuser=0&hl=en&rclk=1,"20.5562325,74.5531361"
Sulemani Masjid,Mosque,"GGXQ+4MH Sulemani Masjid, Sardar Nagar, Nayapura, Malegaon, Maharashtra 423203","Sardar Nagar, Nayapura",GGXQ+4MH,Malegaon,423203,Maharashtra,IN,https://www.google.com/maps/place/Sulemani+Masjid/data=!4m7!3m6!1s0x3bde99b19e57d23b:0xecd29f15cd177e44!8m2!3d20.5478093!4d74.5392232!16s%2Fg%2F11fxzqs073!19sChIJO9JXnrGZ3jsRRH4XzRWf0uw?authuser=0&hl=en&rclk=1,"20.5478093,74.5392232"
Abuzar Gaffari Masjid,Mosque,"GHX3+JF6 Abuzar Gaffari Masjid, Noorani Housing Society, Malegaon, Maharashtra 423203",Sardar Nagar,"GHX3+JF6, Noorani Housing Society",Malegaon,423203,Maharashtra,IN,https://www.google.com/maps/place/Abuzar+Gaffari+Masjid/data=!4m7!3m6!1s0x3bde984e6093c2f9:0x58470b5337a2f6a0!8m2!3d20.5490276!4d74.5536282!16s%2Fg%2F119w5fcfj!19sChIJ-cKTYE6Y3jsRoPaiN1MLR1g?authuser=0&hl=en&rclk=1,"20.5490276,74.55362819999999"
Masjid Zaid ibn Haarsa - msjdi zyd bn Hrthh,Mosque,"HG2P+JFC Masjid Zaid ibn Haarsa - msjdi zyd bn Hrthh, Kamalpura,, Malegaon, Maharashtra 423203",Nayapura,"HG2P+JFC, Kamalpura,",Malegaon,423203,Maharashtra,IN,https://www.google.com/maps/place/Masjid+Zaid+ibn+Haarsa+-+%D9%85%D8%B3%D8%AC%D8%AF%D9%90+%D8%B2%DB%8C%D8%AF+%D8%A8%D9%86+%D8%AD%D8%A7%D8%B1%D8%AB%DB%81%E2%80%AD/data=!4m7!3m6!1s0x3bde99b738fb3077:0x8c585e8aec4f87e0!8m2!3d20.5515623!4d74.536136!16s%2Fg%2F11c2l99xw4!19sChIJdzD7OLeZ3jsR4IdP7IpeWIw?authuser=0&hl=en&rclk=1,"20.5515623,74.536136"
Bani Aqeel Masjid - bny `qyl msjd,Mosque,"HG4X+GM5 Bani Aqeel Masjid - bny `qyl msjd, Sardar Nagar, Hassanpura, Malegaon, Maharashtra 423203","Sardar Nagar, Hassanpura",HG4X+GM5,Malegaon,423203,Maharashtra,IN,https://www.google.com/maps/place/Bani+Aqeel+Masjid+-+%D8%A8%D9%86%DB%8C+%D8%B9%D9%82%DB%8C%D9%84+%D9%85%D8%B3%D8%AC%D8%AF%E2%80%AD/data=!4m7!3m6!1s0x3bde984a602670fb:0xe4b45c9c7d144d55!8m2!3d20.5562537!4d74.5492323!16s%2Fg%2F11byx84dt7!19sChIJ-3AmYEqY3jsRVU0UfZxctOQ?authuser=0&hl=en&rclk=1,"20.5562537,74.5492323"
Ayyub Masjid,Mosque,"GGXW+69M Ayyub Masjid, Mashriqui Iqbal Rd, Sardar Nagar, Hassanpura, Malegaon, Maharashtra 423203","Sardar Nagar, Hassanpura","GGXW+69M, Mashriqui Iqbal Rd",Malegaon,423203,Maharashtra,IN,https://www.google.com/maps/place/Ayyub+Masjid/data=!4m7!3m6!1s0x3bde99b2d1b95bf3:0x5ebde34253604df5!8m2!3d20.5480925!4d74.545921!16s%2Fg%2F1tg5y2h8!19sChIJ81u50bKZ3jsR9U1gU0LjvV4?authuser=0&hl=en&rclk=1,"20.5480925,74.54592099999999"
GOLDEN NAGAR AHLE HADEES MASJID,Mosque,"HG3W+379 GOLDEN NAGAR AHLE HADEES MASJID, Sardar Nagar, Hassanpura, Malegaon, Maharashtra 423203","Sardar Nagar, Hassanpura",HG3W+379,Malegaon,423203,Maharashtra,IN,https://www.google.com/maps/place/GOLDEN+NAGAR+AHLE+HADEES+MASJID/data=!4m7!3m6!1s0x3bde99b4b7178e31:0xddea40d9ac3f6698!8m2!3d20.5526657!4d74.5457306!16s%2Fg%2F11c6mf8ynl!19sChIJMY4Xt7SZ3jsRmGY_rNlA6t0?authuser=0&hl=en&rclk=1,"20.5526657,74.5457306"
Nizamiya Masjid,Mosque,"Nizamiya Masjid, 60 Feet Rd, Rahmatabad, Malegaon, Maharashtra 423203",Rahmatabad,60 Feet Rd,Malegaon,423203,Maharashtra,IN,https://www.google.com/maps/place/Nizamiya+Masjid/data=!4m7!3m6!1s0x3bde99b9b1c9540b:0x704f929c98aaa5cf!8m2!3d20.5416251!4d74.5510178!16s%2Fg%2F11gr16zltz!19sChIJC1TJsbmZ3jsRz6WqmJyST3A?authuser=0&hl=en&rclk=1,"20.541625099999997,74.5510178"
Namra Masjid,Mosque,"HHC2+43R Namra Masjid, Solapur - Dhule National Hwy, Ramzanpura, Daregaon, Malegaon, Maharashtra 423203",Ramzanpura,"HHC2+43R, Solapur - Dhule National Hwy","Daregaon, Malegaon",423203,Maharashtra,IN,https://www.google.com/maps/place/Namra+Masjid/data=!4m7!3m6!1s0x3bde982d9728c41b:0x3620f807c09b1e5d!8m2!3d20.570364!4d74.5501418!16s%2Fg%2F11c5bjn043!19sChIJG8Qoly2Y3jsRXR6bwAf4IDY?authuser=0&hl=en&rclk=1,"20.570363999999998,74.55014179999999"
Masjid Umar Bin-Khattab,Mosque,"HG2R+HVG Masjid Umar Bin-Khattab, Sardar Nagar, Nayapura, Malegaon, Maharashtra 423203","Sardar Nagar, Nayapura",HG2R+HVG,Malegaon,423203,Maharashtra,IN,https://www.google.com/maps/place/Masjid+Umar+Bin-Khattab/data=!4m7!3m6!1s0x3bde99b4769da677:0xb6d6bb83ab9003cc!8m2!3d20.5514391!4d74.5422065!16s%2Fg%2F11cn5ns4rw!19sChIJd6addrSZ3jsRzAOQq4O71rY?authuser=0&hl=en&rclk=1,"20.5514391,74.54220649999999"
Rizwan Masjid,Mosque,"GGQX+XH6 Rizwan Masjid, Gulshanabad, Malegaon, Maharashtra 423203",Gulshanabad,GGQX+XH6,Malegaon,423203,Maharashtra,IN,https://www.google.com/maps/place/Rizwan+Masjid/data=!4m7!3m6!1s0x3bde99c94edfdce1:0xc17138f1ac4b39c6!8m2!3d20.5399149!4d74.5488926!16s%2Fg%2F11ghsb4xyv!19sChIJ4dzfTsmZ3jsRxjlLrPE4ccE?authuser=0&hl=en&rclk=1,"20.5399149,74.5488926"
Masjid Jama Ahle Sunnat Zaitoon Hajjin,Mosque,"GGQW+72G Masjid Jama Ahle Sunnat Zaitoon Hajjin, Gulshanabad, Malegaon, Maharashtra 423203",Gulshanabad,GGQW+72G,Malegaon,423203,Maharashtra,IN,https://www.google.com/maps/place/Masjid+Jama+Ahle+Sunnat+Zaitoon+Hajjin/data=!4m7!3m6!1s0x3bde99ab3ed95cbd:0xe644caa3763a5952!8m2!3d20.5381903!4d74.5450651!16s%2Fg%2F11dyww1f_1!19sChIJvVzZPquZ3jsRUlk6dqPKROY?authuser=0&hl=en&rclk=1,"20.5381903,74.5450651"
Jafar Bin Abdul Aziz Masjid - j`fr bn `bd l`zyz msjd,Mosque,"Jafar Bin Abdul Aziz Masjid - j`fr bn `bd l`zyz msjd, Gayas, Gulsher Nager Rd, Gulshanabad, Malegaon, Maharashtra 423203",Gulshanabad,"Gayas, Gulsher Nager Rd",Malegaon,423203,Maharashtra,IN,https://www.google.com/maps/place/Jafar+Bin+Abdul+Aziz+Masjid+-+%D8%AC%D8%B9%D9%81%D8%B1+%D8%A8%D9%86+%D8%B9%D8%A8%D8%AF+%D8%A7%D9%84%D8%B9%D8%B2%DB%8C%D8%B2+%D9%85%D8%B3%D8%AC%D8%AF%E2%80%AD/data=!4m7!3m6!1s0x3bde99ab8cc52235:0x4edc711060372db9!8m2!3d20.539021!4d74.5420519!16s%2Fg%2F11clts2hw7!19sChIJNSLFjKuZ3jsRuS03YBBx3E4?authuser=0&hl=en&rclk=1,"20.539020999999998,74.54205189999999"
shaban masjid,Mosque,"GHV3+PQ7 shaban masjid, Malegaon, Maharashtra 423203",,GHV3+PQ7,Malegaon,423203,Maharashtra,IN,https://www.google.com/maps/place/shaban+masjid/data=!4m7!3m6!1s0x3bde9851aff112ad:0x880f62f573eb4597!8m2!3d20.5442773!4d74.5544167!16s%2Fg%2F11f1244fc_!19sChIJrRLxr1GY3jsRl0Xrc_ViD4g?authuser=0&hl=en&rclk=1,"20.544277299999997,74.55441669999999"
Ahle'Sunnat Mueeniya Masjid,Mosque,"Ahle'Sunnat Mueeniya Masjid, 423203, MHB Colony, Imdad Nagar, Malegaon, Maharashtra 423203","MHB Colony, Imdad Nagar",423203,Malegaon,423203,Maharashtra,IN,https://www.google.com/maps/place/Ahle%27Sunnat+Mueeniya+Masjid/data=!4m7!3m6!1s0x3bde99b7dc4afe6d:0xe52e69274b8a52d9!8m2!3d20.5559363!4d74.5363037!16s%2Fg%2F11c30rmj1b!19sChIJbf5K3LeZ3jsR2VKKSydpLuU?authuser=0&hl=en&rclk=1,"20.5559363,74.53630369999999"
Ahle'Sunnat Masjid Khairunnisa Hajjin,Mosque,"HG2X+V6F Ahle'Sunnat Masjid Khairunnisa Hajjin, Imam Ahmed Raza Rd, Sardar Nagar, Nayapura, Malegaon, Maharashtra 423203","Sardar Nagar, Nayapura","HG2X+V6F, Imam Ahmed Raza Rd",Malegaon,423203,Maharashtra,IN,https://www.google.com/maps/place/Ahle%27Sunnat+Masjid+Khairunnisa+Hajjin/data=!4m7!3m6!1s0x3bde984b66403f7d:0xf6c5fb7bb8b13612!8m2!3d20.5521841!4d74.5480399!16s%2Fg%2F11c54__dyq!19sChIJfT9AZkuY3jsREjaxuHv7xfY?authuser=0&hl=en&rclk=1,"20.552184099999998,74.54803989999999"
hjrh msjd Hajra Masjid,Mosque,"hjrh msjd Hajra Masjid, 3, Hudco Colony Main Rd, Hudco Colony, Dnyane, Malegaon, Maharashtra 423203","Hudco Colony, Dnyane","3, Hudco Colony Main Rd",Malegaon,423203,Maharashtra,IN,https://www.google.com/maps/place/%DB%81%D8%A7%D8%AC%D8%B1%DB%81+%D9%85%D8%B3%D8%AC%D8%AF+Hajra+Masjid%E2%80%AD/data=!4m7!3m6!1s0x3bde99c7929d10a3:0xe295d8b7e1b1965e!8m2!3d20.5568552!4d74.5330499!16s%2Fg%2F11g6908r47!19sChIJoxCdkseZ3jsRXpax4bfYleI?authuser=0&hl=en&rclk=1,"20.556855199999998,74.5330499"
Ahle'Sunnat Masjid Haji Dost Mohammad,Mosque,"HG2M+F7X Ahle'Sunnat Masjid Haji Dost Mohammad, Islampura Ln 8, Somwar Ward, Nayapura, Malegaon, Maharashtra 423203","Somwar Ward, Nayapura","HG2M+F7X, Islampura Ln 8",Malegaon,423203,Maharashtra,IN,https://www.google.com/maps/place/Ahle%27Sunnat+Masjid+Haji+Dost+Mohammad/data=!4m7!3m6!1s0x3bde99b98b370343:0x892a306dbdb7acbe!8m2!3d20.5512366!4d74.5332475!16s%2Fg%2F11c57kbwj2!19sChIJQwM3i7mZ3jsRvqy3vW0wKok?authuser=0&hl=en&rclk=1,"20.5512366,74.5332475"
Aliya Masjid,Mosque,"GHQ4+JQJ Aliya Masjid, malda shivar, Malegaon, Maharashtra 423203",,"GHQ4+JQJ, malda shivar",Malegaon,,Maharashtra,IN,https://www.google.com/maps/place/Aliya+Masjid/data=!4m7!3m6!1s0x3bde98576b54e797:0x5c502b6b54cbac5!8m2!3d20.5390804!4d74.556901!16s%2Fg%2F11gdsv6w8n!19sChIJl-dUa1eY3jsRxbpMtbYCxQU?authuser=0&hl=en&rclk=1,"20.5390804,74.556901"
Noor Ilahi Masjid,Mosque,"Noor Ilahi Masjid, Khairabad, 03, Mohammad Ali Rd, Sardar Nagar, Malegaon, Maharashtra 423203","Sardar Nagar, Nayapura","Khairabad, 03, Mohammad Ali Rd",Malegaon,423203,Maharashtra,IN,https://www.google.com/maps/place/Noor+Ilahi+Masjid/data=!4m7!3m6!1s0x3bde99b69c21f097:0xb3c6cff3b60ff703!8m2!3d20.5528216!4d74.5402603!16s%2Fg%2F11clsntxzz!19sChIJl_AhnLaZ3jsRA_cPtvPPxrM?authuser=0&hl=en&rclk=1,"20.552821599999998,74.5402603"
Samakser Masjid,Mosque,"HG2H+8GC Samakser Masjid, Sangmeshwar Rd, Nayailampora, Sangameshwar, Malegaon, Maharashtra 423203","Nayailampora, Sangameshwar","HG2H+8GC, Sangmeshwar Rd",Malegaon,423203,Maharashtra,IN,https://www.google.com/maps/place/Samakser+Masjid/data=!4m7!3m6!1s0x3bde99b94c52535d:0x498d4101100d3333!8m2!3d20.550809!4d74.528774!16s%2Fg%2F11csrgq2_1!19sChIJXVNSTLmZ3jsRMzMNEAFBjUk?authuser=0&hl=en&rclk=1,"20.550808999999997,74.528774"
Yaqoob Masjid Malegaon,Mosque,"GHW3+GHX Yaqoob Masjid Malegaon, Mashriqui Iqbal Rd, near Zariwala Compound, Malegaon, Maharashtra 423203",,"GHW3+GHX, Mashriqui Iqbal Rd, near Zariwala Compound",Malegaon,423203,Maharashtra,IN,https://www.google.com/maps/place/Yaqoob+Masjid+Malegaon/data=!4m7!3m6!1s0x3bde9851d9104a13:0x8ea620c9822e2594!8m2!3d20.5463579!4d74.5539783!16s%2Fg%2F11f_jbt90c!19sChIJE0oQ2VGY3jsRlCUugskgpo4?authuser=0&hl=en&rclk=1,"20.5463579,74.5539783"
Abdul Malik Masji. msjdi `bdlmlkh,Mosque,"GGPQ+P73 Abdul Malik Masji. msjdi `bdlmlkh, Gulshan e Malik, Chandan Puri Rd, Maharashtra 423203",Gulshanabad,"GGPQ+P73, Gulshan e Malik, Chandan Puri Rd",Malegaon,423203,Maharashtra,IN,https://www.google.com/maps/place/Abdul+Malik+Masji.+%D9%85%D8%B3%D8%AC%D8%AF%D9%90+%D8%B9%D8%A8%D8%AF%D8%A7%D9%84%D9%85%D8%A7%D9%84%DA%A9%E2%80%AD/data=!4m7!3m6!1s0x3bde99a905b5928f:0xde5af66b3731260a!8m2!3d20.5367646!4d74.5381679!16s%2Fg%2F1hm1w1qd4!19sChIJj5K1BamZ3jsRCiYxN2v2Wt4?authuser=0&hl=en&rclk=1,"20.536764599999998,74.53816789999999"
Masjid Anwar E Madina,Mosque,"HG5R+P6W Masjid Anwar E Madina, Imdad Nagar, Malegaon, Maharashtra 423203",Imdad Nagar,HG5R+P6W,Malegaon,423203,Maharashtra,IN,https://www.google.com/maps/place/Masjid+Anwar+E+Madina/data=!4m7!3m6!1s0x3bde99ca295989dd:0x8193ded36d986113!8m2!3d20.5593683!4d74.5405848!16s%2Fg%2F11g6yknnvp!19sChIJ3YlZKcqZ3jsRE2GYbdPek4E?authuser=0&hl=en&rclk=1,"20.5593683,74.54058479999999"
Hazrat Jafar Tayyar Masjid,Mosque,"Hazrat Jafar Tayyar Masjid, Akhtarabad, Malegaon, Maharashtra 423203",Sardar Nagar,Akhtarabad,Malegaon,423203,Maharashtra,IN,https://www.google.com/maps/place/Hazrat+Jafar+Tayyar+Masjid/data=!4m7!3m6!1s0x3bde9837dc7d9f67:0x2406b458b940ef6b!8m2!3d20.5587804!4d74.5562656!16s%2Fg%2F11hbg9vnb4!19sChIJZ5993DeY3jsRa-9AuVi0BiQ?authuser=0&hl=en&rclk=1,"20.5587804,74.5562656"
Masjid Hamidun-Niyadi,Mosque,"HG6P+XX4 Masjid Hamidun-Niyadi, Ramzanpura, Malegaon, Maharashtra 423203",Ramzanpura,HG6P+XX4,Malegaon,423203,Maharashtra,IN,https://www.google.com/maps/place/Masjid+Hamidun-Niyadi/data=!4m7!3m6!1s0x3bde99cf2ab99cb7:0x553bc6a79bdefdd8!8m2!3d20.5623847!4d74.5374682!16s%2Fg%2F11f1120x7h!19sChIJt5y5Ks-Z3jsR2P3em6fGO1U?authuser=0&hl=en&rclk=1,"20.5623847,74.53746819999999"
Bhau Miyan Masjid bhw' myN msjd,Mosque,"GGWP+RRJ Bhau Miyan Masjid bhw' myN msjd, Fateh Maidan, Nayapura, Malegaon, Maharashtra 423203",Nayapura,"GGWP+RRJ, Fateh Maidan",Malegaon,423203,Maharashtra,IN,https://www.google.com/maps/place/Bhau+Miyan+Masjid+%D8%A8%DA%BE%D8%A7%D8%A4+%D9%85%DB%8C%D8%A7%DA%BA+%D9%85%D8%B3%D8%AC%D8%AF%E2%80%AD/data=!4m7!3m6!1s0x3bde99b0502c50bb:0xb5a82dbe85288454!8m2!3d20.5470935!4d74.5370059!16s%2Fg%2F11f11mmy2g!19sChIJu1AsULCZ3jsRVIQohb4tqLU?authuser=0&hl=en&rclk=1,"20.5470935,74.5370059"
Masjid Abdul Qadir - msjd `bdl qdyr,Mosque,"GHQ2+362 Masjid Abdul Qadir - msjd `bdl qdyr, Maldha shiwar, Malegaon, Maharashtra 423203",Gulshanabad,"GHQ2+362, Maldha shiwar",Malegaon,423203,Maharashtra,IN,https://www.google.com/maps/place/Masjid+Abdul+Qadir+-+%D9%85%D8%B3%D8%AC%D8%AF+%D8%B9%D8%A8%D8%AF%D9%84+%D9%82%D8%AF%DB%8C%D8%B1%E2%80%AD/data=!4m7!3m6!1s0x3bde9925bb9c0909:0x49e938ccc53f7eaf!8m2!3d20.5376443!4d74.5505119!16s%2Fg%2F11gpnj2w29!19sChIJCQmcuyWZ3jsRr34_xcw46Uk?authuser=0&hl=en&rclk=1,"20.5376443,74.5505119"
Masjid Anas bin Malik,Mosque,"HG7J+GR3 Masjid Anas bin Malik, MH SH 10, Dnyane, Malegaon, Maharashtra 423203",Dnyane,"HG7J+GR3, MH SH 10",Malegaon,423203,Maharashtra,IN,https://www.google.com/maps/place/Masjid+Anas+bin+Malik/data=!4m7!3m6!1s0x3bde99c5b24104f1:0x95698997a1fa0783!8m2!3d20.563765!4d74.5320566!16s%2Fg%2F1tfpn4p8!19sChIJ8QRBssWZ3jsRgwf6oZeJaZU?authuser=0&hl=en&rclk=1,"20.563765,74.53205659999999"
FATEMA ANGAN MASJID,Mosque,"GGVX+9R3 FATEMA ANGAN MASJID, Gulshanabad, Malegaon, Maharashtra 423203",Gulshanabad,GGVX+9R3,Malegaon,423203,Maharashtra,IN,https://www.google.com/maps/place/FATEMA+ANGAN+MASJID/data=!4m7!3m6!1s0x3bde985254470219:0xe2f631447a25dc9!8m2!3d20.5433813!4d74.5495566!16s%2Fg%2F11bw6n30gl!19sChIJGQJHVFKY3jsRyV2iRxRjLw4?authuser=0&hl=en&rclk=1,"20.5433813,74.5495566"
Abdullah Bin Masood Masjid,Mosque,"HG4M+5G2 Abdullah Bin Masood Masjid, MH SH 10, Dnyane, Malegaon, Maharashtra 423203",Dnyane,"HG4M+5G2, MH SH 10",Malegaon,423203,Maharashtra,IN,https://www.google.com/maps/place/Abdullah+Bin+Masood+Masjid/data=!4m7!3m6!1s0x3bde99b81af538ff:0x47b135a95fbe80cd!8m2!3d20.5553915!4d74.5337508!16s%2Fg%2F1t_wmtjw!19sChIJ_zj1GriZ3jsRzYC-X6k1sUc?authuser=0&hl=en&rclk=1,"20.5553915,74.53375079999999"
Badi Makkah Masjid - brry mkh msjd,Mosque,"HG3Q+77F Badi Makkah Masjid - brry mkh msjd, Sardar Nagar, Nayapura, Malegaon, Maharashtra 423203","Sardar Nagar, Nayapura",HG3Q+77F,Malegaon,423203,Maharashtra,IN,https://www.google.com/maps/place/Badi+Makkah+Masjid+-+%D8%A8%DA%91%DB%8C+%D9%85%D9%83%D9%87+%D9%85%D8%B3%D8%AC%D8%AF%E2%80%AD/data=!4m7!3m6!1s0x3bde99b6fba48467:0x35f7ae1bfefc8814!8m2!3d20.5531926!4d74.538182!16s%2Fg%2F11cjggrk_q!19sChIJZ4Sk-7aZ3jsRFIj8_huu9zU?authuser=0&hl=en&rclk=1,"20.5531926,74.53818199999999"
Ahle'Sunnat Masjid Abdul Jabbar Ashrafi,Mosque,"HG8Q+HMV Ahle'Sunnat Masjid Abdul Jabbar Ashrafi, Ramzanpura, Malegaon, Maharashtra 423203",Ramzanpura,HG8Q+HMV,Malegaon,423203,Maharashtra,IN,https://www.google.com/maps/place/Ahle%27Sunnat+Masjid+Abdul+Jabbar+Ashrafi/data=!4m7!3m6!1s0x3bde99ce6a2c83ad:0x7c062980f66ba2df!8m2!3d20.5664969!4d74.5391687!16s%2Fg%2F11dxfqmntj!19sChIJrYMsas6Z3jsR36Jr9oApBnw?authuser=0&hl=en&rclk=1,"20.5664969,74.53916869999999"
Masjid Haji Md Anwar - msjd Hjy mHmWd nwr,Mosque,"HH46+RG6 Masjid Haji Md Anwar - msjd Hjy mHmWd nwr, Sardar Nagar, Malegaon, Maharashtra 423203",Sardar Nagar,HH46+RG6,Malegaon,423203,Maharashtra,IN,https://www.google.com/maps/place/Masjid+Haji+Md+Anwar+-+%D9%85%D8%B3%D8%AC%D8%AF+%D8%AD%D8%A7%D8%AC%DB%8C+%D9%85%D8%AD%D9%85%D9%91%D8%AF+%D8%A7%D9%86%D9%88%D8%B1%E2%80%AD/data=!4m7!3m6!1s0x3bde98470b9be599:0x107ab819db65352b!8m2!3d20.5570346!4d74.5612746!16s%2Fg%2F11c2r7b6dc!19sChIJmeWbC0eY3jsRKzVl2xm4ehA?authuser=0&hl=en&rclk=1,"20.557034599999998,74.56127459999999"
Ahle'Sunnat Masjid Khanqah Imdadiya,Mosque,"Ahle'Sunnat Masjid Khanqah Imdadiya, Beside, Old Agra Rd, Imdad Nagar, Malegaon, Maharashtra 423203",Imdad Nagar,"Beside, Old Agra Rd",Malegaon,423203,Maharashtra,IN,https://www.google.com/maps/place/Ahle%27Sunnat+Masjid+Khanqah+Imdadiya/data=!4m7!3m6!1s0x3bde99b5f627bf27:0x876a838ba1ad68d0!8m2!3d20.5568695!4d74.5414977!16s%2Fg%2F1tdflqts!19sChIJJ78n9rWZ3jsR0GitoYuDaoc?authuser=0&hl=en&rclk=1,"20.556869499999998,74.5414977"
Azmat Ansari Masjid,Mosque,"Azmat Ansari Masjid, Shree Krishna Nagar, Pharmacy College Malegaon, Sardar Nagar, Malegaon, Maharashtra 423203",Sardar Nagar,"Shree Krishna Nagar, Pharmacy College Malegaon",Malegaon,423203,Maharashtra,IN,https://www.google.com/maps/place/Azmat+Ansari+Masjid/data=!4m7!3m6!1s0x3bde9847e5c76ed9:0xb646b72f6bef3fca!8m2!3d20.5574512!4d74.5586565!16s%2Fg%2F11c1nbfzrf!19sChIJ2W7H5UeY3jsRyj_vay-3RrY?authuser=0&hl=en&rclk=1,"20.5574512,74.5586565"
Faisal Masjid,Mosque,"Faisal Masjid, Pharmacy College Malegaon, Shree Krishna Nagar, Malegaon, Maharashtra 423203",Shree Krishna Nagar,Pharmacy College Malegaon,Malegaon,423203,Maharashtra,IN,https://www.google.com/maps/place/Faisal+Masjid/data=!4m7!3m6!1s0x3bde984877f86981:0x5334bfb727e63be6!8m2!3d20.5562325!4d74.5580714!16s%2Fg%2F11crzvn_2t!19sChIJgWn4d0iY3jsR5jvmJ7e_NFM?authuser=0&hl=en&rclk=1,"20.5562325,74.5580714"
Masjid Yahya Zubair,Mosque,"HG6V+2WQ Masjid Yahya Zubair, Aisha Nagar, near National Sizing, Malegaon, 423203",Imdad Nagar,"HG6V+2WQ, Aisha Nagar, near National Sizing",Malegaon,423203,Maharashtra,IN,https://www.google.com/maps/place/Masjid+Yahya+Zubair/data=!4m7!3m6!1s0x3bde99cae013f95d:0xb0fe345e9fb75ab9!8m2!3d20.5600802!4d74.5448597!16s%2Fg%2F11f2xy18s4!19sChIJXfkT4MqZ3jsRuVq3n140_rA?authuser=0&hl=en&rclk=1,"20.560080199999998,74.5448597"
Masjid E Ali,Mosque,"Masjid E Ali, Raza poora, Nikhat Park, Sardar Nagar, Hassanpura, Malegaon, Maharashtra 423203","Sardar Nagar, Hassanpura","Raza poora, Nikhat Park",Malegaon,423203,Maharashtra,IN,https://www.google.com/maps/place/Masjid+E+Ali/data=!4m7!3m6!1s0x3bde984c05e4ffbf:0xd4dbab7e84c41f26!8m2!3d20.5516073!4d74.5515694!16s%2Fg%2F1tdgn8wk!19sChIJv__kBUyY3jsRJh_EhH6r29Q?authuser=0&hl=en&rclk=1,"20.5516073,74.55156939999999"
Ahle'Sunnat Sufiya Masjid,Mosque,"HG6Q+6XM Ahle'Sunnat Sufiya Masjid, Siopar Colony, Imdad Nagar, Malegaon, Maharashtra 423203","Siopar Colony, Imdad Nagar",HG6Q+6XM,Malegaon,423203,Maharashtra,IN,https://www.google.com/maps/place/Ahle%27Sunnat+Sufiya+Masjid/data=!4m7!3m6!1s0x3bde99c965a9558d:0x2847431eb4ef5fa2!8m2!3d20.5605809!4d74.5399068!16s%2Fg%2F11b7hqnnq_!19sChIJjVWpZcmZ3jsRol_vtB5DRyg?authuser=0&hl=en&rclk=1,"20.560580899999998,74.5399068"
Masjid Aameen Ishrat,Mosque,"Masjid Aameen Ishrat, In front of Yashfeen Hospital, Sardar Nagar Bada Qabrastan Malegaon Maharashtra 423203 Sardar Nagar Nayapura Malegaon Maharashtra India, Nayapura, Malegaon, Maharashtra 423203","Sardar Nagar, Nayapura","In front of Yashfeen Hospital, Sardar Nagar Bada Qabrastan Malegaon Maharashtra 423203 Sardar Nagar Nayapura Malegaon Maharashtra India",Malegaon,423203,Maharashtra,IN,https://www.google.com/maps/place/Masjid+Aameen+Ishrat/data=!4m7!3m6!1s0x3bde99cc2276072d:0x63c5d4d5a960f044!8m2!3d20.5510982!4d74.539412!16s%2Fg%2F11f5q8h5d1!19sChIJLQd2IsyZ3jsRRPBgqdXUxWM?authuser=0&hl=en&rclk=1,"20.5510982,74.539412"
Jama Masjid Camp,Mosque,"HGC8+95H Jama Masjid Camp, Main Rd, Camp, Malegaon, Maharashtra 423105",Camp,"HGC8+95H, Main Rd",Malegaon,423105,Maharashtra,IN,https://www.google.com/maps/place/Jama+Masjid+Camp/data=!4m7!3m6!1s0x3bde990a5bdefe53:0x1b52b9ea88d0eaae!8m2!3d20.570947!4d74.5154918!16s%2Fg%2F11gtz0hkvv!19sChIJU_7eWwqZ3jsRrurQiOq5Uhs?authuser=0&hl=en&rclk=1,"20.570947,74.51549179999999"
Ahle'Sunnat Masjid Mufti-e-Aazam Hind,Mosque,"HG7P+7C3 Ahle'Sunnat Masjid Mufti-e-Aazam Hind, Islampura Lane 10, Nayapura, Malegaon, Maharashtra 423203",Nayapura,"HG7P+7C3, Islampura Lane 10",Malegaon,423203,Maharashtra,IN,https://www.google.com/maps/place/Ahle%27Sunnat+Masjid+Mufti-e-Aazam+Hind/data=!4m7!3m6!1s0x3bde99cf385bf57d:0x1e4a0b1f5886eb6e!8m2!3d20.5631266!4d74.5360458!16s%2Fg%2F11dx9g1x8s!19sChIJffVbOM-Z3jsRbuuGWB8LSh4?authuser=0&hl=en&rclk=1,"20.5631266,74.5360458"
Masjid Hazrat Bilal rz.a,Mosque,"GGVV+XPP Masjid Hazrat Bilal rz.a, Gulshanabad, Malegaon, Maharashtra 423203",Gulshanabad,GGVV+XPP,Malegaon,423203,Maharashtra,IN,https://www.google.com/maps/place/Masjid+Hazrat+Bilal+rz.a/data=!4m7!3m6!1s0x3bde99ad65a5721d:0x833069339fe0dbb6!8m2!3d20.5449533!4d74.5443173!16s%2Fg%2F12hq67v5f!19sChIJHXKlZa2Z3jsRttvgnzNpMIM?authuser=0&hl=en&rclk=1,"20.5449533,74.5443173"
Masjid Fatema - msjdi fTmh,Mosque,"Masjid Fatema - msjdi fTmh, 423203, Amminabad, Ramzanpura, Malegaon, Maharashtra 423203","Amminabad, Ramzanpura",423203,Malegaon,423203,Maharashtra,IN,https://www.google.com/maps/place/Masjid+Fatema+-+%D9%85%D8%B3%D8%AC%D8%AF%D9%90+%D9%81%D8%A7%D8%B7%D9%85%DB%81%E2%80%AD/data=!4m7!3m6!1s0x3bde99cdd31f0687:0xbcae4e6047ecfb55!8m2!3d20.5656149!4d74.5410082!16s%2Fg%2F11df0mtl80!19sChIJhwYf082Z3jsRVfvsR2BOrrw?authuser=0&hl=en&rclk=1,"20.5656149,74.5410082"
Ahle'Sunnat Masjid Halima Hashmati,Mosque,"HG8M+FWH Ahle'Sunnat Masjid Halima Hashmati, Ramzanpura, Malegaon, Maharashtra 423203",Ramzanpura,HG8M+FWH,Malegaon,423203,Maharashtra,IN,https://www.google.com/maps/place/Ahle%27Sunnat+Masjid+Halima+Hashmati/data=!4m7!3m6!1s0x3bde99cf8b88b2d9:0xe9e3634c943071c1!8m2!3d20.5661919!4d74.5348636!16s%2Fg%2F11c718gnlf!19sChIJ2bKIi8-Z3jsRwXEwlExj4-k?authuser=0&hl=en&rclk=1,"20.5661919,74.5348636"
Mohammadi Masjid,Mosque,"HG8X+JVG Mohammadi Masjid, Ramzanpura, Malegaon, Maharashtra 423203",Ramzanpura,HG8X+JVG,Malegaon,423203,Maharashtra,IN,https://www.google.com/maps/place/Mohammadi+Masjid/data=!4m7!3m6!1s0x3bde994b41a8bb0b:0x1908179300b70c2a!8m2!3d20.5665504!4d74.5496932!16s%2Fg%2F11f780z665!19sChIJC7uoQUuZ3jsRKgy3AJMXCBk?authuser=0&hl=en&rclk=1,"20.5665504,74.5496932"
Masjid Khalid Bin Waleed msjd khld bn wlyd mlygw'N,Mosque,"GGQV+QGH Masjid Khalid Bin Waleed msjd khld bn wlyd mlygw'N, Gulshanabad, Malegaon, Maharashtra 423203",Gulshanabad,GGQV+QGH,Malegaon,423203,Maharashtra,IN,https://www.google.com/maps/place/Masjid+Khalid+Bin+Waleed+%D9%85%D8%B3%D8%AC%D8%AF+%D8%AE%D8%A7%D9%84%D8%AF+%D8%A8%D9%86+%D9%88%D9%84%DB%8C%D8%AF+%D9%85%D8%A7%D9%84%DB%8C%DA%AF%D8%A7%D8%A4%DA%BA%E2%80%AD/data=!4m7!3m6!1s0x3bde99ee1e63e343:0x7953de4a5793cb4a!8m2!3d20.5394437!4d74.5438628!16s%2Fg%2F11fnq4kzk6!19sChIJQ-NjHu6Z3jsRSsuTV0reU3k?authuser=0&hl=en&rclk=1,"20.5394437,74.5438628"
Masjid Zubair,Mosque,"HG6M+3X6 Masjid Zubair, Imdad Nagar, Malegaon, Maharashtra 423203",Imdad Nagar,HG6M+3X6,Malegaon,423203,Maharashtra,IN,https://www.google.com/maps/place/Masjid+Zubair/data=!4m7!3m6!1s0x3bde99c89c76dda5:0x7a7f20008dbc6635!8m2!3d20.560174!4d74.5348981!16s%2Fg%2F11c6y_1qm7!19sChIJpd12nMiZ3jsRNWa8jQAgf3o?authuser=0&hl=en&rclk=1,"20.560174,74.53489809999999"
QUBA MASJID,Mosque,"HG7W+586 QUBA MASJID, Ramzanpura, Malegaon, Maharashtra 423203",Ramzanpura,HG7W+586,Malegaon,423203,Maharashtra,IN,https://www.google.com/maps/place/QUBA+MASJID/data=!4m7!3m6!1s0x3bde997236466147:0x7524cfc22f25d04b!8m2!3d20.562921!4d74.5457685!16s%2Fg%2F11q323vtq_!19sChIJR2FGNnKZ3jsRS9AlL8LPJHU?authuser=0&hl=en&rclk=1,"20.562921,74.5457685"
Masjid haji Md. Hasan,Mosque,"GGQQ+6F8 Masjid haji Md. Hasan, Gulshanabad, Malegaon, Maharashtra 423203",Gulshanabad,GGQQ+6F8,Malegaon,423203,Maharashtra,IN,https://www.google.com/maps/place/Masjid+haji+Md.+Hasan/data=!4m7!3m6!1s0x3bde99a93e67bf9d:0xc33acf48c49fb514!8m2!3d20.5380294!4d74.5386914!16s%2Fg%2F11hbqy71_1!19sChIJnb9nPqmZ3jsRFLWfxEjPOsM?authuser=0&hl=en&rclk=1,"20.5380294,74.53869139999999"
Masjid Inamul Uloom,Mosque,"HH2C+QRR Masjid Inamul Uloom, Malegaon, Maharashtra 423203",,HH2C+QRR,Malegaon,423203,Maharashtra,IN,https://www.google.com/maps/place/Masjid+Inamul+Uloom/data=!4m7!3m6!1s0x3bde9869a4b9e96d:0xe93b33f6a77b504c!8m2!3d20.5519803!4d74.5720082!16s%2Fg%2F11c6slqfl6!19sChIJbem5pGmY3jsRTFB7p_YzO-k?authuser=0&hl=en&rclk=1,"20.5519803,74.5720082"
TAKYA MASJID tkhyh msjd,Mosque,"TAKYA MASJID tkhyh msjd, Gulshanabad, Malegaon, Maharashtra 423203",Gulshanabad,,Malegaon,423203,Maharashtra,IN,https://www.google.com/maps/place/TAKYA+MASJID+%D8%AA%DA%A9%DB%8C%DB%81+%D9%85%D8%B3%D8%AC%D8%AF%E2%80%AD/data=!4m7!3m6!1s0x3bde990d5a6c6ef3:0xd2297dcefeccbf32!8m2!3d20.5444664!4d74.5316567!16s%2Fg%2F11ghs1_643!19sChIJ825sWg2Z3jsRMr_M_s59KdI?authuser=0&hl=en&rclk=1,"20.544466399999997,74.5316567"
Masjid Haji Suleman - msjd Hjy slymn,Mosque,"GGPV+9QQ Masjid Haji Suleman - msjd Hjy slymn, Gulshanabad, Malegaon, Maharashtra 423203",Gulshanabad,GGPV+9QQ,Malegaon,,Maharashtra,IN,https://www.google.com/maps/place/Masjid+Haji+Suleman+-+%D9%85%D8%B3%D8%AC%D8%AF+%D8%AD%D8%A7%D8%AC%DB%8C+%D8%B3%D9%84%DB%8C%D9%85%D8%A7%D9%86%E2%80%AD/data=!4m7!3m6!1s0x3bde99aafbc214d9:0xee29ccd5da02a6!8m2!3d20.5363483!4d74.5438282!16s%2Fg%2F1hf4xfd1d!19sChIJ2RTC-6qZ3jsRpgLa1cwp7gA?authuser=0&hl=en&rclk=1,"20.5363483,74.5438282"
Ahle'Sunnat Sonapur Masjid,Mosque,"HGC8+6Q4 Ahle'Sunnat Sonapur Masjid, Kranti Nagar, Camp, Malegaon, Maharashtra 423105","Kranti Nagar, Camp",HGC8+6Q4,Malegaon,423105,Maharashtra,IN,https://www.google.com/maps/place/Ahle%27Sunnat+Sonapur+Masjid/data=!4m7!3m6!1s0x3bde99e42073e991:0xac8390f39c0903b5!8m2!3d20.5705066!4d74.5169555!16s%2Fg%2F11hbsnt_n2!19sChIJkelzIOSZ3jsRtQMJnPOQg6w?authuser=0&hl=en&rclk=1,"20.570506599999998,74.5169555"
Ahle'Sunnat Masjid Aaftab-e-Risalat,Mosque,"HG6Q+QV9 Ahle'Sunnat Masjid Aaftab-e-Risalat, Ramzanpura, Malegaon, Maharashtra 423203",Ramzanpura,HG6Q+QV9,Malegaon,423203,Maharashtra,IN,https://www.google.com/maps/place/Ahle%27Sunnat+Masjid+Aaftab-e-Risalat/data=!4m7!3m6!1s0x3bde99c94fd9468d:0x868369c7b1bd1d6c!8m2!3d20.5619164!4d74.5397304!16s%2Fg%2F11g6_0q99h!19sChIJjUbZT8mZ3jsRbB29scdpg4Y?authuser=0&hl=en&rclk=1,"20.561916399999998,74.5397304"
Masjid E Ahle Sunnat Sadique,Mosque,"HG7V+4QG Masjid E Ahle Sunnat Sadique, Ramzanpura, Malegaon, Maharashtra 423203",Ramzanpura,HG7V+4QG,Malegaon,423203,Maharashtra,IN,https://www.google.com/maps/place/Masjid+E+Ahle+Sunnat+Sadique/data=!4m7!3m6!1s0x3bde99cb6231ee45:0x1125d6e189be6df4!8m2!3d20.5628003!4d74.5444384!16s%2Fg%2F11gg68dxg3!19sChIJRe4xYsuZ3jsR9G2-ieHWJRE?authuser=0&hl=en&rclk=1,"20.5628003,74.54443839999999"
Ahle'Sunnat Masjid Ayesha Hajjin,Mosque,"GGRX+65R Ahle'Sunnat Masjid Ayesha Hajjin, Gulshanabad, Malegaon, Maharashtra 423203",Gulshanabad,GGRX+65R,Malegaon,423203,Maharashtra,IN,https://www.google.com/maps/place/Ahle%27Sunnat+Masjid+Ayesha+Hajjin/data=!4m7!3m6!1s0x3bde9854fafbcd23:0xee293a5ef524538d!8m2!3d20.5406135!4d74.5479018!16s%2Fg%2F11f120wm_t!19sChIJI837-lSY3jsRjVMk9V46Ke4?authuser=0&hl=en&rclk=1,"20.5406135,74.54790179999999"
Ahle'Sunnat Masjid Zaitoon Ashrafi,Mosque,"HG7P+Q6Q Ahle'Sunnat Masjid Zaitoon Ashrafi, Ramzanpura, Malegaon, Maharashtra 423203",Ramzanpura,HG7P+Q6Q,Malegaon,423203,Maharashtra,IN,https://www.google.com/maps/place/Ahle%27Sunnat+Masjid+Zaitoon+Ashrafi/data=!4m7!3m6!1s0x3bde99cf5a79a7c5:0x20b723fde358b9a2!8m2!3d20.5644582!4d74.5356087!16s%2Fg%2F11cm3v8wws!19sChIJxad5Ws-Z3jsRorlY4_0jtyA?authuser=0&hl=en&rclk=1,"20.5644582,74.5356087"
Ahle'Sunnat Masjid Farouque-e-Aazam,Mosque,"HG8P+6P4 Ahle'Sunnat Masjid Farouque-e-Aazam, Ramzanpura, Malegaon, Maharashtra 423203",Ramzanpura,HG8P+6P4,Malegaon,423203,Maharashtra,IN,https://www.google.com/maps/place/Ahle%27Sunnat+Masjid+Farouque-e-Aazam/data=!4m7!3m6!1s0x3bde99cfa8b719e9:0x9d70ffa8667a821e!8m2!3d20.565504!4d74.5368211!16s%2Fg%2F11g7kskq6x!19sChIJ6Rm3qM-Z3jsRHoJ6Zqj_cJ0?authuser=0&hl=en&rclk=1,"20.565504,74.5368211"
Ahle'Sunnat Masjid Siddique-e-Akbar,Mosque,"HH73+PVX Ahle'Sunnat Masjid Siddique-e-Akbar, Malegaon, Maharashtra 423203",,HH73+PVX,Malegaon,423203,Maharashtra,IN,https://www.google.com/maps/place/Ahle%27Sunnat+Masjid+Siddique-e-Akbar/data=!4m7!3m6!1s0x3bde98312ec76acd:0xf91ae0af7a280e96!8m2!3d20.5643696!4d74.5547331!16s%2Fg%2F11c76dl8zz!19sChIJzWrHLjGY3jsRlg4oeq_gGvk?authuser=0&hl=en&rclk=1,"20.5643696,74.55473309999999"
msjd blqys Hjn,Mosque,"GGQP+8Q2 msjd blqys Hjn, Gulshanabad, Malegaon, Maharashtra 423203",Gulshanabad,GGQP+8Q2,Malegaon,423203,Maharashtra,IN,https://www.google.com/maps/place/%D9%85%D8%B3%D8%AC%D8%AF+%D8%A8%D9%84%D9%82%DB%8C%D8%B3+%D8%AD%D8%AC%D9%86%E2%80%AD/data=!4m7!3m6!1s0x3bde9971759df61d:0x9e54fdd06f88ec97!8m2!3d20.5382616!4d74.5368927!16s%2Fg%2F11h895l8gf!19sChIJHfaddXGZ3jsRl-yIb9D9VJ4?authuser=0&hl=en&rclk=1,"20.5382616,74.5368927"
Masjid Imam Abu Hanifa,Mosque,"GGQW+GPP Masjid Imam Abu Hanifa, Gulshanabad, Malegaon, Maharashtra 423203",Gulshanabad,GGQW+GPP,Malegaon,423203,Maharashtra,IN,https://www.google.com/maps/place/Masjid+Imam+Abu+Hanifa/data=!4m7!3m6!1s0x3bde993a69e8df35:0x39353466c487a385!8m2!3d20.5388387!4d74.5468346!16s%2Fg%2F11h895n7qd!19sChIJNd_oaTqZ3jsRhaOHxGY0NTk?authuser=0&hl=en&rclk=1,"20.5388387,74.5468346"
Abu Huraira Masjid,Mosque,"HG9V+3CC Abu Huraira Masjid, Amminabad, Ramzanpura, Malegaon, Maharashtra 423203","Amminabad, Ramzanpura",HG9V+3CC,Malegaon,423203,Maharashtra,IN,https://www.google.com/maps/place/Abu+Huraira+Masjid/data=!4m7!3m6!1s0x3bde993d8cfca9d3:0x6282059a3e0e8540!8m2!3d20.5676883!4d74.5435235!16s%2Fg%2F11fhrnv8l6!19sChIJ06n8jD2Z3jsRQIUOPpoFgmI?authuser=0&hl=en&rclk=1,"20.5676883,74.54352349999999"
Shahi Masjid,Mosque,"Shahi Masjid, RSD, Saraf Bazar Rd, Bhikku Chowk, Gulshanabad, Malegaon, Maharashtra 423203","Bhikku Chowk, Gulshanabad","RSD, Saraf Bazar Rd",Malegaon,423203,Maharashtra,IN,https://www.google.com/maps/place/Shahi+Masjid/data=!4m7!3m6!1s0x3bde99b05de55555:0x7ca3ad1733840173!8m2!3d20.5472984!4d74.5361209!16s%2Fg%2F11tgg7n7t7!19sChIJVVXlXbCZ3jsRcwGEMxeto3w?authuser=0&hl=en&rclk=1,"20.5472984,74.5361209"
Ahle'Sunnat Masjid Rasbuna,Mosque,"HH57+QCV Ahle'Sunnat Masjid Rasbuna, Sardar Nagar, Sanjari Nagar, Malegaon, Maharashtra 423203","Sardar Nagar, Sanjari Nagar",HH57+QCV,Malegaon,423203,Maharashtra,IN,https://www.google.com/maps/place/Ahle%27Sunnat+Masjid+Rasbuna/data=!4m7!3m6!1s0x3bde9838add76bad:0xe3def8b494d90d39!8m2!3d20.5594836!4d74.5635539!16s%2Fg%2F11g72f8v3g!19sChIJrWvXrTiY3jsROQ3ZlLT43uM?authuser=0&hl=en&rclk=1,"20.5594836,74.5635539"
Masjid Batool Ibrahim,Mosque,"HH53+VC4 Masjid Batool Ibrahim, Gulab Rd, Sardar Nagar, Malegaon, Maharashtra 423203",Sardar Nagar,"HH53+VC4, Gulab Rd",Malegaon,423203,Maharashtra,IN,https://www.google.com/maps/place/Masjid+Batool+Ibrahim/data=!4m7!3m6!1s0x3bde990bc64fa275:0x3c2ef5d79c5badd7!8m2!3d20.5596364!4d74.5535835!16s%2Fg%2F11kxk7yfd7!19sChIJdaJPxguZ3jsR161bnNf1Ljw?authuser=0&hl=en&rclk=1,"20.5596364,74.5535835"
Ahle'Sunnat Ak'khada Masjid,Mosque,"HG2M+MQH Ahle'Sunnat Ak'khada Masjid, Islampura Ln 8, Somwar Ward, Nayapura, Malegaon, Maharashtra 423203","Somwar Ward, Nayapura","HG2M+MQH, Islampura Ln 8",Malegaon,423203,Maharashtra,IN,https://www.google.com/maps/place/Ahle%27Sunnat+Ak%27khada+Masjid/data=!4m7!3m6!1s0x3bde99ca230ce09d:0x51639b61b2fcf529!8m2!3d20.5516774!4d74.5344746!16s%2Fg%2F11ryqllk06!19sChIJneAMI8qZ3jsRKfX8smGbY1E?authuser=0&hl=en&rclk=1,"20.5516774,74.5344746"
Ahle'Sunnat Madina Masjid,Mosque,"HG3P+V82 Ahle'Sunnat Madina Masjid, MHB Colony, Imdad Nagar, Malegaon, Maharashtra 423203","MHB Colony, Imdad Nagar",HG3P+V82,Malegaon,,Maharashtra,IN,https://www.google.com/maps/place/Ahle%27Sunnat+Madina+Masjid/data=!4m7!3m6!1s0x3bde99f68d2df605:0xe19dbec78014ee06!8m2!3d20.554645!4d74.5357762!16s%2Fg%2F11ts_f33ls!19sChIJBfYtjfaZ3jsRBu4UgMe-neE?authuser=0&hl=en&rclk=1,"20.554645,74.5357762"
Aadam Masjid - msjdi adm,Mosque,"HH63+7PP Aadam Masjid - msjdi adm, Malegaon Bypass, Sanjari Nagar, Malegaon, Maharashtra 423203",Sanjari Nagar,"HH63+7PP, Malegaon Bypass",Malegaon,423203,Maharashtra,IN,https://www.google.com/maps/place/Aadam+Masjid+-+%D9%85%D8%B3%D8%AC%D8%AF%D9%90+%D8%A2%D8%AF%D9%85%E2%80%AD/data=!4m7!3m6!1s0x3bde99db3d5aacdf:0x80edc12eb871767d!8m2!3d20.5607225!4d74.5543201!16s%2Fg%2F11h8jphlr9!19sChIJ36xaPduZ3jsRfXZxuC7B7YA?authuser=0&hl=en&rclk=1,"20.5607225,74.5543201"
Makkah Masji. mkhWh msjd,Mosque,"Makkah Masji. mkhWh msjd, Gulshanabad, Malegaon, Maharashtra 423203",Gulshanabad,,Malegaon,423203,Maharashtra,IN,https://www.google.com/maps/place/Makkah+Masji.+%D9%85%DA%A9%D9%91%DB%81+%D9%85%D8%B3%D8%AC%D8%AF%E2%80%AD/data=!4m7!3m6!1s0x3bde99afb7500001:0xaa2d4740c9fd554d!8m2!3d20.5480433!4d74.5327976!16s%2Fg%2F11sscsbg9k!19sChIJAQBQt6-Z3jsRTVX9yUBHLao?authuser=0&hl=en&rclk=1,"20.5480433,74.5327976"
Masjid Yaseen Sadique (msjd ysyn Sdq),Mosque,"GHQ5+RR4 Masjid Yaseen Sadique (msjd ysyn Sdq), Malegaon, Maharashtra 423203",,GHQ5+RR4,Malegaon,,Maharashtra,IN,https://www.google.com/maps/place/Masjid+Yaseen+Sadique+%28%D9%85%D8%B3%D8%AC%D8%AF+%DB%8C%D8%A7%D8%B3%DB%8C%D9%86+%D8%B5%D8%A7%D8%AF%D9%82%29%E2%80%AD/data=!4m7!3m6!1s0x3bde99da047c6ce5:0x4a2a41b50ff2b835!8m2!3d20.5395076!4d74.5595632!16s%2Fg%2F11lm7mm_fz!19sChIJ5Wx8BNqZ3jsRNbjyD7VBKko?authuser=0&hl=en&rclk=1,"20.5395076,74.5595632"
Muhammadi Masjid,Mosque,"HG2R+Q56 Muhammadi Masjid, Sardar Nagar, Nayapura, Malegaon, Maharashtra 423203","Sardar Nagar, Nayapura",HG2R+Q56,Malegaon,423203,Maharashtra,IN,https://www.google.com/maps/place/Muhammadi+Masjid/data=!4m7!3m6!1s0x3bde99b6a7740001:0x58cb553cae288f17!8m2!3d20.5519243!4d74.5404007!16s%2Fg%2F11sscs913f!19sChIJAQB0p7aZ3jsRF48orjxVy1g?authuser=0&hl=en&rclk=1,"20.5519243,74.54040069999999"
Ahle'Sunnat Masjid Allama Hasan Raza,Mosque,"GHW2+F66 Ahle'Sunnat Masjid Allama Hasan Raza, Gulshanabad, Malegaon, Maharashtra 423203",Gulshanabad,GHW2+F66,Malegaon,423203,Maharashtra,IN,https://www.google.com/maps/place/Ahle%27Sunnat+Masjid+Allama+Hasan+Raza/data=!4m7!3m6!1s0x3bde9930292bc507:0x8109ed2bd0c72fbc!8m2!3d20.5461711!4d74.5505016!16s%2Fg%2F11j5783tqq!19sChIJB8UrKTCZ3jsRvC_H0CvtCYE?authuser=0&hl=en&rclk=1,"20.5461711,74.55050159999999"
