name,main_category,address,address_ward,address_street,address_city,address_postal_code,address_state,address_country_code,link,coordinates
Jama Masjid Dhanhara parsurampur sitamarhi Bihar,Mosque,"Jama Masjid Dhanhara parsurampur sitamarhi Bihar, WARD-15 vill- dhanhara Ps- parsurampur Ps, Parsauni - Riga Rd, Sitamarhi, Bihar 843325",,"WARD-15 vill- dhanhara Ps- parsurampur Ps, Parsauni - Riga Rd","Sitamarhi, Parsurampur",843325,Bihar,IN,https://www.google.com/maps/place/Jama+Masjid+Dhanhara+parsurampur+sitamarhi+Bihar/data=!4m7!3m6!1s0x39ecefa5807fda9b:0x27d26bf896d82719!8m2!3d26.538768!4d85.4070469!16s%2Fg%2F11hj5d3srg!19sChIJm9p_gKXv7DkRGSfYlvhr0ic?authuser=0&hl=en&rclk=1,"26.538767999999997,85.4070469"
Mehsaul Chowk Jame Masjid,Mosque,"HGV2+G39 Mehsaul Chowk Jame Masjid, chowk, Mehsaul Pashchim, Bihar 843302",Sonavati Colony,"HGV2+G39, chowk","Mehsaul Pashchim, Chak Rajopatti",843302,Bihar,IN,https://www.google.com/maps/place/Mehsaul+Chowk+Jame+Masjid/data=!4m7!3m6!1s0x39ecf1228ee23381:0xd828e7fb17fd849c!8m2!3d26.5937963!4d85.5002336!16s%2Fg%2F11g9gz6j_w!19sChIJgTPijiLx7DkRnIT9F_vnKNg?authuser=0&hl=en&rclk=1,"26.593796299999998,85.5002336"
Rajopatti Masjid,Mosque,"HGM3+XJJ Rajopatti Masjid, Sharif Colony, Sitamarhi, Bihar 843301",Sharif Colony,HGM3+XJJ,Sitamarhi,843301,Bihar,IN,https://www.google.com/maps/place/Rajopatti+Masjid/data=!4m7!3m6!1s0x39ecf120a8a54163:0x78b8363fb8b4e0e8!8m2!3d26.584959!4d85.5040209!16s%2Fg%2F1tgtcxg_!19sChIJY0GlqCDx7DkR6OC0uD82uHg?authuser=0&hl=en&rclk=1,"26.584958999999998,85.5040209"
Jama Masjid Mehsaul,Mosque,"HGR7+R49 Jama Masjid Mehsaul, Rahmania Mohalla, Mehsaul Pashchim, Bihar 843314",Rahmania Mohalla,HGR7+R49,Mehsaul Pashchim,843314,Bihar,IN,https://www.google.com/maps/place/Jama+Masjid+Mehsaul/data=!4m7!3m6!1s0x39ecf12edce7ee31:0xa7ca2aed0befadaa!8m2!3d26.5920258!4d85.5128628!16s%2Fg%2F11dxl16d7c!19sChIJMe7n3C7x7DkRqq3vC-0qyqc?authuser=0&hl=en&rclk=1,"26.5920258,85.5128628"
Raza Madina Masjid Bariyarpur,Mosque,"Raza Madina Masjid Bariyarpur, bariyarpur ward no.13 po bariyarpur, Sitamarhi, Bihar 843302",,bariyarpur ward no.13 po bariyarpur,"Sitamarhi, Neyamutullahpur",843302,Bihar,IN,https://www.google.com/maps/place/Raza+Madina+Masjid+Bariyarpur/data=!4m7!3m6!1s0x39ecf6eb8d540aa9:0xcdb3d61195c4c3e4!8m2!3d26.6050325!4d85.5451455!16s%2Fg%2F11bzwp6t5w!19sChIJqQpUjev27DkR5MPElRHWs80?authuser=0&hl=en&rclk=1,"26.6050325,85.54514549999999"
"Madrasa Islamia Arabia, Jama Masjid",Mosque,"Madrasa Islamia Arabia, Jama Masjid, Koat Bazar, Sitamarhi, Bihar 843302",Koat Bazar,,Sitamarhi,843302,Bihar,IN,"https://www.google.com/maps/place/Madrasa+Islamia+Arabia,+Jama+Masjid/data=!4m7!3m6!1s0x39ecf104a52a1bcb:0x8d5cb89e9d64321e!8m2!3d26.5906793!4d85.4883083!16s%2Fg%2F11f32xfd1y!19sChIJyxsqpQTx7DkRHjJknZ64XI0?authuser=0&hl=en&rclk=1","26.590679299999998,85.4883083"
jama masjid husaina chowk,Mosque,"HGV2+M6J jama masjid husaina chowk, Balnarayan Singh Nagar, Malahi, Mehsaul Gote, Sitamarhi, Bihar 843314","Balnarayan Singh Nagar, Malahi",HGV2+M6J,"Mehsaul Gote, Sitamarhi",843314,Bihar,IN,https://www.google.com/maps/place/jama+masjid+husaina+chowk/data=!4m7!3m6!1s0x39ecf6d6f8ddb9f1:0xdf9154f9503e5b82!8m2!3d26.5942156!4d85.5005181!16s%2Fg%2F11g8p8sd0f!19sChIJ8bnd-Nb27DkRgls-UPlUkd8?authuser=0&hl=en&rclk=1,"26.5942156,85.5005181"
Urdu Mohalla Mosque,Mosque,"HGP4+PW9 Urdu Mohalla Mosque, Urdu Mohalla, Sharif Colony, Chak Rajopatti, Sitamarhi, Bihar 843302","Urdu Mohalla, Sharif Colony",HGP4+PW9,"Chak Rajopatti, Sitamarhi",843302,Bihar,IN,https://www.google.com/maps/place/Urdu+Mohalla+Mosque/data=!4m7!3m6!1s0x39ecf0d87717a9db:0xa66834fd74b86604!8m2!3d26.5867922!4d85.5073517!16s%2Fg%2F11cssw_07r!19sChIJ26kXd9jw7DkRBGa4dP00aKY?authuser=0&hl=en&rclk=1,"26.586792199999998,85.5073517"
Madarsa Imdadia Ashrafia Rajopatti,Mosque,"Madarsa Imdadia Ashrafia Rajopatti, Masjid-e-abrarar, Urdu Mohalla, Sharif Colony, Sitamarhi, Bihar 843302","Urdu Mohalla, Sharif Colony",Masjid-e-abrarar,Sitamarhi,843302,Bihar,IN,https://www.google.com/maps/place/Madarsa+Imdadia+Ashrafia+Rajopatti/data=!4m7!3m6!1s0x39ecf127141e3563:0x2a105519b7e589b7!8m2!3d26.5872631!4d85.5071728!16s%2Fg%2F11gdqw86yb!19sChIJYzUeFCfx7DkRt4nltxlVECo?authuser=0&hl=en&rclk=1,"26.587263099999998,85.50717279999999"
Masjide Qasim,Mosque,"HGV8+XFH Masjide Qasim, Ward Number 1, Lakshmi Nager, Mehsaul Pashchim, Sitamarhi, Bihar 843314","Ward Number 1, Lakshmi Nager",HGV8+XFH,"Mehsaul Pashchim, Sitamarhi",843314,Bihar,IN,https://www.google.com/maps/place/Masjide+Qasim/data=!4m7!3m6!1s0x39ecf12c6aaaaaab:0xc3313ab80e3a8d21!8m2!3d26.5949458!4d85.516238!16s%2Fg%2F11fx7p4t8v!19sChIJq6qqaizx7DkRIY06Drg6McM?authuser=0&hl=en&rclk=1,"26.594945799999998,85.516238"
Haidary Jama Masjid,Mosque,"JG46+6F5 Haidary Jama Masjid, Haidary chowk, Mohanpur, Bihar 843302",,"JG46+6F5, Haidary chowk","Mohanpur, Sirauli",843302,Bihar,IN,https://www.google.com/maps/place/Haidary+Jama+Masjid/data=!4m7!3m6!1s0x39ecf137a0f9c617:0x2c3092e7fe93f5d2!8m2!3d26.6055203!4d85.5112189!16s%2Fg%2F11dzx8hpbw!19sChIJF8b5oDfx7DkR0vWT_ueSMCw?authuser=0&hl=en&rclk=1,"26.6055203,85.5112189"
"Noori Jama Masjid, Kharka",Mosque,"Noori Jama Masjid, Kharka, P.s, Vill, Kharka Road, Post, Punaura Pashchim, Bihar 843302",Post,"P.s, Vill, Kharka Road",Punaura Pashchim,843302,Bihar,IN,"https://www.google.com/maps/place/Noori+Jama+Masjid,+Kharka/data=!4m7!3m6!1s0x39ecf056bf5539e5:0xd3fadb0c729a531f!8m2!3d26.5763248!4d85.4746373!16s%2Fg%2F11hb2zw8br!19sChIJ5TlVv1bw7DkRH1Oacgzb-tM?authuser=0&hl=en&rclk=1","26.5763248,85.4746373"
Masjid E Abrar,Mosque,"HGP4+JQQ Masjid E Abrar, Tyb ngr rjwptty sytmrrhy bhr hnd nzd rdw mHlh Taiyyib nagar Rajopatti Sitamarhi, Near Urdu, mahallah, Bihar 843302","Urdu Mohalla, Sharif Colony","HGP4+JQQ, Tyb ngr rjwptty sytmrrhy bhr hnd nzd rdw mHlh Taiyyib nagar Rajopatti Sitamarhi, Near Urdu","mahallah, Sitamarhi",843302,Bihar,IN,https://www.google.com/maps/place/Masjid+E+Abrar/data=!4m7!3m6!1s0x39ecf127099d6b91:0xd794beaedf84d2d4!8m2!3d26.586587!4d85.5069901!16s%2Fg%2F11b6j5bzb7!19sChIJkWudCSfx7DkR1NKE366-lNc?authuser=0&hl=en&rclk=1,"26.586586999999998,85.5069901"
Masjid e Taiyaba Mehsaul,Mosque,"Masjid e Taiyaba Mehsaul, 843314, Noorany Colony, Rahmania Mohalla, Mehsaul Gote, Bihar 843314","Noorany Colony, Rahmania Mohalla",843314,"Mehsaul Gote, Mehsaul Pashchim",843314,Bihar,IN,https://www.google.com/maps/place/Masjid+e+Taiyaba+Mehsaul/data=!4m7!3m6!1s0x39ecf12eb3bc3ef5:0xead10d485aae403a!8m2!3d26.5910483!4d85.5140027!16s%2Fg%2F11g8tycb75!19sChIJ9T68sy7x7DkROkCuWkgN0eo?authuser=0&hl=en&rclk=1,"26.591048299999997,85.51400269999999"
Masjid-e-Alhira,Mosque,"Masjid-e-Alhira, Haashmi Muhalla, Mehsaul East, Ward No. 09, Bihar 843302",Rahmania Mohalla,"Haashmi Muhalla, Mehsaul East, Ward No. 09","Mehsaul Pashchim, Sitamarhi",843302,Bihar,IN,https://www.google.com/maps/place/Masjid-e-Alhira/data=!4m7!3m6!1s0x39ecf74e582c21b7:0x5065a0b0e747dbea!8m2!3d26.589642!4d85.5210707!16s%2Fg%2F11gnsgndpb!19sChIJtyEsWE737DkR6ttH57CgZVA?authuser=0&hl=en&rclk=1,"26.589641999999998,85.5210707"
Makki Masjid,Mosque,"JF2V+4XP Makki Masjid, Yadav Nagar, Sitamarhi, Bihar 843301",Yadav Nagar,JF2V+4XP,Sitamarhi,843301,Bihar,IN,https://www.google.com/maps/place/Makki+Masjid/data=!4m7!3m6!1s0x39ecf18b75979fab:0x62e1c0cd67a23d09!8m2!3d26.6004875!4d85.4946791!16s%2Fg%2F11t491rcs1!19sChIJq5-XdYvx7DkRCT2iZ83A4WI?authuser=0&hl=en&rclk=1,"26.6004875,85.4946791"
Noori Jama Masjid,Mosque,"Noori Jama Masjid, Dumra Rd, Talkhapur, Sitamarhi, Bihar 843301",Talkhapur,Dumra Rd,Sitamarhi,843301,Bihar,IN,https://www.google.com/maps/place/Noori+Jama+Masjid/data=!4m7!3m6!1s0x39ecf1b413669a6b:0x5a732e9ed381d82e!8m2!3d26.5700388!4d85.5121646!16s%2Fg%2F11f716mtxs!19sChIJa5pmE7Tx7DkRLtiB054uc1o?authuser=0&hl=en&rclk=1,"26.5700388,85.51216459999999"
Madina Masjid Mehsaul,Mosque,"HGV6+87Q Madina Masjid Mehsaul, Bazar Samiti, Sitamarhi, Bihar 843314",Bazar Samiti,HGV6+87Q,Sitamarhi,843314,Bihar,IN,https://www.google.com/maps/place/Madina+Masjid+Mehsaul/data=!4m7!3m6!1s0x39ecf12f74169dd3:0xcb14a5d3bda73582!8m2!3d26.5933487!4d85.5107482!16s%2Fg%2F11fx7ltw29!19sChIJ050WdC_x7DkRgjWnvdOlFMs?authuser=0&hl=en&rclk=1,"26.5933487,85.5107482"
Jama Masjid,Mosque,"GCMF+QVV Jama Masjid, Gaun, Dema, Sitamarhi, Bihar 843325",,"GCMF+QVV, Gaun","Dema, Sitamarhi",,Bihar,IN,https://www.google.com/maps/place/Jama+Masjid/data=!4m7!3m6!1s0x39ece5587da13485:0x25b08a9c77032177!8m2!3d26.5344778!4d85.424676!16s%2Fg%2F11f3vnnl1t!19sChIJhTShfVjl7DkRdyEDd5yKsCU?authuser=0&hl=en&rclk=1,"26.534477799999998,85.42467599999999"
Imaam Ahmad Raza Masjid.,Mosque,"HGG5+368 Imaam Ahmad Raza Masjid., Raza Nagar, Talkhapur, Sitamarhi, Bihar 843302","Raza Nagar, Talkhapur",HGG5+368,Sitamarhi,843302,Bihar,IN,https://www.google.com/maps/place/Imaam+Ahmad+Raza+Masjid./data=!4m7!3m6!1s0x39ecf142c46450bb:0x38b2ba9d1eda0571!8m2!3d26.5751695!4d85.5080807!16s%2Fg%2F11gvz1f26l!19sChIJu1BkxELx7DkRcQXaHp26sjg?authuser=0&hl=en&rclk=1,"26.575169499999998,85.5080807"
raajopttttii iidgaah,Mosque,"HGP3+HV7 raajopttttii iidgaah, near masjid, Raghunathpuri, Chak Rajopatti, Bihar 843302",Raghunathpuri,"HGP3+HV7, near masjid",Chak Rajopatti,843302,Bihar,IN,https://www.google.com/maps/place/%E0%A4%B0%E0%A4%BE%E0%A4%9C%E0%A5%8B%E0%A4%AA%E0%A4%9F%E0%A5%8D%E0%A4%9F%E0%A5%80+%E0%A4%88%E0%A4%A6%E0%A4%97%E0%A4%BE%E0%A4%B9/data=!4m7!3m6!1s0x39ecf1c85c0cb443:0xcbea17acfe8e319b!8m2!3d26.5864011!4d85.5046673!16s%2Fg%2F11gmxnz_jx!19sChIJQ7QMXMjx7DkRmzGO_qwX6ss?authuser=0&hl=en&rclk=1,"26.5864011,85.5046673"
Madarsa Rabbaniya Jama Masjid,Mosque,"HGM3+JJV Madarsa Rabbaniya Jama Masjid, Sharif Colony, Sitamarhi, Bihar 843302",Sharif Colony,HGM3+JJV,Sitamarhi,843302,Bihar,IN,https://www.google.com/maps/place/Madarsa+Rabbaniya+Jama+Masjid/data=!4m7!3m6!1s0x39ecf0df50e68519:0x73dc58009b55cd72!8m2!3d26.5841224!4d85.5040601!16s%2Fg%2F11gdt55gjf!19sChIJGYXmUN_w7DkRcs1VmwBY3HM?authuser=0&hl=en&rclk=1,"26.5841224,85.50406009999999"
Mehsaul Purvi Idgah,Mosque,"HGRC+QHG Mehsaul Purvi Idgah, Mehsaul Pashchim, Bihar 843314",,HGRC+QHG,Mehsaul Pashchim,843314,Bihar,IN,https://www.google.com/maps/place/Mehsaul+Purvi+Idgah/data=!4m7!3m6!1s0x39ecf72e52ab5339:0x4e3d2a95249c7709!8m2!3d26.5919426!4d85.5214566!16s%2Fg%2F11h3cbmmb4!19sChIJOVOrUi737DkRCXecJJUqPU4?authuser=0&hl=en&rclk=1,"26.5919426,85.5214566"
Masjid-e-Siddikiya,Mosque,"HGM5+Q4W Masjid-e-Siddikiya, Urdu Mohalla, Sharif Colony, Sitamarhi, Bihar 843302","Urdu Mohalla, Sharif Colony",HGM5+Q4W,Sitamarhi,843302,Bihar,IN,https://www.google.com/maps/place/Masjid-e-Siddikiya/data=!4m7!3m6!1s0x39ecf127a08883f3:0x14b6f71c3ff562e8!8m2!3d26.5844888!4d85.5078316!16s%2Fg%2F11cst1j52t!19sChIJ84OIoCfx7DkR6GL1Pxz3thQ?authuser=0&hl=en&rclk=1,"26.5844888,85.5078316"
Haidari Masjid,Mosque,"JG23+53P Haidari Masjid, binmatola, Lane Number 2, SK Nagar, Sitamarhi, Bihar 843302",SK Nagar,"JG23+53P, binmatola, Lane Number 2",Sitamarhi,843302,Bihar,IN,https://www.google.com/maps/place/Haidari+Masjid/data=!4m7!3m6!1s0x39ecf1be8b7415d5:0x9ea9a9f42dafbb7d!8m2!3d26.6004655!4d85.5027011!16s%2Fg%2F11gjt5p9lw!19sChIJ1RV0i77x7DkRfbuvLfSpqZ4?authuser=0&hl=en&rclk=1,"26.6004655,85.5027011"
Masjid-E-Abu Bakar,Mosque,"Masjid-E-Abu Bakar, Islamiya - Mohallah, Chak Rajopatti, Bihar 843302",,Islamiya - Mohallah,Chak Rajopatti,843302,Bihar,IN,https://www.google.com/maps/place/Masjid-E-Abu+Bakar/data=!4m7!3m6!1s0x39ecf0d959559e89:0xb1cb35a1f011d3f2!8m2!3d26.5791248!4d85.5056182!16s%2Fg%2F11hd9nqw61!19sChIJiZ5VWdnw7DkR8tMR8KE1y7E?authuser=0&hl=en&rclk=1,"26.5791248,85.5056182"
Masjide Bilaal and madarsa Miftahul uloom,Mosque,"Masjide Bilaal and madarsa Miftahul uloom, Basatpur, Dumra, Bihar 843302",,Basatpur,"Dumra, Sitamarhi",843302,Bihar,IN,https://www.google.com/maps/place/Masjide+Bilaal+and+madarsa+Miftahul+uloom/data=!4m7!3m6!1s0x39ecf7c7aea11e85:0xcbd450182d6d1d77!8m2!3d26.5705609!4d85.5341572!16s%2Fg%2F11n_yp43kp!19sChIJhR6hrsf37DkRdx1tLRhQ1Ms?authuser=0&hl=en&rclk=1,"26.5705609,85.5341572"
Imam Ahmad Raza Jama Masjid,Mosque,"HGV3+42G Imam Ahmad Raza Jama Masjid, Sonavati Colony, Chak Rajopatti, Bihar 843301",Sonavati Colony,HGV3+42G,Chak Rajopatti,843301,Bihar,IN,https://www.google.com/maps/place/Imam+Ahmad+Raza+Jama+Masjid/data=!4m7!3m6!1s0x39ecf1aaddb904fb:0x54eb868f4e8b7013!8m2!3d26.5928232!4d85.5025745!16s%2Fg%2F11gy3jfdm9!19sChIJ-wS53arx7DkRE3CLTo-G61Q?authuser=0&hl=en&rclk=1,"26.592823199999998,85.5025745"
mdrsaa rij'viyaa nuuriyaa tlkhaapur ddumraa siitaamddh'ii bihaar,Mosque,"HG96+WV8 mdrsaa rij'viyaa nuuriyaa tlkhaapur ddumraa siitaamddh'ii bihaar, Talkhapur, Sitamarhi, Bihar 843302",Talkhapur,HG96+WV8,Sitamarhi,843302,Bihar,IN,https://www.google.com/maps/place/%E0%A4%AE%E0%A4%A6%E0%A4%B0%E0%A4%B8%E0%A4%BE+%E0%A4%B0%E0%A4%BF%E0%A4%9C%E0%A4%BC%E0%A4%B5%E0%A4%BF%E0%A4%AF%E0%A4%BE+%E0%A4%A8%E0%A5%82%E0%A4%B0%E0%A4%BF%E0%A4%AF%E0%A4%BE+%E0%A4%A4%E0%A4%B2%E0%A4%96%E0%A4%BE%E0%A4%AA%E0%A5%81%E0%A4%B0+%E0%A4%A1%E0%A5%81%E0%A4%AE%E0%A4%B0%E0%A4%BE+%E0%A4%B8%E0%A5%80%E0%A4%A4%E0%A4%BE%E0%A4%AE%E0%A4%A2%E0%A4%BC%E0%A5%80+%E0%A4%AC%E0%A4%BF%E0%A4%B9%E0%A4%BE%E0%A4%B0/data=!4m7!3m6!1s0x39ecf19acc2bdd63:0x2934f047865133a2!8m2!3d26.5697875!4d85.5122114!16s%2Fg%2F11q2773xmz!19sChIJY90rzJrx7DkRojNRhkfwNCk?authuser=0&hl=en&rclk=1,"26.5697875,85.5122114"
Chakmahila Masjid,Mosque,"HFPW+M8C Chakmahila Masjid, Madhuban Rd, Phulwaria, Chakmahila, Bihar 843302",Phulwaria,"HFPW+M8C, Madhuban Rd",Chakmahila,843302,Bihar,IN,https://www.google.com/maps/place/Chakmahila+Masjid/data=!4m7!3m6!1s0x39ecf11b8d3ae71f:0x3940ee8ef680bbad!8m2!3d26.5866785!4d85.4957667!16s%2Fg%2F11g0tfwzzx!19sChIJH-c6jRvx7DkRrbuA9o7uQDk?authuser=0&hl=en&rclk=1,"26.586678499999998,85.49576669999999"
RAZA JAMA MASJID KAMAL DAH SITAMARHI BIHAR,Mosque,"JHX3+49W RAZA JAMA MASJID KAMAL DAH SITAMARHI BIHAR, Sitamarhi, Kamal Dah, Bihar 843322",,JHX3+49W,"Sitamarhi, Kamal Dah",,Bihar,IN,https://www.google.com/maps/place/RAZA+JAMA+MASJID+KAMAL+DAH+SITAMARHI+BIHAR/data=!4m7!3m6!1s0x39ecf53b9ff730c3:0xd1bda34246dd2b41!8m2!3d26.6478609!4d85.5534412!16s%2Fg%2F11fhzgvdwt!19sChIJwzD3nzv17DkRQSvdRkKjvdE?authuser=0&hl=en&rclk=1,"26.647860899999998,85.5534412"
Dhanhara Sharif jama masjid,Mosque,"GCQ4+HGH Dhanhara Sharif jama masjid, Sitamarhi, Parsurampur, Bihar 843325",,GCQ4+HGH,"Sitamarhi, Parsurampur",,Bihar,IN,https://www.google.com/maps/place/Dhanhara+Sharif+jama+masjid/data=!4m7!3m6!1s0x39ecef05c03bc7cb:0xcd55fdaf4a8b1bcc!8m2!3d26.538938!4d85.406357!16s%2Fg%2F11s5775mvj!19sChIJy8c7wAXv7DkRzBuLSq_9Vc0?authuser=0&hl=en&rclk=1,"26.538937999999998,85.406357"
Jama Masjid,Mosque,"HGQM+6CG Jama Masjid, Unnamed Road, Bhairo Kothi, Bihar 843314",,"HGQM+6CG, Unnamed Road",Bhairo Kothi,843314,Bihar,IN,https://www.google.com/maps/place/Jama+Masjid/data=!4m7!3m6!1s0x39ecf7fd6deb13bb:0xb857df9a8108bc72!8m2!3d26.5880552!4d85.5335877!16s%2Fg%2F11h12h47jk!19sChIJuxPrbf337DkRcrwIgZrfV7g?authuser=0&hl=en&rclk=1,"26.5880552,85.5335877"
Nuri Jama Masjid,Mosque,"JG42+5QC Nuri Jama Masjid, Bihar 843314",,JG42+5QC,,843314,Bihar,IN,https://www.google.com/maps/place/Nuri+Jama+Masjid/data=!4m7!3m6!1s0x39ecf166c192fc25:0xa85dbfc51219c9fc!8m2!3d26.60545!4d85.5018802!16s%2Fg%2F11gns9ypqq!19sChIJJfySwWbx7DkR_MkZEsW_Xag?authuser=0&hl=en&rclk=1,"26.605449999999998,85.5018802"
Mosque,Mosque,"HFWV+VMV Mosque, Hospital Rd, KVJ Nagar, Sitamarhi, Bihar 843301",KVJ Nagar,"HFWV+VMV, Hospital Rd",Sitamarhi,843301,Bihar,IN,https://www.google.com/maps/place/Mosque/data=!4m7!3m6!1s0x39ecf19cab777fa9:0x829d3854fdb69f9c!8m2!3d26.5972428!4d85.4941782!16s%2Fg%2F11ghfdvgfn!19sChIJqX93q5zx7DkRnJ-2_VQ4nYI?authuser=0&hl=en&rclk=1,"26.5972428,85.4941782"
Shia Jama Masjid,Mosque,"Shia Jama Masjid, purvi, Husaina Mehsoul, Sitamarhi",,"purvi, Husaina Mehsoul",Sitamarhi,,Bihar,IN,https://www.google.com/maps/place/Shia+Jama+Masjid/data=!4m7!3m6!1s0x39ecf7c59c1c7973:0x1cea1faa4ad22070!8m2!3d26.59396!4d85.5228238!16s%2Fg%2F11pf2r1h7s!19sChIJc3kcnMX37DkRcCDSSqof6hw?authuser=0&hl=en&rclk=1,"26.59396,85.5228238"
iidgaah k'aadrii ngr tlkhaapur ddumraa siitaamddh'ii,Mosque,"HG96+XQQ iidgaah k'aadrii ngr tlkhaapur ddumraa siitaamddh'ii, Sitamarhi, Bihar 843302",,HG96+XQQ,Sitamarhi,,Bihar,IN,https://www.google.com/maps/place/%E0%A4%88%E0%A4%A6%E0%A4%97%E0%A4%BE%E0%A4%B9+%E0%A4%95%E0%A4%BC%E0%A4%BE%E0%A4%A6%E0%A4%B0%E0%A5%80+%E0%A4%A8%E0%A4%97%E0%A4%B0+%E0%A4%A4%E0%A4%B2%E0%A4%96%E0%A4%BE%E0%A4%AA%E0%A5%81%E0%A4%B0+%E0%A4%A1%E0%A5%81%E0%A4%AE%E0%A4%B0%E0%A4%BE+%E0%A4%B8%E0%A5%80%E0%A4%A4%E0%A4%BE%E0%A4%AE%E0%A4%A2%E0%A4%BC%E0%A5%80/data=!4m7!3m6!1s0x39ecf1d717a01841:0x66cc7cd3463e6527!8m2!3d26.5699748!4d85.5119906!16s%2Fg%2F11rd4z_nqc!19sChIJQRigF9fx7DkRJ2U-RtN8zGY?authuser=0&hl=en&rclk=1,"26.569974799999997,85.51199059999999"
Hazrat Bilal masjid kapraul siroman Sitamarhi Bihar,Mosque,"JF5W+R4W Hazrat Bilal masjid kapraul siroman Sitamarhi Bihar, Kapraul Siroman, Bihar 843302",,JF5W+R4W,Kapraul Siroman,843302,Bihar,IN,https://www.google.com/maps/place/Hazrat+Bilal+masjid+kapraul+siroman+Sitamarhi+Bihar/data=!4m7!3m6!1s0x39ecf1013478d70d:0x860f9319a4d265b2!8m2!3d26.6096004!4d85.495343!16s%2Fg%2F11nxcz69sw!19sChIJDdd4NAHx7DkRsmXSpBmTD4Y?authuser=0&hl=en&rclk=1,"26.609600399999998,85.49534299999999"
Badi Masjid Asif Bittu,Shopping mall,"HGV2+G43 Badi Masjid Asif Bittu, jame masjid Mehsaul chowk Jama masjid Mehsaul chowk, Bihar 843301",Sonavati Colony,"HGV2+G43, jame masjid Mehsaul chowk Jama masjid Mehsaul chowk","Chak Rajopatti, Sitamarhi",843301,Bihar,IN,https://www.google.com/maps/place/Badi+Masjid+Asif+Bittu/data=!4m7!3m6!1s0x39ecf165a3977273:0x17157f3cb662869d!8m2!3d26.5937695!4d85.5003091!16s%2Fg%2F11gvz6rhxn!19sChIJc3KXo2Xx7DkRnYZitjx_FRc?authuser=0&hl=en&rclk=1,"26.5937695,85.5003091"
Jama masjid karnahiya sitamarhi bihar,Mosque,"GFX6+QRF Jama masjid karnahiya sitamarhi bihar, Karnahia, Bihar 843302",,GFX6+QRF,Karnahia,843302,Bihar,IN,https://www.google.com/maps/place/Jama+masjid+karnahiya+sitamarhi+bihar/data=!4m7!3m6!1s0x39ecf11ef997dcbf:0x77747b0d709fea16!8m2!3d26.5494362!4d85.4620528!16s%2Fg%2F11pzw8zq8p!19sChIJv9yX-R7x7DkRFuqfcA17dHc?authuser=0&hl=en&rclk=1,"26.5494362,85.4620528"
Ahmadi jama masjid,Mosque,"Ahmadi jama masjid, Mehsaul, road, Sitamarhi, Bihar 843302",Malahi,"Mehsaul, road",Sitamarhi,843302,Bihar,IN,https://www.google.com/maps/place/Ahmadi+jama+masjid/data=!4m7!3m6!1s0x39ecf1b6730e031d:0xee740e1104808824!8m2!3d26.5938962!4d85.5035957!16s%2Fg%2F11t_rn6zrp!19sChIJHQMOc7bx7DkRJIiABBEOdO4?authuser=0&hl=en&rclk=1,"26.5938962,85.50359569999999"
Hazrat Bilal masjid kapraul,Mosque,"HFVQ+C7P Hazrat Bilal masjid kapraul, Bari Masjid Rd, Mahavir Asthan, Sitamarhi, Bihar 843302",Mahavir Asthan,"HFVQ+C7P, Bari Masjid Rd",Sitamarhi,843302,Bihar,IN,https://www.google.com/maps/place/Hazrat+Bilal+masjid+kapraul/data=!4m7!3m6!1s0x39ecf14012bce41d:0x230d8558699fde62!8m2!3d26.5935776!4d85.4881885!16s%2Fg%2F11q8gf_lw2!19sChIJHeS8EkDx7DkRYt6faViFDSM?authuser=0&hl=en&rclk=1,"26.5935776,85.48818849999999"
Jama masjid,Mosque,"JGJC+V2C Jama masjid, Sonoul subba, shekh toli, Sitamarhi, Sirauli, Bihar 843314",shekh toli,JGJC+V2C Sonoul subba,"Sitamarhi, Sirauli",,Bihar,IN,https://www.google.com/maps/place/Jama+masjid/data=!4m7!3m6!1s0x39ecf569eab56597:0x97f76f67eee697bf!8m2!3d26.6321781!4d85.520024!16s%2Fg%2F11sb7wrts0!19sChIJl2W16mn17DkRv5fm7mdv95c?authuser=0&hl=en&rclk=1,"26.632178099999997,85.52002399999999"
Noori masjid chandiha,,"HFWF+QX8 Noori masjid chandiha, Sitamarhi - Riga Rd, Bakhar Chandiha, Sitamarhi, Bihar 843302",Bakhar Chandiha,"HFWF+QX8, Sitamarhi - Riga Rd",Sitamarhi,,Bihar,IN,https://www.google.com/maps/place/Noori+masjid+chandiha/data=!4m7!3m6!1s0x39ecf106a7fac259:0x8519f531b991e811!8m2!3d26.5969235!4d85.4749407!16s%2Fg%2F11slsgm2z4!19sChIJWcL6pwbx7DkREeiRuTH1GYU?authuser=0&hl=en&rclk=1,"26.5969235,85.47494069999999"
Shia Jama Masjid,Mosque,"Shia Jama Masjid, purvi, Husaina Mehsoul, Sitamarhi, Bihar 843302",Ward Number 1,"purvi, Husaina Mehsoul","Sitamarhi, Mehsaul Pashchim",843302,Bihar,IN,https://www.google.com/maps/place/Shia+Jama+Masjid/data=!4m7!3m6!1s0x39ecf19cced0d0ab:0xcb758883776a16ff!8m2!3d26.5955013!4d85.5145288!16s%2Fg%2F11pf3kbxj6!19sChIJq9DQzpzx7DkR_xZqd4OIdcs?authuser=0&hl=en&rclk=1,"26.5955013,85.5145288"
Rahmania Chhoti Masjid,Mosque,"HGR9+H55 Rahmania Chhoti Masjid, Pupri Bajpatti Rd, Mehsaul Pashchim, Bihar 843302",,"HGR9+H55, Pupri Bajpatti Rd",Mehsaul Pashchim,843302,Bihar,IN,https://www.google.com/maps/place/Rahmania+Chhoti+Masjid/data=!4m7!3m6!1s0x39ecf12530497a91:0xdcd1dc4eabb94fab!8m2!3d26.5914518!4d85.5179241!16s%2Fg%2F11kjpfkm_f!19sChIJkXpJMCXx7DkRq0-5q07c0dw?authuser=0&hl=en&rclk=1,"26.591451799999998,85.5179241"
Masjid and Maqtab Bhisa,Mosque,"HG9H+J7V Masjid and Maqtab Bhisa, DAV Road, Shivpuri, Dumra, Sitamarhi, Bihar 843301",Shivpuri,"HG9H+J7V, DAV Road","Dumra, Sitamarhi",843301,Bihar,IN,https://www.google.com/maps/place/Masjid+and+Maqtab+Bhisa/data=!4m7!3m6!1s0x39ecf71f6a0baedb:0x2f57661290ab20ae!8m2!3d26.5691229!4d85.5281606!16s%2Fg%2F11p0g9xnvw!19sChIJ264Lah_37DkRriCrkBJmVy8?authuser=0&hl=en&rclk=1,"26.5691229,85.52816059999999"
Dumra Masjid,Mosque,"HG78+4G5 Dumra Masjid, Bazpatti, Sitamarhi, Bihar 843314",,HG78+4G5,"Bazpatti, Sitamarhi",843314,Bihar,IN,https://www.google.com/maps/place/Dumra+Masjid/data=!4m7!3m6!1s0x39ecf15937e08775:0x129fbde495baa0a1!8m2!3d26.5620196!4d85.5155185!16s%2Fg%2F11y1mf4kxm!19sChIJdYfgN1nx7DkRoaC6leS9nxI?authuser=0&hl=en&rclk=1,"26.5620196,85.5155185"
Husaina shia masjid ward no 42,Mosque,"Husaina shia masjid ward no 42, Hussaina Chowk, Pupri Road, Sitamarhi, Bihar 843314",,"Hussaina Chowk, Pupri Road",Sitamarhi,,Bihar,IN,https://www.google.com/maps/place/Husaina+shia+masjid+ward+no+42/data=!4m7!3m6!1s0x39ecf74bcbda0f85:0x77460f4e95f147bc!8m2!3d26.5888243!4d85.5280431!16s%2Fg%2F11txfk0g20!19sChIJhQ_ay0v37DkRvEfxlU4PRnc?authuser=0&hl=en&rclk=1,"26.5888243,85.52804309999999"
"chhwtty msjd , swtyhr",Mosque,"chhwtty msjd , swtyhr, swtyhr, pwstt, swtyhr,, Sitamarhi, Bihar 843302","swtyhr,","swtyhr, pwstt",Sitamarhi,,Bihar,IN,https://www.google.com/maps/place/%DA%86%DA%BE%D9%88%D9%B9%DB%8C+%D9%85%D8%B3%D8%AC%D8%AF+%D8%8C+%D8%B3%D9%88%D8%AA%DB%8C%DB%81%D8%A7%D8%B1%D8%A7%E2%80%AD/data=!4m7!3m6!1s0x39ecf1a67002ea67:0x2bb81ef85098a5a!8m2!3d26.5886287!4d85.5012408!16s%2Fg%2F11t0rx46_l!19sChIJZ-oCcKbx7DkRWooJhe-BuwI?authuser=0&hl=en&rclk=1,"26.588628699999997,85.50124079999999"
Masjid E Tayyaba,Religious institution,"JG47+54F Masjid E Tayyaba, urdu, Mohanpur, Sitamarhi, Bihar 843314",Mohanpur,"JG47+54F, urdu","Sitamarhi, Sirauli",843314,Bihar,IN,https://www.google.com/maps/place/Masjid+E+Tayyaba/data=!4m7!3m6!1s0x39ecf11d63652c2b:0xca9a8d87cb1b8fbd!8m2!3d26.6054294!4d85.5128008!16s%2Fg%2F11gk6nf64g!19sChIJKyxlYx3x7DkRvY8by4eNmso?authuser=0&hl=en&rclk=1,"26.6054294,85.5128008"
Abdul Salam masjid,Mosque,"Abdul Salam masjid, Aziz nager Punaura West ward 3 sitamarhi Bihar pin code, 843302",,Aziz nager Punaura West ward 3 sitamarhi Bihar pin code,,843302,Bihar,IN,https://www.google.com/maps/place/Abdul+Salam+masjid/data=!4m7!3m6!1s0x39ecf15f047451e1:0x8b66a857f4b3023e!8m2!3d26.5781079!4d85.4572826!16s%2Fg%2F11p0chzg23!19sChIJ4VF0BF_x7DkRPgKz9FeoZos?authuser=0&hl=en&rclk=1,"26.5781079,85.4572826"
Masjid,Mosque,"JG23+53R Masjid, SK Nagar, Bihar 843314",SK Nagar,JG23+53R,,843314,Bihar,IN,https://www.google.com/maps/place/Masjid/data=!4m7!3m6!1s0x39ecf1b3ca807c9f:0xf88b20c109175f3!8m2!3d26.6004762!4d85.5026294!16s%2Fg%2F11f6dj2z4m!19sChIJn3yAyrPx7DkR83WREAyyiA8?authuser=0&hl=en&rclk=1,"26.6004762,85.50262939999999"
"ZAFEER QURAISHI MEHSAUL GOT BADI MASJID, SITAMARHI BIHAR",Housing society,"ZAFEER QURAISHI MEHSAUL GOT BADI MASJID, SITAMARHI BIHAR, Zafeer Quraishi House, in front of KAMRUL KIRANA, Mehsaul Gote, Mehsaul Pashchim, Bihar 843302",,"Zafeer Quraishi House, in front of KAMRUL KIRANA","Mehsaul Gote, Mehsaul Pashchim",843302,Bihar,IN,"https://www.google.com/maps/place/ZAFEER+QURAISHI+MEHSAUL+GOT+BADI+MASJID,+SITAMARHI+BIHAR/data=!4m7!3m6!1s0x39ecf18f259f5fcb:0xcf012c45ae80056b!8m2!3d26.5924181!4d85.5132541!16s%2Fg%2F11t1g76wcv!19sChIJy1-fJY_x7DkRawWArkUsAc8?authuser=0&hl=en&rclk=1","26.5924181,85.5132541"
