name,main_category,address,address_ward,address_street,address_city,address_postal_code,address_state,address_country_code,link,coordinates
MASJID AI'SHAH R.A,Mosque,"MASJID AI'SHAH R.A, 1-3-186, Indira Market, Sriram Nagar, Kagaznagar, Telangana 504296","Indira Market, Sriram Nagar",1-3-186,Kagaznagar,504296,Telangana,IN,https://www.google.com/maps/place/MASJID+AI%27SHAH+R.A/data=!4m7!3m6!1s0x3a2d56bb01368ee3:0x21da7f9b2095a48e!8m2!3d19.3432186!4d79.4839366!16s%2Fg%2F11b6v0c92z!19sChIJ4442AbtWLToRjqSVIJt_2iE?authuser=0&hl=en&rclk=1,"19.3432186,79.48393659999999"
Al-Masjid Al-Salafiyya Umm Ul Momineen Aisha Siddiqa Raadhiallahu Anha,Mosque,"Al-Masjid Al-Salafiyya Umm Ul Momineen Aisha Siddiqa Raadhiallahu Anha, 1-3-186, Indira Market, Kagaznagar, Telangana 504296",Ward Number 3,"1-3-186, Indira Market",Kagaznagar,504296,Telangana,IN,https://www.google.com/maps/place/Al-Masjid+Al-Salafiyya+Umm+Ul+Momineen+Aisha+Siddiqa+Raadhiallahu+Anha/data=!4m7!3m6!1s0x3a2d57122ab10c9b:0x2366cf8f27649544!8m2!3d19.343273!4d79.483942!16s%2Fg%2F11px9yb4sd!19sChIJmwyxKhJXLToRRJVkJ4_PZiM?authuser=0&hl=en&rclk=1,"19.343273,79.483942"
Masjid-e-Rahmania,Mosque,"MG5H+P96 Masjid-e-Rahmania, Dasnapur, Sapthagiri Colony, chaitanyapuri, Adilabad, Telangana 504001","Dasnapur, Sapthagiri Colony, chaitanyapuri",MG5H+P96,Adilabad,504001,Telangana,IN,https://www.google.com/maps/place/Masjid-e-Rahmania/data=!4m7!3m6!1s0x3bd25c643f4fdb2f:0xa503fe99bb42906e!8m2!3d19.6592958!4d78.5283772!16s%2Fg%2F1w2ysb6c!19sChIJL9tPP2Rc0jsRbpBCu5n-A6U?authuser=0&hl=en&rclk=1,"19.6592958,78.5283772"
Masjid-e-Firdous,Mosque,"MG6G+978 Masjid-e-Firdous, Rickshaw Colony, Adilabad, Telangana 504001",Rickshaw Colony,MG6G+978,Adilabad,504001,Telangana,IN,https://www.google.com/maps/place/Masjid-e-Firdous/data=!4m7!3m6!1s0x3bd25c6379b59d8d:0x6f222369871ef4cd!8m2!3d19.6609205!4d78.525713!16s%2Fg%2F11b6tqg984!19sChIJjZ21eWNc0jsRzfQeh2kjIm8?authuser=0&hl=en&rclk=1,"19.6609205,78.525713"
Masjid al-Kausar,Mosque,"8FQH+H37 Masjid al-Kausar, 1-14-71/1, Kausar Nagar, Sriram Nagar, Kagaznagar, Telangana 504296","Kausar Nagar, Sriram Nagar","8FQH+H37, 1-14-71/1",Kagaznagar,504296,Telangana,IN,https://www.google.com/maps/place/Masjid+al-Kausar/data=!4m7!3m6!1s0x3a2d56a47baa058d:0x1c8a9f1315d0247!8m2!3d19.3410318!4d79.4783643!16s%2Fg%2F1tj7cgkk!19sChIJjQWqe6RWLToRRwJdMfGpyAE?authuser=0&hl=en&rclk=1,"19.3410318,79.4783643"
Masjid-E-Taneem,Mosque,"MG8P+GJ2 Masjid-E-Taneem, Shanti Nagar, Adilabad, Telangana 504001",Shanti Nagar,MG8P+GJ2,Adilabad,504001,Telangana,IN,https://www.google.com/maps/place/Masjid-E-Taneem/data=!4m7!3m6!1s0x3bd25c7196951817:0xe1695f659d337d7!8m2!3d19.6662707!4d78.5365283!16s%2Fg%2F11c52zx1f3!19sChIJFxiVlnFc0jsR1zfTWfaVFg4?authuser=0&hl=en&rclk=1,"19.6662707,78.5365283"
Mohammadia Masjid,Mosque,"MGFH+M8P Mohammadia Masjid, NH 44, Vidya Nagar, Adilabad, Telangana 504001",Vidya Nagar,"MGFH+M8P, NH 44",Adilabad,504001,Telangana,IN,https://www.google.com/maps/place/Mohammadia+Masjid/data=!4m7!3m6!1s0x3bd25c7892a2eb3b:0x89c3b0daf8ff360!8m2!3d19.6742243!4d78.5283275!16s%2Fg%2F1tjz1t_5!19sChIJO-uiknhc0jsRYPOPrw07nAg?authuser=0&hl=en&rclk=1,"19.6742243,78.5283275"
Masjid_E_Quba,Mosque,"Masjid_E_Quba, 2-5-216, beside Masjid E Quba Khila, Mohalla Badh, Adilabad, Telangana 504001",Mohalla Badh,"2-5-216, beside Masjid E Quba Khila",Adilabad,504001,Telangana,IN,https://www.google.com/maps/place/Masjid_E_Quba/data=!4m7!3m6!1s0x3bd25bedeaaaaaab:0xe29f9a411d92289b!8m2!3d19.6793188!4d78.5406475!16s%2Fg%2F11bwkvtnj8!19sChIJq6qq6u1b0jsRmyiSHUGan-I?authuser=0&hl=en&rclk=1,"19.6793188,78.54064749999999"
Masjid-e-Meraj,Mosque,"Masjid-e-Meraj, Police lane, Sanjay Nagar, Adilabad, Bhattisavargaon, Telangana 504001",Sanjay Nagar,Police lane,"Adilabad, Bhattisavargaon",504001,Telangana,IN,https://www.google.com/maps/place/Masjid-e-Meraj/data=!4m7!3m6!1s0x3bd25c80a40634d7:0x99b706696d47a613!8m2!3d19.6674917!4d78.5163997!16s%2Fg%2F1tr7b846!19sChIJ1zQGpIBc0jsRE6ZHbWkGt5k?authuser=0&hl=en&rclk=1,"19.6674917,78.5163997"
Masjid E Arafath,Mosque,"MG9W+PJJ Masjid E Arafath, arfath nagar, Adilabad, Telangana 504001",arfath nagar,MG9W+PJJ,Adilabad,504001,Telangana,IN,https://www.google.com/maps/place/Masjid+E+Arafath/data=!4m7!3m6!1s0x3bd25c0c5e111929:0x778ec5e1e693b913!8m2!3d19.6693375!4d78.5465156!16s%2Fg%2F11dxl2lpw0!19sChIJKRkRXgxc0jsRE7mT5uHFjnc?authuser=0&hl=en&rclk=1,"19.669337499999997,78.54651559999999"
Masjid E Abubaker,Mosque,"MG8V+54F Masjid E Abubaker, Shanti Nagar, Adilabad, Telangana 504001",Shanti Nagar,MG8V+54F,Adilabad,504001,Telangana,IN,https://www.google.com/maps/place/Masjid+E+Abubaker/data=!4m7!3m6!1s0x3bd25c72afd994d1:0x55e84f035f33b282!8m2!3d19.6654385!4d78.542794!16s%2Fg%2F11c1wsmygw!19sChIJ0ZTZr3Jc0jsRgrIzXwNP6FU?authuser=0&hl=en&rclk=1,"19.6654385,78.542794"
Madina Masjid mdynh msjd,Mosque,"MGCJ+GX8 Madina Masjid mdynh msjd, Netaji Chowk Rd, Ponnar, Bhuktapur, Telangana 504001",Ponnar,"MGCJ+GX8, Netaji Chowk Rd",Bhuktapur,504001,Telangana,IN,https://www.google.com/maps/place/Madina+Masjid+%D9%85%D8%AF%DB%8C%D9%86%DB%81+%D9%85%D8%B3%D8%AC%D8%AF%E2%80%AD/data=!4m7!3m6!1s0x3bd25c7742dd0b05:0xf2fb259a889bfa78!8m2!3d19.6712846!4d78.5324561!16s%2Fg%2F11fzzxxq7l!19sChIJBQvdQndc0jsRePqbiJol-_I?authuser=0&hl=en&rclk=1,"19.6712846,78.53245609999999"
Muhammadiya Masjid,Mosque,"MG29+X76 Muhammadiya Masjid, Ramnagar Colony, Adilabad, Telangana 504001",Ramnagar Colony,MG29+X76,Adilabad,504001,Telangana,IN,https://www.google.com/maps/place/Muhammadiya+Masjid/data=!4m7!3m6!1s0x3bd25c8ad95e1f51:0xc9001b8ca6d7fd64!8m2!3d19.6524043!4d78.5181462!16s%2Fg%2F11cn7qqr7d!19sChIJUR9e2Ypc0jsRZP3XpowbAMk?authuser=0&hl=en&rclk=1,"19.6524043,78.51814619999999"
Masjid e Noorani,Mosque,"Masjid e Noorani, Kapuwada, Kagaznagar, Telangana 504296",Kapuwada,,Kagaznagar,504296,Telangana,IN,https://www.google.com/maps/place/Masjid+e+Noorani/data=!4m7!3m6!1s0x3a2d56b93b09e1f7:0x357a83cab19e831f!8m2!3d19.3420694!4d79.4891953!16s%2Fg%2F11bw7jjxtw!19sChIJ9-EJO7lWLToRH4OescqDejU?authuser=0&hl=en&rclk=1,"19.3420694,79.48919529999999"
Fathima Masjid,Mosque,"MGFF+676 Fathima Masjid, Sanjay Nagar, Adilabad, Telangana 504001",Sanjay Nagar,MGFF+676,Adilabad,504001,Telangana,IN,https://www.google.com/maps/place/Fathima+Masjid/data=!4m7!3m6!1s0x3bd25c7fa619132f:0x3fc5279c8cd8c162!8m2!3d19.6730467!4d78.5231404!16s%2Fg%2F11g65c9p2q!19sChIJLxMZpn9c0jsRYsHYjJwnxT8?authuser=0&hl=en&rclk=1,"19.6730467,78.5231404"
Abubakr masjid,Mosque,"MG8R+J7F Abubakr masjid, Shanti Nagar, Adilabad, Telangana 504001",Shanti Nagar,MG8R+J7F,Adilabad,504001,Telangana,IN,https://www.google.com/maps/place/Abubakr+masjid/data=!4m7!3m6!1s0x3bd25c72f6f46bc9:0xcd16458f413f5d2e!8m2!3d19.6665675!4d78.5406681!16s%2Fg%2F11c607nzf4!19sChIJyWv09nJc0jsRLl0_QY9FFs0?authuser=0&hl=en&rclk=1,"19.6665675,78.54066809999999"
Masjid-e-Qadeem,Mosque,"8FXM+3MX Masjid-e-Qadeem, Nizamuddin Colony, Kagaznagar, Telangana 504296",Nizamuddin Colony,8FXM+3MX,Kagaznagar,504296,Telangana,IN,https://www.google.com/maps/place/Masjid-e-Qadeem/data=!4m7!3m6!1s0x3a2d56b063da2fbd:0xe321e240d18cecbb!8m2!3d19.3477485!4d79.4842215!16s%2Fg%2F11bw65hd1l!19sChIJvS_aY7BWLToRu-yM0UDiIeM?authuser=0&hl=en&rclk=1,"19.347748499999998,79.48422149999999"
"Jama Masjid, Kagaznagar",Mosque,"8FXP+GH7 Jama Masjid, Kagaznagar, near Spm Gate, Kagaznagar, Telangana 504296",,"8FXP+GH7, near Spm Gate",Kagaznagar,504296,Telangana,IN,"https://www.google.com/maps/place/Jama+Masjid,+Kagaznagar/data=!4m7!3m6!1s0x3a2d56b0c5a924a5:0x1616f5cf3e128492!8m2!3d19.3488!4d79.4864136!16s%2Fg%2F11bw7_2vw3!19sChIJpSSpxbBWLToRkoQSPs_1FhY?authuser=0&hl=en&rclk=1","19.3488,79.48641359999999"
Masjid-e-Amera | msjd `myrh,Mosque,"8FVM+P2F Masjid-e-Amera | msjd `myrh, New Indira Market, Kagaznagar, Telangana",Ward Number 3,"8FVM+P2F, New Indira Market",Kagaznagar,,Telangana,IN,https://www.google.com/maps/place/Masjid-e-Amera+%7C+%D9%85%D8%B3%D8%AC%D8%AF+%D8%B9%D8%A7%D9%85%DB%8C%D8%B1%D8%A7%DB%81%E2%80%AD/data=!4m7!3m6!1s0x3a2d56badb25cd45:0x64c23d8b7bb9f786!8m2!3d19.3443152!4d79.4825415!16s%2Fg%2F11b6w96mkl!19sChIJRc0l27pWLToRhve5e4s9wmQ?authuser=0&hl=en&rclk=1,"19.3443152,79.4825415"
Masjid e Nasar,Mosque,"8FXH+2V4 Masjid e Nasar, Kagaznagar, Telangana 504296",,8FXH+2V4,Kagaznagar,504296,Telangana,IN,https://www.google.com/maps/place/Masjid+e+Nasar/data=!4m7!3m6!1s0x3a2d56af8e04a971:0x8eefd28da8ea9968!8m2!3d19.3475054!4d79.4797024!16s%2Fg%2F11bxf9z03y!19sChIJcakEjq9WLToRaJnqqI3S744?authuser=0&hl=en&rclk=1,"19.3475054,79.4797024"
Masjid e Ansar,Mosque,"Masjid e Ansar, Colony, Sirsilk Rd, Kagaznagar, Telangana 504296",,"Colony, Sirsilk Rd",Kagaznagar,504296,Telangana,IN,https://www.google.com/maps/place/Masjid+e+Ansar/data=!4m7!3m6!1s0x3a2d56b520c4819d:0x41e365a54af75873!8m2!3d19.3575975!4d79.4901958!16s%2Fg%2F11bw83jqr_!19sChIJnYHEILVWLToRc1j3SqVl40E?authuser=0&hl=en&rclk=1,"19.3575975,79.4901958"
MASJID E MAHEBOOB E SUBHANI ( Markaz e Ahle Sunnat ),Mosque,"MASJID E MAHEBOOB E SUBHANI ( Markaz e Ahle Sunnat ), Sanjay Nagar, Adilabad, Telangana 504001",Sanjay Nagar,,Adilabad,504001,Telangana,IN,https://www.google.com/maps/place/MASJID+E+MAHEBOOB+E+SUBHANI+%28+Markaz+e+Ahle+Sunnat+%29/data=!4m7!3m6!1s0x3bd25c7cd0000001:0xe56e990e56fe962c!8m2!3d19.6669356!4d78.5213162!16s%2Fg%2F11c2kk77hk!19sChIJAQAA0Hxc0jsRLJb-Vg6ZbuU?authuser=0&hl=en&rclk=1,"19.6669356,78.5213162"
Masjid,Mosque,"HFPR+4Q8 Masjid, Adilabad, Telangana 504308",,HFPR+4Q8,Adilabad,504308,Telangana,IN,https://www.google.com/maps/place/Masjid/data=!4m7!3m6!1s0x3bd25d5bfe1eb429:0x753a217332ff9baa!8m2!3d19.5852914!4d78.4919588!16s%2Fg%2F11dxq2d28t!19sChIJKbQe_ltd0jsRqpv_MnMhOnU?authuser=0&hl=en&rclk=1,"19.5852914,78.49195879999999"
Masjid E Umar E Farooq Raadhiallahu Anhu,Mosque,"9F5C+HRF Masjid E Umar E Farooq Raadhiallahu Anhu, Ahmed.Raza.Colony, Kagaznagar, Telangana 504296",Ahmed.Raza.Colony,9F5C+HRF,Kagaznagar,504296,Telangana,IN,https://www.google.com/maps/place/Masjid+E+Umar+E+Farooq+Raadhiallahu+Anhu/data=!4m7!3m6!1s0x3a2d51553eee9879:0x8a39ea93011e9574!8m2!3d19.3589342!4d79.4720342!16s%2Fg%2F11bw6843jl!19sChIJeZjuPlVRLToRdJUeAZPqOYo?authuser=0&hl=en&rclk=1,"19.3589342,79.4720342"
ILAHIYA MASJID,Mosque,"MGMH+97P ILAHIYA MASJID, Indira Nagar Rd, Bhagya Nagar, Adilabad, Telangana 504001",Bhagya Nagar,"MGMH+97P, Indira Nagar Rd",Adilabad,504001,Telangana,IN,https://www.google.com/maps/place/ILAHIYA+MASJID/data=!4m7!3m6!1s0x3bd25b8444ebd13f:0xe27cf6a1114241d4!8m2!3d19.6834654!4d78.5282048!16s%2Fg%2F11fzfhsmc2!19sChIJP9HrRIRb0jsR1EFCEaH2fOI?authuser=0&hl=en&rclk=1,"19.6834654,78.5282048"
Masjid E-munawar,Mosque,"MGHG+WFR Masjid E-munawar, Indira Nagar, Bhagya Nagar, Adilabad, Telangana 504001","Indira Nagar, Bhagya Nagar",MGHG+WFR,Adilabad,504001,Telangana,IN,https://www.google.com/maps/place/Masjid+E-munawar/data=!4m7!3m6!1s0x3bd25b814a89a5d1:0x13757a533e5d9127!8m2!3d19.6798716!4d78.5261472!16s%2Fg%2F11g5_f9f2n!19sChIJ0aWJSoFb0jsRJ5FdPlN6dRM?authuser=0&hl=en&rclk=1,"19.6798716,78.5261472"
masjid e noor,Mosque,"MG4Q+H92 masjid e noor, Sri Rama Colony, Adilabad, Telangana 504001",Sri Rama Colony,MG4Q+H92,Adilabad,504001,Telangana,IN,https://www.google.com/maps/place/masjid+e+noor/data=!4m7!3m6!1s0x3bd25c6bd009a42f:0x83777eaad70e454d!8m2!3d19.6563983!4d78.5384053!16s%2Fg%2F11c5t1smfj!19sChIJL6QJ0Gtc0jsRTUUO16p-d4M?authuser=0&hl=en&rclk=1,"19.6563983,78.5384053"
Masjid e Khadim,Mosque,"FHHF+MW9 Masjid e Khadim, Pet Mohalla, Sirpur, Telangana 504299",,FHHF+MW9 Pet Mohalla,Sirpur,504299,Telangana,IN,https://www.google.com/maps/place/Masjid+e+Khadim/data=!4m7!3m6!1s0x3a2d45425afd0481:0xbb8003f82b6742d8!8m2!3d19.4791742!4d79.5748539!16s%2Fg%2F11c3w0kdh5!19sChIJgQT9WkJFLToR2EJnK_gDgLs?authuser=0&hl=en&rclk=1,"19.4791742,79.5748539"
Khanka E Mohammadi,Mosque,"MGJV+P72 Khanka E Mohammadi, Tirupally, Adilabad, Telangana 504001",Tirupally,MGJV+P72,Adilabad,504001,Telangana,IN,https://www.google.com/maps/place/Khanka+E+Mohammadi/data=!4m7!3m6!1s0x3bd25bd22744411f:0x22b8cbaf2829e2c7!8m2!3d19.6817626!4d78.5431504!16s%2Fg%2F11g1rbmtkk!19sChIJH0FEJ9Jb0jsRx-IpKK_LuCI?authuser=0&hl=en&rclk=1,"19.6817626,78.5431504"
Masjid E Mujtab Sunnatul Jamat,Mosque,"9F5V+PFV Masjid E Mujtab Sunnatul Jamat, Kagaznagar, Telangana 504296",,9F5V+PFV,Kagaznagar,504296,Telangana,IN,https://www.google.com/maps/place/Masjid+E+Mujtab+Sunnatul+Jamat/data=!4m7!3m6!1s0x3a2d51354e04ccd1:0xc6571f4357c154c3!8m2!3d19.3593655!4d79.4936785!16s%2Fg%2F11f00j6kvz!19sChIJ0cwETjVRLToRw1TBV0MfV8Y?authuser=0&hl=en&rclk=1,"19.3593655,79.4936785"
Masjid-e-Aamina,Mosque,"8FRV+PV6 Masjid-e-Aamina, Bhatpalli Rd, Kagaznagar, Telangana 504296",,"8FRV+PV6, Bhatpalli Rd",Kagaznagar,504296,Telangana,IN,https://www.google.com/maps/place/Masjid-e-Aamina/data=!4m7!3m6!1s0x3a2d56c7315505f3:0x478330fdb4e0ec72!8m2!3d19.3417809!4d79.494654!16s%2Fg%2F11f51zzsj0!19sChIJ8wVVMcdWLToRcuzgtP0wg0c?authuser=0&hl=en&rclk=1,"19.3417809,79.494654"
Masjid e Taiba,Mosque,"Masjid e Taiba, Industrial Area, near HP Petrol Pump, Kagaznagar, Telangana 504296",,"Industrial Area, near HP Petrol Pump",Kagaznagar,504296,Telangana,IN,https://www.google.com/maps/place/Masjid+e+Taiba/data=!4m7!3m6!1s0x3a2d56a9f9e46a0d:0x9a80284099893d90!8m2!3d19.3515515!4d79.4710951!16s%2Fg%2F11bw77v1l8!19sChIJDWrk-alWLToRkD2JmUAogJo?authuser=0&hl=en&rclk=1,"19.3515515,79.4710951"
Masjid E IBrahimiya,Mosque,"Masjid E IBrahimiya, Shanti Nagar, Adilabad, Telangana 504001",Shanti Nagar,,Adilabad,504001,Telangana,IN,https://www.google.com/maps/place/Masjid+E+IBrahimiya/data=!4m7!3m6!1s0x3bd25d44b0027dc7:0x5b9c582e308fceb0!8m2!3d19.6688451!4d78.5432386!16s%2Fg%2F11flbsbk92!19sChIJx30CsERd0jsRsM6PMC5YnFs?authuser=0&hl=en&rclk=1,"19.6688451,78.5432386"
Masjid al-Ikhlas,Mosque,"9F8P+632 Masjid al-Ikhlas, Sirsilk Rd, beside Fire Station, Kagaznagar, Telangana 504296",,"9F8P+632, Sirsilk Rd, beside Fire Station",Kagaznagar,504296,Telangana,IN,https://www.google.com/maps/place/Masjid+al-Ikhlas/data=!4m7!3m6!1s0x3a2d5156dce6632b:0x88f967c40aed6e51!8m2!3d19.3655101!4d79.4851321!16s%2Fg%2F11ll8dp_b0!19sChIJK2Pm3FZRLToRUW7tCsRn-Yg?authuser=0&hl=en&rclk=1,"19.365510099999998,79.4851321"
Masjid e Abrar,Mosque,"Masjid e Abrar, Pakeeza Nagar, Bareguda, Kagaznagar, Telangana 504296",,Pakeeza Nagar,"Bareguda, Kagaznagar",504296,Telangana,IN,https://www.google.com/maps/place/Masjid+e+Abrar/data=!4m7!3m6!1s0x3a2d56a3c9998f43:0x4a9d72ede0a21436!8m2!3d19.3378967!4d79.4772796!16s%2Fg%2F11bwkm5kt3!19sChIJQ4-ZyaNWLToRNhSi4O1ynUo?authuser=0&hl=en&rclk=1,"19.337896699999998,79.4772796"
Masjid e Noorani,Mosque,"MGMQ+P66 Masjid e Noorani, Mahalaxmiwada, Adilabad, Telangana 504001",Mahalaxmiwada,MGMQ+P66,Adilabad,504001,Telangana,IN,https://www.google.com/maps/place/Masjid+e+Noorani/data=!4m7!3m6!1s0x3bd25b71656d7da1:0x9db65c4943296ea6!8m2!3d19.6842802!4d78.5380187!16s%2Fg%2F11gphd3bdg!19sChIJoX1tZXFb0jsRpm4pQ0lctp0?authuser=0&hl=en&rclk=1,"19.6842802,78.5380187"
Nagina Mosque,Mosque,"MGJM+HP5 Nagina Mosque, Tatiguda Colony, Adilabad, Telangana 504001",Tatiguda Colony,MGJM+HP5,Adilabad,504001,Telangana,IN,https://www.google.com/maps/place/Nagina+Mosque/data=!4m7!3m6!1s0x3bd25b4ce49791ef:0x49520374c45c5a0!8m2!3d19.6813908!4d78.5343507!16s%2Fg%2F11h6tjfc17!19sChIJ75GX5Exb0jsRoMVFTDcglQQ?authuser=0&hl=en&rclk=1,"19.6813908,78.53435069999999"
Masjid-e-Hazrat Syedna Ali,Mosque,"Masjid-e-Hazrat Syedna Ali, Tatiguda Colony, Adilabad, Telangana 504001",Tatiguda Colony,,Adilabad,504001,Telangana,IN,https://www.google.com/maps/place/Masjid-e-Hazrat+Syedna+Ali/data=!4m7!3m6!1s0x3bd25b054f1b7477:0xbe5511ba6cbe653a!8m2!3d19.6844778!4d78.5344335!16s%2Fg%2F11h_488z3f!19sChIJd3QbTwVb0jsROmW-bLoRVb4?authuser=0&hl=en&rclk=1,"19.6844778,78.53443349999999"
Masjid-e-Aqsa,Mosque,"Masjid-e-Aqsa, C, Babu Colony, Kagaznagar, Telangana 504296",Babu Colony,C,Kagaznagar,504296,Telangana,IN,https://www.google.com/maps/place/Masjid-e-Aqsa/data=!4m7!3m6!1s0x3a2d573ca2ab7e55:0xd6c91fd9a55532d!8m2!3d19.338031!4d79.4886317!16s%2Fg%2F11kxknz7mp!19sChIJVX6rojxXLToRLVNVmv2RbA0?authuser=0&hl=en&rclk=1,"19.338031,79.4886317"
Masjid e Afsana,Mosque,"JGRP+7WM Masjid e Afsana, KRK Rd, KRK Colony, Khoja Colony, Adilabad, Telangana 504001","KRK Colony, Khoja Colony","JGRP+7WM, KRK Rd",Adilabad,504001,Telangana,IN,https://www.google.com/maps/place/Masjid+e+Afsana/data=!4m7!3m6!1s0x3bd25d5d2e428473:0xd94d955bdaa63bd4!8m2!3d19.6407052!4d78.5372911!16s%2Fg%2F11t4wlk9cp!19sChIJc4RCLl1d0jsR1Dum2luVTdk?authuser=0&hl=en&rclk=1,"19.6407052,78.53729109999999"
Masjid-e-Muhammadiyya,Mosque,"Masjid-e-Muhammadiyya, H.No: 2-6-263/A Nogam Basthi, Kagaznagar, Telangana 504296",,H.No: 2-6-263/A Nogam Basthi,Kagaznagar,504296,Telangana,IN,https://www.google.com/maps/place/Masjid-e-Muhammadiyya/data=!4m7!3m6!1s0x3a2d57c2ffbb6a51:0x436e0f567a69b428!8m2!3d19.3498972!4d79.4772235!16s%2Fg%2F11h7d_19d5!19sChIJUWq7_8JXLToRKLRpelYPbkM?authuser=0&hl=en&rclk=1,"19.349897199999997,79.4772235"
Masjid-E-mehraj,Mosque,"9F5M+Q6X Masjid-E-mehraj, Kagaznagar, Telangana 504296",,9F5M+Q6X,Kagaznagar,504296,Telangana,IN,https://www.google.com/maps/place/Masjid-E-mehraj/data=!4m7!3m6!1s0x3a2d512301acbe4f:0xa16b6b0da34d435a!8m2!3d19.3594803!4d79.4831088!16s%2Fg%2F11kgcjm_5t!19sChIJT76sASNRLToRWkNNow1ra6E?authuser=0&hl=en&rclk=1,"19.359480299999998,79.4831088"
Masjid-E-ibraheem bin abbas,Mosque,"MGGX+2JV Masjid-E-ibraheem bin abbas, Ambedkar Nagar, Adilabad, Telangana 504001",Ambedkar Nagar,MGGX+2JV,Adilabad,504001,Telangana,IN,https://www.google.com/maps/place/Masjid-E-ibraheem+bin+abbas/data=!4m7!3m6!1s0x3bd25dca817e57db:0x80929612f281e68c!8m2!3d19.6751132!4d78.5490388!16s%2Fg%2F11jz2dzlg7!19sChIJ21d-gcpd0jsRjOaB8hKWkoA?authuser=0&hl=en&rclk=1,"19.6751132,78.54903879999999"
Makkah Masjid,Mosque,"JGVP+75 Makkah Masjid, Khoja Colony, Adilabad, Telangana 504001",Khoja Colony,JGVP+75,Adilabad,504001,Telangana,IN,https://www.google.com/maps/place/Makkah+Masjid/data=!4m7!3m6!1s0x3bd25d02ee832577:0x98776ac946be5479!8m2!3d19.6431637!4d78.5353692!16s%2Fg%2F11r_wlfhm2!19sChIJdyWD7gJd0jsReVS-Rslqd5g?authuser=0&hl=en&rclk=1,"19.6431637,78.53536919999999"
Masjid-E-Kausar,Mosque,"MG8Q+6M8 Masjid-E-Kausar, Shanti Nagar, Adilabad, Telangana 504001",Shanti Nagar,MG8Q+6M8,Adilabad,504001,Telangana,IN,https://www.google.com/maps/place/Masjid-E-Kausar/data=!4m7!3m6!1s0x3bd25c726cbfffff:0xdcc8a30755b4260c!8m2!3d19.6655322!4d78.5391992!16s%2Fg%2F11txmzh9h_!19sChIJ__-_bHJc0jsRDCa0VQejyNw?authuser=0&hl=en&rclk=1,"19.665532199999998,78.5391992"
Ansar masjid,Mosque,"9F5J+7W4 Ansar masjid, Kagaznagar, Telangana 504296",,9F5J+7W4,Kagaznagar,504296,Telangana,IN,https://www.google.com/maps/place/Ansar+masjid/data=!4m7!3m6!1s0x3a2d57b977fdbe6d:0x6960a1717e731215!8m2!3d19.3581456!4d79.4823339!16s%2Fg%2F11rsc1y_tg!19sChIJbb79d7lXLToRFRJzfnGhYGk?authuser=0&hl=en&rclk=1,"19.3581456,79.4823339"
Mecca masjid,Mosque,"MGP8+9W4 Mecca masjid, Ranadive Nagar, Adilabad, Telangana 504001",Ranadive Nagar,MGP8+9W4,Adilabad,504001,Telangana,IN,https://www.google.com/maps/place/Mecca+masjid/data=!4m7!3m6!1s0x3bd25bb7b3fb23e1:0x87b034458c3a1168!8m2!3d19.6862525!4d78.5171874!16s%2Fg%2F11stb2lqs3!19sChIJ4SP7s7db0jsRaBE6jEU0sIc?authuser=0&hl=en&rclk=1,"19.6862525,78.5171874"
Masjid-e-afreen,Mosque,"MGGF+4FV Masjid-e-afreen, khursheed Nagar, Adilabad, Telangana 504001",khursheed Nagar,MGGF+4FV,Adilabad,504001,Telangana,IN,https://www.google.com/maps/place/Masjid-e-afreen/data=!4m7!3m6!1s0x3bd25b038e0e96e3:0x1f892d183a40c1ab!8m2!3d19.6753577!4d78.5236845!16s%2Fg%2F11nn1rkr2z!19sChIJ45YOjgNb0jsRq8FAOhgtiR8?authuser=0&hl=en&rclk=1,"19.6753577,78.5236845"
KHANKHA E MOHAMMADI ADILABAD,Mosque,"MG7H+84G KHANKHA E MOHAMMADI ADILABAD, Adilabad Main Rd, Satnala Quarters, chaitanyapuri, Adilabad, Telangana 504001","Satnala Quarters, chaitanyapuri","MG7H+84G, Adilabad Main Rd",Adilabad,504001,Telangana,IN,https://www.google.com/maps/place/KHANKHA+E+MOHAMMADI+ADILABAD/data=!4m7!3m6!1s0x3bd25d7de627a569:0x4868af4429eca682!8m2!3d19.6633136!4d78.5278399!16s%2Fg%2F11nxrkqmlw!19sChIJaaUn5n1d0jsRgqbsKUSvaEg?authuser=0&hl=en&rclk=1,"19.6633136,78.52783989999999"
Madeena Masjid,Mosque,"89F9+473 Madeena Masjid, SH1, Khairgaon, Telangana 504292",,"89F9+473, SH1",Khairgaon,,Telangana,IN,https://www.google.com/maps/place/Madeena+Masjid/data=!4m7!3m6!1s0x3bd2ab55de777551:0xd86d0f49d393c93f!8m2!3d19.3227714!4d79.3681607!16s%2Fg%2F11gwm9j8f5!19sChIJUXV33lWr0jsRP8mT00kPbdg?authuser=0&hl=en&rclk=1,"19.3227714,79.36816069999999"
