name,main_category,address,address_ward,address_street,address_city,address_postal_code,address_state,address_country_code,link,coordinates
Hooghly Imambara,Historical place,"Hooghly Imambara, Imambara Rd, near D.M Banglw, Chowk Bazar, Olaichanditala, Chinsurah, West Bengal 712103","Chowk Bazar, Olaichanditala","Imambara Rd, near D.M Banglw",Chinsurah,712103,West Bengal,IN,https://www.google.com/maps/place/Hooghly+Imambara/data=!4m7!3m6!1s0x39f893f839cc5d37:0x545c017c6b34b306!8m2!3d22.9084224!4d88.3998853!16s%2Fm%2F0hzrsc5!19sChIJN13MOfiT-DkRBrM0a3wBXFQ?authuser=0&hl=en&rclk=1,"22.9084224,88.3998853"
KORATI PARA MASJID,Mosque,"KORATI PARA MASJID, 7/B ABDUL KHALEK SARANI, Abdul Kalam Azad Rd, Konnagar, West Bengal 712235",Konnagar,"7/B ABDUL KHALEK SARANI, Abdul Kalam Azad Rd",,712235,West Bengal,IN,https://www.google.com/maps/place/KORATI+PARA+MASJID/data=!4m7!3m6!1s0x39f89dd81ae17389:0x8ac0eeff4cf552a!8m2!3d22.7042682!4d88.354151!16s%2Fg%2F11py71mqyl!19sChIJiXPhGtid-DkRKlXP9O8OrAg?authuser=0&hl=en&rclk=1,"22.704268199999998,88.354151"
Jamiate Ahle Hadees Hooghly( jm`y@ 'hl lHdyth hwGly),Religious organization,"Jamiate Ahle Hadees Hooghly( jm`y@ 'hl lHdyth hwGly), Sinet jame mosjid, Dadpur, Chuchura - Dhaniakhali, road, Chinsurah, West Bengal 712148",Chinsurah R S,"Sinet jame mosjid, Dadpur, Chuchura - Dhaniakhali, road",Chinsurah,712148,West Bengal,IN,https://www.google.com/maps/place/Jamiate+Ahle+Hadees+Hooghly%28+%D8%AC%D9%85%D8%B9%D9%8A%D8%A9+%D8%A3%D9%87%D9%84+%D8%A7%D9%84%D8%AD%D8%AF%D9%8A%D8%AB+%D9%87%D9%88%D8%BA%D9%84%D9%8A%29%E2%80%AD/data=!4m7!3m6!1s0x39f89397b005952f:0x935145eebcf5eb93!8m2!3d22.9012029!4d88.3897925!16s%2Fg%2F11rcv6f43x!19sChIJL5UFsJeT-DkRk-v1vO5FUZM?authuser=0&hl=en&rclk=1,"22.901202899999998,88.3897925"
Nawab Nasratullah Khan Wakf Estate (EC No.1833),Mosque,"Nawab Nasratullah Khan Wakf Estate (EC No.1833), Motijhil Road, Khagrajole Rd, Chinsurah, West Bengal 712101","Malir Bagan, Chinsurah R S","Motijhil Road, Khagrajole Rd",Chinsurah,712101,West Bengal,IN,https://www.google.com/maps/place/Nawab+Nasratullah+Khan+Wakf+Estate+%28EC+No.1833%29/data=!4m7!3m6!1s0x39f891d23b049f4b:0xf88df8cfe7b13dae!8m2!3d22.889802!4d88.3969552!16s%2Fg%2F11gh9nh539!19sChIJS58EO9KR-DkRrj2x58_4jfg?authuser=0&hl=en&rclk=1,"22.889802,88.3969552"
Masjid - E - Muhammadi (msjdi mHmWdy),Mosque,"Masjid - E - Muhammadi (msjdi mHmWdy), Sports Federation, 86, Topsia Rd, near Topsia, Topsia, Kolkata, West Bengal 700039",Topsia,"Sports Federation, 86, Topsia Rd, near Topsia",Kolkata,700039,West Bengal,IN,https://www.google.com/maps/place/Masjid+-+E+-+Muhammadi+%28%D9%85%D8%B3%D8%AC%D8%AF%D9%90+%D9%85%D8%AD%D9%85%D9%91%D8%AF%DB%8C%29%E2%80%AD/data=!4m7!3m6!1s0x3a0276c0a44dab5d:0x7775b4d8015a2999!8m2!3d22.5352454!4d88.3817787!16s%2Fg%2F12m93c_k6!19sChIJXatNpMB2AjoRmSlaAdi0dXc?authuser=0&hl=en&rclk=1,"22.535245399999997,88.3817787"
Jama Masjid Ahle Sunnat,Mosque,"Jama Masjid Ahle Sunnat, Angus Line, Bhadreswar, West Bengal 712221",Angus Line,,Bhadreswar,712221,West Bengal,IN,https://www.google.com/maps/place/Jama+Masjid+Ahle+Sunnat/data=!4m7!3m6!1s0x39f890720ca64989:0x6a837ca62bea2408!8m2!3d22.8136297!4d88.3471302!16s%2Fg%2F11crydnycy!19sChIJiUmmDHKQ-DkRCCTqK6Z8g2o?authuser=0&hl=en&rclk=1,"22.8136297,88.3471302"
Fauti Masjid,Mosque,"57PJ+955 Fauti Masjid, Barowaritala, Murshidabad, West Bengal 742149",Barowaritala,57PJ+955,Murshidabad,742149,West Bengal,IN,https://www.google.com/maps/place/Fauti+Masjid/data=!4m7!3m6!1s0x39fbd6fec9513e83:0x274fe4db2f6e7bd3!8m2!3d24.1858861!4d88.2804917!16s%2Fm%2F0j7k8qx!19sChIJgz5Ryf7W-zkR03tuL9vkTyc?authuser=0&hl=en&rclk=1,"24.185886099999998,88.2804917"
Shyama stores,Mosque,"Shyama stores, Opposite to sayed jamala uddin mosque, Adisaptagram, Bansberia, Chinsurah, West Bengal 712148","Adisaptagram, Bansberia",Opposite to sayed jamala uddin mosque,"Chinsurah, Saptagram",712148,West Bengal,IN,https://www.google.com/maps/place/Shyama+stores/data=!4m7!3m6!1s0x39f8931ba9337723:0x91be50c54dd1cfc4!8m2!3d22.9604578!4d88.3695848!16s%2Fg%2F11c2pwj8xm!19sChIJI3czqRuT-DkRxM_RTcVQvpE?authuser=0&hl=en&rclk=1,"22.9604578,88.3695848"
BARATAJPUR BARA MOSQUE,Mosque,"P7W4+CMX BARATAJPUR BARA MOSQUE, Purbbatajpur, Begampur, West Bengal 712306","Purbbatajpur, Begampur",P7W4+CMX,,712306,West Bengal,IN,https://www.google.com/maps/place/BARATAJPUR+BARA+MOSQUE/data=!4m7!3m6!1s0x39f88431e974e283:0x55547ce1cb6c9f0e!8m2!3d22.7461147!4d88.2567269!16s%2Fg%2F1ptyw37f5!19sChIJg-J06TGE-DkRDp9sy-F8VFU?authuser=0&hl=en&rclk=1,"22.7461147,88.25672689999999"
Tanti Bagan Ahle Hadees Masjid,Religious institution,"Tanti Bagan Ahle Hadees Masjid, 1/1, Noor Ali Ln, Entally, Kolkata, West Bengal 700014",Entally,"1/1, Noor Ali Ln",Kolkata,700014,West Bengal,IN,https://www.google.com/maps/place/Tanti+Bagan+Ahle+Hadees+Masjid/data=!4m7!3m6!1s0x3a0276fcb819b2e1:0x7c3f1ac34513316a!8m2!3d22.5528019!4d88.3664918!16s%2Fg%2F11b75nt1d7!19sChIJ4bIZuPx2AjoRajETRcMaP3w?authuser=0&hl=en&rclk=1,"22.5528019,88.36649179999999"
Jinnati Masjid,Mosque,"X9FV+FPW Jinnati Masjid, Shibpur Bye Ln, Sankha Nagar, Bansberia, Chak Bansberia, West Bengal 712502","Sankha Nagar, Bansberia","X9FV+FPW, Shibpur Bye Ln",Chak Bansberia,712502,West Bengal,IN,https://www.google.com/maps/place/Jinnati+Masjid/data=!4m7!3m6!1s0x39f8935c8abb6a5d:0xc49dcd52036eb148!8m2!3d22.9737419!4d88.3943321!16s%2Fg%2F11cn5pmdgf!19sChIJXWq7ilyT-DkRSLFuA1LNncQ?authuser=0&hl=en&rclk=1,"22.9737419,88.3943321"
Pankhatuli Mosque,Mosque,"Pankhatuli Mosque, 9/360, B.Dey Rd, Chowk Bazar, Olaichanditala, Chinsurah, West Bengal 712103","Chowk Bazar, Olaichanditala","9/360, B.Dey Rd",Chinsurah,712103,West Bengal,IN,https://www.google.com/maps/place/Pankhatuli+Mosque/data=!4m7!3m6!1s0x39f893fbbc16ddbb:0x38274f525c76099f!8m2!3d22.9054286!4d88.3951068!16s%2Fg%2F11clyfkjt0!19sChIJu90WvPuT-DkRnwl2XFJPJzg?authuser=0&hl=en&rclk=1,"22.9054286,88.3951068"
Ahle sunnat paik para Choti Masjid,Mosque,"R9M7+RV7 Ahle sunnat paik para Choti Masjid, S.D.B. St, Telinipara, Bhadreswar, West Bengal 712125",Telinipara,"R9M7+RV7, S.D.B. St",Bhadreswar,712125,West Bengal,IN,https://www.google.com/maps/place/Ahle+sunnat+paik+para+Choti+Masjid/data=!4m7!3m6!1s0x39f890f1078680d3:0x656dc8158c5f5f35!8m2!3d22.8346043!4d88.3646219!16s%2Fg%2F1hc1s1f60!19sChIJ04CGB_GQ-DkRNV9fjBXIbWU?authuser=0&hl=en&rclk=1,"22.8346043,88.3646219"
Telenipara Jama Masjid,Mosque,"R9MC+R33 Telenipara Jama Masjid, Kalbasti lane, P.O:Telinipara, P.S:, Bhadreswar, West Bengal 712125","P.O:Telinipara, P.S:","R9MC+R33, Kalbasti lane",Bhadreswar,712125,West Bengal,IN,https://www.google.com/maps/place/Telenipara+Jama+Masjid/data=!4m7!3m6!1s0x39f890f1a9c57f4f:0x67d615ba024e1056!8m2!3d22.8345181!4d88.3701778!16s%2Fg%2F11b76tv4v8!19sChIJT3_FqfGQ-DkRVhBOAroV1mc?authuser=0&hl=en&rclk=1,"22.8345181,88.3701778"
BILKULI JUMMA MASJID msjd,Mosque,"V89P+9JX BILKULI JUMMA MASJID msjd, Guchaitpara, West Bengal 712138",Guchaitpara,V89P+9JX,,,West Bengal,IN,https://www.google.com/maps/place/BILKULI+JUMMA+MASJID+%D9%85%D8%B3%D8%AC%D8%AF%E2%80%AD/data=!4m7!3m6!1s0x39f891c39a71ad37:0xbd11e5200b7d5cdc!8m2!3d22.8684843!4d88.3366248!16s%2Fg%2F11b8tb_qyv!19sChIJN61xmsOR-DkR3Fx9CyDlEb0?authuser=0&hl=en&rclk=1,"22.8684843,88.3366248"
furfura sharif majer para jumma masjid,Mosque,"P4WP+JM7 furfura sharif majer para jumma masjid, Hooghly, Charpur, West Bengal 712706",,"P4WP+JM7, Hooghly",Charpur,712706,West Bengal,IN,https://www.google.com/maps/place/furfura+sharif+majer+para+jumma+masjid/data=!4m7!3m6!1s0x39f87da8d41f9403:0x2c1eece25fd0f372!8m2!3d22.7465436!4d88.1366752!16s%2Fg%2F11g7zd2hcc!19sChIJA5Qf1Kh9-DkRcvPQX-LsHiw?authuser=0&hl=en&rclk=1,"22.7465436,88.1366752"
Mallickpara Boro Masjid,Mosque,"Mallickpara Boro Masjid, 35, Mallicpara, Ghoramara, Serampore, Hooghly, Dakshin Rajyadharpur, West Bengal 712203","Mallicpara, Ghoramara, Serampore",35,"Hooghly, Dakshin Rajyadharpur",712203,West Bengal,IN,https://www.google.com/maps/place/Mallickpara+Boro+Masjid/data=!4m7!3m6!1s0x39f89b2615b66fa1:0xd3287412d141f44e!8m2!3d22.7497311!4d88.3345819!16s%2Fg%2F11c6cd1jt2!19sChIJoW-2FSab-DkRTvRB0RJ0KNM?authuser=0&hl=en&rclk=1,"22.749731099999998,88.33458189999999"
Noorani Masjid,Mosque,"Noorani Masjid, 20, P.K.Das Lane, Rishra), near Fatema Girls High School Risora, Serampore, 712248",Serampore,"20, P.K.Das Lane, Rishra), near Fatema Girls High School Risora",,712248,West Bengal,IN,https://www.google.com/maps/place/Noorani+Masjid/data=!4m7!3m6!1s0x39f89b6cd2dfa4eb:0xf473cfb951cee525!8m2!3d22.7304193!4d88.3501827!16s%2Fg%2F11g68wjsyk!19sChIJ66Tf0myb-DkRJeXOUbnPc_Q?authuser=0&hl=en&rclk=1,"22.730419299999998,88.35018269999999"
Khagrajole Masjid,Mosque,"Khagrajole Masjid, 33, Khagrajole Rd, Malir Bagan, Chinsurah R S, Kolkata, Chinsurah, West Bengal 712101","Malir Bagan, Chinsurah R S","33, Khagrajole Rd","Kolkata, Chinsurah",712101,West Bengal,IN,https://www.google.com/maps/place/Khagrajole+Masjid/data=!4m7!3m6!1s0x39f891510e080e7d:0x5fd10dcda5e17442!8m2!3d22.8895845!4d88.3952343!16s%2Fg%2F11d_8s_kmm!19sChIJfQ4IDlGR-DkRQnThpc0N0V8?authuser=0&hl=en&rclk=1,"22.889584499999998,88.3952343"
Masjid Aklu Mistry,Mosque,"R84R+76F Masjid Aklu Mistry, RBS Rd, Champdani, West Bengal 712222",Champdani,"R84R+76F, RBS Rd",,712222,West Bengal,IN,https://www.google.com/maps/place/Masjid+Aklu+Mistry/data=!4m7!3m6!1s0x39f8900ba7163f55:0xb7d0d7a9b66abb35!8m2!3d22.8056776!4d88.3405377!16s%2Fg%2F11bwkdzfsb!19sChIJVT8WpwuQ-DkRNbtqtqnX0Lc?authuser=0&hl=en&rclk=1,"22.8056776,88.3405377"
Kachchi Mosque,Mosque,"P9H2+FFR Kachchi Mosque, Abdul Kalam Azad Rd, Bangur Park, Kali Tala, West Bengal 712248","Bangur Park, Kali Tala","P9H2+FFR, Abdul Kalam Azad Rd",,712248,West Bengal,IN,https://www.google.com/maps/place/Kachchi+Mosque/data=!4m7!3m6!1s0x39f89b6d1987b79b:0xc60574b4edc66002!8m2!3d22.7287375!4d88.3511348!16s%2Fg%2F1q6j8f75g!19sChIJm7eHGW2b-DkRAmDG7bR0BcY?authuser=0&hl=en&rclk=1,"22.728737499999998,88.3511348"
Mollaber Masjid,Mosque,"P7CX+4R5 Mollaber Masjid, Mollaber Village, Mollarber, West Bengal 712310",Mollaber Village,P7CX+4R5,Mollarber,712310,West Bengal,IN,https://www.google.com/maps/place/Mollaber+Masjid/data=!4m7!3m6!1s0x39f884973326b5e7:0x9685cf024e4b8083!8m2!3d22.7202718!4d88.299612!16s%2Fg%2F11c4c2_xm0!19sChIJ57UmM5eE-DkRg4BLTgLPhZY?authuser=0&hl=en&rclk=1,"22.7202718,88.299612"
Mallik Para Old Masjid,Mosque,"Mallik Para Old Masjid, Police Station, Nawabpur paschim mallick para, post: nawabpur bazar distric Hooghly, Chanditala, West Bengal 712701",,"Police Station, Nawabpur paschim mallick para, post: nawabpur bazar distric Hooghly","Chanditala, Mallik Para West",712701,West Bengal,IN,https://www.google.com/maps/place/Mallik+Para+Old+Masjid/data=!4m7!3m6!1s0x39f88734ac794e45:0x669a2496b19067e4!8m2!3d22.705446!4d88.1920463!16s%2Fg%2F11b6076pk3!19sChIJRU55rDSH-DkR5GeQsZYkmmY?authuser=0&hl=en&rclk=1,"22.705446,88.1920463"
Muhammadi Masjid Bansberia,Mosque,"X9CW+VJ7 Muhammadi Masjid Bansberia, Bansberia, Mithapukur More, West Bengal 712502",Bansberia,X9CW+VJ7,Mithapukur More,712502,West Bengal,IN,https://www.google.com/maps/place/Muhammadi+Masjid+Bansberia/data=!4m7!3m6!1s0x39f8935e1470ad1b:0xa2c93fe38d1c44cf!8m2!3d22.9721371!4d88.3964755!16s%2Fg%2F11g86ngfcx!19sChIJG61wFF6T-DkRz0QcjeM_yaI?authuser=0&hl=en&rclk=1,"22.972137099999998,88.3964755"
Panchloki Bamunari Masjid,Mosque,"P89F+PRQ Panchloki Bamunari Masjid, Bamunari Road, Babanari, Rishra, Bamunari, West Bengal 712250","Babanari, Rishra","P89F+PRQ, Bamunari Road",Bamunari,712250,West Bengal,IN,https://www.google.com/maps/place/Panchloki+Bamunari+Masjid/data=!4m7!3m6!1s0x39f89b4d459b9547:0x755ef13470ae036a!8m2!3d22.7193321!4d88.3246236!16s%2Fg%2F1q6j8w1vt!19sChIJR5WbRU2b-DkRagOucDTxXnU?authuser=0&hl=en&rclk=1,"22.7193321,88.3246236"
Dakshin Mohanpur Uttarpara Mosque,Mosque,"Dakshin Mohanpur Uttarpara Mosque, Jamdara, West Bengal 712410",,,Jamdara,712410,West Bengal,IN,https://www.google.com/maps/place/Dakshin+Mohanpur+Uttarpara+Mosque/data=!4m7!3m6!1s0x39f8683117cd4f93:0x791d10ff238396e2!8m2!3d22.9720568!4d87.9792643!16s%2Fg%2F11dxky526p!19sChIJk0_NFzFo-DkR4paDI_8QHXk?authuser=0&hl=en&rclk=1,"22.9720568,87.9792643"
RUHANI MASJID,Mosque,"RUHANI MASJID, 8, Anjuman Road, Rishra, Hooghly, West Bengal 712248","Bangur Park, Rishra","8, Anjuman Road, Rishra",Hooghly,712248,West Bengal,IN,https://www.google.com/maps/place/RUHANI+MASJID/data=!4m7!3m6!1s0x39f89b6daaef4fe9:0xcfe9003dddd33f93!8m2!3d22.7274711!4d88.3507438!16s%2Fg%2F11c5_s6n9g!19sChIJ6U_vqm2b-DkRkz_T3T0A6c8?authuser=0&hl=en&rclk=1,"22.7274711,88.35074379999999"
JUMMA MASJID,Mosque,"R86M+R7C JUMMA MASJID, KHURIGACHI, Kajipara, West Bengal",Mankundu,"R86M+R7C, KHURIGACHI",Kajipara,,West Bengal,IN,https://www.google.com/maps/place/JUMMA+MASJID/data=!4m7!3m6!1s0x39f8900566435417:0xa44a2fbe111acddc!8m2!3d22.8120556!4d88.3331477!16s%2Fg%2F11gbldwplc!19sChIJF1RDZgWQ-DkR3M0aEb4vSqQ?authuser=0&hl=en&rclk=1,"22.812055599999997,88.3331477"
Chiladangi Paschimpara Masjid,Mosque,"RX32+C55 Chiladangi Paschimpara Masjid, Moktarpur, West Bengal 712401",,RX32+C55,Moktarpur,712401,West Bengal,IN,https://www.google.com/maps/place/Chiladangi+Paschimpara+Masjid/data=!4m7!3m6!1s0x39f86e192ae083fb:0x265d1ce629824893!8m2!3d22.8035018!4d87.9504926!16s%2Fg%2F11cm0p1dlf!19sChIJ-4PgKhlu-DkRk0iCKeYcXSY?authuser=0&hl=en&rclk=1,"22.8035018,87.95049259999999"
SUNNI MADINA MASJID,Mosque,"SUNNI MADINA MASJID, R. K ROAD NEAR BECHALI GOLA 712248 RISHRA, Bangur Park, Kali Tala, West Bengal","Bangur Park, Kali Tala",R. K ROAD NEAR BECHALI GOLA 712248 RISHRA,,,West Bengal,IN,https://www.google.com/maps/place/SUNNI+MADINA+MASJID/data=!4m7!3m6!1s0x39f89bdd76b880ad:0x814a095557c041b6!8m2!3d22.7291081!4d88.3497134!16s%2Fg%2F11g0dgxb0j!19sChIJrYC4dt2b-DkRtkHAV1UJSoE?authuser=0&hl=en&rclk=1,"22.729108099999998,88.3497134"
BORO HAFEZ MOYNA R MASJID,Mosque,"M5WQ+PFQ BORO HAFEZ MOYNA R MASJID, Bhagabatipur, Singjor, West Bengal 712701",Bhagabatipur,M5WQ+PFQ,Singjor,712701,West Bengal,IN,https://www.google.com/maps/place/BORO+HAFEZ+MOYNA+R+MASJID/data=!4m7!3m6!1s0x39f880c9c7f9b955:0xe991cad75ebd142d!8m2!3d22.6968375!4d88.1887344!16s%2Fg%2F11g6n_pf8n!19sChIJVbn5x8mA-DkRLRS9XtfKkek?authuser=0&hl=en&rclk=1,"22.696837499999997,88.1887344"
Nawabpur jamadar para masjid,Mosque,"P642+HJ7 Nawabpur jamadar para masjid, Jangipara Rd, Bhagabatipur, Nababpur, West Bengal 712701",Bhagabatipur,"P642+HJ7, Jangipara Rd",Nababpur,712701,West Bengal,IN,https://www.google.com/maps/place/Nawabpur+jamadar+para+masjid/data=!4m7!3m6!1s0x39f8872cbcf38f21:0x31cf380aa91fa5cd!8m2!3d22.7064064!4d88.2015387!16s%2Fg%2F11bz0q2vk8!19sChIJIY_zvCyH-DkRzaUfqQo4zzE?authuser=0&hl=en&rclk=1,"22.7064064,88.2015387"
"JAMA MASJID, HOOGHLY JUTE MILL COLONY",Mosque,"G8R6+J87 JAMA MASJID, HOOGHLY JUTE MILL COLONY, Hooghly Jute Mill Colony, BNR South Colony, Garden Reach, Kolkata, West Bengal 700043","Hooghly Jute Mill Colony, BNR South Colony, Garden Reach",G8R6+J87,Kolkata,700043,West Bengal,IN,"https://www.google.com/maps/place/JAMA+MASJID,+HOOGHLY+JUTE+MILL+COLONY/data=!4m7!3m6!1s0x3a0279c246f261d3:0x95221ee2fec8f456!8m2!3d22.5415369!4d88.310785!16s%2Fg%2F1q6jjlppk!19sChIJ02HyRsJ5AjoRVvTI_uIeIpU?authuser=0&hl=en&rclk=1","22.5415369,88.310785"
Iswarbaha Masjid,Mosque,"Iswarbaha Masjid, Grampanchayat, Iswarbaha,Near Dunlop Katwa Railway Crossing, Bandel, Mogra Block, Chinsurah, West Bengal 712121","Mogra Block, Bansberia","Grampanchayat, Iswarbaha,Near Dunlop Katwa Railway Crossing, Bandel","Chinsurah, Iswarbaha",712121,West Bengal,IN,https://www.google.com/maps/place/Iswarbaha+Masjid/data=!4m7!3m6!1s0x39f89398d855b891:0x500407699628622!8m2!3d22.9379841!4d88.3834588!16s%2Fg%2F11gfgkkd5m!19sChIJkbhV2JiT-DkRIoZimXZAAAU?authuser=0&hl=en&rclk=1,"22.937984099999998,88.3834588"
Jangilpur Zuma Masjid,Mosque,"P4GF+X2G Jangilpur Zuma Masjid, Toralpur, West Bengal 712404",,P4GF+X2G,Toralpur,712404,West Bengal,IN,https://www.google.com/maps/place/Jangilpur+Zuma+Masjid/data=!4m7!3m6!1s0x39f87c48f1c220d5:0x6938843307ccb47e!8m2!3d22.7274288!4d88.1225839!16s%2Fg%2F11c74h2pkz!19sChIJ1SDC8Uh8-DkRfrTMBzOEOGk?authuser=0&hl=en&rclk=1,"22.7274288,88.1225839"
Chakbanekha Jumma Masjid msjd,Mosque,"Chakbanekha Jumma Masjid msjd, Chakbanekha, Chakmadhu, Bauria, Howrah, West Bengal 711305","Chakbanekha, Chakmadhu, Bauria",,Howrah,711305,West Bengal,IN,https://www.google.com/maps/place/Chakbanekha+Jumma+Masjid+%D9%85%D8%B3%D8%AC%D8%AF%E2%80%AD/data=!4m7!3m6!1s0x3a027dfbb1c6c3a9:0xc208e10c677fe66a!8m2!3d22.5057827!4d88.1747823!16s%2Fg%2F11g6qv3gqh!19sChIJqcPGsft9AjoRauZ_ZwzhCMI?authuser=0&hl=en&rclk=1,"22.505782699999997,88.17478229999999"
chinsurah Tolafatk Masjid,Mosque,"V9PP+7J7 chinsurah Tolafatk Masjid, Mahatma Gandhi Rd, Shilbagan, Dharampur, Chinsurah, West Bengal 712101","Shilbagan, Dharampur","V9PP+7J7, Mahatma Gandhi Rd",Chinsurah,712101,West Bengal,IN,https://www.google.com/maps/place/chinsurah+Tolafatk+Masjid/data=!4m7!3m6!1s0x39f8914352f6dd67:0xffd01c08aac239cd!8m2!3d22.8856546!4d88.3865467!16s%2Fg%2F1hm610tqk!19sChIJZ932UkOR-DkRzTnCqggc0P8?authuser=0&hl=en&rclk=1,"22.8856546,88.3865467"
Bagdigali Mosque (Maszid),Mosque,"V9GQ+98M Bagdigali Mosque (Maszid), Buroshibtala, Dharampur, Chinsurah, West Bengal 712105","Buroshibtala, Dharampur",V9GQ+98M,Chinsurah,712105,West Bengal,IN,https://www.google.com/maps/place/Bagdigali+Mosque+%28Maszid%29/data=!4m7!3m6!1s0x39f89147162ce3e3:0x24e14a4516ae7eeb!8m2!3d22.8759685!4d88.3882914!16s%2Fg%2F11c2psv5l4!19sChIJ4-MsFkeR-DkR636uFkVK4SQ?authuser=0&hl=en&rclk=1,"22.8759685,88.3882914"
Mallick Para Jumma Masjid,Mosque,"MX4G+Q58 Mallick Para Jumma Masjid, Kumar Chak, West Bengal 711412",,MX4G+Q58,Kumar Chak,,West Bengal,IN,https://www.google.com/maps/place/Mallick+Para+Jumma+Masjid/data=!4m7!3m6!1s0x39f87700f0d23c81:0x2caebfb176ae64a2!8m2!3d22.6569069!4d87.9754522!16s%2Fg%2F11f3s63ph_!19sChIJgTzS8AB3-DkRomSudrG_riw?authuser=0&hl=en&rclk=1,"22.6569069,87.97545219999999"
Masjid,Mosque,"V9RW+2WV Masjid, Jyotish Chandra Ghosh Sarani, Malir Bagan, Chinsurah R S, Chinsurah, West Bengal 712102","Malir Bagan, Chinsurah R S","V9RW+2WV, Jyotish Chandra Ghosh Sarani",Chinsurah,712102,West Bengal,IN,https://www.google.com/maps/place/Masjid/data=!4m7!3m6!1s0x39f89153dc873ed3:0x77dd889e57260339!8m2!3d22.8901239!4d88.3972956!16s%2Fg%2F119w1s436!19sChIJ0z6H3FOR-DkROQMmV56I3Xc?authuser=0&hl=en&rclk=1,"22.8901239,88.39729559999999"
Berui Masjid,Mosque,"38J5+F6X Berui Masjid, Berui, West Bengal 712146",,38J5+F6X,Berui,712146,West Bengal,IN,https://www.google.com/maps/place/Berui+Masjid/data=!4m7!3m6!1s0x39f8f21935f4215d:0x9686e2a21503274a!8m2!3d23.0812373!4d88.3081232!16s%2Fg%2F11gbk1s887!19sChIJXSH0NRny-DkRSicDFaLihpY?authuser=0&hl=en&rclk=1,"23.081237299999998,88.3081232"
Mosjid,Mosque,"P4XQ+RP3 Mosjid, Gopalnagar, West Bengal 712706",,P4XQ+RP3,Gopalnagar,712706,West Bengal,IN,https://www.google.com/maps/place/Mosjid/data=!4m7!3m6!1s0x39f87da7d19b75fd:0xc2d84c939bf082bd!8m2!3d22.749521!4d88.139296!16s%2Fg%2F11dxm68380!19sChIJ_XWb0ad9-DkRvYLwm5NM2MI?authuser=0&hl=en&rclk=1,"22.749520999999998,88.139296"
MOULGACHI JUMMA MOSJEED,Mosque,"J4H2+PPG MOULGACHI JUMMA MOSJEED, Ballabhbati, Moulgachhi, West Bengal 711410",Ballabhbati,J4H2+PPG,Moulgachhi,711410,West Bengal,IN,https://www.google.com/maps/place/MOULGACHI+JUMMA+MOSJEED/data=!4m7!3m6!1s0x39f87f72ccabd37d:0xd2b594c71c981b06!8m2!3d22.6293197!4d88.1018405!16s%2Fg%2F11f6dl5sjq!19sChIJfdOrzHJ_-DkRBhuYHMeUtdI?authuser=0&hl=en&rclk=1,"22.6293197,88.1018405"
Bhuinpara Masjid,Mosque,"363W+2FG Bhuinpara Masjid, Bhuinpara, West Bengal 712149",,363W+2FG,Bhuinpara,712149,West Bengal,IN,https://www.google.com/maps/place/Bhuinpara+Masjid/data=!4m7!3m6!1s0x39f8f477e006f701:0x3d86e7b43488e868!8m2!3d23.0525561!4d88.2461971!16s%2Fg%2F11gdrr26v6!19sChIJAfcG4Hf0-DkRaOiINLTnhj0?authuser=0&hl=en&rclk=1,"23.0525561,88.24619709999999"
Adangachi Jumma Masjid,Mosque,"R2PQ+82M Adangachi Jumma Masjid, Adangachi,P.S, Tarkeshwar, Adangachhi, West Bengal 712403",,"R2PQ+82M, Adangachi,P.S","Tarkeshwar, Adangachhi",,West Bengal,IN,https://www.google.com/maps/place/Adangachi+Jumma+Masjid/data=!4m7!3m6!1s0x39f8650e40005e2b:0xaf0a2cd47db0feed!8m2!3d22.8358277!4d88.0375471!16s%2Fg%2F11f3n2tfyf!19sChIJK14AQA5l-DkR7f6wfdQsCq8?authuser=0&hl=en&rclk=1,"22.8358277,88.0375471"
SABALSINGHAPUR HAQQANI MASJID,Mosque,"JVW4+5VQ SABALSINGHAPUR HAQQANI MASJID, Unnamed Road, Sabalsingha Pur, West Bengal 712417",,"JVW4+5VQ, Unnamed Road",Sabalsingha Pur,712417,West Bengal,IN,https://www.google.com/maps/place/SABALSINGHAPUR+HAQQANI+MASJID/data=!4m7!3m6!1s0x39f875d230e3dae7:0x59637e491fdf4341!8m2!3d22.6454741!4d87.8572391!16s%2Fg%2F11sfkpyvr6!19sChIJ59rjMNJ1-DkRQUPfH0l-Y1k?authuser=0&hl=en&rclk=1,"22.645474099999998,87.8572391"
Gomaghor Masjid,Mosque,"CCWF+HP5 Gomaghor Masjid, Sardanga, West Bengal 741125",,CCWF+HP5,Sardanga,741125,West Bengal,IN,https://www.google.com/maps/place/Gomaghor+Masjid/data=!4m7!3m6!1s0x39f91fd153a65383:0x83530b3cbeae7e38!8m2!3d23.4463923!4d88.4243651!16s%2Fg%2F11f8ml6_fn!19sChIJg1OmU9Ef-TkROH6uvjwLU4M?authuser=0&hl=en&rclk=1,"23.4463923,88.4243651"
GANGES JAMA MASJID,Mosque,"GANGES JAMA MASJID, 712502, Bansberia, Mithapukur More, West Bengal 712502",Bansberia,712502,Mithapukur More,712502,West Bengal,IN,https://www.google.com/maps/place/GANGES+JAMA+MASJID/data=!4m7!3m6!1s0x39f8935dd48bbe37:0x7a7119c429fcf105!8m2!3d22.9720512!4d88.396516!16s%2Fg%2F11csb2m0wj!19sChIJN76L1F2T-DkRBfH8KcQZcXo?authuser=0&hl=en&rclk=1,"22.9720512,88.39651599999999"
Bhadreswar Badi Masjid bhdreshbr bdd'i msjid,Mosque,"R9M4+7X8 Bhadreswar Badi Masjid bhdreshbr bdd'i msjid, Bhadreswar, West Bengal 712125",,R9M4+7X8,Bhadreswar,,West Bengal,IN,https://www.google.com/maps/place/Bhadreswar+Badi+Masjid+%E0%A6%AD%E0%A6%A6%E0%A7%8D%E0%A6%B0%E0%A7%87%E0%A6%B6%E0%A7%8D%E0%A6%AC%E0%A6%B0+%E0%A6%AC%E0%A6%A1%E0%A6%BC%E0%A6%BF+%E0%A6%AE%E0%A6%B8%E0%A6%9C%E0%A6%BF%E0%A6%A6/data=!4m7!3m6!1s0x39f891c7a525435f:0x1ed709452565935d!8m2!3d22.8331608!4d88.3574421!16s%2Fg%2F11fhngp8wm!19sChIJX0MlpceR-DkRXZNlJUUJ1x4?authuser=0&hl=en&rclk=1,"22.833160799999998,88.3574421"
Mallickpara Masjid,Mosque,"RXJG+55V Mallickpara Masjid, Moktarpur, West Bengal 712401",,RXJG+55V,Moktarpur,712401,West Bengal,IN,https://www.google.com/maps/place/Mallickpara+Masjid/data=!4m7!3m6!1s0x39f86fb3ab516523:0xb60ccdb7e4bfad4e!8m2!3d22.8304989!4d87.97541!16s%2Fg%2F11c6cxz2w0!19sChIJI2VRq7Nv-DkRTq2_5LfNDLY?authuser=0&hl=en&rclk=1,"22.8304989,87.97541"
Dakshin Para masjid,Mosque,"W77X+X4W Dakshin Para masjid, Kashwara,, West Bengal 712102",,"W77X+X4W, Kashwara,",Kashwara,712102,West Bengal,IN,https://www.google.com/maps/place/Dakshin+Para+masjid/data=!4m7!3m6!1s0x39f88dc69cbfc257:0x19e1c2526b7de572!8m2!3d22.9149815!4d88.2978385!16s%2Fg%2F11cn6f9x35!19sChIJV8K_nMaN-DkRcuV9a1LC4Rk?authuser=0&hl=en&rclk=1,"22.9149815,88.2978385"
Sahapur Jame Masjid,Mosque,"W7M9+HP8 Sahapur Jame Masjid, Harit, West Bengal 712305",,W7M9+HP8,Harit,712305,West Bengal,IN,https://www.google.com/maps/place/Sahapur+Jame+Masjid/data=!4m7!3m6!1s0x39f88c5c951e12a7:0x1b2ae3abf146edd!8m2!3d22.9339128!4d88.2693261!16s%2Fg%2F11d_d3s3wy!19sChIJpxIelVyM-DkR3W4UvzqusgE?authuser=0&hl=en&rclk=1,"22.933912799999998,88.2693261"
Sufia masjid,Mosque,"X98Q+H96 Sufia masjid, Unnamed Road, Bansberia, Dingalhat, West Bengal 712502",Bansberia,"X98Q+H96, Unnamed Road",Dingalhat,712502,West Bengal,IN,https://www.google.com/maps/place/Sufia+masjid/data=!4m7!3m6!1s0x39f893bc2a446b49:0x99e00db15527ded1!8m2!3d22.9664052!4d88.3883914!16s%2Fg%2F11h6qlt57h!19sChIJSWtEKryT-DkR0d4nVbEN4Jk?authuser=0&hl=en&rclk=1,"22.9664052,88.38839139999999"
chakthero Masjid,Mosque,"V57V+JPF chakthero Masjid, Unnamed Road, Madanmohonpur, West Bengal 712407",,"V57V+JPF, Unnamed Road",Madanmohonpur,712407,West Bengal,IN,https://www.google.com/maps/place/chakthero+Masjid/data=!4m7!3m6!1s0x39f889b1ee94c70f:0x4dd7b06d0e334871!8m2!3d22.8640699!4d88.1943034!16s%2Fg%2F11fk1d6t3k!19sChIJD8eU7rGJ-DkRcUgzDm2w100?authuser=0&hl=en&rclk=1,"22.8640699,88.1943034"
Masjid msjd,Mosque,"P4XM+PWR Masjid msjd, Furfura Sharif, West Bengal 712706",,P4XM+PWR,Furfura Sharif,712706,West Bengal,IN,https://www.google.com/maps/place/Masjid+%D9%85%D8%B3%D8%AC%D8%AF%E2%80%AD/data=!4m7!3m6!1s0x39f87d0d4fbe92f3:0x42095467998459cf!8m2!3d22.7493737!4d88.1347634!16s%2Fg%2F11h6jqczc7!19sChIJ85K-Tw19-DkRz1mEmWdUCUI?authuser=0&hl=en&rclk=1,"22.7493737,88.1347634"
Baghwali Masjid msjd bG wly,Mosque,"Baghwali Masjid msjd bG wly, 785, Nicholson Rd, Kashmere Gate, New Delhi, Delhi 110006","Ganda Nala Bazar, Kashmere Gate","785, Nicholson Rd","New Delhi, Delhi",110006,Delhi,IN,https://www.google.com/maps/place/Baghwali+Masjid+%D9%85%D8%B3%D8%AC%D8%AF+%D8%A8%D8%A7%D8%BA+%D9%88%D8%A7%D9%84%DB%8C%E2%80%AD/data=!4m7!3m6!1s0x390cfd092767785b:0xd4966cf4d21cbda8!8m2!3d28.6653187!4d77.2261277!16s%2Fg%2F12llwbr4n!19sChIJW3hnJwn9DDkRqL0c0vRsltQ?authuser=0&hl=en&rclk=1,"28.6653187,77.22612769999999"
Purbo Hugli Para Baitul Mamur Jama Masjid,Mosque,"MWFG+2H9 Purbo Hugli Para Baitul Mamur Jama Masjid, Bangladesh",,MWFG+2H9,,,,BD,https://www.google.com/maps/place/Purbo+Hugli+Para+Baitul+Mamur+Jama+Masjid/data=!4m7!3m6!1s0x39e353f59da28a2f:0xdac88606eb25c03b!8m2!3d25.67254!4d88.9264757!16s%2Fg%2F11kn3d2nl6!19sChIJL4qinfVT4zkRO8Al6waGyNo?authuser=0&hl=en&rclk=1,"25.672539999999998,88.9264757"
BANGIHATI MASJID,Mosque,"P8P7+C27 BANGIHATI MASJID, Bangihati Village, Bangihati, West Bengal 712249",Bangihati Village,P8P7+C27,Bangihati,712249,West Bengal,IN,https://www.google.com/maps/place/BANGIHATI+MASJID/data=!4m7!3m6!1s0x39f884c6764cc769:0x3b991e6a058739ba!8m2!3d22.7360314!4d88.3125446!16s%2Fg%2F11g70c8rv1!19sChIJacdMdsaE-DkRujmHBWoemTs?authuser=0&hl=en&rclk=1,"22.736031399999998,88.3125446"
Jete Jame Masjid,Mosque,"W726+F7F Jete Jame Masjid, Jete, Sinhet, Ayma Haripur, West Bengal 712305",,"W726+F7F, Jete, Sinhet","Ayma Haripur, Haripur",712305,West Bengal,IN,https://www.google.com/maps/place/Jete+Jame+Masjid/data=!4m7!3m6!1s0x39f88d0c8d6174cd:0x20ff169ac02fcddf!8m2!3d22.9011779!4d88.2606771!16s%2Fg%2F11fk1s93ds!19sChIJzXRhjQyN-DkR380vwJoW_yA?authuser=0&hl=en&rclk=1,"22.9011779,88.2606771"
Dhap Dhara Idgah dhaapdhaarraa iidgaah,Mosque,"RWGW+MCF Dhap Dhara Idgah dhaapdhaarraa iidgaah, vill-dhapdhara,p.o.-ankri Srirampur,p.s.-pursurah,dist-hugli, 712401",,"RWGW+MCF, vill-dhapdhara,p.o.-ankri Srirampur,p.s.-pursurah,dist-hugli",Shrirampur,712401,West Bengal,IN,https://www.google.com/maps/place/Dhap+Dhara+Idgah+%E0%A6%A7%E0%A6%BE%E0%A6%AA%E0%A6%A7%E0%A6%BE%E0%A7%9C%E0%A6%BE+%E0%A6%88%E0%A6%A6%E0%A6%97%E0%A6%BE%E0%A6%B9/data=!4m7!3m6!1s0x39f86f2e0076f7f5:0xa5648a76f3ba3fa8!8m2!3d22.8266906!4d87.9460331!16s%2Fg%2F11gv01rswy!19sChIJ9fd2AC5v-DkRqD-683aKZKU?authuser=0&hl=en&rclk=1,"22.8266906,87.9460331"
Krishnapur Jame Masjid,Mosque,"W9WC+PGP Krishnapur Jame Masjid, Adisaptagram, Krishnapur Chandanpur, West Bengal 712123",Adisaptagram,W9WC+PGP,Krishnapur Chandanpur,712123,West Bengal,IN,https://www.google.com/maps/place/Krishnapur+Jame+Masjid/data=!4m7!3m6!1s0x39f8930795555555:0x1b56d8b8a80970ec!8m2!3d22.9468299!4d88.3713423!16s%2Fg%2F11gglq65kq!19sChIJVVVVlQeT-DkR7HAJqLjYVhs?authuser=0&hl=en&rclk=1,"22.946829899999997,88.3713423"
Sukhnagar Jama Masjid,Mosque,"Sukhnagar Jama Masjid, Bilkuli, Sukhnagar, Chandannagar, West Bengal 712138",Guchaitpara,"Bilkuli, Sukhnagar",Chandannagar,712138,West Bengal,IN,https://www.google.com/maps/place/Sukhnagar+Jama+Masjid/data=!4m7!3m6!1s0x39f89112ae1bc747:0xee06d59af49fd6a4!8m2!3d22.8646543!4d88.3366345!16s%2Fg%2F11g_v6ndb7!19sChIJR8cbrhKR-DkRpNaf9JrVBu4?authuser=0&hl=en&rclk=1,"22.864654299999998,88.3366345"
Dakshinkul eidgah,Mosque,"R5Q4+5PG Dakshinkul eidgah, Dakshinkul, West Bengal 712405",Dakshinkul,R5Q4+5PG,,,West Bengal,IN,https://www.google.com/maps/place/Dakshinkul+eidgah/data=!4m7!3m6!1s0x39f86395dbb54511:0x6e25199292336514!8m2!3d22.837935!4d88.1568249!16s%2Fg%2F11f61w860x!19sChIJEUW125Vj-DkRFGUzkpIZJW4?authuser=0&hl=en&rclk=1,"22.837934999999998,88.15682489999999"
DHITPUR JAMA MASJID,Mosque,"P437+R2W DHITPUR JAMA MASJID, Dhitpur, Telihati, West Bengal 712706",,P437+R2W,"Dhitpur, Telihati",,West Bengal,IN,https://www.google.com/maps/place/DHITPUR+JAMA+MASJID/data=!4m7!3m6!1s0x39f87d5c7ac3ecf1:0x660a38d6be6efd1f!8m2!3d22.7046242!4d88.1125808!16s%2Fg%2F11rv3w_01j!19sChIJ8ezDelx9-DkRH_1uvtY4CmY?authuser=0&hl=en&rclk=1,"22.704624199999998,88.11258079999999"
CharShahidan EidGah caar shhiidaan iidgaah,Mosque,"P4WP+354 CharShahidan EidGah caar shhiidaan iidgaah, Furfura Sharif, West Bengal 712706",,P4WP+354,Furfura Sharif,,West Bengal,IN,https://www.google.com/maps/place/CharShahidan+EidGah+%E0%A6%9A%E0%A6%BE%E0%A6%B0+%E0%A6%B6%E0%A6%B9%E0%A7%80%E0%A6%A6%E0%A6%BE%E0%A6%A8+%E0%A6%88%E0%A6%A6%E0%A6%97%E0%A6%BE%E0%A6%B9/data=!4m7!3m6!1s0x39f87dd31173b173:0xe84c64e8b1b86411!8m2!3d22.745138!4d88.13545!16s%2Fg%2F11fhklfqlm!19sChIJc7FzEdN9-DkREWS4sehkTOg?authuser=0&hl=en&rclk=1,"22.745138,88.13544999999999"
Udna Paschimpara Masjid,Religious destination,"QW7G+HMP Udna Paschimpara Masjid, Udna, West Bengal 712412",,QW7G+HMP,Udna,712412,West Bengal,IN,https://www.google.com/maps/place/Udna+Paschimpara+Masjid/data=!4m7!3m6!1s0x39f873838804820d:0xe7214c4c08b88b07!8m2!3d22.7639545!4d87.9267!16s%2Fg%2F11j0q4kflg!19sChIJDYIEiINz-DkRB4u4CExMIec?authuser=0&hl=en&rclk=1,"22.7639545,87.9267"
Mohammadi Masjid,Mosque,"W96C+MQX Mohammadi Masjid, Kanagar, Kapasdanga P, Bandel, Kodalia, West Bengal 712103","Kanagar, Kapasdanga P",W96C+MQX,"Bandel, Kodalia",712103,West Bengal,IN,https://www.google.com/maps/place/Mohammadi+Masjid/data=!4m7!3m6!1s0x39f893fb139ae33f:0xe7050ce5c477a357!8m2!3d22.911745!4d88.3719806!16s%2Fg%2F11kqhwnjh8!19sChIJP-OaE_uT-DkRV6N3xOUMBec?authuser=0&hl=en&rclk=1,"22.911745,88.3719806"
SATPARA JUMMA MASJID,Mosque,"V4XV+JH2 SATPARA JUMMA MASJID, Kalachhara, West Bengal 712405",,V4XV+JH2,Kalachhara,712405,West Bengal,IN,https://www.google.com/maps/place/SATPARA+JUMMA+MASJID/data=!4m7!3m6!1s0x39f861e8496dfa7b:0x8b2d4286d9cfa20f!8m2!3d22.8990122!4d88.1438872!16s%2Fg%2F11hf23k8c4!19sChIJe_ptSehh-DkRD6LP2YZCLYs?authuser=0&hl=en&rclk=1,"22.899012199999998,88.1438872"
Taldanga Jumma Masjid,Mosque,"V9HJ+J7Q Taldanga Jumma Masjid, Gargari Para Rd, Taldanga, Dharampur, Chinsurah, West Bengal 712105","Taldanga, Dharampur","V9HJ+J7Q, Gargari Para Rd",Chinsurah,712105,West Bengal,IN,https://www.google.com/maps/place/Taldanga+Jumma+Masjid/data=!4m7!3m6!1s0x39f891017287ba61:0xf48a602714271c34!8m2!3d22.8790789!4d88.3807202!16s%2Fg%2F11j8mnjng8!19sChIJYbqHcgGR-DkRNBwnFCdgivQ?authuser=0&hl=en&rclk=1,"22.8790789,88.3807202"
Bhola Jumma Masjid,Mosque,"R59W+54Q Bhola Jumma Masjid, Bhola, muslim para, Singur, West Bengal 712407","Bhola, muslim para",R59W+54Q,Singur,,West Bengal,IN,https://www.google.com/maps/place/Bhola+Jumma+Masjid/data=!4m7!3m6!1s0x39f8898b68edb637:0x32d3979237568f1c!8m2!3d22.8179661!4d88.1953709!16s%2Fg%2F11lkx3w25k!19sChIJN7btaIuJ-DkRHI9WN5KX0zI?authuser=0&hl=en&rclk=1,"22.8179661,88.1953709"
Madanmohanpur,Mosque,"V57R+88H Madanmohanpur, Madanmohonpur, West Bengal 712407",,V57R+88H,Madanmohonpur,712407,West Bengal,IN,https://www.google.com/maps/place/Madanmohanpur/data=!4m7!3m6!1s0x39f8895024f392bd:0x6ee95d8da55112dd!8m2!3d22.8633247!4d88.1908597!16s%2Fg%2F11m_dn_tv5!19sChIJvZLzJFCJ-DkR3RJRpY1d6W4?authuser=0&hl=en&rclk=1,"22.8633247,88.19085969999999"
Dakshin Bagna Jame Masjid,Mosque,"WP7F+977 Dakshin Bagna Jame Masjid, Bagna, West Bengal 743249",,WP7F+977,Bagna,743249,West Bengal,IN,https://www.google.com/maps/place/Dakshin+Bagna+Jame+Masjid/data=!4m7!3m6!1s0x39f8b5f0ddd77889:0x8d7dc70a83868a2b!8m2!3d22.913406!4d88.7231829!16s%2Fg%2F11kgd65nh0!19sChIJiXjX3fC1-DkRK4qGgwrHfY0?authuser=0&hl=en&rclk=1,"22.913406,88.7231829"
Uttor hugli Jame masjid,Mosque,"V282+P9R Uttor hugli Jame masjid, Bangladesh",,V282+P9R,,,,BD,https://www.google.com/maps/place/Uttor+hugli+Jame+masjid/data=!4m7!3m6!1s0x3754bb418b8fca55:0x2a4e6e3e48ed3df2!8m2!3d22.8668681!4d91.000881!16s%2Fg%2F11n_zd5l_k!19sChIJVcqPi0G7VDcR8j3tSD5uTio?authuser=0&hl=en&rclk=1,"22.866868099999998,91.00088099999999"
Uttar Mogalpur Jame Masjid,Mosque,"X49V+6QJ Uttar Mogalpur Jame Masjid, Uttar Mogalpur, West Bengal 712305",,X49V+6QJ,Uttar Mogalpur,,West Bengal,IN,https://www.google.com/maps/place/Uttar+Mogalpur+Jame+Masjid/data=!4m7!3m6!1s0x39f861cb14dfa813:0x711ef9ae670e88c6!8m2!3d22.9680855!4d88.1443831!16s%2Fg%2F11h54gz8s0!19sChIJE6jfFMth-DkRxogOZ675HnE?authuser=0&hl=en&rclk=1,"22.968085499999997,88.1443831"
Fakirdanga Masjid,Mosque,"4FG7+X49 Fakirdanga Masjid, Gopinath Tala Rd, Balagarh, Sripur, West Bengal 712501",,"4FG7+X49, Gopinath Tala Rd","Balagarh, Sripur",712501,West Bengal,IN,https://www.google.com/maps/place/Fakirdanga+Masjid/data=!4m7!3m6!1s0x39f8e9617f1c68fd:0xbb00f59a6c57b01d!8m2!3d23.127419!4d88.4628532!16s%2Fg%2F11q2phyqps!19sChIJ_Wgcf2Hp-DkRHbBXbJr1ALs?authuser=0&hl=en&rclk=1,"23.127419,88.4628532"
Barakhujaria tegharia jama mosjid,Mosque,"Barakhujaria tegharia jama mosjid, Barakhujaria tegharia mallick para, Adcconagar, Mogra, Chinsurah, West Bengal 712121","Adcconagar, Mogra",Barakhujaria tegharia mallick para,Chinsurah,712121,West Bengal,IN,https://www.google.com/maps/place/Barakhujaria+tegharia+jama+mosjid/data=!4m7!3m6!1s0x39f89328bc3f38d1:0x7025ba39a6ad71f6!8m2!3d22.9470625!4d88.3858125!16s%2Fg%2F11ny1kjqr7!19sChIJ0Tg_vCiT-DkR9nGtpjm6JXA?authuser=0&hl=en&rclk=1,"22.947062499999998,88.3858125"
Pipulpati Jam-e Masjid,Mosque,"W92W+C82 Pipulpati Jam-e Masjid, Vivekananda Rd, Pipulpati, Chinsurah R S, Chinsurah, West Bengal 712103","Pipulpati, Chinsurah R S","W92W+C82, Vivekananda Rd",Chinsurah,712103,West Bengal,IN,https://www.google.com/maps/place/Pipulpati+Jam-e+Masjid/data=!4m7!3m6!1s0x39f8932fa2eee64d:0x15d8f02cc5fa6625!8m2!3d22.9010187!4d88.395778!16s%2Fg%2F11rv1frqmt!19sChIJTebuoi-T-DkRJWb6xSzw2BU?authuser=0&hl=en&rclk=1,"22.901018699999998,88.39577799999999"
DAFARCHAK JUMMA MASJID,Mosque,"QXGV+4J7 DAFARCHAK JUMMA MASJID, Dafarchak, Rajbalhat, West Bengal 712408",Dafarchak,QXGV+4J7,Rajbalhat,,West Bengal,IN,https://www.google.com/maps/place/DAFARCHAK+JUMMA+MASJID/data=!4m7!3m6!1s0x39f871cd73e3e585:0xa9c52d4426851b05!8m2!3d22.7752989!4d87.994049!16s%2Fg%2F11jsszj8_l!19sChIJheXjc81x-DkRBRuFJkQtxak?authuser=0&hl=en&rclk=1,"22.7752989,87.99404899999999"
Nagbal Masjid,Mosque,"X696+89C Nagbal Masjid, Nagbal, Jagannathpur, West Bengal 712305",,"X696+89C, Nagbal",Jagannathpur,712305,West Bengal,IN,https://www.google.com/maps/place/Nagbal+Masjid/data=!4m7!3m6!1s0x39f88b33439f8719:0xe91a1e572ee627b7!8m2!3d22.9687159!4d88.2101283!16s%2Fg%2F11t_zjzytt!19sChIJGYefQzOL-DkRtyfmLlceGuk?authuser=0&hl=en&rclk=1,"22.9687159,88.2101283"
Majar Kaziman Mosque,Mosque,"2777+4JC Majar Kaziman Mosque, Bezpara, Mahanad, West Bengal 712148",,2777+4JC,"Bezpara, Mahanad",,West Bengal,IN,https://www.google.com/maps/place/Majar+Kaziman+Mosque/data=!4m7!3m6!1s0x39f8f3d5216cd417:0x1fcc29f217f194f4!8m2!3d23.0128125!4d88.2640156!16s%2Fg%2F11pv6w4mwd!19sChIJF9RsIdXz-DkR9JTxF_IpzB8?authuser=0&hl=en&rclk=1,"23.0128125,88.2640156"
