name,main_category,address,address_ward,address_street,address_city,address_postal_code,address_state,address_country_code,link,coordinates
New Market Jama Masjid,Mosque,"New Market Jama Masjid, New Market, N.S.T. Colony, Dimapur, Nagaland 797112",N.S.T. Colony,New Market,Dimapur,797112,Nagaland,IN,https://www.google.com/maps/place/New+Market+Jama+Masjid/data=!4m7!3m6!1s0x3745e18ce0e38509:0x7e15bcaadd4404ab!8m2!3d25.9079303!4d93.7218459!16s%2Fg%2F1w0h5whs!19sChIJCYXj4IzhRTcRqwRE3aq8FX4?authuser=0&hl=en&rclk=1,"25.9079303,93.72184589999999"
Lahorijan Masjid,Mosque,"WPHM+37H Lahorijan Masjid, Golaghat Rd, Lahorijan, Dimapur, Assam 797117",Lahorijan,"WPHM+37H, Golaghat Rd",Dimapur,797117,Assam,IN,https://www.google.com/maps/place/Lahorijan+Masjid/data=!4m7!3m6!1s0x3745e1c34d65bfcd:0xc593d593311a7fa5!8m2!3d25.927692!4d93.733249!16s%2Fg%2F11csp8zdsd!19sChIJzb9lTcPhRTcRpX8aMZPVk8U?authuser=0&hl=en&rclk=1,"25.927692,93.733249"
Noorani Jama Masjid,Mosque,"WP39+HH8 Noorani Jama Masjid, Zeliangrong Village, Dimapur, Nagaland 797113",Zeliangrong Village,WP39+HH8,Dimapur,797113,Nagaland,IN,https://www.google.com/maps/place/Noorani+Jama+Masjid/data=!4m7!3m6!1s0x3745e18be9842453:0x2c66bfa7948b2b04!8m2!3d25.9039074!4d93.7189579!16s%2Fg%2F11df7q4rr2!19sChIJUySE6YvhRTcRBCuLlKe_Ziw?authuser=0&hl=en&rclk=1,"25.903907399999998,93.71895789999999"
Chumoukedima Jama Masjid,Mosque,"Chumoukedima Jama Masjid, Ward 5, Chumukeidma, Dimapur, Nagaland 797103","Ward 5, Chumukeidma",,Dimapur,797103,Nagaland,IN,https://www.google.com/maps/place/Ch%C3%BCmoukedima+Jama+Masjid/data=!4m7!3m6!1s0x37460888777076c1:0xc5d688b03d3622ea!8m2!3d25.8151125!4d93.7857031!16s%2Fg%2F11c6029vwm!19sChIJwXZwd4gIRjcR6iI2PbCI1sU?authuser=0&hl=en&rclk=1,"25.815112499999998,93.78570309999999"
Idgah Jame Masjid & Madrassa,Mosque,"WP8G+GQ4 Idgah Jame Masjid & Madrassa, Golaghat Rd, Zakiesato Colony, Khermahal, Dimapur, Nagaland 797112","Zakiesato Colony, Khermahal","WP8G+GQ4, Golaghat Rd",Dimapur,,Nagaland,IN,https://www.google.com/maps/place/Idgah+Jame+Masjid+%26+Madrassa/data=!4m7!3m6!1s0x3745e1ec0de672a3:0xbb4726ee53ce185b!8m2!3d25.9162547!4d93.7269553!16s%2Fg%2F11d_77f_80!19sChIJo3LmDezhRTcRWxjOU-4mR7s?authuser=0&hl=en&rclk=1,"25.9162547,93.7269553"
"Jama masjid,Notun Basti",Mosque,"WP78+PJ6 Jama masjid,Notun Basti, Ao Khel, Notun Bosti, Dimapur, Nagaland 797112","Ao Khel, Notun Bosti",WP78+PJ6,Dimapur,797112,Nagaland,IN,"https://www.google.com/maps/place/Jama+masjid,Notun+Basti/data=!4m7!3m6!1s0x3745e1910986aa6f:0xe562f2252b8c8392!8m2!3d25.9142972!4d93.7165189!16s%2Fg%2F11dfghnzfm!19sChIJb6qGCZHhRTcRkoOMKyXyYuU?authuser=0&hl=en&rclk=1","25.9142972,93.7165189"
"Madina Masjid, Dimapur",Mosque,"WP32+H96 Madina Masjid, Dimapur, Diphu, Road, Oriental Colony, Dimapur, Nagaland 797113",Oriental Colony,"WP32+H96, Diphu, Road",Dimapur,797113,Nagaland,IN,"https://www.google.com/maps/place/Madina+Masjid,+Dimapur/data=!4m7!3m6!1s0x3745e17f1993ada9:0xf528f88506a340e4!8m2!3d25.9039088!4d93.7008772!16s%2Fg%2F11f3975zh4!19sChIJqa2TGX_hRTcR5ECjBoX4KPU?authuser=0&hl=en&rclk=1","25.9039088,93.7008772"
Lahorijan natun Basti eidgah Jame masjid,Mosque,"WPHP+QXP Lahorijan natun Basti eidgah Jame masjid, Burma Camp, Dimapur, Assam 797117",Burma Camp,WPHP+QXP,Dimapur,797117,Assam,IN,https://www.google.com/maps/place/Lahorijan+natun+Basti+eidgah+Jame+masjid/data=!4m7!3m6!1s0x3745e19de6e8a899:0xee41c2e5ccb25ea6!8m2!3d25.9294666!4d93.7374454!16s%2Fg%2F11flt_dr5q!19sChIJmajo5p3hRTcRpl6yzOXCQe4?authuser=0&hl=en&rclk=1,"25.929466599999998,93.7374454"
Jame Masjid,Mosque,"WP5X+Q53 Jame Masjid, Purana Bazar, Dimapur, Nagaland 797116",Purana Bazar,WP5X+Q53,Dimapur,797116,Nagaland,IN,https://www.google.com/maps/place/Jame+Masjid/data=!4m7!3m6!1s0x37460b5869e785ff:0x863c6076596d62cd!8m2!3d25.9093004!4d93.7476488!16s%2Fg%2F11k4lmyzsb!19sChIJ_4XnaVgLRjcRzWJtWXZgPIY?authuser=0&hl=en&rclk=1,"25.9093004,93.7476488"
Lahorijan natun Basti eidgah Jame masjid,Mosque,"WPCH+FR9 Lahorijan natun Basti eidgah Jame masjid, Natun Basti, Lahorijan, Dimapur, Nagaland 797117","Natun Basti, Lahorijan",WPCH+FR9,Dimapur,797117,Nagaland,IN,https://www.google.com/maps/place/Lahorijan+natun+Basti+eidgah+Jame+masjid/data=!4m7!3m6!1s0x3745e1a0cd42d49b:0xb883ae23b0fb3cad!8m2!3d25.9211632!4d93.7295952!16s%2Fg%2F11hym118n1!19sChIJm9RCzaDhRTcRrTz7sCOug7g?authuser=0&hl=en&rclk=1,"25.9211632,93.72959519999999"
Panjakhana Ali Masjid,Mosque,"Panjakhana Ali Masjid, United Colony, Half Nagarjan, Dimapur, Nagaland 797112","United Colony, Half Nagarjan",,Dimapur,797112,Nagaland,IN,https://www.google.com/maps/place/Panjakhana+Ali+Masjid/data=!4m7!3m6!1s0x3745e18d81a7746f:0xe2408f5987e89c8d!8m2!3d25.9016409!4d93.7341211!16s%2Fg%2F11g0l4zl3p!19sChIJb3SngY3hRTcRjZzoh1mPQOI?authuser=0&hl=en&rclk=1,"25.9016409,93.7341211"
Masjid-e-Abubakar,Mosque,"WP2H+32J Masjid-e-Abubakar, Grace Colony, Kuda Village, c' khel, Dimapur, Nagaland","Kuda Village, c' khel","WP2H+32J, Grace Colony",Dimapur,,Nagaland,IN,https://www.google.com/maps/place/Masjid-e-Abubakar/data=!4m7!3m6!1s0x3745e185973c4eef:0xa9a8550b3866124!8m2!3d25.9002181!4d93.7275119!16s%2Fg%2F11g1q1x9dl!19sChIJ7048l4XhRTcRJGGGs1CFmgo?authuser=0&hl=en&rclk=1,"25.9002181,93.7275119"
Panjagana Masjid,Mosque,"WP4R+22J Panjagana Masjid, Super Market Ln, Half Nagarjan, Dimapur, Nagaland 797112",Half Nagarjan,"WP4R+22J, Super Market Ln",Dimapur,797112,Nagaland,IN,https://www.google.com/maps/place/Panjagana+Masjid/data=!4m7!3m6!1s0x3745e10e0b995ae3:0x339705f5754e53fd!8m2!3d25.9050957!4d93.7400025!16s%2Fg%2F11flc000vg!19sChIJ41qZCw7hRTcR_VNOdfUFlzM?authuser=0&hl=en&rclk=1,"25.9050957,93.7400025"
Supply colony panjagana masjid,Mosque,"WP75+9FJ Supply colony panjagana masjid, Duncan Rd, Fellowship Colony, Dimapur, Nagaland 797113",Fellowship Colony,"WP75+9FJ, Duncan Rd",Dimapur,797113,Nagaland,IN,https://www.google.com/maps/place/Supply+colony+panjagana+masjid/data=!4m7!3m6!1s0x3745e1105a128ecb:0x4e70fe58e78be609!8m2!3d25.913472!4d93.7086343!16s%2Fg%2F11rd7w39m0!19sChIJy44SWhDhRTcRCeaL51j-cE4?authuser=0&hl=en&rclk=1,"25.913472,93.7086343"
7th Mile Panjegana Masjid,Mosque,"RQ9H+7H5 7th Mile Panjegana Masjid, Dimapur, Nagaland 797115",,RQ9H+7H5,Dimapur,,Nagaland,IN,https://www.google.com/maps/place/7th+Mile+Panjegana+Masjid/data=!4m7!3m6!1s0x374609ca866fe7bf:0x56bae7b86e60fcd7!8m2!3d25.8181479!4d93.7789774!16s%2Fg%2F11h_bfqzbr!19sChIJv-dvhsoJRjcR1_xgbrjnulY?authuser=0&hl=en&rclk=1,"25.8181479,93.7789774"
Islamic jama mosid,Mosque,"RP3V+2G Islamic jama mosid, Dimapur, Nagaland 797103",,RP3V+2G,Dimapur,,Nagaland,IN,https://www.google.com/maps/place/Islamic+jama+mosid/data=!4m7!3m6!1s0x37460715050ce763:0xba05b11c699cffad!8m2!3d25.8024949!4d93.7437368!16s%2Fg%2F11q4c8ztdz!19sChIJY-cMBRUHRjcRrf-caRyxBbo?authuser=0&hl=en&rclk=1,"25.8024949,93.7437368"
Punchgana masjid,Place of worship,"WP5R+63H Punchgana masjid, Walford Rd, Namgalong Colony, Burma Camp, Dimapur, Nagaland 797117","Namgalong Colony, Burma Camp","WP5R+63H, Walford Rd",Dimapur,797117,Nagaland,IN,https://www.google.com/maps/place/Punchgana+masjid/data=!4m7!3m6!1s0x3745e1580b8810d5:0x59b5493245268bb6!8m2!3d25.9080606!4d93.7402199!16s%2Fg%2F11tmrff4hh!19sChIJ1RCIC1jhRTcRtosmRTJJtVk?authuser=0&hl=en&rclk=1,"25.9080606,93.7402199"
Noori Masjid,Mosque,"WP7M+3CC Noori Masjid, Power House Colony, Dimapur, Nagaland 797117",Power House Colony,WP7M+3CC,Dimapur,797117,Nagaland,IN,https://www.google.com/maps/place/Noori+Masjid/data=!4m7!3m6!1s0x3745e12c1e73bdd9:0x225a7f10c3fe74df!8m2!3d25.9126832!4d93.733529!16s%2Fg%2F11vbq2nwmn!19sChIJ2b1zHizhRTcR33T-wxB_WiI?authuser=0&hl=en&rclk=1,"25.9126832,93.73352899999999"
Jabale noor Jame masjid,Mosque,"WP9Q+R5P Jabale noor Jame masjid, Naga Colony, Burma Camp, Dimapur, Nagaland 797117","Naga Colony, Burma Camp",WP9Q+R5P,Dimapur,,Nagaland,IN,https://www.google.com/maps/place/Jabale+noor+Jame+masjid/data=!4m7!3m6!1s0x3745e189e4d22c49:0x7634a68f2208e29f!8m2!3d25.919598!4d93.7379566!16s%2Fg%2F11sbdgb5rk!19sChIJSSzS5InhRTcRn-IIIo-mNHY?authuser=0&hl=en&rclk=1,"25.919598,93.73795659999999"
Tila Bosti Maszid,Mosque,"RQG8+R9 Tila Bosti Maszid, 7th Mile, Dimapur, Nagaland 797115",7th Mile,RQG8+R9,Dimapur,,Nagaland,IN,https://www.google.com/maps/place/Tila+Bosti+Maszid/data=!4m7!3m6!1s0x3746098e3f1f762b:0x5217e894b6097caf!8m2!3d25.8270131!4d93.7658689!16s%2Fg%2F11krw1tyhc!19sChIJK3YfP44JRjcRr3wJtpToF1I?authuser=0&hl=en&rclk=1,"25.8270131,93.7658689"
