name,main_category,address,address_ward,address_street,address_city,address_postal_code,address_state,address_country_code,link,coordinates
"Markaz Nandyal, Jamia Masjid.",Mosque,"Markaz Nandyal, Jamia Masjid., Fort St, Nadigadda, Sri Potti Sriramulu Colony, Srinivasa Nagar, Nandyala, Andhra Pradesh 518501","Nadigadda, Sri Potti Sriramulu Colony, Srinivasa Nagar",Fort St,Nandyala,518501,Andhra Pradesh,IN,"https://www.google.com/maps/place/Markaz+Nandyal,+Jamia+Masjid./data=!4m7!3m6!1s0x3bb5adf9041bc6c7:0xc0c4d317137dd19d!8m2!3d15.4903114!4d78.4888165!16s%2Fg%2F11gk3fpcrz!19sChIJx8YbBPmttTsRndF9ExfTxMA?authuser=0&hl=en&rclk=1","15.4903114,78.4888165"
Masjid-e-Badar,Mosque,"FFPP+Q28 Masjid-e-Badar, Telugu Peta, Nandyala, Andhra Pradesh 518501",Telugu Peta,FFPP+Q28,Nandyala,518501,Andhra Pradesh,IN,https://www.google.com/maps/place/Masjid-e-Badar/data=!4m7!3m6!1s0x3bb5ad519545e2b7:0x5989801111a930c9!8m2!3d15.4869027!4d78.4850811!16s%2Fg%2F11c30_r7f3!19sChIJt-JFlVGttTsRyTCpERGAiVk?authuser=0&hl=en&rclk=1,"15.4869027,78.4850811"
masjid-E-khizar,Mosque,"FFRR+R3P masjid-E-khizar, Nadigadda, Nabi Nagar, Nandyala, Andhra Pradesh 518501","Nabi Nagar, Sri Potti Sriramulu Colony, Srinivasa Nagar","FFRR+R3P, Nadigadda",Nandyala,518501,Andhra Pradesh,IN,https://www.google.com/maps/place/masjid-E-khizar/data=!4m7!3m6!1s0x3bb5ad45b30eda85:0x2c42e7200beba765!8m2!3d15.4920842!4d78.4901895!16s%2Fg%2F11bt_jbjq7!19sChIJhdoOs0WttTsRZafrCyDnQiw?authuser=0&hl=en&rclk=1,"15.492084199999999,78.4901895"
Noorani Masjid,Mosque,"FFGG+7QP Noorani Masjid, Masid center, Deva Nagar Colony, Nandyala, Andhra Pradesh 518501",Deva Nagar Colony,FFGG+7QP Masid center,Nandyala,518501,Andhra Pradesh,IN,https://www.google.com/maps/place/Noorani+Masjid/data=!4m7!3m6!1s0x3bb452aa60b08f29:0x5ecc8c36ae520bcb!8m2!3d15.4757103!4d78.4766201!16s%2Fg%2F11c31qg8wj!19sChIJKY-wYKpStDsRywtSrjaMzF4?authuser=0&hl=en&rclk=1,"15.4757103,78.47662009999999"
Masjid E Mubarak Ahle hadees,Mosque,"FFHG+WG2 Masjid E Mubarak Ahle hadees, Railway Station Rd, Haneef Nagar, Srinivasa Nagar, Nandyala, Andhra Pradesh 518501","Haneef Nagar, Srinivasa Nagar","FFHG+WG2, Railway Station Rd",Nandyala,518501,Andhra Pradesh,IN,https://www.google.com/maps/place/Masjid+E+Mubarak+Ahle+hadees/data=!4m7!3m6!1s0x3bb5ad55494b3437:0x67da3c26144629ba!8m2!3d15.4797681!4d78.4762611!16s%2Fg%2F11b7lhgxxs!19sChIJNzRLSVWttTsRuilGFCY82mc?authuser=0&hl=en&rclk=1,"15.4797681,78.4762611"
Nayee Masjid,Mosque,"FFQM+J3Q Nayee Masjid, Byrmal St, Telugu Peta, Nandyala, Andhra Pradesh 518501",Telugu Peta,"FFQM+J3Q, Byrmal St",Nandyala,518501,Andhra Pradesh,IN,https://www.google.com/maps/place/Nayee+Masjid/data=!4m7!3m6!1s0x3bb5ad50ef3f47bd:0x74be6a78851a8fd3!8m2!3d15.4890905!4d78.4827216!16s%2Fg%2F1tdqrzww!19sChIJvUc_71CttTsR048ahXhqvnQ?authuser=0&hl=en&rclk=1,"15.4890905,78.48272159999999"
Masjid E Swaliheen,Mosque,"FFRQ+J27 Masjid E Swaliheen, bypass road, Nadigadda, Sri Potti Sriramulu Colony, Telugu Peta, Nandyala, Andhra Pradesh 518501","Nadigadda, Sri Potti Sriramulu Colony, Telugu Peta","FFRQ+J27, bypass road",Nandyala,518501,Andhra Pradesh,IN,https://www.google.com/maps/place/Masjid+E+Swaliheen/data=!4m7!3m6!1s0x3bb5ad455890458f:0x28fab44eba958cd8!8m2!3d15.4915353!4d78.4875355!16s%2Fg%2F11b6hmsh1p!19sChIJj0WQWEWttTsR2IyVuk60-ig?authuser=0&hl=en&rclk=1,"15.491535299999999,78.48753549999999"
Masjid E Dabara,Mosque,"FFPG+C6F Masjid E Dabara, Srinivasa Nagar, Nandyala, Andhra Pradesh 518501",Srinivasa Nagar,FFPG+C6F,Nandyala,518501,Andhra Pradesh,IN,https://www.google.com/maps/place/Masjid+E+Dabara/data=!4m7!3m6!1s0x3bb5ad561c69615b:0x80f2b7b3948708be!8m2!3d15.4860668!4d78.475551!16s%2Fg%2F11b6j4d3vw!19sChIJW2FpHFattTsRvgiHlLO38oA?authuser=0&hl=en&rclk=1,"15.4860668,78.475551"
Chowk Masjid,Mosque,"FFRP+423 Chowk Masjid, Main Bazar Rd, Telugu Peta, Nandyala, Andhra Pradesh 518501",Telugu Peta,"FFRP+423, Main Bazar Rd",Nandyala,518501,Andhra Pradesh,IN,https://www.google.com/maps/place/Chowk+Masjid/data=!4m7!3m6!1s0x3bb5ad506c9feb01:0x557fcc025c8ce4d4!8m2!3d15.4902545!4d78.485046!16s%2Fg%2F11c3k6f6x9!19sChIJAeufbFCttTsR1OSMXALMf1U?authuser=0&hl=en&rclk=1,"15.490254499999999,78.485046"
Jamiya Masjid,Mosque,"FF7P+M33 Jamiya Masjid, Gopal Nagar, Nandyala, Andhra Pradesh 518501",Gopal Nagar,FF7P+M33,Nandyala,518501,Andhra Pradesh,IN,https://www.google.com/maps/place/Jamiya+Masjid/data=!4m7!3m6!1s0x3bb452a4e93100b3:0x308a48f9fa106886!8m2!3d15.4641453!4d78.4851758!16s%2Fg%2F11csrnpypt!19sChIJswAx6aRStDsRhmgQ-vlIijA?authuser=0&hl=en&rclk=1,"15.464145299999998,78.4851758"
Masjid-E-Madina,Mosque,"FF9J+8F9 Masjid-E-Madina, Sadiq Nagar, Nandyala, Andhra Pradesh 518501",Sadiq Nagar,FF9J+8F9,Nandyala,518501,Andhra Pradesh,IN,https://www.google.com/maps/place/Masjid-E-Madina/data=!4m7!3m6!1s0x3bb452af54277e0d:0xe87bb1e342f91cb4!8m2!3d15.4682846!4d78.4812429!16s%2Fg%2F11c5r5bm4v!19sChIJDX4nVK9StDsRtBz5QuOxe-g?authuser=0&hl=en&rclk=1,"15.468284599999999,78.4812429"
Masjid E Abubakar,Mosque,"FFGF+HF3 Masjid E Abubakar, Unnamed Road, Deva Nagar Colony, Nandyala, Andhra Pradesh 518501",Deva Nagar Colony,"FFGF+HF3, Unnamed Road",Nandyala,518501,Andhra Pradesh,IN,https://www.google.com/maps/place/Masjid+E+Abubakar/data=!4m7!3m6!1s0x3bb44d550aab458f:0xe3016df0ecfb2d84!8m2!3d15.4763848!4d78.473669!16s%2Fg%2F11fzfd8pkg!19sChIJj0WrClVNtDsRhC377PBtAeM?authuser=0&hl=en&rclk=1,"15.4763848,78.473669"
Subhan Masjid,Mosque,"Subhan Masjid, 518501, Saleem Nagar, Srinivasa Nagar, Nandyala, Andhra Pradesh 518501","Saleem Nagar, Srinivasa Nagar",518501,Nandyala,518501,Andhra Pradesh,IN,https://www.google.com/maps/place/Subhan+Masjid/data=!4m7!3m6!1s0x3bb5ad558a1fca85:0x97ab67612f70f300!8m2!3d15.4832521!4d78.4752753!16s%2Fg%2F11ddyk09rl!19sChIJhcofilWttTsRAPNwL2Fnq5c?authuser=0&hl=en&rclk=1,"15.4832521,78.47527529999999"
Masjid E Rasool,Mosque,"Masjid E Rasool, 518501, Municipal Employee Colony, SBI Colony, Nandyala, Andhra Pradesh 518501","Municipal Employee Colony, SBI Colony",518501,Nandyala,518501,Andhra Pradesh,IN,https://www.google.com/maps/place/Masjid+E+Rasool/data=!4m7!3m6!1s0x3bb452b217ea9ec9:0x5471686fb9233599!8m2!3d15.4749867!4d78.4879088!16s%2Fg%2F11c31081zy!19sChIJyZ7qF7JStDsRmTUjuW9ocVQ?authuser=0&hl=en&rclk=1,"15.474986699999999,78.4879088"
Masjid-e-Lathifia,Mosque,"Masjid-e-Lathifia, Balaji Complex, Salim Nagar, Nandyala, Andhra Pradesh 518501",Salim Nagar,Balaji Complex,Nandyala,518501,Andhra Pradesh,IN,https://www.google.com/maps/place/Masjid-e-Lathifia/data=!4m7!3m6!1s0x3bb5ad4d0b5e4c13:0x147345a42e8a7099!8m2!3d15.4824881!4d78.4880625!16s%2Fg%2F11bccgg5hv!19sChIJE0xeC02ttTsRmXCKLqRFcxQ?authuser=0&hl=en&rclk=1,"15.4824881,78.4880625"
Autonagar Mosque Nandyal,Mosque,"FCJR+M93 Autonagar Mosque Nandyal, Kurnool - Nandyal Rd, Andhra Pradesh 518112",,"FCJR+M93, Kurnool - Nandyal Rd",,518112,Andhra Pradesh,IN,https://www.google.com/maps/place/Autonagar+Mosque+Nandyal/data=!4m7!3m6!1s0x3bb5b2d275018129:0xad83d82b2d305c5b!8m2!3d15.4816448!4d78.4409217!16s%2Fg%2F11fzbvjcp7!19sChIJKYEBddKytTsRW1wwLSvYg60?authuser=0&hl=en&rclk=1,"15.4816448,78.44092169999999"
Masjid E Qhuraish,Mosque,"FFRP+2JF Masjid E Qhuraish, Gandhi Chowk Rd, Telugu Peta, Nandyala, Andhra Pradesh 518501",Telugu Peta,"FFRP+2JF, Gandhi Chowk Rd",Nandyala,,Andhra Pradesh,IN,https://www.google.com/maps/place/Masjid+E+Qhuraish/data=!4m7!3m6!1s0x3bb5ad4fdde98401:0x5849e91ed3683699!8m2!3d15.4900623!4d78.4865513!16s%2Fg%2F11b7gqbxx6!19sChIJAYTp3U-ttTsRmTZo0x7pSVg?authuser=0&hl=en&rclk=1,"15.4900623,78.4865513"
MASJID-E-FATHIMA,Mosque,"MASJID-E-FATHIMA, Fathima Nagar, Jagajjanani Nagar, Nandyala, Andhra Pradesh 518501",Salim Nagar,"Fathima Nagar, Jagajjanani Nagar",Nandyala,518501,Andhra Pradesh,IN,https://www.google.com/maps/place/MASJID-E-FATHIMA/data=!4m7!3m6!1s0x3bb5ad4619bb8751:0xf51ee78c00aa2c19!8m2!3d15.4923689!4d78.4934192!16s%2Fg%2F11c17b1w2m!19sChIJUYe7GUattTsRGSyqAIznHvU?authuser=0&hl=en&rclk=1,"15.492368899999999,78.49341919999999"
Masjid E Antikota,Mosque,"FFQV+R4V Masjid E Antikota, Telugu Peta, Nandyala, Andhra Pradesh 518501",Telugu Peta,FFQV+R4V,Nandyala,518501,Andhra Pradesh,IN,https://www.google.com/maps/place/Masjid+E+Antikota/data=!4m7!3m6!1s0x3bb5ad48cfd18595:0x9768ab1f78c212b8!8m2!3d15.4896106!4d78.4927993!16s%2Fg%2F11b7ztn0q2!19sChIJlYXRz0ittTsRuBLCeB-raJc?authuser=0&hl=en&rclk=1,"15.489610599999999,78.4927993"
Masjid E Kauser,Mosque,"FFC8+3MR Masjid E Kauser, ISLAMPETA, Moolasagaram, Nandyala, Andhra Pradesh 518501",Moolasagaram,"FFC8+3MR, ISLAMPETA",Nandyala,518501,Andhra Pradesh,IN,https://www.google.com/maps/place/Masjid+E+Kauser/data=!4m7!3m6!1s0x3bb44d51aa98af51:0x53f4c7dedba2e81!8m2!3d15.470239!4d78.4666264!16s%2Fg%2F11bx8k1mdt!19sChIJUa-YqlFNtDsRgS667X1MPwU?authuser=0&hl=en&rclk=1,"15.470239,78.4666264"
Maqbul E Alam Masjid,Mosque,"FF9R+9WG Maqbul E Alam Masjid, NGO Colony, Nandyala, Andhra Pradesh 518502",NGO Colony,FF9R+9WG,Nandyala,518502,Andhra Pradesh,IN,https://www.google.com/maps/place/Maqbul+E+Alam+Masjid/data=!4m7!3m6!1s0x3bb452b9ff74096b:0x2dd3953bf53a881!8m2!3d15.468443!4d78.4923423!16s%2Fg%2F11fzfbvkqk!19sChIJawl0_7lStDsRgahTv1M53QI?authuser=0&hl=en&rclk=1,"15.468442999999999,78.49234229999999"
Masjid-e-Ali,Mosque,"Masjid-e-Ali, 518501, Grameena Bank Staff Colony, Sadiq Nagar, Nandyala, Andhra Pradesh 518501","Grameena Bank Staff Colony, Sadiq Nagar",518501,Nandyala,518501,Andhra Pradesh,IN,https://www.google.com/maps/place/Masjid-e-Ali/data=!4m7!3m6!1s0x3bb452a83e4f7b4b:0xbf64d7061aca0cde!8m2!3d15.4693578!4d78.476363!16s%2Fg%2F11c30x9qmb!19sChIJS3tPPqhStDsR3gzKGgbXZL8?authuser=0&hl=en&rclk=1,"15.4693578,78.47636299999999"
Masjid-E-Huda,Mosque,"FFHP+235 Masjid-E-Huda, Nagula Katta, Nandyala, Andhra Pradesh 518501",Nagula Katta,"FFHP+235, Nagula Katta",Nandyala,518501,Andhra Pradesh,IN,https://www.google.com/maps/place/Masjid-E-Huda/data=!4m7!3m6!1s0x3bb452ad72ef39f1:0x846c3d43a4257d2a!8m2!3d15.4775095!4d78.4852492!16s%2Fg%2F11cs31pt0d!19sChIJ8Tnvcq1StDsRKn0lpEM9bIQ?authuser=0&hl=en&rclk=1,"15.4775095,78.4852492"
Masjid-E-Usma-E-Ghani,Mosque,"FFPR+4WH Masjid-E-Usma-E-Ghani, Farook Nagar, Salim Nagar, Nandyala, Andhra Pradesh 518501","Farook Nagar, Salim Nagar",FFPR+4WH,Nandyala,518501,Andhra Pradesh,IN,https://www.google.com/maps/place/Masjid-E-Usma-E-Ghani/data=!4m7!3m6!1s0x3bb5ad4bfc79655b:0x71a5f7177c71c04e!8m2!3d15.4853088!4d78.4923447!16s%2Fg%2F11c5t3xmft!19sChIJW2V5_EuttTsRTsBxfBf3pXE?authuser=0&hl=en&rclk=1,"15.485308799999999,78.49234469999999"
Masjid-E-Arafat,Mosque,"Masjid-E-Arafat, 22/208, Kota Street, Jagajanani Nagar, Sri Potti Sriramulu Colony, Srinivasa Nagar, Kota St, Jagajanani Nagar, Sri Potti Sriramulu Colony, Srinivasa Nagar, Nandyala, Andhra Pradesh 518501","Jagajanani Nagar, Sri Potti Sriramulu Colony, Srinivasa Nagar","22/208, Kota Street, Jagajanani Nagar, Sri Potti Sriramulu Colony, Srinivasa Nagar, Kota St",Nandyala,518501,Andhra Pradesh,IN,https://www.google.com/maps/place/Masjid-E-Arafat/data=!4m7!3m6!1s0x3bb5ad4f5d197bbf:0x656b28d3ae1758fd!8m2!3d15.4914099!4d78.4911994!16s%2Fg%2F11csrvn7sr!19sChIJv3sZXU-ttTsR_VgXrtMoa2U?authuser=0&hl=en&rclk=1,"15.491409899999999,78.4911994"
Masjid-E-Mohammedia Ahle Hadees,Mosque,"FFC8+HRX Masjid-E-Mohammedia Ahle Hadees, Moolasagaram, Nandyala, Andhra Pradesh 518502",Moolasagaram,FFC8+HRX,Nandyala,518502,Andhra Pradesh,IN,https://www.google.com/maps/place/Masjid-E-Mohammedia+Ahle+Hadees/data=!4m7!3m6!1s0x3bb44d510c87ea31:0x12f4855bffb9592d!8m2!3d15.4714998!4d78.4670986!16s%2Fg%2F1tks4sbr!19sChIJMeqHDFFNtDsRLVm5_1uF9BI?authuser=0&hl=en&rclk=1,"15.4714998,78.4670986"
Masjid E Hamza,Mosque,"Masjid E Hamza, 518501, Saleem Nagar, Srinivasa Nagar, Nandyala, Andhra Pradesh 518501","Saleem Nagar, Srinivasa Nagar",518501,Nandyala,518501,Andhra Pradesh,IN,https://www.google.com/maps/place/Masjid+E+Hamza/data=!4m7!3m6!1s0x3bb5b2aa445ea16d:0x4c0acdf0f7687463!8m2!3d15.4829996!4d78.4732842!16s%2Fg%2F11c1plnq9y!19sChIJbaFeRKqytTsRY3Ro9_DNCkw?authuser=0&hl=en&rclk=1,"15.4829996,78.4732842"
Masjid E Kubra,Mosque,"FFCJ+9VW Masjid E Kubra, Sadiq Nagar, Nandyala, Andhra Pradesh 518501",Sadiq Nagar,FFCJ+9VW,Nandyala,518501,Andhra Pradesh,IN,https://www.google.com/maps/place/Masjid+E+Kubra/data=!4m7!3m6!1s0x3bb452aedf807f65:0x74b534030272a5a6!8m2!3d15.4709834!4d78.4822015!16s%2Fg%2F11hbgr6mzn!19sChIJZX-A365StDsRpqVyAgM0tXQ?authuser=0&hl=en&rclk=1,"15.4709834,78.4822015"
Masjid E Makkah,Mosque,"FFCQ+R56 Masjid E Makkah, Viswanagar, near Royal Studio and suppliers, Nandyala, Andhra Pradesh 518501","viswanagar, Lalitanagar","FFCQ+R56, Viswanagar, near Royal Studio and suppliers",Nandyala,518501,Andhra Pradesh,IN,https://www.google.com/maps/place/Masjid+E+Makkah/data=!4m7!3m6!1s0x3bb452b1b875c77d:0x234df8779ee67c2d!8m2!3d15.4720342!4d78.4878828!16s%2Fg%2F11byzdfmzp!19sChIJfcd1uLFStDsRLXzmnnf4TSM?authuser=0&hl=en&rclk=1,"15.4720342,78.4878828"
Masjid - E - Ayesha,Mosque,"FFGJ+4V4 Masjid - E - Ayesha, Near SHRAMADANAM Bridge, Nandyala, Andhra Pradesh 518502",Deva Nagar Colony,"FFGJ+4V4, Near SHRAMADANAM Bridge",Nandyala,518502,Andhra Pradesh,IN,https://www.google.com/maps/place/Masjid+-+E+-+Ayesha/data=!4m7!3m6!1s0x3bb452ac15644c1d:0x483d98b32b4f921b!8m2!3d15.4752722!4d78.4822099!16s%2Fg%2F11c1_v6_kz!19sChIJHUxkFaxStDsRG5JPK7OYPUg?authuser=0&hl=en&rclk=1,"15.4752722,78.4822099"
Baba Faqruddin Mosque,Mosque,"FF7V+Q69 Baba Faqruddin Mosque, Gopal Nagar, Nandyala, Andhra Pradesh 518502",Gopal Nagar,FF7V+Q69,Nandyala,518502,Andhra Pradesh,IN,https://www.google.com/maps/place/Baba+Faqruddin+Mosque/data=!4m7!3m6!1s0x3bb452b96e93da53:0xb7ddcb3a7d67c927!8m2!3d15.4644244!4d78.4931157!16s%2Fg%2F11dynyh6yd!19sChIJU9qTbrlStDsRJ8lnfTrL3bc?authuser=0&hl=en&rclk=1,"15.464424399999999,78.49311569999999"
Majid-A-Umar,Mosque,"FF7X+R9H Majid-A-Umar, Ponnapuramcolony, lalitha, Ponnapuram Colony, Lalitanagar, Nandyala, Andhra Pradesh 518502","Ponnapuram Colony, Lalitanagar","FF7X+R9H, Ponnapuramcolony, lalitha",Nandyala,518502,Andhra Pradesh,IN,https://www.google.com/maps/place/Majid-A-Umar/data=!4m7!3m6!1s0x3bb452c75d73df93:0x3ba1d54957ea1123!8m2!3d15.464567!4d78.4984856!16s%2Fg%2F11gb3lv1zn!19sChIJk99zXcdStDsRIxHqV0nVoTs?authuser=0&hl=en&rclk=1,"15.464566999999999,78.4984856"
Sunni Masjid,Mosque,"FCR8+G63 Sunni Masjid, near shantiram medical hospital nandyal kurnool distric andhra pradesh, Kowlur",,"FCR8+G63, near shantiram medical hospital nandyal kurnool distric andhra pradesh",Kowlur,,Andhra Pradesh,IN,https://www.google.com/maps/place/Sunni+Masjid/data=!4m7!3m6!1s0x3bb5b33b07e33e5f:0x1421fa3da84ad4f8!8m2!3d15.4912652!4d78.4155527!16s%2Fg%2F11b6hwm9wr!19sChIJXz7jBzuztTsR-NRKqD36IRQ?authuser=0&hl=en&rclk=1,"15.491265199999999,78.41555269999999"
Jamiya Majid,Mosque,"CFF3+5Q6 Jamiya Majid, Kanala, Andhra Pradesh 518593",,CFF3+5Q6,Kanala,518593,Andhra Pradesh,IN,https://www.google.com/maps/place/Jamiya+Majid/data=!4m7!3m6!1s0x3bb44d985bb1f291:0xeb584bfaa66dda4c!8m2!3d15.4229244!4d78.4543901!16s%2Fg%2F11bw2frvf0!19sChIJkfKxW5hNtDsRTNptpvpLWOs?authuser=0&hl=en&rclk=1,"15.4229244,78.4543901"
Masjid E Khuba,Mosque,"FF6P+9J5 Masjid E Khuba, Kurnool - Ongole Main Rd, Raitu Nagar, Nandyala, Andhra Pradesh 518502",Raitu Nagar,"FF6P+9J5, Kurnool - Ongole Main Rd",Nandyala,518502,Andhra Pradesh,IN,https://www.google.com/maps/place/Masjid+E+Khuba/data=!4m7!3m6!1s0x3bb452bccb4f8f87:0xcf7a475a137e607d!8m2!3d15.4608836!4d78.4865966!16s%2Fg%2F11c5wxbwq2!19sChIJh49Py7xStDsRfWB-E1pHes8?authuser=0&hl=en&rclk=1,"15.460883599999999,78.4865966"
Masjid E Abu-Hanifa,Mosque,"FFRV+4JW Masjid E Abu-Hanifa, near essar petrol bunk., Nandyala, Andhra Pradesh",Salim Nagar,"FFRV+4JW, near essar petrol bunk.",Nandyala,,Andhra Pradesh,IN,https://www.google.com/maps/place/Masjid+E+Abu-Hanifa/data=!4m7!3m6!1s0x3bb5ad48eccc0435:0x6b05de16d1509d05!8m2!3d15.4903508!4d78.4940762!16s%2Fg%2F11d_8842p2!19sChIJNQTM7EittTsRBZ1Q0RbeBWs?authuser=0&hl=en&rclk=1,"15.4903508,78.4940762"
Beersheba Prayer House,Church,"Beersheba Prayer House, Masjid, Municipal Office back side Land mark:Backside of Dabarala, Nandyala, Andhra Pradesh 518501",Srinivasa Nagar,"Masjid, Municipal Office back side Land mark:Backside of Dabarala",Nandyala,518501,Andhra Pradesh,IN,https://www.google.com/maps/place/Beersheba+Prayer+House/data=!4m7!3m6!1s0x3bb5b2a9efe299a7:0x471a36939752dcdd!8m2!3d15.4857623!4d78.4745294!16s%2Fg%2F11bwkglvv7!19sChIJp5ni76mytTsR3dxSl5M2Gkc?authuser=0&hl=en&rclk=1,"15.4857623,78.4745294"
Masjid E Inamul Hasan,Mosque,"Masjid E Inamul Hasan, 518501, A.K.B.S Colony, Sai Baba nagar, Nandyala, Andhra Pradesh 518501","A.K.B.S Colony, Sai Baba nagar",518501,Nandyala,518501,Andhra Pradesh,IN,https://www.google.com/maps/place/Masjid+E+Inamul+Hasan/data=!4m7!3m6!1s0x3bb452aa3b89f287:0x37e4691cdb7fd04!8m2!3d15.4745689!4d78.4769753!16s%2Fg%2F11gcml4jn_!19sChIJh_KJO6pStDsRBP23zZFGfgM?authuser=0&hl=en&rclk=1,"15.4745689,78.47697529999999"
Jamiya Masjid,Mosque,"CGWC+2FV Jamiya Masjid, Ayyalur, Andhra Pradesh 518502",,CGWC+2FV,Ayyalur,518502,Andhra Pradesh,IN,https://www.google.com/maps/place/Jamiya+Masjid/data=!4m7!3m6!1s0x3bb453029a88f733:0xf2d779776e15868b!8m2!3d15.4451064!4d78.5211596!16s%2Fg%2F11g62ymk64!19sChIJM_eImgJTtDsRi4YVbnd51_I?authuser=0&hl=en&rclk=1,"15.445106399999998,78.52115959999999"
masjid-e-ameena,Mosque,"FFVQ+8V2 masjid-e-ameena, Unnamed Road, Nandyal, Sri Potti Sriramulu Colony, Srinivasa Nagar, Nandyala, Andhra Pradesh 518501","Nabi Nagar, Sri Potti Sriramulu Colony, Srinivasa Nagar","FFVQ+8V2, Unnamed Road, Nandyal",Nandyala,518501,Andhra Pradesh,IN,https://www.google.com/maps/place/masjid-e-ameena/data=!4m7!3m6!1s0x3bb5ad45a10f2e1b:0x8c20f09e26337f2!8m2!3d15.4932728!4d78.489626!16s%2Fg%2F11dym7l4p_!19sChIJGy4PoUWttTsR8jdj4gkPwgg?authuser=0&hl=en&rclk=1,"15.4932728,78.489626"
Masjid-E-Siddiqui,Mosque,"FF9Q+625 Masjid-E-Siddiqui, Gopal Nagar, Nandyala, Andhra Pradesh",Gopal Nagar,FF9Q+625,Nandyala,,Andhra Pradesh,IN,https://www.google.com/maps/place/Masjid-E-Siddiqui/data=!4m7!3m6!1s0x3bb452baa400dc51:0x105e95b2fa3c76eb!8m2!3d15.4680139!4d78.4876166!16s%2Fg%2F11cs3xrtqc!19sChIJUdwApLpStDsR63Y8-rKVXhA?authuser=0&hl=en&rclk=1,"15.468013899999999,78.4876166"
Masjid E Bilaal,Mosque,"FFMP+G88 Masjid E Bilaal, Bilal Nagar, Srinivasa Nagar, Nandyala, Andhra Pradesh 518501",Srinivasa Nagar,"FFMP+G88, Bilal Nagar",Nandyala,518501,Andhra Pradesh,IN,https://www.google.com/maps/place/Masjid+E+Bilaal/data=!4m7!3m6!1s0x3bb5ad5534afe01b:0x4836d254be5090dc!8m2!3d15.4837899!4d78.4858232!16s%2Fg%2F11g8677vnv!19sChIJG-CvNFWttTsR3JBQvlTSNkg?authuser=0&hl=en&rclk=1,"15.4837899,78.4858232"
Sarware Kounine Masjid,Mosque,"Sarware Kounine Masjid, 4-415, Municipal Highschool Road, Nadigadda, Municipal Highschool Rd, Nadigadda, Sri Potti Sriramulu Colony, Srinivasa Nagar, Nandyala, Andhra Pradesh 518501","Nadigadda, Sri Potti Sriramulu Colony, Srinivasa Nagar","4-415, Municipal Highschool Road, Nadigadda, Municipal Highschool Rd",Nandyala,518501,Andhra Pradesh,IN,https://www.google.com/maps/place/Sarware+Kounine+Masjid/data=!4m7!3m6!1s0x3bb5ad5ab6c813dd:0xb1444fb8f7356607!8m2!3d15.49251!4d78.486112!16s%2Fg%2F11c7w0qx9r!19sChIJ3RPItlqttTsRB2Y197hPRLE?authuser=0&hl=en&rclk=1,"15.49251,78.48611199999999"
Masjid E Markaz,Mosque,"CFPW+6GG Masjid E Markaz, Chabolu, Andhra Pradesh 518502",,CFPW+6GG,Chabolu,518502,Andhra Pradesh,IN,https://www.google.com/maps/place/Masjid+E+Markaz/data=!4m7!3m6!1s0x3bb4528a94e3d14f:0x95ff675f62e59eb9!8m2!3d15.4355528!4d78.4963136!16s%2Fg%2F11gff49f6q!19sChIJT9HjlIpStDsRuZ7lYl9n_5U?authuser=0&hl=en&rclk=1,"15.4355528,78.4963136"
Muzzammil Masjid,Mosque,"FFQR+G7W Muzzammil Masjid, Gudipati Gadda St, Telugu Peta, Nandyala, Andhra Pradesh 518501",Telugu Peta,"FFQR+G7W, Gudipati Gadda St",Nandyala,518501,Andhra Pradesh,IN,https://www.google.com/maps/place/Muzzammil+Masjid/data=!4m7!3m6!1s0x3bb5ad4f1fb0161f:0xd94958fc8af29d6d!8m2!3d15.4888648!4d78.4907064!16s%2Fg%2F11b70kmdsc!19sChIJHxawH0-ttTsRbZ3yivxYSdk?authuser=0&hl=en&rclk=1,"15.4888648,78.4907064"
Masjid E Sa'eed,Mosque,"FFHJ+V94 Masjid E Sa'eed, near Polytechnic college, Padmavathi Nagar, Nandyala, Andhra Pradesh 518501",Padmavathi Nagar,"FFHJ+V94, near Polytechnic college",Nandyala,,Andhra Pradesh,IN,https://www.google.com/maps/place/Masjid+E+Sa%27eed/data=!4m7!3m6!1s0x3bb453c1a92eca33:0x73752d46f1b28d9e!8m2!3d15.4796429!4d78.4809648!16s%2Fg%2F11f9_mx1sv!19sChIJM8ouqcFTtDsRno2y8UYtdXM?authuser=0&hl=en&rclk=1,"15.4796429,78.4809648"
MASJEED-E-ALI,Mosque,"FFW7+33J MASJEED-E-ALI, S R B C Colony, Moolasagaram Rural, Andhra Pradesh 518511",S R B C Colony,FFW7+33J,Moolasagaram Rural,518511,Andhra Pradesh,IN,https://www.google.com/maps/place/MASJEED-E-ALI/data=!4m7!3m6!1s0x3bb5b2bb5ccb9865:0xbfb17202f1b665bf!8m2!3d15.495217!4d78.462656!16s%2Fg%2F11c2k29363!19sChIJZZjLXLuytTsRv2W28QJysb8?authuser=0&hl=en&rclk=1,"15.495216999999998,78.462656"
Masjid e Ali,Mosque,"FFRC+WX4 Masjid e Ali, Moolasagaram Rural, Andhra Pradesh 518511",,FFRC+WX4,Moolasagaram Rural,518511,Andhra Pradesh,IN,https://www.google.com/maps/place/Masjid+e+Ali/data=!4m7!3m6!1s0x3bb5b2a7b5188025:0xef6cf19299abb372!8m2!3d15.492259!4d78.4724417!16s%2Fg%2F11g6p6g8kt!19sChIJJYAYtaeytTsRcrOrmZLxbO8?authuser=0&hl=en&rclk=1,"15.492258999999999,78.47244169999999"
MASJID - E - MUHAMMADIYA,Mosque,"MASJID - E - MUHAMMADIYA, Mohammadiya masjid, Nadigadda, Sri Potti Sriramulu Colony, Telugu Peta, Nandyala, Andhra Pradesh 518501","Nadigadda, Sri Potti Sriramulu Colony, Telugu Peta",Mohammadiya masjid,Nandyala,518501,Andhra Pradesh,IN,https://www.google.com/maps/place/MASJID+-+E+-+MUHAMMADIYA/data=!4m7!3m6!1s0x3bb5ad5104e64b47:0xf46312829fb20594!8m2!3d15.4942965!4d78.4891327!16s%2Fg%2F11h1dsl84t!19sChIJR0vmBFGttTsRlAWyn4ISY_Q?authuser=0&hl=en&rclk=1,"15.494296499999999,78.4891327"
Masjid Al Furqaan,Mosque,"FFVM+546 Masjid Al Furqaan, qabarstan purana eidgah bhimavaram road, Nandyal Bus Stand Rd, Sri Potti Sriramulu Colony, Srinivasa Nagar, Nandyala, Andhra Pradesh 518501","Sri Potti Sriramulu Colony, Srinivasa Nagar","FFVM+546, qabarstan purana eidgah bhimavaram road, Nandyal Bus Stand Rd",Nandyala,518501,Andhra Pradesh,IN,https://www.google.com/maps/place/Masjid+Al+Furqaan/data=!4m7!3m6!1s0x3bb5ad5a43ba2e61:0x248174019a3a99a!8m2!3d15.4929028!4d78.4827679!16s%2Fg%2F11cn3sg870!19sChIJYS66Q1qttTsRmqmjGUAXSAI?authuser=0&hl=en&rclk=1,"15.4929028,78.4827679"
Masjid-E-Saddekhan,Mosque,"HC5F+64W Masjid-E-Saddekhan, Rasullada, Andhra Pradesh 518511",,HC5F+64W,Rasullada,518511,Andhra Pradesh,IN,https://www.google.com/maps/place/Masjid-E-Saddekhan/data=!4m7!3m6!1s0x3bb5b3a1c0de3493:0x45d7e1b2e62a90d2!8m2!3d15.5581094!4d78.4228268!16s%2Fg%2F11h4gvrrc8!19sChIJkzTewKGztTsR0pAq5rLh10U?authuser=0&hl=en&rclk=1,"15.5581094,78.4228268"
Masjid e khan-khah (anjuman masjid),Mosque,"Masjid e khan-khah (anjuman masjid), Bus Station, Nandyal Bus Stand Rd, Arundhi Nagar, Telugu Peta, Nandyala, Andhra Pradesh 518501","Arundhi Nagar, Telugu Peta","Bus Station, Nandyal Bus Stand Rd",Nandyala,518501,Andhra Pradesh,IN,https://www.google.com/maps/place/Masjid+e+khan-khah+%28anjuman+masjid%29/data=!4m7!3m6!1s0x3bb5adf2963335ab:0xa4490349fa7d92ff!8m2!3d15.4896704!4d78.4807394!16s%2Fg%2F11fwwvp45l!19sChIJqzUzlvKttTsR_5J9-kkDSaQ?authuser=0&hl=en&rclk=1,"15.4896704,78.48073939999999"
Masjid E Firdous,Mosque,"FF8M+38H Masjid E Firdous, Sadiq Nagar, Nandyala, Andhra Pradesh 518501",Sadiq Nagar,FF8M+38H,Nandyala,518501,Andhra Pradesh,IN,https://www.google.com/maps/place/Masjid+E+Firdous/data=!4m7!3m6!1s0x3bb4531436842983:0x9df512048969de1d!8m2!3d15.4651849!4d78.483369!16s%2Fg%2F11lrylxjsr!19sChIJgymENhRTtDsRHd5piQQS9Z0?authuser=0&hl=en&rclk=1,"15.465184899999999,78.483369"
Masjid E Roshan,Mosque,"FFQJ+5WC Masjid E Roshan, Rojakunta St, Telugu Peta, Nandyala, Andhra Pradesh 518501",Telugu Peta,"FFQJ+5WC, Rojakunta St",Nandyala,518501,Andhra Pradesh,IN,https://www.google.com/maps/place/Masjid+E+Roshan/data=!4m7!3m6!1s0x3bb5ad512203afdd:0x72fa844904d0f2d9!8m2!3d15.4879269!4d78.4822676!16s%2Fg%2F11c3k2_q_h!19sChIJ3a8DIlGttTsR2fLQBEmE-nI?authuser=0&hl=en&rclk=1,"15.4879269,78.4822676"
Masjid - E - Sulaiman,Mosque,"FF8W+VWC Masjid - E - Sulaiman, Ponnapuram Colony, Lalitanagar, Nandyala, Andhra Pradesh 518502","Ponnapuram Colony, Lalitanagar",FF8W+VWC,Nandyala,518502,Andhra Pradesh,IN,https://www.google.com/maps/place/Masjid+-+E+-+Sulaiman/data=!4m7!3m6!1s0x3bb452b86d3d9737:0x27a0e448f3d6abd8!8m2!3d15.4671773!4d78.4972569!16s%2Fg%2F11cjp9yc15!19sChIJN5c9bbhStDsR2KvW80jkoCc?authuser=0&hl=en&rclk=1,"15.4671773,78.4972569"
SAI BABA NAGAR EIDGAH NANDYAL,Mosque,"FFCM+R28 SAI BABA NAGAR EIDGAH NANDYAL, Gaddipati, Nandyala, Andhra Pradesh 518501",Gaddipati,FFCM+R28,Nandyala,518501,Andhra Pradesh,IN,https://www.google.com/maps/place/SAI+BABA+NAGAR+EIDGAH+NANDYAL/data=!4m7!3m6!1s0x3bb453f990de04c5:0x5f1d3c90b5a85425!8m2!3d15.4720453!4d78.4825724!16s%2Fg%2F11g2_4cw66!19sChIJxQTekPlTtDsRJVSotZA8HV8?authuser=0&hl=en&rclk=1,"15.4720453,78.4825724"
Masjid E Siddique,Mosque,"FFPF+3R3 Masjid E Siddique, Srinivasa Nagar, Nandyala, Andhra Pradesh 518501",Srinivasa Nagar,FFPF+3R3,Nandyala,518501,Andhra Pradesh,IN,https://www.google.com/maps/place/Masjid+E+Siddique/data=!4m7!3m6!1s0x3bb5b2a9f83b8199:0xe089336d2c84ddd3!8m2!3d15.4851253!4d78.4745402!16s%2Fg%2F11c4m4y5lv!19sChIJmYE7-KmytTsR092ELG0zieA?authuser=0&hl=en&rclk=1,"15.4851253,78.47454019999999"
Masjid -A- Hasnan,Mosque,"FFRJ+2WH Masjid -A- Hasnan, Telugu Peta, Nandyala, Andhra Pradesh 518501",Telugu Peta,FFRJ+2WH,Nandyala,518501,Andhra Pradesh,IN,https://www.google.com/maps/place/Masjid+-A-+Hasnan/data=!4m7!3m6!1s0x3bb5ad5095908415:0x59c83a8eff4974f6!8m2!3d15.4900575!4d78.4823649!16s%2Fg%2F11h2fm5wd8!19sChIJFYSQlVCttTsR9nRJ_446yFk?authuser=0&hl=en&rclk=1,"15.490057499999999,78.4823649"
Masid,Mosque,"FF7V+X7H Masid, Ngo Colony Rd, Gopal Nagar, Nandyala, Andhra Pradesh 518502",Gopal Nagar,"FF7V+X7H, Ngo Colony Rd",Nandyala,518502,Andhra Pradesh,IN,https://www.google.com/maps/place/Masid/data=!4m7!3m6!1s0x3bb452b96e647445:0x4bab2ba78af8b86a!8m2!3d15.4649251!4d78.4932479!16s%2Fg%2F11dywpk046!19sChIJRXRkbrlStDsRarj4iqcrq0s?authuser=0&hl=en&rclk=1,"15.464925099999999,78.4932479"
Masjid,Mosque,"CF9W+X9P Masjid, Unnamed Road, Sambavaram, Andhra Pradesh 518502",,"CF9W+X9P, Unnamed Road",Sambavaram,518502,Andhra Pradesh,IN,https://www.google.com/maps/place/Masjid/data=!4m7!3m6!1s0x3bb453abfd7cb16d:0xee97e959cbd867b8!8m2!3d15.4199686!4d78.4959603!16s%2Fg%2F11h481h0zm!19sChIJbbF8_atTtDsRuGfYy1npl-4?authuser=0&hl=en&rclk=1,"15.419968599999999,78.4959603"
Sunni Masjid,Mosque,"FFQP+C4V Sunni Masjid, Mullanpet, Chandbada, Nandyala, Andhra Pradesh 518501","Mullanpet, Chandbada",FFQP+C4V,Nandyala,518501,Andhra Pradesh,IN,https://www.google.com/maps/place/Sunni+Masjid/data=!4m7!3m6!1s0x3bb5ad1f658bd06b:0xe036015a47e32c8d!8m2!3d15.4886081!4d78.4853071!16s%2Fg%2F11gkw838gs!19sChIJa9CLZR-ttTsRjSzjR1oBNuA?authuser=0&hl=en&rclk=1,"15.488608099999999,78.4853071"
Masjid-E-Razia,Mosque,"FFVR+484 Masjid-E-Razia, Nabi Nagar, Sri Potti Sriramulu Colony, Srinivasa Nagar, Nandyala, Andhra Pradesh 518501","Nabi Nagar, Sri Potti Sriramulu Colony, Srinivasa Nagar",FFVR+484,Nandyala,,Andhra Pradesh,IN,https://www.google.com/maps/place/Masjid-E-Razia/data=!4m7!3m6!1s0x3bb5ad80b2c4c217:0xb21e53b715834d54!8m2!3d15.4927695!4d78.490815!16s%2Fg%2F11gt_jkgs8!19sChIJF8LEsoCttTsRVE2DFbdTHrI?authuser=0&hl=en&rclk=1,"15.4927695,78.490815"
Haspa Maszid,Mosque,"GF28+F72 Haspa Maszid, Hapsa Maszid, Nandamuri Nagar, Nandyala",Nandamuri Nagar,"GF28+F72, Hapsa Maszid","Nandyala, Moolasagaram Rural",,Andhra Pradesh,IN,https://www.google.com/maps/place/Haspa+Maszid/data=!4m7!3m6!1s0x3bb5b3a435e16c83:0x8efda17ca058d1bb!8m2!3d15.5011347!4d78.4656394!16s%2Fg%2F11frr1mq1q!19sChIJg2zhNaSztTsRu9FYoHyh_Y4?authuser=0&hl=en&rclk=1,"15.5011347,78.4656394"
Noorani Masjid,Mosque,"CFPX+J22 Noorani Masjid, Chabolu, Andhra Pradesh 518502",,CFPX+J22,Chabolu,518502,Andhra Pradesh,IN,https://www.google.com/maps/place/Noorani+Masjid/data=!4m7!3m6!1s0x3bb453162c14484b:0xb1fbcc35d76d45d8!8m2!3d15.4365093!4d78.4975009!16s%2Fg%2F11fntd8lf8!19sChIJS0gULBZTtDsR2EVt1zXM-7E?authuser=0&hl=en&rclk=1,"15.436509299999999,78.49750089999999"
Masjid-E-Noorani,Mosque,"G95V+JJ6 Masjid-E-Noorani, nadigadda balapanur, Panyam",,"G95V+JJ6, nadigadda balapanur","Panyam, Balapanur",,Andhra Pradesh,IN,https://www.google.com/maps/place/Masjid-E-Noorani/data=!4m7!3m6!1s0x3bb5b3682bf8950d:0x9bd266ae3307166!8m2!3d15.5090353!4d78.3940131!16s%2Fg%2F11hdvm9nvc!19sChIJDZX4K2iztTsRZnEw42omvQk?authuser=0&hl=en&rclk=1,"15.509035299999999,78.3940131"
Masjid e Madina,Mosque,"FF2G+MV7 Masjid e Madina, Nandyala, Andhra Pradesh 518501",,FF2G+MV7,Nandyala,518501,Andhra Pradesh,IN,https://www.google.com/maps/place/Masjid+e+Madina/data=!4m7!3m6!1s0x3bb453315094aef1:0x82308a0f1d6cae67!8m2!3d15.4514343!4d78.4775513!16s%2Fg%2F11rqwth_r5!19sChIJ8a6UUDFTtDsRZ65sHQ-KMII?authuser=0&hl=en&rclk=1,"15.451434299999999,78.4775513"
Masjid - E - Yusuf,Mosque,"FF92+8VP Masjid - E - Yusuf, Kranti Nagar, Nandyala, Andhra Pradesh 518502",Kranti Nagar,FF92+8VP,Nandyala,518502,Andhra Pradesh,IN,https://www.google.com/maps/place/Masjid+-+E+-+Yusuf/data=!4m7!3m6!1s0x3bb44dd6bbeb4a83:0x71939d5b62842e3b!8m2!3d15.4683276!4d78.4521905!16s%2Fg%2F11fgh0pp9p!19sChIJg0rru9ZNtDsROy6EYludk3E?authuser=0&hl=en&rclk=1,"15.468327599999999,78.4521905"
Masjid E Fathima,Mosque,"FFJF+3HX Masjid E Fathima, Haneef Nagar, Srinivasa Nagar, Nandyala, Andhra Pradesh 518501","Haneef Nagar, Srinivasa Nagar",FFJF+3HX,Nandyala,518501,Andhra Pradesh,IN,https://www.google.com/maps/place/Masjid+E+Fathima/data=!4m7!3m6!1s0x3bb5b35ccb519641:0x9fd49422f3cf3aef!8m2!3d15.480225!4d78.4739786!16s%2Fg%2F11fl1lwk33!19sChIJQZZRy1yztTsR7zrP8yKU1J8?authuser=0&hl=en&rclk=1,"15.480224999999999,78.4739786"
Masjid E Rahamath,Mosque,"FF97+9Q4 Masjid E Rahamath, Kranti Nagar, Nandyala, Andhra Pradesh 518501",Kranti Nagar,FF97+9Q4,Nandyala,518501,Andhra Pradesh,IN,https://www.google.com/maps/place/Masjid+E+Rahamath/data=!4m7!3m6!1s0x3bb44db5676450c3:0xc13fa05e80950e68!8m2!3d15.4683944!4d78.4644433!16s%2Fg%2F11g10kvh98!19sChIJw1BkZ7VNtDsRaA6VgF6gP8E?authuser=0&hl=en&rclk=1,"15.4683944,78.4644433"
Masjid E MADINA,Place of worship,"FFC7+V9P Masjid E MADINA, opp. R&B guest house, Moolasagaram, Nandyala, Andhra Pradesh 518501",Moolasagaram,"FFC7+V9P, opp. R&B guest house",Nandyala,518501,Andhra Pradesh,IN,https://www.google.com/maps/place/Masjid+E+MADINA/data=!4m7!3m6!1s0x3bb44dacea9d0b25:0xceea3c7e9814bb39!8m2!3d15.4722113!4d78.4634488!16s%2Fg%2F11gpp3lrps!19sChIJJQud6qxNtDsRObsUmH486s4?authuser=0&hl=en&rclk=1,"15.4722113,78.4634488"
Masjid E Fatha,Mosque,"2/455-E-3, Masjid E Fatha, Mullan peta, NK Rd, Telugu Peta, Nandyala, Andhra Pradesh 518501",Telugu Peta,"2/455-E-3, Mullan peta, NK Rd",Nandyala,518501,Andhra Pradesh,IN,https://www.google.com/maps/place/Masjid+E+Fatha/data=!4m7!3m6!1s0x3bb5ad4e26080b75:0x8843ea267a2aec1!8m2!3d15.4877115!4d78.486952!16s%2Fg%2F11d_8cvytp!19sChIJdQsIJk6ttTsRwa6iZ6I-hAg?authuser=0&hl=en&rclk=1,"15.4877115,78.486952"
Masjid-e-ibrahim khaleelullah,Mosque,"GF36+VCJ Masjid-e-ibrahim khaleelullah, YSR Nagar, Nandyala, Moolasagaram Rural, Andhra Pradesh 518501",YSR Nagar,GF36+VCJ,"Nandyala, Moolasagaram Rural",518501,Andhra Pradesh,IN,https://www.google.com/maps/place/Masjid-e-ibrahim+khaleelullah/data=!4m7!3m6!1s0x3bb5b36d8effa04d:0x249c7a33d249a306!8m2!3d15.5047081!4d78.4610081!16s%2Fg%2F11g0zpxwvz!19sChIJTaD_jm2ztTsRBqNJ0jN6nCQ?authuser=0&hl=en&rclk=1,"15.504708099999998,78.4610081"
Masjide Umre Farooq,Mosque,"CFJV+HHF Masjide Umre Farooq, Kurnool District, Nandyal Taluka, Chabolu, Andhra Pradesh 518502",,"CFJV+HHF, Kurnool District, Nandyal Taluka",Chabolu,518502,Andhra Pradesh,IN,https://www.google.com/maps/place/Masjide+Umre+Farooq/data=!4m7!3m6!1s0x3bb45261a0e18137:0xfdbcec3c4f2d5e12!8m2!3d15.4314468!4d78.4939094!16s%2Fg%2F11c5wymsxy!19sChIJN4HhoGFStDsREl4tTzzsvP0?authuser=0&hl=en&rclk=1,"15.4314468,78.49390939999999"
Masjid-e-Noor,Mosque,"FG68+WVM Masjid-e-Noor, Unnamed Road, Pedda Kottala, Kottala, Andhra Pradesh 518502",,"FG68+WVM, Unnamed Road","Pedda Kottala, Kottala",518502,Andhra Pradesh,IN,https://www.google.com/maps/place/Masjid-e-Noor/data=!4m7!3m6!1s0x3bb4535e8c2ea185:0x426f0970dc04fd2e!8m2!3d15.462343!4d78.5171856!16s%2Fg%2F11hycssrm2!19sChIJhaEujF5TtDsRLv0E3HAJb0I?authuser=0&hl=en&rclk=1,"15.462342999999999,78.51718559999999"
Noorani Masjid,Mosque,"CGVF+7M6 Noorani Masjid, Ayyalur, Andhra Pradesh 518502",,CGVF+7M6,Ayyalur,518502,Andhra Pradesh,IN,https://www.google.com/maps/place/Noorani+Masjid/data=!4m7!3m6!1s0x3bb45345a4a6168d:0x213753ca116178b0!8m2!3d15.4431509!4d78.5241533!16s%2Fg%2F11g0l5ws15!19sChIJjRampEVTtDsRsHhhEcpTNyE?authuser=0&hl=en&rclk=1,"15.4431509,78.5241533"
Syed Moosa qadri masjid,Mosque,"FFHP+RGC Syed Moosa qadri masjid, Nandyal,, Padmavathi Nagar, Nandyala, Andhra Pradesh 518501",Padmavathi Nagar,"FFHP+RGC, Nandyal,",Nandyala,518501,Andhra Pradesh,IN,https://www.google.com/maps/place/Syed+Moosa+qadri+masjid/data=!4m7!3m6!1s0x3bb452ad540ea533:0xf70d9507addf2a7b!8m2!3d15.4795597!4d78.4862651!16s%2Fg%2F11c1q4m8sn!19sChIJM6UOVK1StDsReyrfrQeVDfc?authuser=0&hl=en&rclk=1,"15.4795597,78.4862651"
Masjid E Elias Khurshid,Mosque,"Masjid E Elias Khurshid, Post office backside, near Railway Station, Nandyala, Andhra Pradesh 518502",Industrial Area,"Post office backside, near Railway Station",Nandyala,518502,Andhra Pradesh,IN,https://www.google.com/maps/place/Masjid+E+Elias+Khurshid/data=!4m7!3m6!1s0x3bb44d0ed6206df5:0xd043c79f66bac186!8m2!3d15.4710187!4d78.4719186!16s%2Fg%2F11rgzygy8q!19sChIJ9W0g1g5NtDsRhsG6Zp_HQ9A?authuser=0&hl=en&rclk=1,"15.4710187,78.4719186"
Masjid-E-Safa Marwa,Mosque,"FFGR+G8J Masjid-E-Safa Marwa, Lakshmi Nagar, SBI Colony, Nandyala, Andhra Pradesh 518501","Lakshmi Nagar, SBI Colony",FFGR+G8J,Nandyala,518501,Andhra Pradesh,IN,https://www.google.com/maps/place/Masjid-E-Safa+Marwa/data=!4m7!3m6!1s0x3bb453fbe480f39d:0xd4edc22171ca9a19!8m2!3d15.476339!4d78.490753!16s%2Fg%2F11n2vmlgnr!19sChIJnfOA5PtTtDsRGZrKcSHC7dQ?authuser=0&hl=en&rclk=1,"15.476339,78.490753"
MASJID E AARIFEEN,Mosque,"FFVP+3WM MASJID E AARIFEEN, Nadigadda, Sri Potti Sriramulu Colony, Telugu Peta, Nandyala, Andhra Pradesh 518501","Nadigadda, Sri Potti Sriramulu Colony, Telugu Peta",FFVP+3WM,Nandyala,518501,Andhra Pradesh,IN,https://www.google.com/maps/place/MASJID+E+AARIFEEN/data=!4m7!3m6!1s0x3bb5ad8f21f6a3fd:0x7a86b7f400637c34!8m2!3d15.4927324!4d78.4873775!16s%2Fg%2F11tmmzw144!19sChIJ_aP2IY-ttTsRNHxjAPS3hno?authuser=0&hl=en&rclk=1,"15.4927324,78.4873775"
MASJID - E - KAREEM,Mosque,"FFQG+5H MASJID - E - KAREEM, Srinivasa Nagar, Nandyala, Andhra Pradesh 518501",Srinivasa Nagar,FFQG+5H,Nandyala,518501,Andhra Pradesh,IN,https://www.google.com/maps/place/MASJID+-+E+-+KAREEM/data=!4m7!3m6!1s0x3bb5ad37aed4f763:0x519533e02ef6276e!8m2!3d15.4878794!4d78.4763899!16s%2Fg%2F11p5rqy_dt!19sChIJY_fUrjettTsRbif2LuAzlVE?authuser=0&hl=en&rclk=1,"15.487879399999999,78.4763899"
MD Hussain Masjid,Mosque,"MD Hussain Masjid, Telugu Peta, Nandyala, Andhra Pradesh 518501",Telugu Peta,,Nandyala,518501,Andhra Pradesh,IN,https://www.google.com/maps/place/MD+Hussain+Masjid/data=!4m7!3m6!1s0x3bb5adc9063e0847:0xe122f27924307380!8m2!3d15.4874941!4d78.4886276!16s%2Fg%2F11fj3ymv9n!19sChIJRwg-BsmttTsRgHMwJHnyIuE?authuser=0&hl=en&rclk=1,"15.4874941,78.4886276"
Masjid e Bismillah,Place of worship,"FFPQ+RXX Masjid e Bismillah, Telugu Peta, Nandyala, Andhra Pradesh 518501",Telugu Peta,FFPQ+RXX,Nandyala,518501,Andhra Pradesh,IN,https://www.google.com/maps/place/Masjid+e+Bismillah/data=!4m7!3m6!1s0x3bb5ad3c07fed221:0xa85eeaa700ec975e!8m2!3d15.4871127!4d78.4899941!16s%2Fg%2F11f648m6q8!19sChIJIdL-BzyttTsRXpfsAKfqXqg?authuser=0&hl=en&rclk=1,"15.487112699999999,78.48999409999999"
Masjid-E-Noorullah Qadri,Mosque,"FGX3+3FP Masjid-E-Noorullah Qadri, Nandyala, Andhra Pradesh 518502",,FGX3+3FP,Nandyala,,Andhra Pradesh,IN,https://www.google.com/maps/place/Masjid-E-Noorullah+Qadri/data=!4m7!3m6!1s0x3bb5ad5cbedc40b3:0x612f2ca27d5a68d2!8m2!3d15.4977243!4d78.5037096!16s%2Fg%2F11qn8t68b8!19sChIJs0DcvlyttTsR0mhafaIsL2E?authuser=0&hl=en&rclk=1,"15.4977243,78.5037096"
Masjid Yaseen,Mosque,"FFFV+7J7 Masjid Yaseen, Unnamed Road, SBI Colony, Nandyala, Andhra Pradesh 518501",SBI Colony,"FFFV+7J7, Unnamed Road",Nandyala,518501,Andhra Pradesh,IN,https://www.google.com/maps/place/Masjid+Yaseen/data=!4m7!3m6!1s0x3bb453e68471fd01:0x19dcb1645d1f1e10!8m2!3d15.4731647!4d78.4940331!16s%2Fg%2F11p3wn5hkd!19sChIJAf1xhOZTtDsREB4fXWSx3Bk?authuser=0&hl=en&rclk=1,"15.4731647,78.4940331"
Masjid Manju Peer & Manju Peer Center,Mosque,"Masjid Manju Peer & Manju Peer Center, 2-374, Telugu Peta, Nandyala, Andhra Pradesh 518501",Telugu Peta,2-374,Nandyala,518501,Andhra Pradesh,IN,https://www.google.com/maps/place/Masjid+Manju+Peer+%26+Manju+Peer+Center/data=!4m7!3m6!1s0x3bb5adfa6636f503:0x744b3d61a6f5f2e9!8m2!3d15.4876187!4d78.4865142!16s%2Fg%2F11qrgbmg7z!19sChIJA_U2ZvqttTsR6fL1pmE9S3Q?authuser=0&hl=en&rclk=1,"15.487618699999999,78.4865142"
Masjid E Musalla,Mosque,"FG25+392 Masjid E Musalla, Kottala, Andhra Pradesh 518502",,FG25+392,Kottala,518502,Andhra Pradesh,IN,https://www.google.com/maps/place/Masjid+E+Musalla/data=!4m7!3m6!1s0x3bb4537e6c7d3951:0x92d64a55542e9181!8m2!3d15.4501397!4d78.5083832!16s%2Fg%2F11httt6mvb!19sChIJUTl9bH5TtDsRgZEuVFVK1pI?authuser=0&hl=en&rclk=1,"15.4501397,78.5083832"
Rahmaniya masjid,Mosque,"CFQW+76J Rahmaniya masjid, Unnamed Road, Chabolu, Andhra Pradesh 518502",,"CFQW+76J, Unnamed Road",Chabolu,518502,Andhra Pradesh,IN,https://www.google.com/maps/place/Rahmaniya+masjid/data=!4m7!3m6!1s0x3bb45301c2f3dc09:0xa5b7a8c1316c69e2!8m2!3d15.438203!4d78.4955229!16s%2Fg%2F11p499lqy8!19sChIJCdzzwgFTtDsR4mlsMcGot6U?authuser=0&hl=en&rclk=1,"15.438203,78.4955229"
Mosque,Mosque,"Mosque, 1, Udumalpuram, Andhra Pradesh 518502",,1,Udumalpuram,518502,Andhra Pradesh,IN,https://www.google.com/maps/place/Mosque/data=!4m7!3m6!1s0x3bb44d283cd6585f:0xc98e8ae3eaca82a8!8m2!3d15.4741378!4d78.4394565!16s%2Fg%2F11j0hpdgr3!19sChIJX1jWPChNtDsRqILK6uOKjsk?authuser=0&hl=en&rclk=1,"15.4741378,78.43945649999999"
MADEENA MASJID TALAMUDIPI,Mosque,"MADEENA MASJID TALAMUDIPI, Nandyal Gadivemula Midtur Nandikotkur Rd, Talamudipi, Andhra Pradesh 518508",,Nandyal Gadivemula Midtur Nandikotkur Rd,Talamudipi,518508,Andhra Pradesh,IN,https://www.google.com/maps/place/MADEENA+MASJID+TALAMUDIPI/data=!4m7!3m6!1s0x3bb5b9536636608b:0xac18dbde5b01f664!8m2!3d15.6946896!4d78.3818296!16s%2Fg%2F11jk_j_w41!19sChIJi2A2ZlO5tTsRZPYBW97bGKw?authuser=0&hl=en&rclk=1,"15.694689599999998,78.3818296"
Near Jumma masjid,Plastic Products Supplier,"Near Jumma masjid, 17, 45, Park Rd, jumma masjid Nadigadda, Nadigadda, Telugu Peta, Nandyala, Andhra Pradesh 518501","Nadigadda, Telugu Peta","17, 45, Park Rd, jumma masjid Nadigadda",Nandyala,518501,Andhra Pradesh,IN,https://www.google.com/maps/place/Near+Jumma+masjid/data=!4m7!3m6!1s0x3bb5adfbda5dc487:0xf7901d33d74cffc6!8m2!3d15.4897421!4d78.4894153!16s%2Fg%2F11fphb_p0p!19sChIJh8Rd2vuttTsRxv9M1zMdkPc?authuser=0&hl=en&rclk=1,"15.489742099999999,78.48941529999999"
Masjid E Daee Haleema,Mosque,"FFQV+24R Masjid E Daee Haleema, Telugu Peta, Nandyala, Andhra Pradesh 518501",Telugu Peta,FFQV+24R,Nandyala,518501,Andhra Pradesh,IN,https://www.google.com/maps/place/Masjid+E+Daee+Haleema/data=!4m7!3m6!1s0x3bb5ad8d927b0e9f:0x750e5377c2955e70!8m2!3d15.4876205!4d78.4927782!16s%2Fg%2F11gslvh_53!19sChIJnw57ko2ttTsRcF6VwndTDnU?authuser=0&hl=en&rclk=1,"15.487620499999998,78.49277819999999"
Aadam Safiullah masjid,Mosque,"FFQQ+93 Aadam Safiullah masjid, Nadigadda, Telugu Peta, Nandyala, Andhra Pradesh 518501","Nadigadda, Telugu Peta",FFQQ+93,Nandyala,,Andhra Pradesh,IN,https://www.google.com/maps/place/Aadam+Safiullah+masjid/data=!4m7!3m6!1s0x3bb5ad77b9dd0b1d:0x7c1872c9db2b206b!8m2!3d15.4884644!4d78.4877071!16s%2Fg%2F11r_q60bpc!19sChIJHQvduXettTsRayAr28lyGHw?authuser=0&hl=en&rclk=1,"15.4884644,78.4877071"
Masjid E Thouheed,Mosque,"FFPR+5H5 Masjid E Thouheed, Farook Nagar, Salim Nagar, Nandyala, Andhra Pradesh 518501","Farook Nagar, Salim Nagar",FFPR+5H5,Nandyala,518501,Andhra Pradesh,IN,https://www.google.com/maps/place/Masjid+E+Thouheed/data=!4m7!3m6!1s0x3bb5ad41fe48bcd3:0x371dd8d9eeb72bf1!8m2!3d15.4849747!4d78.4910217!16s%2Fg%2F11stfx4dkx!19sChIJ07xI_kGttTsR8Su37tnYHTc?authuser=0&hl=en&rclk=1,"15.484974699999999,78.49102169999999"
Masjid E Daaee Haleema,Place of worship,"FFHM+C7R Masjid E Daaee Haleema, by pass, road, Nandyala, Andhra Pradesh",Nagula Katta,"FFHM+C7R, by pass, road",Nandyala,,Andhra Pradesh,IN,https://www.google.com/maps/place/Masjid+E+Daaee+Haleema/data=!4m7!3m6!1s0x3bb453126dd6da33:0x9fc6b5980e4db766!8m2!3d15.4786181!4d78.4831299!16s%2Fg%2F11ffv26rt5!19sChIJM9rWbRJTtDsRZrdNDpi1xp8?authuser=0&hl=en&rclk=1,"15.478618099999998,78.4831299"
Masjid-e-badar,Mosque,"GGJ3+RVR Masjid-e-badar, Bhimavaram, Nandyala",,"GGJ3+RVR, Bhimavaram",Nandyala,,Andhra Pradesh,IN,https://www.google.com/maps/place/Masjid-e-badar/data=!4m7!3m6!1s0x3bb5ad93aabf4611:0x3798e1f6bd21c9bf!8m2!3d15.5321031!4d78.5046412!16s%2Fg%2F11qsv6bvzq!19sChIJEUa_qpOttTsRv8khvfbhmDc?authuser=0&hl=en&rclk=1,"15.532103099999999,78.5046412"
Abu Talha Masjid,Mosque,"FC4P+WGQ Abu Talha Masjid, Chapirevula, Andhra Pradesh 518502",,FC4P+WGQ,Chapirevula,518502,Andhra Pradesh,IN,https://www.google.com/maps/place/Abu+Talha+Masjid/data=!4m7!3m6!1s0x3bb44d71500b162b:0xb0a4d70b5bead025!8m2!3d15.4573486!4d78.4363671!16s%2Fg%2F11pf1x_r9s!19sChIJKxYLUHFNtDsRJdDqWwvXpLA?authuser=0&hl=en&rclk=1,"15.4573486,78.4363671"
Majid-e-noorul Huda,Mosque,"CGX6+345 Majid-e-noorul Huda, Ayalur Mitta, Kottala, Andhra Pradesh 518502",,CGX6+345,"Ayalur Mitta, Kottala",518502,Andhra Pradesh,IN,https://www.google.com/maps/place/Majid-e-noorul+Huda/data=!4m7!3m6!1s0x3bb452e53fbfaf87:0x1f3d22fa0b7918db!8m2!3d15.4476433!4d78.5103624!16s%2Fg%2F11gc1kgjlr!19sChIJh6-_P-VStDsR2xh5C_oiPR8?authuser=0&hl=en&rclk=1,"15.4476433,78.51036239999999"
Masjid E Meharunnisa,Mosque,"FGG9+8C7 Masjid E Meharunnisa, Sugali mitta, Andhra Pradesh 518502",,FGG9+8C7,Sugali mitta,518502,Andhra Pradesh,IN,https://www.google.com/maps/place/Masjid+E+Meharunnisa/data=!4m7!3m6!1s0x3bb453ddef7c5c5b:0xc2ac704fa98446b3!8m2!3d15.4757996!4d78.5185542!16s%2Fg%2F11l30slbct!19sChIJW1x8791TtDsRs0aEqU9wrMI?authuser=0&hl=en&rclk=1,"15.475799599999998,78.5185542"
Jafar Hussain masjid,Mosque,"CCVM+R62 Jafar Hussain masjid, Bapuji Nagar, Panduranga Puram, Andhra Pradesh 518502",Bapuji Nagar,CCVM+R62,Panduranga Puram,518502,Andhra Pradesh,IN,https://www.google.com/maps/place/Jafar+Hussain+masjid/data=!4m7!3m6!1s0x3bb44d69ab7a1abf:0x82842d77587ebad5!8m2!3d15.4445066!4d78.433031!16s%2Fg%2F11rk4ms2mq!19sChIJvxp6q2lNtDsR1bp-WHcthII?authuser=0&hl=en&rclk=1,"15.444506599999999,78.433031"
"MASJID - E - QUBA "" VENKATESHWARAPURAM""",Mosque,"FCPJ+5H MASJID - E - QUBA "" VENKATESHWARAPURAM"", Venkateswarapuram, Andhra Pradesh 518112",,FCPJ+5H,Venkateswarapuram,,Andhra Pradesh,IN,https://www.google.com/maps/place/MASJID+-+E+-+QUBA+%22+VENKATESHWARAPURAM%22/data=!4m7!3m6!1s0x3bb5b331b72a3e77:0x93f3b88e8f574a15!8m2!3d15.4853864!4d78.4313992!16s%2Fg%2F11s0jr5_3v!19sChIJdz4qtzGztTsRFUpXj46485M?authuser=0&hl=en&rclk=1,"15.4853864,78.4313992"
MASJID E NOORANI,Place of worship,"CFMV+WQW MASJID E NOORANI, Chabolu, Andhra Pradesh 518502",,CFMV+WQW,Chabolu,518502,Andhra Pradesh,IN,https://www.google.com/maps/place/MASJID+E+NOORANI/data=!4m7!3m6!1s0x3bb453c8baed60f9:0x5f2261ba4831f210!8m2!3d15.4348513!4d78.4944436!16s%2Fg%2F11h565pd22!19sChIJ-WDtushTtDsREPIxSLphIl8?authuser=0&hl=en&rclk=1,"15.4348513,78.4944436"
Masjid e Mehdavia(Nandyal),Mosque,"FFQP+65M Masjid e Mehdavia(Nandyal), Mullanpet, Telugu Peta, Nandyala, Andhra Pradesh 518501","Mullanpet, Telugu Peta",FFQP+65M,Nandyala,518501,Andhra Pradesh,IN,https://www.google.com/maps/place/Masjid+e+Mehdavia%28Nandyal%29/data=!4m7!3m6!1s0x3bb5ad29bb50f925:0x13536dca7a4b921f!8m2!3d15.4880802!4d78.4854085!16s%2Fg%2F11py9hz50y!19sChIJJflQuymttTsRH5JLesptUxM?authuser=0&hl=en&rclk=1,"15.488080199999999,78.48540849999999"
Mukthab a hazarath fathima masjid,Mosque,"FFRM+VPQ Mukthab a hazarath fathima masjid, Nandyal Bus Stand Rd, Sri Potti Sriramulu Colony, Srinivasa Nagar, Nandyala, Andhra Pradesh 518501","Sri Potti Sriramulu Colony, Srinivasa Nagar","FFRM+VPQ, Nandyal Bus Stand Rd",Nandyala,518501,Andhra Pradesh,IN,https://www.google.com/maps/place/Mukthab+a+hazarath+fathima+masjid/data=!4m7!3m6!1s0x3bb5adf1a7e22b41:0x203789891af166b8!8m2!3d15.4922082!4d78.4843694!16s%2Fg%2F11hgfjbrb4!19sChIJQSvip_GttTsRuGbxGomJNyA?authuser=0&hl=en&rclk=1,"15.492208199999999,78.48436939999999"
MASJID-E-MADEENA,Mosque,"FF6M+4Q7 MASJID-E-MADEENA, kadapa Highway, Raitu Nagar, Nandyala, Andhra Pradesh 518501",Raitu Nagar,"FF6M+4Q7, kadapa Highway",Nandyala,518501,Andhra Pradesh,IN,https://www.google.com/maps/place/MASJID-E-MADEENA/data=!4m7!3m6!1s0x3bb4537f479e53b1:0xd299dfea571ad11d!8m2!3d15.4602944!4d78.4844292!16s%2Fg%2F11rscyjqp3!19sChIJsVOeR39TtDsRHdEaV-rfmdI?authuser=0&hl=en&rclk=1,"15.460294399999999,78.4844292"
Masjid E sahaba,Mosque,"FFPV+865 Masjid E sahaba, Farook Nagar, Salim Nagar, Nandyala, Andhra Pradesh 518501","Farook Nagar, Salim Nagar",FFPV+865,Nandyala,518501,Andhra Pradesh,IN,https://www.google.com/maps/place/Masjid+E+sahaba/data=!4m7!3m6!1s0x3bb5ad66baa97a17:0x9f3834825f00cb07!8m2!3d15.4857728!4d78.4931151!16s%2Fg%2F11kj85d6vy!19sChIJF3qpumattTsRB8sAX4I0OJ8?authuser=0&hl=en&rclk=1,"15.4857728,78.4931151"
Masjid e Yousuf,Mosque,"FFQP+JRM Masjid e Yousuf, Kranthi Nagar, Telugu Peta, Nandyala, Andhra Pradesh 518501","Kranthi Nagar, Telugu Peta",FFQP+JRM,Nandyala,,Andhra Pradesh,IN,https://www.google.com/maps/place/Masjid+e+Yousuf/data=!4m7!3m6!1s0x3bb5adfa2dd20b8b:0x66cf5ecd4dc5efe2!8m2!3d15.4890958!4d78.4870542!16s%2Fg%2F11gszk0rpn!19sChIJiwvSLfqttTsR4u_FTc1ez2Y?authuser=0&hl=en&rclk=1,"15.4890958,78.4870542"
Dawood khan house,Mosque,"Dawood khan house, Ayesha masjid, sramadanam bridge, Deva Nagar Colony, Nandyala, Andhra Pradesh 518501",Deva Nagar Colony,"Ayesha masjid, sramadanam bridge",Nandyala,,Andhra Pradesh,IN,https://www.google.com/maps/place/Dawood+khan+house/data=!4m7!3m6!1s0x3bb4534958e9a9f7:0x9ee5c9a70ec017b3!8m2!3d15.4737663!4d78.4819778!16s%2Fg%2F11n0jg7wbz!19sChIJ96npWElTtDsRsxfADqfJ5Z4?authuser=0&hl=en&rclk=1,"15.4737663,78.4819778"
Noorul Huda Masjid,Mosque,"Noorul Huda Masjid, Babanagar, Nandyal, Andhra Pradesh 518593",Babanagar,,Nandyal,518593,Andhra Pradesh,IN,https://www.google.com/maps/place/Noorul+Huda+Masjid/data=!4m7!3m6!1s0x3bb44ddd2910601d:0x74f8cfec50919f47!8m2!3d15.4065585!4d78.4714566!16s%2Fg%2F11v0rytxtp!19sChIJHWAQKd1NtDsRR5-RUOzP-HQ?authuser=0&hl=en&rclk=1,"15.4065585,78.4714566"
Noorulla masjid,Mosque,"CGVF+7MC Noorulla masjid, Ayyalur village noorulla mandal,street, Nandyala, Andhra Pradesh",,"CGVF+7MC, Ayyalur village noorulla mandal,street","Nandyala, Ayyalur",,Andhra Pradesh,IN,https://www.google.com/maps/place/Noorulla+masjid/data=!4m7!3m6!1s0x3bb4534abcd5d1ed:0x8989714bf81ff9ee!8m2!3d15.4431874!4d78.524156!16s%2Fg%2F11fq4cqwsy!19sChIJ7dHVvEpTtDsR7vkf-EtxiYk?authuser=0&hl=en&rclk=1,"15.4431874,78.52415599999999"
"masjid -A- Jamia ,Sreenagaram",Mosque,"FH8W+5M5 masjid -A- Jamia ,Sreenagaram, Sreenagaaram village, Nandyal to Mahanandi road, dist, Nandyala, Andhra Pradesh 518502",,"FH8W+5M5, Sreenagaaram village, Nandyal to Mahanandi road, dist",Nandyala,518502,Andhra Pradesh,IN,"https://www.google.com/maps/place/masjid+-A-+Jamia+,Sreenagaram/data=!4m7!3m6!1s0x3bb455d7a0054d4d:0xaf559e94043ee17!8m2!3d15.465392!4d78.5967319!16s%2Fg%2F11s7qrmkhh!19sChIJTU0FoNdVtDsRF-5DQOlZ9Qo?authuser=0&hl=en&rclk=1","15.465392,78.5967319"
Masjid-e-Sharifa,Mosque,"FG98+CFF Masjid-e-Sharifa, Pedda Kottala, Andhra Pradesh 518502",,FG98+CFF,Pedda Kottala,518502,Andhra Pradesh,IN,https://www.google.com/maps/place/Masjid-e-Sharifa/data=!4m7!3m6!1s0x3bb4534e19543ac9:0x35df4ac3e1c3c5b4!8m2!3d15.4685084!4d78.5161152!16s%2Fg%2F11tbwypcxh!19sChIJyTpUGU5TtDsRtMXD4cNK3zU?authuser=0&hl=en&rclk=1,"15.4685084,78.5161152"
MASJID E MADINA,Mosque,"CF6V+VFV MASJID E MADINA, Unnamed Road, Sambavaram, Andhra Pradesh 518502",,"CF6V+VFV, Unnamed Road",Sambavaram,518502,Andhra Pradesh,IN,https://www.google.com/maps/place/MASJID+E+MADINA/data=!4m7!3m6!1s0x3bb453eddc247b17:0x594b08a6a9060a07!8m2!3d15.4122324!4d78.4936831!16s%2Fg%2F11q1jfgxhj!19sChIJF3sk3O1TtDsRBwoGqaYIS1k?authuser=0&hl=en&rclk=1,"15.412232399999999,78.4936831"
Jumma masjid,Catering food and drink supplier,"FFRQ+2FJ Jumma masjid, Jamia Masjid Rd, Nadigadda, Telugu Peta, Nandyala, Andhra Pradesh 518501","Nadigadda, Telugu Peta","FFRQ+2FJ, Jamia Masjid Rd",Nandyala,518501,Andhra Pradesh,IN,https://www.google.com/maps/place/Jumma+masjid/data=!4m7!3m6!1s0x3bb5ad75c0815fed:0x1bb19bd5b1cbb1e6!8m2!3d15.4900982!4d78.4886519!16s%2Fg%2F11v5fb8ck5!19sChIJ7V-BwHWttTsR5rHLsdWbsRs?authuser=0&hl=en&rclk=1,"15.490098199999998,78.4886519"
