name,main_category,address,address_ward,address_street,address_city,address_postal_code,address_state,address_country_code,link,coordinates
pilaal msjit,Mosque,"pilaal msjit, 98a, Allimoopan Street, Ayyapuram, Kadayanallur, Tamil Nadu 627751",Ayyapuram,"98a, Allimoopan Street",Kadayanallur,627751,Tamil Nadu,IN,https://www.google.com/maps/place/%E0%AE%AA%E0%AE%BF%E0%AE%B2%E0%AE%BE%E0%AE%B2%E0%AF%8D+%E0%AE%AE%E0%AE%B8%E0%AF%8D%E0%AE%9C%E0%AE%BF%E0%AE%A4%E0%AF%8D/data=!4m7!3m6!1s0x3b0684eac635a5c1:0xf6d7fc67b4c78ea7!8m2!3d9.0796952!4d77.3538036!16s%2Fg%2F1tj_3p9h!19sChIJwaU1xuqEBjsRp47HtGf81_Y?authuser=0&hl=en&rclk=1,"9.0796952,77.35380359999999"
Al Masjidul Mubarak,Mosque,"Al Masjidul Mubarak, Ayyapuram, Kadayanallur, Tamil Nadu 627751",Ayyapuram,,Kadayanallur,,Tamil Nadu,IN,https://www.google.com/maps/place/Al+Masjidul+Mubarak/data=!4m7!3m6!1s0x3b0684eb058d8de5:0xfaa84681f67517dd!8m2!3d9.0811016!4d77.351865!16s%2Fg%2F1wk6y5z7!19sChIJ5Y2NBeuEBjsR3Rd19oFGqPo?authuser=0&hl=en&rclk=1,"9.0811016,77.35186499999999"
mkkaa nkr msjit,Mosque,"mkkaa nkr msjit, 163/38j, Pattai St, West Malam, Rahmania Puram, Krishnapuram, Kadayanallur, Tamil Nadu 627751","West Malam, Rahmania Puram, Krishnapuram","163/38j, Pattai St",Kadayanallur,627751,Tamil Nadu,IN,https://www.google.com/maps/place/%E0%AE%AE%E0%AE%95%E0%AF%8D%E0%AE%95%E0%AE%BE+%E0%AE%A8%E0%AE%95%E0%AE%B0%E0%AF%8D+%E0%AE%AE%E0%AE%B8%E0%AF%8D%E0%AE%9C%E0%AE%BF%E0%AE%A4%E0%AF%8D/data=!4m7!3m6!1s0x3b0684fac4d85abd:0x4b1f0934151b1afa!8m2!3d9.0912065!4d77.343283!16s%2Fg%2F11btxclx_p!19sChIJvVrYxPqEBjsR-hobFTQJH0s?authuser=0&hl=en&rclk=1,"9.0912065,77.343283"
Masjid Al Aqsa,Mosque,"38PR+96M Masjid Al Aqsa, al aqsa, Pettai, Kadayanallur, Tamil Nadu 627751",Pettai,38PR+96M al aqsa,Kadayanallur,627751,Tamil Nadu,IN,https://www.google.com/maps/place/Masjid+Al+Aqsa/data=!4m7!3m6!1s0x3b0684f1bd175bc5:0xe7166812716c3e95!8m2!3d9.0854771!4d77.3419429!16s%2Fg%2F1ts_50k4!19sChIJxVsXvfGEBjsRlT5scRJoFuc?authuser=0&hl=en&rclk=1,"9.0854771,77.34194289999999"
Madina Nagar Masjid,Mosque,"Madina Nagar Masjid, 164, Madhina Nagar, Pettai, Kadayanallur, Tamil Nadu 627751",Pettai,"164, Madhina Nagar",Kadayanallur,627751,Tamil Nadu,IN,https://www.google.com/maps/place/Madina+Nagar+Masjid/data=!4m7!3m6!1s0x3b0684f27ec54107:0xad4b94de66b3fd4a!8m2!3d9.0816138!4d77.3437238!16s%2Fg%2F11c1r17lqy!19sChIJB0HFfvKEBjsRSv2zZt6US60?authuser=0&hl=en&rclk=1,"9.0816138,77.34372379999999"
Nathahar Masjid,Shrine,"38PV+4PC Nathahar Masjid, Pettai, Kadayanallur, Tamil Nadu 627751",Pettai,38PV+4PC,Kadayanallur,627751,Tamil Nadu,IN,https://www.google.com/maps/place/Nathahar+Masjid/data=!4m7!3m6!1s0x3b0684ee1f4fdcc5:0xd431c80e853d1221!8m2!3d9.0853159!4d77.3442514!16s%2Fg%2F1tdbcvst!19sChIJxdxPH-6EBjsRIRI9hQ7IMdQ?authuser=0&hl=en&rclk=1,"9.0853159,77.34425139999999"
Naina Muhammad Jumma Masjid,Mosque,"39J2+P39 Naina Muhammad Jumma Masjid, South Street, Parasurama Purum, Kadayanallur, Tamil Nadu 627751",Parasurama Purum,"39J2+P39, South Street",Kadayanallur,627751,Tamil Nadu,IN,https://www.google.com/maps/place/Naina+Muhammad+Jumma+Masjid/data=!4m7!3m6!1s0x3b0684eb837b1113:0x119f97eff14de53e!8m2!3d9.0817909!4d77.3502242!16s%2Fg%2F1v4prf4w!19sChIJExF7g-uEBjsRPuVN8e-XnxE?authuser=0&hl=en&rclk=1,"9.0817909,77.3502242"
Mavadikkal Jumma Masjid,Mosque,"39M5+252 Mavadikkal Jumma Masjid, Mavadickal, Kadayanallur, Tamil Nadu 627751",Mavadickal,39M5+252,Kadayanallur,627751,Tamil Nadu,IN,https://www.google.com/maps/place/Mavadikkal+Jumma+Masjid/data=!4m7!3m6!1s0x3b0684c1a5fc6b93:0x2955f58bb634cbb4!8m2!3d9.0825001!4d77.3578943!16s%2Fg%2F11g7np7_5j!19sChIJk2v8pcGEBjsRtMs0tov1VSk?authuser=0&hl=en&rclk=1,"9.082500099999999,77.3578943"
peettttai kaatr mukaitiinnn jumaa msjit,Mosque,"peettttai kaatr mukaitiinnn jumaa msjit, kader Mohideen, Kadar Mydeen Pallivasal St, Pettai, Kadayanallur, Tamil Nadu 627751",Pettai,"kader Mohideen, Kadar Mydeen Pallivasal St",Kadayanallur,627751,Tamil Nadu,IN,https://www.google.com/maps/place/%E0%AE%AA%E0%AF%87%E0%AE%9F%E0%AF%8D%E0%AE%9F%E0%AF%88+%E0%AE%95%E0%AE%BE%E0%AE%A4%E0%AE%B0%E0%AF%8D+%E0%AE%AE%E0%AF%81%E0%AE%95%E0%AF%88%E0%AE%A4%E0%AF%80%E0%AE%A9%E0%AF%8D+%E0%AE%9C%E0%AF%81%E0%AE%AE%E0%AF%8D%E0%AE%86+%E0%AE%AE%E0%AE%B8%E0%AF%8D%E0%AE%9C%E0%AE%BF%E0%AE%A4%E0%AF%8D/data=!4m7!3m6!1s0x3b068526e831c37d:0xf1288e64bc98b46b!8m2!3d9.0845802!4d77.3441979!16s%2Fg%2F11h2p3zqqv!19sChIJfcMx6CaFBjsRa7SYvGSOKPE?authuser=0&hl=en&rclk=1,"9.0845802,77.3441979"
Naina Muhammad Jumma Masjid,Mosque,"38JX+33J Naina Muhammad Jumma Masjid, Big St, Ayyapuram, Kadayanallur, Tamil Nadu 627751",Ayyapuram,"38JX+33J, Big St",Kadayanallur,627751,Tamil Nadu,IN,https://www.google.com/maps/place/Naina+Muhammad+Jumma+Masjid/data=!4m7!3m6!1s0x3b0684ece8efcf01:0x99aa21236eb01dbc!8m2!3d9.0802177!4d77.3476375!16s%2Fg%2F11bv6pw86r!19sChIJAc_v6OyEBjsRvB2wbiMhqpk?authuser=0&hl=en&rclk=1,"9.0802177,77.34763749999999"
Masjid Al Maryam,Mosque,"Masjid Al Maryam, 627751, Rahmania Puram, Krishnapuram, Kadayanallur, Tamil Nadu 627751","Rahmania Puram, Krishnapuram",627751,Kadayanallur,627751,Tamil Nadu,IN,https://www.google.com/maps/place/Masjid+Al+Maryam/data=!4m7!3m6!1s0x3b0684efcf3b1c43:0xd2fc9623ae8fdf62!8m2!3d9.0874172!4d77.3450016!16s%2Fg%2F11g7295kr9!19sChIJQxw7z--EBjsRYt-PriOW_NI?authuser=0&hl=en&rclk=1,"9.087417199999999,77.3450016"
tkvaa msjit,Mosque,"39H2+F7C tkvaa msjit, Ayyapuram, Kadayanallur, Tamil Nadu 627751",Ayyapuram,39H2+F7C,Kadayanallur,627751,Tamil Nadu,IN,https://www.google.com/maps/place/%E0%AE%A4%E0%AE%95%E0%AF%8D%E0%AE%B5%E0%AE%BE+%E0%AE%AE%E0%AE%B8%E0%AF%8D%E0%AE%9C%E0%AE%BF%E0%AE%A4%E0%AF%8D/data=!4m7!3m6!1s0x3b068494b3a47b4d:0x806086382f7d3fd!8m2!3d9.0786828!4d77.350651!16s%2Fg%2F1tvm15wm!19sChIJTXuks5SEBjsR_dP3gmMIBgg?authuser=0&hl=en&rclk=1,"9.0786828,77.350651"
Nallur Taqwa Masjid,Mosque,"38QR+RP9 Nallur Taqwa Masjid, Thaqwa masjid,Rahumaniyapuram, Krishnapuram, Kadayanallur, Tamil Nadu 627751","Rahmania Puram, Krishnapuram","38QR+RP9, Thaqwa masjid,Rahumaniyapuram",Kadayanallur,627751,Tamil Nadu,IN,https://www.google.com/maps/place/Nallur+Taqwa+Masjid/data=!4m7!3m6!1s0x3b0684fa9d1d8f57:0x3579816731569442!8m2!3d9.0895499!4d77.3418543!16s%2Fg%2F11c6v8rlpd!19sChIJV48dnfqEBjsRQpRWMWeBeTU?authuser=0&hl=en&rclk=1,"9.0895499,77.3418543"
Nallur Jumma Masjid,Mosque,"38VV+C2Q Nallur Jumma Masjid, Rahmania Puram, Krishnapuram, Kadayanallur, Tamil Nadu 627751","Rahmania Puram, Krishnapuram",38VV+C2Q,Kadayanallur,627751,Tamil Nadu,IN,https://www.google.com/maps/place/Nallur+Jumma+Masjid/data=!4m7!3m6!1s0x3b0684fb404e00e7:0x91e7817c2baec929!8m2!3d9.0935773!4d77.3426057!16s%2Fg%2F11f__w7chq!19sChIJ5wBOQPuEBjsRKcmuK3yB55E?authuser=0&hl=en&rclk=1,"9.0935773,77.3426057"
Masjid Al Rayyan,Mosque,"39G4+PR2 Masjid Al Rayyan, AALIMSHA St, backside, Kadayanallur, Tamil Nadu 627751",backside,"39G4+PR2, AALIMSHA St",Kadayanallur,627751,Tamil Nadu,IN,https://www.google.com/maps/place/Masjid+Al+Rayyan/data=!4m7!3m6!1s0x3b0685924095b86b:0x530da16c8a0b11d9!8m2!3d9.0767708!4d77.3570202!16s%2Fg%2F11fd4qwxg3!19sChIJa7iVQJKFBjsR2RELimyhDVM?authuser=0&hl=en&rclk=1,"9.0767708,77.3570202"
Rahmaniapuram Jumma Masjid,Mosque,"38PW+WHP Rahmaniapuram Jumma Masjid, 627751, Rahmania Puram, Krishnapuram, Kadayanallur, Tamil Nadu 627751","Rahmania Puram, Krishnapuram","38PW+WHP, 627751",Kadayanallur,627751,Tamil Nadu,IN,https://www.google.com/maps/place/Rahmaniapuram+Jumma+Masjid/data=!4m7!3m6!1s0x3b0684ee8ee68db5:0xfa180b5305f92c72!8m2!3d9.085005!4d77.3471698!16s%2Fg%2F11gb3yqnnj!19sChIJtY3mju6EBjsRciz5BVMLGPo?authuser=0&hl=en&rclk=1,"9.085004999999999,77.3471698"
Masjid Al Noor,Mosque,"Masjid Al Noor, 134, Puliyamukku St, Pettai, Kadayanallur, Tamil Nadu 627751",Pettai,"134, Puliyamukku St",Kadayanallur,627751,Tamil Nadu,IN,https://www.google.com/maps/place/Masjid+Al+Noor/data=!4m7!3m6!1s0x3b0684f20315a3a3:0xf313de22709f6a50!8m2!3d9.0841661!4d77.3420649!16s%2Fg%2F11c6vb675m!19sChIJo6MVA_KEBjsRUGqfcCLeE_M?authuser=0&hl=en&rclk=1,"9.0841661,77.3420649"
msjit al nuur,Mosque,"39H5+P2V msjit al nuur, Allimoopan Street, Ayyapuram, Kadayanallur, Tamil Nadu 627751",Ayyapuram,"39H5+P2V, Allimoopan Street",Kadayanallur,627751,Tamil Nadu,IN,https://www.google.com/maps/place/%E0%AE%AE%E0%AE%B8%E0%AF%8D%E0%AE%9C%E0%AE%BF%E0%AE%A4%E0%AF%8D+%E0%AE%85%E0%AE%B2%E0%AF%8D+%E0%AE%A8%E0%AF%82%E0%AE%B0%E0%AF%8D/data=!4m7!3m6!1s0x3b0684c070893ac1:0x67def5c56e0da637!8m2!3d9.0793592!4d77.357554!16s%2Fg%2F11c5fz6qf_!19sChIJwTqJcMCEBjsRN6YNbsX13mc?authuser=0&hl=en&rclk=1,"9.079359199999999,77.357554"
Masjid Thowheed,Mosque,"38RV+7Q3 Masjid Thowheed, 10th street, West Malam, Rahmania Puram, Krishnapuram, Kadayanallur, Tamil Nadu 627751","West Malam, Rahmania Puram, Krishnapuram","38RV+7Q3, 10th street",Kadayanallur,,Tamil Nadu,IN,https://www.google.com/maps/place/Masjid+Thowheed/data=!4m7!3m6!1s0x3b068588d3b54521:0x8dea09e653b83b83!8m2!3d9.0906494!4d77.3444125!16s%2Fg%2F11g234hbzb!19sChIJIUW104iFBjsRgzu4U-YJ6o0?authuser=0&hl=en&rclk=1,"9.0906494,77.34441249999999"
ikpaal nkr tvhiit msjit,Mosque,"39H3+FQ4 ikpaal nkr tvhiit msjit, Iqbal Nagar N St, Ayyapuram, Kadayanallur, Tamil Nadu 627751",Ayyapuram,"39H3+FQ4, Iqbal Nagar N St",Kadayanallur,627751,Tamil Nadu,IN,https://www.google.com/maps/place/%E0%AE%87%E0%AE%95%E0%AF%8D%E0%AE%AA%E0%AE%BE%E0%AE%B2%E0%AF%8D+%E0%AE%A8%E0%AE%95%E0%AE%B0%E0%AF%8D+%E0%AE%A4%E0%AE%B5%E0%AF%8D%E0%AE%B9%E0%AF%80%E0%AE%A4%E0%AF%8D+%E0%AE%AE%E0%AE%B8%E0%AF%8D%E0%AE%9C%E0%AE%BF%E0%AE%A4%E0%AF%8D/data=!4m7!3m6!1s0x3b0685d5b8cb93d3:0x1bc64df8409cb256!8m2!3d9.0786365!4d77.3544557!16s%2Fg%2F11sgcx64yk!19sChIJ05PLuNWFBjsRVrKcQPhNxhs?authuser=0&hl=en&rclk=1,"9.0786365,77.3544557"
Iqbal Nagar Masjid,Mosque,"39H4+5C9 Iqbal Nagar Masjid, AALIMSHA St, Ayyapuram, Kadayanallur, Tamil Nadu 627751",Ayyapuram,"39H4+5C9, AALIMSHA St",Kadayanallur,627751,Tamil Nadu,IN,https://www.google.com/maps/place/Iqbal+Nagar+Masjid/data=!4m7!3m6!1s0x3b06856cad5ed459:0x5162506ecc3c25b7!8m2!3d9.0779002!4d77.3560949!16s%2Fg%2F11gwj9zz5x!19sChIJWdRerWyFBjsRtyU8zG5QYlE?authuser=0&hl=en&rclk=1,"9.0779002,77.3560949"
"Kooni Mosque, Mahmooda Nagar",Mosque,"386V+3MH Kooni Mosque, Mahmooda Nagar, Tenkasi - Madurai Rd, Mangalapuram, Kadayanallur, Tamil Nadu 627751",,"386V+3MH, Tenkasi - Madurai Rd","Mangalapuram, Kadayanallur",627751,Tamil Nadu,IN,"https://www.google.com/maps/place/Kooni+Mosque,+Mahmooda+Nagar/data=!4m7!3m6!1s0x3b068587046ef9a9:0xa0f80a73be3dce4d!8m2!3d9.0601815!4d77.3442268!16s%2Fg%2F11j2yrmtpm!19sChIJqfluBIeFBjsRTc49vnMK-KA?authuser=0&hl=en&rclk=1","9.060181499999999,77.3442268"
jaamivul annnvr msjit,Mosque,"jaamivul annnvr msjit, SECRETARY, Masjid Jamiul Anwar, A.S.SYED, Allimoopan Street, near, Ayyapuram, Kadayanallur, Tamil Nadu 627751","near, Ayyapuram","SECRETARY, Masjid Jamiul Anwar, A.S.SYED, Allimoopan Street",Kadayanallur,627751,Tamil Nadu,IN,https://www.google.com/maps/place/%E0%AE%9C%E0%AE%BE%E0%AE%AE%E0%AE%BF%E0%AE%B5%E0%AF%81%E0%AE%B2%E0%AF%8D+%E0%AE%85%E0%AE%A9%E0%AF%8D%E0%AE%B5%E0%AE%B0%E0%AF%8D+%E0%AE%AE%E0%AE%B8%E0%AF%8D%E0%AE%9C%E0%AE%BF%E0%AE%A4%E0%AF%8D/data=!4m7!3m6!1s0x3b0685817cfd8ae5:0x30a5d65fc8c73984!8m2!3d9.0797118!4d77.3509048!16s%2Fg%2F11s7c65ym8!19sChIJ5Yr9fIGFBjsRhDnHyF_WpTA?authuser=0&hl=en&rclk=1,"9.0797118,77.3509048"
Nallur Jumma Masjid,Mosque,"38QQ+37W Nallur Jumma Masjid, Pettai, Kadayanallur, Tamil Nadu 627751",Pettai,38QQ+37W,Kadayanallur,627751,Tamil Nadu,IN,https://www.google.com/maps/place/Nallur+Jumma+Masjid/data=!4m7!3m6!1s0x3b0684f0cb4c823d:0x3ed6c7ba47efcead!8m2!3d9.087734!4d77.3382059!16s%2Fg%2F11b7jc9x58!19sChIJPYJMy_CEBjsRrc7vR7rH1j4?authuser=0&hl=en&rclk=1,"9.087734,77.33820589999999"
Al Masjidul Quba,Mosque,"387V+HVX Al Masjidul Quba, Maharaj Nagar, Kadayanallur, Tamil Nadu 627751",Maharaj Nagar,387V+HVX,Kadayanallur,627751,Tamil Nadu,IN,https://www.google.com/maps/place/Al+Masjidul+Quba/data=!4m7!3m6!1s0x3b0685728a842771:0xdfb76d3b0772f26b!8m2!3d9.0639928!4d77.3447365!16s%2Fg%2F11h6m0q44j!19sChIJcSeEinKFBjsRa_JyBzttt98?authuser=0&hl=en&rclk=1,"9.0639928,77.3447365"
peettttai jumaa msjit,Mosque,"38MV+RP9 peettttai jumaa msjit, Puliyamukku St, Pettai, Kadayanallur, Tamil Nadu 627751",Pettai,"38MV+RP9, Puliyamukku St",Kadayanallur,627751,Tamil Nadu,IN,https://www.google.com/maps/place/%E0%AE%AA%E0%AF%87%E0%AE%9F%E0%AF%8D%E0%AE%9F%E0%AF%88+%E0%AE%9C%E0%AF%81%E0%AE%AE%E0%AF%8D%E0%AE%86+%E0%AE%AE%E0%AE%B8%E0%AF%8D%E0%AE%9C%E0%AE%BF%E0%AE%A4%E0%AF%8D/data=!4m7!3m6!1s0x3b0685274ccc98af:0x7fb1c52eca963346!8m2!3d9.0845372!4d77.3443682!16s%2Fg%2F11qr1vhgnh!19sChIJr5jMTCeFBjsRRjOWyi7FsX8?authuser=0&hl=en&rclk=1,"9.0845372,77.34436819999999"
NTF mosque tolllukai pllllivaacl,Mosque,"39H3+FQ3 NTF mosque tolllukai pllllivaacl, Iqbal Nagar N St, Ayyapuram, Kadayanallur, Tamil Nadu 627751",Ayyapuram,"39H3+FQ3, Iqbal Nagar N St",Kadayanallur,627751,Tamil Nadu,IN,https://www.google.com/maps/place/NTF+mosque+%E0%AE%A4%E0%AF%8A%E0%AE%B4%E0%AF%81%E0%AE%95%E0%AF%88+%E0%AE%AA%E0%AE%B3%E0%AF%8D%E0%AE%B3%E0%AE%BF%E0%AE%B5%E0%AE%BE%E0%AE%9A%E0%AE%B2%E0%AF%8D/data=!4m7!3m6!1s0x3b068538510c3269:0x3ae58738432331c6!8m2!3d9.0786609!4d77.3545472!16s%2Fg%2F11kr85b63k!19sChIJaTIMUTiFBjsRxjEjQziH5To?authuser=0&hl=en&rclk=1,"9.0786609,77.3545472"
ikpaal nkr pennkll pllllivaacl,Mosque,"ikpaal nkr pennkll pllllivaacl, 15/45, middle Street, Ayyapuram, Kadayanallur, Tamil Nadu 627751",Ayyapuram,"15/45, middle Street",Kadayanallur,627751,Tamil Nadu,IN,https://www.google.com/maps/place/%E0%AE%87%E0%AE%95%E0%AF%8D%E0%AE%AA%E0%AE%BE%E0%AE%B2%E0%AF%8D+%E0%AE%A8%E0%AE%95%E0%AE%B0%E0%AF%8D+%E0%AE%AA%E0%AF%86%E0%AE%A3%E0%AF%8D%E0%AE%95%E0%AE%B3%E0%AF%8D+%E0%AE%AA%E0%AE%B3%E0%AF%8D%E0%AE%B3%E0%AE%BF%E0%AE%B5%E0%AE%BE%E0%AE%9A%E0%AE%B2%E0%AF%8D/data=!4m7!3m6!1s0x3b068509d28c7947:0xa83a27a7230d4ca!8m2!3d9.0786487!4d77.3541882!16s%2Fg%2F11lqj3plfp!19sChIJR3mM0gmFBjsRytQwcnqigwo?authuser=0&hl=en&rclk=1,"9.0786487,77.3541882"
mkktuum nyaannniyaar jummaa pllllivaacl,Mosque,"38JW+8CH mkktuum nyaannniyaar jummaa pllllivaacl, Pettai, Kadayanallur, Tamil Nadu 627751",Pettai,38JW+8CH,Kadayanallur,627751,Tamil Nadu,IN,https://www.google.com/maps/place/%E0%AE%AE%E0%AE%95%E0%AF%8D%E0%AE%95%E0%AE%A4%E0%AF%82%E0%AE%AE%E0%AF%8D+%E0%AE%9E%E0%AE%BE%E0%AE%A9%E0%AE%BF%E0%AE%AF%E0%AE%BE%E0%AE%B0%E0%AF%8D+%E0%AE%9C%E0%AF%81%E0%AE%AE%E0%AF%8D%E0%AE%AE%E0%AE%BE+%E0%AE%AA%E0%AE%B3%E0%AF%8D%E0%AE%B3%E0%AE%BF%E0%AE%B5%E0%AE%BE%E0%AE%9A%E0%AE%B2%E0%AF%8D/data=!4m7!3m6!1s0x3b0685609603ab5d:0xb5fbb4548b71f9fe!8m2!3d9.0808196!4d77.3461117!16s%2Fg%2F11qp05zytj!19sChIJXasDlmCFBjsR_vlxi1S0-7U?authuser=0&hl=en&rclk=1,"9.0808196,77.3461117"
putuppllllivaacl,Mosque,"39J2+825 putuppllllivaacl, Vanuvar St, Ayyapuram, Kadayanallur, Tamil Nadu 627751",Ayyapuram,"39J2+825, Vanuvar St",Kadayanallur,627751,Tamil Nadu,IN,https://www.google.com/maps/place/%E0%AE%AA%E0%AF%81%E0%AE%A4%E0%AF%81%E0%AE%AA%E0%AF%8D%E0%AE%AA%E0%AE%B3%E0%AF%8D%E0%AE%B3%E0%AE%BF%E0%AE%B5%E0%AE%BE%E0%AE%9A%E0%AE%B2%E0%AF%8D/data=!4m7!3m6!1s0x3b068563f82e721f:0x75e53f017cf12eb3!8m2!3d9.0807626!4d77.3501166!16s%2Fg%2F11h41mgq23!19sChIJH3Iu-GOFBjsRsy7xfAE_5XU?authuser=0&hl=en&rclk=1,"9.0807626,77.35011659999999"
Al-Hira jumma mosque,Mosque,"38QX+P96 Al-Hira jumma mosque, Krishnapuram, Kadayanallur, Tamil Nadu 627751",Krishnapuram,38QX+P96,Kadayanallur,627751,Tamil Nadu,IN,https://www.google.com/maps/place/Al-Hira+jumma+mosque/data=!4m7!3m6!1s0x3b06851bd0aef45b:0x4b40392f41e2798a!8m2!3d9.0892847!4d77.3483792!16s%2Fg%2F11ns552pl5!19sChIJW_Su0BuFBjsRinniQS85QEs?authuser=0&hl=en&rclk=1,"9.0892847,77.3483792"
slaam msjit,Mosque,"38VV+GM2 slaam msjit, Rahmania Puram, Krishnapuram, Kadayanallur, Tamil Nadu 627751","Rahmania Puram, Krishnapuram",38VV+GM2,Kadayanallur,627751,Tamil Nadu,IN,https://www.google.com/maps/place/%E0%AE%B8%E0%AE%B2%E0%AE%BE%E0%AE%AE%E0%AF%8D+%E0%AE%AE%E0%AE%B8%E0%AF%8D%E0%AE%9C%E0%AE%BF%E0%AE%A4%E0%AF%8D/data=!4m7!3m6!1s0x3b0685ac9858355d:0x5528c3323763d2c1!8m2!3d9.0937729!4d77.3441466!16s%2Fg%2F11tgglp3bj!19sChIJXTVYmKyFBjsRwdJjNzLDKFU?authuser=0&hl=en&rclk=1,"9.0937729,77.3441466"
Jumma Masjid,Mosque,"38JR+V3V Jumma Masjid, Pettai, Kadayanallur, Tamil Nadu 627751",Pettai,38JR+V3V,Kadayanallur,627751,Tamil Nadu,IN,https://www.google.com/maps/place/Jumma+Masjid/data=!4m7!3m6!1s0x3b0685da8bac10ad:0x869f7a911ed74b57!8m2!3d9.0822468!4d77.3401783!16s%2Fg%2F11ng3t2d7r!19sChIJrRCsi9qFBjsRV0vXHpF6n4Y?authuser=0&hl=en&rclk=1,"9.0822468,77.34017829999999"
allimuuppnnn teru pennkll pllllivaacl,Mosque,"allimuuppnnn teru pennkll pllllivaacl, 98a, Allimoopan Street, Ayyapuram, Kadayanallur, Tamil Nadu 627751",Ayyapuram,"98a, Allimoopan Street",Kadayanallur,627751,Tamil Nadu,IN,https://www.google.com/maps/place/%E0%AE%85%E0%AE%B2%E0%AF%8D%E0%AE%B2%E0%AE%BF%E0%AE%AE%E0%AF%82%E0%AE%AA%E0%AF%8D%E0%AE%AA%E0%AE%A9%E0%AF%8D+%E0%AE%A4%E0%AF%86%E0%AE%B0%E0%AF%81+%E0%AE%AA%E0%AF%86%E0%AE%A3%E0%AF%8D%E0%AE%95%E0%AE%B3%E0%AF%8D+%E0%AE%AA%E0%AE%B3%E0%AF%8D%E0%AE%B3%E0%AE%BF%E0%AE%B5%E0%AE%BE%E0%AE%9A%E0%AE%B2%E0%AF%8D/data=!4m7!3m6!1s0x3b0685e9611ee8c1:0xb433a6466931fc7f!8m2!3d9.0795198!4d77.3558991!16s%2Fg%2F11hsgwgsh6!19sChIJwegeYemFBjsRf_wxaUamM7Q?authuser=0&hl=en&rclk=1,"9.0795198,77.3558991"
NTF new masjid,Mosque,"39H3+FFG NTF new masjid, Ayyapuram, Kadayanallur, Tamil Nadu 627751",Ayyapuram,39H3+FFG,Kadayanallur,627751,Tamil Nadu,IN,https://www.google.com/maps/place/NTF+new+masjid/data=!4m7!3m6!1s0x3b0685b39cab599d:0xa54bd803dfcdff22!8m2!3d9.0787356!4d77.3537291!16s%2Fg%2F11txdnzz43!19sChIJnVmrnLOFBjsRIv_N3wPYS6U?authuser=0&hl=en&rclk=1,"9.0787356,77.3537291"
rhmaaniipurm pllllivaacl,Mosque,"rhmaaniipurm pllllivaacl, 192/95, NH744, Krishnapuram, Kadayanallur, Tamil Nadu 627751",Krishnapuram,"192/95, NH744",Kadayanallur,627751,Tamil Nadu,IN,https://www.google.com/maps/place/%E0%AE%B0%E0%AE%B9%E0%AF%8D%E0%AE%AE%E0%AE%BE%E0%AE%A8%E0%AF%80%E0%AE%AA%E0%AF%81%E0%AE%B0%E0%AE%AE%E0%AF%8D+%E0%AE%AA%E0%AE%B3%E0%AF%8D%E0%AE%B3%E0%AE%BF%E0%AE%B5%E0%AE%BE%E0%AE%9A%E0%AE%B2%E0%AF%8D/data=!4m7!3m6!1s0x3b06852aa49e2447:0xef7d537b7ea851bd!8m2!3d9.085582!4d77.347717!16s%2Fg%2F11hx_r9k_l!19sChIJRySepCqFBjsRvVGofntTfe8?authuser=0&hl=en&rclk=1,"9.085581999999999,77.347717"
New Masjid,Mosque,"39J2+72W New Masjid, Vanuvar St, Ayyapuram, Kadayanallur, Tamil Nadu 627751",Ayyapuram,"39J2+72W, Vanuvar St",Kadayanallur,627751,Tamil Nadu,IN,https://www.google.com/maps/place/New+Masjid/data=!4m7!3m6!1s0x3b0685fd89522185:0x839f0bc5fcbcecab!8m2!3d9.0807517!4d77.3501115!16s%2Fg%2F11stvtkq6n!19sChIJhSFSif2FBjsRq-y8_MULn4M?authuser=0&hl=en&rclk=1,"9.0807517,77.3501115"
ikpaal teru pllllivaacl,Mosque,"39H4+6F8 ikpaal teru pllllivaacl, AALIMSHA St, Ayyapuram, Kadayanallur, Tamil Nadu 627751",Ayyapuram,"39H4+6F8, AALIMSHA St",Kadayanallur,627751,Tamil Nadu,IN,https://www.google.com/maps/place/%E0%AE%87%E0%AE%95%E0%AF%8D%E0%AE%AA%E0%AE%BE%E0%AE%B2%E0%AF%8D+%E0%AE%A4%E0%AF%86%E0%AE%B0%E0%AF%81+%E0%AE%AA%E0%AE%B3%E0%AF%8D%E0%AE%B3%E0%AE%BF%E0%AE%B5%E0%AE%BE%E0%AE%9A%E0%AE%B2%E0%AF%8D/data=!4m7!3m6!1s0x3b06858c3173e6a9:0x4153ca63a2ab7bc3!8m2!3d9.0780338!4d77.3562062!16s%2Fg%2F11mvj026fz!19sChIJqeZzMYyFBjsRw3uromPKU0E?authuser=0&hl=en&rclk=1,"9.0780338,77.3562062"
Naina Muhammad Jumma Masjid,Mosque,"Naina Muhammad Jumma Masjid, Middle, Ayyapuram N St, Parasurama Purum, Kadayanallur, Tamil Nadu 627751",Parasurama Purum,"Middle, Ayyapuram N St",Kadayanallur,627751,Tamil Nadu,IN,https://www.google.com/maps/place/Naina+Muhammad+Jumma+Masjid/data=!4m7!3m6!1s0x3b06852e51227b8d:0xee2696a386322601!8m2!3d9.0817893!4d77.3469479!16s%2Fg%2F11g4f56z46!19sChIJjXsiUS6FBjsRASYyhqOWJu4?authuser=0&hl=en&rclk=1,"9.081789299999999,77.3469479"
aayissaa msjit,Mosque,"aayissaa msjit, 163, Pattai St, West Malam, Rahmania Puram, Krishnapuram, Kadayanallur, Tamil Nadu 627751","West Malam, Rahmania Puram, Krishnapuram","163, Pattai St",Kadayanallur,627751,Tamil Nadu,IN,https://www.google.com/maps/place/%E0%AE%86%E0%AE%AF%E0%AE%BF%E0%AE%B7%E0%AE%BE+%E0%AE%AE%E0%AE%B8%E0%AF%8D%E0%AE%9C%E0%AE%BF%E0%AE%A4%E0%AF%8D/data=!4m7!3m6!1s0x3b068536c3c05ccb:0xc7b063397780e02d!8m2!3d9.0914188!4d77.3445698!16s%2Fg%2F11tnc_197j!19sChIJy1zAwzaFBjsRLeCAdzljsMc?authuser=0&hl=en&rclk=1,"9.0914188,77.3445698"
msjit al maalik,Mosque,"msjit al maalik, Birthousiya nagar, EB backside, Maharaj Nagar, Kadayanallur, Tamil Nadu 627751",Maharaj Nagar,"Birthousiya nagar, EB backside",Kadayanallur,627751,Tamil Nadu,IN,https://www.google.com/maps/place/%E0%AE%AE%E0%AE%B8%E0%AF%8D%E0%AE%9C%E0%AE%BF%E0%AE%A4%E0%AF%8D+%E0%AE%85%E0%AE%B2%E0%AF%8D+%E0%AE%AE%E0%AE%BE%E0%AE%B2%E0%AE%BF%E0%AE%95%E0%AF%8D/data=!4m7!3m6!1s0x3b0685a36d439bf5:0xa4b709ddad65c6a!8m2!3d9.064193!4d77.3459015!16s%2Fg%2F11r9m_cwqz!19sChIJ9ZtDbaOFBjsRalzW2p1wSwo?authuser=0&hl=en&rclk=1,"9.064193,77.3459015"
mtiinnnaa nkr tvhiit msjit,Mosque,"mtiinnnaa nkr tvhiit msjit, Madhina Nagar Masjid, Pettai, Kadayanallur, Tamil Nadu 627751",Pettai,Madhina Nagar Masjid,Kadayanallur,627751,Tamil Nadu,IN,https://www.google.com/maps/place/%E0%AE%AE%E0%AE%A4%E0%AF%80%E0%AE%A9%E0%AE%BE+%E0%AE%A8%E0%AE%95%E0%AE%B0%E0%AF%8D+%E0%AE%A4%E0%AE%B5%E0%AF%8D%E0%AE%B9%E0%AF%80%E0%AE%A4%E0%AF%8D+%E0%AE%AE%E0%AE%B8%E0%AF%8D%E0%AE%9C%E0%AE%BF%E0%AE%A4%E0%AF%8D/data=!4m7!3m6!1s0x3b06856c70dca1cf:0x702ecffba13007eb!8m2!3d9.0801655!4d77.3430015!16s%2Fg%2F11rsdjr706!19sChIJz6HccGyFBjsR6wcwofvPLnA?authuser=0&hl=en&rclk=1,"9.0801655,77.3430015"
tvhiit msjit,Mosque,"tvhiit msjit, Theppakulam Cricket Ground, 183, Kalather Masthan St, Ayyapuram, Kadayanallur, Tamil Nadu 627751",Ayyapuram,"Theppakulam Cricket Ground, 183, Kalather Masthan St",Kadayanallur,627751,Tamil Nadu,IN,https://www.google.com/maps/place/%E0%AE%A4%E0%AE%B5%E0%AF%8D%E0%AE%B9%E0%AF%80%E0%AE%A4%E0%AF%8D+%E0%AE%AE%E0%AE%B8%E0%AF%8D%E0%AE%9C%E0%AE%BF%E0%AE%A4%E0%AF%8D/data=!4m7!3m6!1s0x3b068523e37ce2c9:0x77b8b29e8fa76a69!8m2!3d9.0782145!4d77.3521383!16s%2Fg%2F11sv_bymnw!19sChIJyeJ84yOFBjsRaWqnj56yuHc?authuser=0&hl=en&rclk=1,"9.0782145,77.3521383"
prcuraampurm pennkll pllllivaacl,Mosque,"39J3+H3X prcuraampurm pennkll pllllivaacl, Parasuramapuram S St, Parasurama Purum, Kadayanallur, Tamil Nadu 627751",Parasurama Purum,"39J3+H3X, Parasuramapuram S St",Kadayanallur,627751,Tamil Nadu,IN,https://www.google.com/maps/place/%E0%AE%AA%E0%AE%B0%E0%AE%9A%E0%AF%81%E0%AE%B0%E0%AE%BE%E0%AE%AE%E0%AE%AA%E0%AF%81%E0%AE%B0%E0%AE%AE%E0%AF%8D+%E0%AE%AA%E0%AF%86%E0%AE%A3%E0%AF%8D%E0%AE%95%E0%AE%B3%E0%AF%8D+%E0%AE%AA%E0%AE%B3%E0%AF%8D%E0%AE%B3%E0%AE%BF%E0%AE%B5%E0%AE%BE%E0%AE%9A%E0%AE%B2%E0%AF%8D/data=!4m7!3m6!1s0x3b0685630617ac4d:0xb21069290e0aee10!8m2!3d9.0814877!4d77.352726!16s%2Fg%2F11kkn6j1jb!19sChIJTawXBmOFBjsREO4KDilpELI?authuser=0&hl=en&rclk=1,"9.0814877,77.35272599999999"
kttaiynlluur periy pllllivaacl,Mosque,"38JW+9CF kttaiynlluur periy pllllivaacl, Pettai, Kadayanallur, Tamil Nadu 627751",Pettai,38JW+9CF,Kadayanallur,627751,Tamil Nadu,IN,https://www.google.com/maps/place/%E0%AE%95%E0%AE%9F%E0%AF%88%E0%AE%AF%E0%AE%A8%E0%AE%B2%E0%AF%8D%E0%AE%B2%E0%AF%82%E0%AE%B0%E0%AF%8D+%E0%AE%AA%E0%AF%86%E0%AE%B0%E0%AE%BF%E0%AE%AF+%E0%AE%AA%E0%AE%B3%E0%AF%8D%E0%AE%B3%E0%AE%BF%E0%AE%B5%E0%AE%BE%E0%AE%9A%E0%AE%B2%E0%AF%8D/data=!4m7!3m6!1s0x3b0685fdf8b04c15:0xe5bf69d6ec97b38d!8m2!3d9.0808851!4d77.346112!16s%2Fg%2F11vbqc_s02!19sChIJFUyw-P2FBjsRjbOX7NZpv-U?authuser=0&hl=en&rclk=1,"9.0808851,77.34611199999999"
nlluur tvhiit pllllivaacl,Mosque,"38JW+RRM nlluur tvhiit pllllivaacl, Tenkasi - Madurai Rd, Parasurama Purum, Kadayanallur, Tamil Nadu 627751",Parasurama Purum,"38JW+RRM, Tenkasi - Madurai Rd",Kadayanallur,627751,Tamil Nadu,IN,https://www.google.com/maps/place/%E0%AE%A8%E0%AE%B2%E0%AF%8D%E0%AE%B2%E0%AF%82%E0%AE%B0%E0%AF%8D+%E0%AE%A4%E0%AE%B5%E0%AF%8D%E0%AE%B9%E0%AF%80%E0%AE%A4%E0%AF%8D+%E0%AE%AA%E0%AE%B3%E0%AF%8D%E0%AE%B3%E0%AE%BF%E0%AE%B5%E0%AE%BE%E0%AE%9A%E0%AE%B2%E0%AF%8D/data=!4m7!3m6!1s0x3b06853cc32b58db:0xeebb0f4bcf9ef5a!8m2!3d9.0820869!4d77.3470531!16s%2Fg%2F11klw0pt2c!19sChIJ21grwzyFBjsRWu_5vPSw6w4?authuser=0&hl=en&rclk=1,"9.0820869,77.3470531"
meyinnn pjaar tvhiit pllllivaacl,Mosque,"meyinnn pjaar tvhiit pllllivaacl, 13, New Bazaar, Parasurama Purum, Kadayanallur, Tamil Nadu 627751",Parasurama Purum,"13, New Bazaar",Kadayanallur,627751,Tamil Nadu,IN,https://www.google.com/maps/place/%E0%AE%AE%E0%AF%86%E0%AE%AF%E0%AE%BF%E0%AE%A9%E0%AF%8D+%E0%AE%AA%E0%AE%9C%E0%AE%BE%E0%AE%B0%E0%AF%8D+%E0%AE%A4%E0%AE%B5%E0%AF%8D%E0%AE%B9%E0%AF%80%E0%AE%A4%E0%AF%8D+%E0%AE%AA%E0%AE%B3%E0%AF%8D%E0%AE%B3%E0%AE%BF%E0%AE%B5%E0%AE%BE%E0%AE%9A%E0%AE%B2%E0%AF%8D/data=!4m7!3m6!1s0x3b068593024979e9:0xace9494c8c260b03!8m2!3d9.0817609!4d77.3494!16s%2Fg%2F11kgpjkvwc!19sChIJ6XlJApOFBjsRAwsmjExJ6aw?authuser=0&hl=en&rclk=1,"9.081760899999999,77.3494"
maavttikkaall muslim jmaaat maiyvaatti,Mosque,"39M5+3H9 maavttikkaall muslim jmaaat maiyvaatti, Pallivasal St, Mavadickal, Kadayanallur, Tamil Nadu 627751",Mavadickal,"39M5+3H9, Pallivasal St",Kadayanallur,627751,Tamil Nadu,IN,https://www.google.com/maps/place/%E0%AE%AE%E0%AE%BE%E0%AE%B5%E0%AE%9F%E0%AE%BF%E0%AE%95%E0%AF%8D%E0%AE%95%E0%AE%BE%E0%AE%B3%E0%AF%8D+%E0%AE%AE%E0%AF%81%E0%AE%B8%E0%AF%8D%E0%AE%B2%E0%AE%BF%E0%AE%AE%E0%AF%8D+%E0%AE%9C%E0%AE%AE%E0%AE%BE%E0%AE%85%E0%AE%A4%E0%AF%8D+%E0%AE%AE%E0%AF%88%E0%AE%AF%E0%AE%B5%E0%AE%BE%E0%AE%9F%E0%AE%BF/data=!4m7!3m6!1s0x3b06856e236c3e73:0x2ac82508349118ce!8m2!3d9.0826528!4d77.3589925!16s%2Fg%2F11pb1wb5h2!19sChIJcz5sI26FBjsRzhiRNAglyCo?authuser=0&hl=en&rclk=1,"9.0826528,77.3589925"
mehraaj nkr pllllivaacl,Mosque,"388W+J52 mehraaj nkr pllllivaacl, Kollam - Thirumangalam Rd, Maharaj Nagar, Kadayanallur, Tamil Nadu 627751",Maharaj Nagar,"388W+J52, Kollam - Thirumangalam Rd",Kadayanallur,627751,Tamil Nadu,IN,https://www.google.com/maps/place/%E0%AE%AE%E0%AF%86%E0%AE%B9%E0%AF%8D%E0%AE%B0%E0%AE%BE%E0%AE%9C%E0%AF%8D+%E0%AE%A8%E0%AE%95%E0%AE%B0%E0%AF%8D+%E0%AE%AA%E0%AE%B3%E0%AF%8D%E0%AE%B3%E0%AE%BF%E0%AE%B5%E0%AE%BE%E0%AE%9A%E0%AE%B2%E0%AF%8D/data=!4m7!3m6!1s0x3b06851eb0d5c28d:0x202545683d89cd37!8m2!3d9.066504!4d77.3454039!16s%2Fg%2F11klyyjsd4!19sChIJjcLVsB6FBjsRN82JPWhFJSA?authuser=0&hl=en&rclk=1,"9.066504,77.3454039"
pennkll tolllukai pllllivaacl,Mosque,"pennkll tolllukai pllllivaacl, 321, Main Bazaar Rd, Ayyapuram, Kadayanallur, Tamil Nadu 627751",Ayyapuram,"321, Main Bazaar Rd",Kadayanallur,627751,Tamil Nadu,IN,https://www.google.com/maps/place/%E0%AE%AA%E0%AF%86%E0%AE%A3%E0%AF%8D%E0%AE%95%E0%AE%B3%E0%AF%8D+%E0%AE%A4%E0%AF%8A%E0%AE%B4%E0%AF%81%E0%AE%95%E0%AF%88+%E0%AE%AA%E0%AE%B3%E0%AF%8D%E0%AE%B3%E0%AE%BF%E0%AE%B5%E0%AE%BE%E0%AE%9A%E0%AE%B2%E0%AF%8D/data=!4m7!3m6!1s0x3b068569f25fffc9:0x5538881613f28c4f!8m2!3d9.0798929!4d77.3479208!16s%2Fg%2F11kd7dtn4q!19sChIJyf9f8mmFBjsRT4zyExaIOFU?authuser=0&hl=en&rclk=1,"9.079892899999999,77.3479208"
