name,main_category,address,address_ward,address_street,address_city,address_postal_code,address_state,address_country_code,link,coordinates
Kolloorvila Juma Masjid,Mosque,"VJFF+WV7 Kolloorvila Juma Masjid, Eravipuram - Pallimukku Rd, Pallimukku, Kollam, Kerala 691021",Pallimukku,"VJFF+WV7, Eravipuram - Pallimukku Rd",Kollam,691021,Kerala,IN,https://www.google.com/maps/place/Kolloorvila+Juma+Masjid/data=!4m7!3m6!1s0x3b05fcb950962dcf:0x3e222346bd0a4e4f!8m2!3d8.8747988!4d76.6246567!16s%2Fm%2F0h3mgdr!19sChIJzy2WULn8BTsRT04KvUYjIj4?authuser=0&hl=en&rclk=1,"8.874798799999999,76.6246567"
Engineering College Juma Masjid,Mosque,"WJ7M+JPJ Engineering College Juma Masjid, Karicode, Peroor, Kollam, Kerala 691005","Karicode, Peroor",WJ7M+JPJ,Kollam,691005,Kerala,IN,https://www.google.com/maps/place/Engineering+College+Juma+Masjid/data=!4m7!3m6!1s0x3b05fd3194d4b4e7:0x140c23e363e7be13!8m2!3d8.9140847!4d76.6342511!16s%2Fg%2F1tdc_376!19sChIJ57TUlDH9BTsRE77nY-MjDBQ?authuser=0&hl=en&rclk=1,"8.9140847,76.6342511"
*QUADISIYYA MASJID CHIRAVAYAL*,Mosque,"*QUADISIYYA MASJID CHIRAVAYAL*, Chiravayal, Valathungal, Kollam, Kerala 691011","Chiravayal, Valathungal",,Kollam,691011,Kerala,IN,https://www.google.com/maps/place/*QUADISIYYA+MASJID+CHIRAVAYAL*/data=!4m7!3m6!1s0x3b05fdd2c8eae5a5:0x715ef4a96350c381!8m2!3d8.8651379!4d76.6326586!16s%2Fg%2F11gj0ydb00!19sChIJpeXqyNL9BTsRgcNQY6n0XnE?authuser=0&hl=en&rclk=1,"8.865137899999999,76.6326586"
Ahmadiyya Muslim Jamath Masjid.,Mosque,"Ahmadiyya Muslim Jamath Masjid., VJG7+MGC Kollam-trivandrum road Vadakevila, po, Madannada, Kerala 691010","Bharanikkavu, Madannada","VJG7+MGC Kollam-trivandrum road Vadakevila, po",Kollam,691010,Kerala,IN,https://www.google.com/maps/place/Ahmadiyya+Muslim+Jamath+Masjid./data=!4m7!3m6!1s0x3b05fc937eaf740d:0x2b2fa8ad905f93d9!8m2!3d8.8766875!4d76.6138125!16s%2Fg%2F1pyqvhvk9!19sChIJDXSvfpP8BTsR2ZNfkK2oLys?authuser=0&hl=en&rclk=1,"8.8766875,76.6138125"
Kollam Chinnakkada Juma Masjid,Mosque,"VHMR+H57 Kollam Chinnakkada Juma Masjid, Andamukkam, Kollam, Kerala 691001",Andamukkam,VHMR+H57,Kollam,691001,Kerala,IN,https://www.google.com/maps/place/Kollam+Chinnakkada+Juma+Masjid/data=!4m7!3m6!1s0x3b05fc5eb46cbc69:0x61f57b8ad3b03d22!8m2!3d8.8839057!4d76.5904248!16s%2Fg%2F1tgyv3tx!19sChIJabxstF78BTsRIj2w04p79WE?authuser=0&hl=en&rclk=1,"8.8839057,76.5904248"
Thattamala Juma Masjid,Mosque,"VJ9R+RP6 Thattamala Juma Masjid, Panvel - Kochi - Kanyakumari Hwy, Mylapure, Mevaram, Kollam, Kerala 691020","Mylapure, Mevaram","VJ9R+RP6, Panvel - Kochi - Kanyakumari Hwy",Kollam,691020,Kerala,IN,https://www.google.com/maps/place/Thattamala+Juma+Masjid/data=!4m7!3m6!1s0x3b05e352a96672b7:0x801467675f7c88f8!8m2!3d8.8695476!4d76.6417728!16s%2Fg%2F1tfvrd05!19sChIJt3JmqVLjBTsR-Ih8X2dnFIA?authuser=0&hl=en&rclk=1,"8.869547599999999,76.6417728"
Umayanalloor Juma Masjid,Mosque,"VM84+2XQ Umayanalloor Juma Masjid, Salem-Kanyakumari Highway, Pattaru Mukku, Umayanalloor, Thazhuthala, Kerala 691020","Pattaru Mukku, Umayanalloor","VM84+2XQ, Salem-Kanyakumari Highway",Thazhuthala,691020,Kerala,IN,https://www.google.com/maps/place/Umayanalloor+Juma+Masjid/data=!4m7!3m6!1s0x3b05e35be1f0fc31:0x1942f3195c189618!8m2!3d8.8650767!4d76.6574827!16s%2Fg%2F1pty8t9sx!19sChIJMfzw4VvjBTsRGJYYXBnzQhk?authuser=0&hl=en&rclk=1,"8.8650767,76.6574827"
Pazhayattin Kuzhi Masjid,Mosque,"VJCJ+XX2 Pazhayattin Kuzhi Masjid, Masjid, Pazhayattin kuzhi, National Highway 47, Vadakkevila, Kollam, Kerala 691020",Vadakkevila,"VJCJ+XX2, Masjid, Pazhayattin kuzhi, National Highway 47",Kollam,691020,Kerala,IN,https://www.google.com/maps/place/Pazhayattin+Kuzhi%E2%80%8E+Masjid/data=!4m7!3m6!1s0x3b05fcb0ff1d449d:0x1ca5b6473ba62fe4!8m2!3d8.8723867!4d76.6323854!16s%2Fg%2F124spwst5!19sChIJnUQd_7D8BTsR5C-mO0e2pRw?authuser=0&hl=en&rclk=1,"8.8723867,76.63238539999999"
kannanalloor Juma Masjid,Mosque,"VMRJ+93W kannanalloor Juma Masjid, Mylakkad - Kannanaloor Rd, Kannanalloor, Thazhuthala, Kerala 691577",,"VMRJ+93W, Mylakkad - Kannanaloor Rd","Kannanalloor, Thazhuthala",691577,Kerala,IN,https://www.google.com/maps/place/kannanalloor+Juma+Masjid/data=!4m7!3m6!1s0x3b05e30f17ded037:0x7364720aa87a05fd!8m2!3d8.8909779!4d76.6802081!16s%2Fg%2F11bttfnpj_!19sChIJN9DeFw_jBTsR_QV6qApyZHM?authuser=0&hl=en&rclk=1,"8.8909779,76.6802081"
Jonakappuram Juma Masjid,Mosque,"VHMH+3F2 Jonakappuram Juma Masjid, Jonaka Puram, Thangassery, Kollam, Kerala 691013","Jonaka Puram, Thangassery",VHMH+3F2,Kollam,691013,Kerala,IN,https://www.google.com/maps/place/Jonakappuram+Juma+Masjid/data=!4m7!3m6!1s0x3b05fc43e92211ef:0x31ef4ce6cf4f5946!8m2!3d8.8826336!4d76.5786499!16s%2Fg%2F124t40352!19sChIJ7xEi6UP8BTsRRllPz-ZM7zE?authuser=0&hl=en&rclk=1,"8.8826336,76.5786499"
Pattalathu Pally Muslim Jama Ath,Mosque,"Pattalathu Pally Muslim Jama Ath, Public Library Road, opp. Food Corporation Of India Storage Space, Chinnakada, Kollam, Kerala 691001",Chinnakada,"Public Library Road, opp. Food Corporation Of India Storage Space",Kollam,691001,Kerala,IN,https://www.google.com/maps/place/Pattalathu+Pally+Muslim+Jama+Ath/data=!4m7!3m6!1s0x3b05fc5f51511ae1:0x3220c50c5e66118a!8m2!3d8.8839159!4d76.5946682!16s%2Fg%2F124szn979!19sChIJ4RpRUV_8BTsRihFmXgzFIDI?authuser=0&hl=en&rclk=1,"8.8839159,76.5946682"
Mavalli Muslim Jamath,Mosque,"VHV8+VMM Mavalli Muslim Jamath, Mulamkadakam, Kollam, Kerala 691007",Mulamkadakam,VHV8+VMM,Kollam,691007,Kerala,IN,https://www.google.com/maps/place/Mavalli+Muslim+Jamath/data=!4m7!3m6!1s0x3b05fc340585ae19:0x25f6cbfdac2feab3!8m2!3d8.8947002!4d76.5666589!16s%2Fg%2F1261_pd_m!19sChIJGa6FBTT8BTsRs-ovrP3L9iU?authuser=0&hl=en&rclk=1,"8.894700199999999,76.5666589"
Muthirapparambu Masjid,Mosque,"WH28+J6G Muthirapparambu Masjid, Kureepuzha South, Kollam, Kerala 691012",Kureepuzha South,WH28+J6G,Kollam,691012,Kerala,IN,https://www.google.com/maps/place/Muthirapparambu+Masjid/data=!4m7!3m6!1s0x3b05fdcc85427c33:0xe1efbbeecbdb8f7c!8m2!3d8.9015673!4d76.5655753!16s%2Fg%2F1trrbmhs!19sChIJM3xChcz9BTsRfI_by-677-E?authuser=0&hl=en&rclk=1,"8.9015673,76.56557529999999"
Mekone Juma Masjid,Mosque,"WJFR+X4C Mekone Juma Masjid, Mekkone, Chandanathope, Kottamkara, Kerala 691014","Kilikkollur, Chandanathope","WJFR+X4C, Mekkone",Kottamkara,691014,Kerala,IN,https://www.google.com/maps/place/Mekone+Juma+Masjid/data=!4m7!3m6!1s0x3b05fd4ab8c39c55:0x42eb4503b8e66104!8m2!3d8.9249437!4d76.6402595!16s%2Fg%2F11b6g8ngm6!19sChIJVZzDuEr9BTsRBGHmuANF60I?authuser=0&hl=en&rclk=1,"8.9249437,76.6402595"
Kavanadu Masjid,Mosque,"WHF4+HW3 Kavanadu Masjid, Salem-Kanyakumari Highway (NH-47), Kavanad, Kollam, Kerala 691003",Kavanad,"WHF4+HW3, Salem-Kanyakumari Highway (NH-47)",Kollam,691003,Kerala,IN,https://www.google.com/maps/place/Kavanadu+Masjid/data=!4m7!3m6!1s0x3b05fde6f9a93e13:0xd6522cf3696b50ff!8m2!3d8.923899!4d76.557283!16s%2Fg%2F1pyqk7wyf!19sChIJEz6p-eb9BTsR_1BrafMsUtY?authuser=0&hl=en&rclk=1,"8.923899,76.557283"
Ayathil juma masjid,Mosque,"VJQJ+C7W Ayathil juma masjid, Ayathil, Kollam, Kerala 691021",Ayathil,VJQJ+C7W,Kollam,691021,Kerala,IN,https://www.google.com/maps/place/Ayathil+juma+masjid/data=!4m7!3m6!1s0x3b05fccf9c7f1a4d:0xeff02715e9ef98e0!8m2!3d8.8886198!4d76.6307053!16s%2Fg%2F1tpn0_d7!19sChIJTRp_nM_8BTsR4Jjv6RUn8O8?authuser=0&hl=en&rclk=1,"8.888619799999999,76.6307053"
Oxford School Masjid,Mosque,"VJHV+F62 Oxford School Masjid, Mylapure, Palathara, Thazhuthala, Kerala 691020","Mylapure, Palathara",VJHV+F62,Thazhuthala,691020,Kerala,IN,https://www.google.com/maps/place/Oxford+School+Masjid/data=!4m7!3m6!1s0x3b05e34ae61d062b:0xcfad25bed03823f8!8m2!3d8.8786433!4d76.6430205!16s%2Fg%2F11bws8gwp8!19sChIJKwYd5krjBTsR-CM40L4lrc8?authuser=0&hl=en&rclk=1,"8.8786433,76.64302049999999"
Pattani Thangal Dargah,Mosque,"VJCH+3V4 Pattani Thangal Dargah, Pallimukku, Kollam, Kerala 691021",Pallimukku,VJCH+3V4,Kollam,691021,Kerala,IN,https://www.google.com/maps/place/Pattani+Thangal+Dargah/data=!4m7!3m6!1s0x3b05fcbaa07cb0e1:0x2d3d88dbac29dab8!8m2!3d8.8701338!4d76.6297037!16s%2Fg%2F11c1qs7d3g!19sChIJ4bB8oLr8BTsRuNoprNuIPS0?authuser=0&hl=en&rclk=1,"8.8701338,76.6297037"
Kadapakkada Mosque,Mosque,"VJR2+HPQ Kadapakkada Mosque, NH 208, Kadapakkada, Kollam, Kerala 691008",Kadapakkada,"VJR2+HPQ, NH 208",Kollam,691008,Kerala,IN,https://www.google.com/maps/place/Kadapakkada+Mosque/data=!4m7!3m6!1s0x3b05fcfa3c22242f:0x385f055f1206f5a1!8m2!3d8.8914683!4d76.6018687!16s%2Fg%2F1vgqbj2z!19sChIJLyQiPPr8BTsRofUGEl8FXzg?authuser=0&hl=en&rclk=1,"8.8914683,76.6018687"
Pinakkal Masjid,Mosque,"VJ8P+3F8 Pinakkal Masjid, Asharimukku, Umayanalloor, Kollam, Kerala 691020","Asharimukku, Umayanalloor",VJ8P+3F8,Kollam,691020,Kerala,IN,https://www.google.com/maps/place/Pinakkal+Masjid/data=!4m7!3m6!1s0x3b05fcac1974fc09:0x13f5181e0596833f!8m2!3d8.8651595!4d76.636205!16s%2Fg%2F1pyql4__f!19sChIJCfx0Gaz8BTsRP4OWBR4Y9RM?authuser=0&hl=en&rclk=1,"8.865159499999999,76.63620499999999"
Kattavila Masjid,Mosque,"VJXP+2R9 Kattavila Masjid, Ayathil, Kottamkara, Kollam, Kerala 691577",Ayathil,VJXP+2R9,"Kottamkara, Kollam",691577,Kerala,IN,https://www.google.com/maps/place/Kattavila+Masjid/data=!4m7!3m6!1s0x3b05fcd46cf631e9:0x501d907307a195bc!8m2!3d8.8975292!4d76.6371167!16s%2Fg%2F1pp2vdt0r!19sChIJ6TH2bNT8BTsRvJWhB3OQHVA?authuser=0&hl=en&rclk=1,"8.8975292,76.63711669999999"
Mylapure Muslim Juma Masjid,Mosque,"VMG4+WF3 Mylapure Muslim Juma Masjid, Thazhuthala, Kerala 691020",,VMG4+WF3,Thazhuthala,691020,Kerala,IN,https://www.google.com/maps/place/Mylapure+Muslim+Juma+Masjid/data=!4m7!3m6!1s0x3b05e346f1b51b57:0x36f5b820d4db9d1a!8m2!3d8.877264!4d76.6561571!16s%2Fg%2F1yfdq_ps_!19sChIJVxu18UbjBTsRGp3b1CC49TY?authuser=0&hl=en&rclk=1,"8.877264,76.6561571"
Muslim masjid,Mosque,"Muslim masjid, Sarah Plaza, Salem - Kochi Hwy, Bharanikkavu, Madannada, Kollam, Kerala 691010","Bharanikkavu, Madannada","Sarah Plaza, Salem - Kochi Hwy",Kollam,691010,Kerala,IN,https://www.google.com/maps/place/Muslim+masjid/data=!4m7!3m6!1s0x3b05fd8e2dec309f:0x54cf6af116e4e795!8m2!3d8.8777835!4d76.6097241!16s%2Fg%2F11rv0dbc2k!19sChIJnzDsLY79BTsRlefkFvFqz1Q?authuser=0&hl=en&rclk=1,"8.8777835,76.6097241"
Chinnakada Juma masjith,Mosque,"VHMR+J99 Chinnakada Juma masjith, Andamukkam, Kollam, Kerala 691001",Andamukkam,VHMR+J99,Kollam,,Kerala,IN,https://www.google.com/maps/place/Chinnakada+Juma+masjith/data=!4m7!3m6!1s0x3b05fc5ecb72daaf:0x910003973462909d!8m2!3d8.8840405!4d76.5909958!16s%2Fg%2F11f33t18rj!19sChIJr9pyy178BTsRnZBiNJcDAJE?authuser=0&hl=en&rclk=1,"8.8840405,76.5909958"
"Salafi Masjid, slphi msjid",Mosque,"Salafi Masjid, slphi msjid, Akkaravila Temple Rd, Pallimukku, Kollam, Kerala 691021",Pallimukku,Akkaravila Temple Rd,Kollam,691021,Kerala,IN,"https://www.google.com/maps/place/Salafi+Masjid,+%E0%B4%B8%E0%B4%B2%E0%B4%AB%E0%B4%BF+%E0%B4%AE%E0%B4%B8%E0%B5%8D%E0%B4%9C%E0%B4%BF%E0%B4%A6%E0%B5%8D/data=!4m7!3m6!1s0x3b05fcbfbdd3ef51:0xdca63c3214147e8!8m2!3d8.8783882!4d76.61991!16s%2Fg%2F1hm22_m9l!19sChIJUe_Tvb_8BTsR6EdBIcNjyg0?authuser=0&hl=en&rclk=1","8.8783882,76.61990999999999"
Town Masjid Near KSRTC Kollam,Mosque,"VHRP+73W Town Masjid Near KSRTC Kollam, Taluk Kachery, Kollam, Kerala 691001",Taluk Kachery,VHRP+73W,Kollam,691001,Kerala,IN,https://www.google.com/maps/place/Town+Masjid+Near+KSRTC+Kollam/data=!4m7!3m6!1s0x3b05fc506a012ad1:0x5b2b879d7fd784e7!8m2!3d8.8907327!4d76.5851972!16s%2Fg%2F11csqkdp9z!19sChIJ0SoBalD8BTsR54TXf52HK1s?authuser=0&hl=en&rclk=1,"8.8907327,76.5851972"
Salafi Juma Masjid Kollam,Mosque,"VHQX+72J Salafi Juma Masjid Kollam, Kollam-Thirumangalam Highway (NH-208), Chamkkada, Kollam, Kerala 691008",Chamkkada,"VHQX+72J, Kollam-Thirumangalam Highway (NH-208)",Kollam,691008,Kerala,IN,https://www.google.com/maps/place/Salafi+Juma+Masjid+Kollam/data=!4m7!3m6!1s0x3b05fcf7a1eb030d:0xa8c199e18962ecd5!8m2!3d8.8882231!4d76.5975157!16s%2Fg%2F11_qkqflt!19sChIJDQProff8BTsR1exiieGZwag?authuser=0&hl=en&rclk=1,"8.8882231,76.5975157"
Rifai Juma Masjid,Mosque,"WJ3P+QPR Rifai Juma Masjid, Kuttichira Rd, Karicode, Ayathil, Kottamkara, Kollam, Kerala 691577","Karicode, Ayathil","WJ3P+QPR, Kuttichira Rd","Kottamkara, Kollam",691577,Kerala,IN,https://www.google.com/maps/place/Rifai+Juma+Masjid/data=!4m7!3m6!1s0x3b05fd2a35b34bf7:0xe2e2dc49ac5e10e4!8m2!3d8.9044799!4d76.6367599!16s%2Fg%2F1pp2vdt2t!19sChIJ90uzNSr9BTsR5BBerEnc4uI?authuser=0&hl=en&rclk=1,"8.9044799,76.6367599"
Puliyathu Masjid,Mosque,"WJ5P+M63 Puliyathu Masjid, Karicode, Peroor, Kottamkara, Kerala 691005","Karicode, Peroor",WJ5P+M63,Kottamkara,691005,Kerala,IN,https://www.google.com/maps/place/Puliyathu+Masjid/data=!4m7!3m6!1s0x3b05fd2c276a89c3:0x68eb0f0de8ecb269!8m2!3d8.9091347!4d76.6355381!16s%2Fg%2F11c6dcxqj9!19sChIJw4lqJyz9BTsRabLs6A0P62g?authuser=0&hl=en&rclk=1,"8.9091347,76.63553809999999"
Kollam City Masjid,Mosque,"VHMM+GWF Kollam City Masjid, Thamarakulam Rd, Andamukkam, Kollam, Kerala 691001",Andamukkam,"VHMM+GWF, Thamarakulam Rd",Kollam,691001,Kerala,IN,https://www.google.com/maps/place/Kollam+City+Masjid/data=!4m7!3m6!1s0x3b05fc5ca0573a3f:0x6bac6e4ba715638e!8m2!3d8.8838156!4d76.5847824!16s%2Fg%2F11f04ng6f8!19sChIJPzpXoFz8BTsRjmMVp0turGs?authuser=0&hl=en&rclk=1,"8.8838156,76.5847824"
Punnamoodu Masjid,Mosque,"WJ36+429 Punnamoodu Masjid, Priyadarshini Nagar, Kadapakkada, Kollam, Kerala 691019","Priyadarshini Nagar, Kadapakkada",WJ36+429,Kollam,691019,Kerala,IN,https://www.google.com/maps/place/Punnamoodu+Masjid/data=!4m7!3m6!1s0x3b05fd1da4efc715:0x195aea1e219e3331!8m2!3d8.9027923!4d76.6100953!16s%2Fg%2F11gf62k955!19sChIJFcfvpB39BTsRMTOeIR7qWhk?authuser=0&hl=en&rclk=1,"8.9027923,76.6100953"
Salafi Masjid,Mosque,"VM83+395 Salafi Masjid, Umayanalloor, Mayyanad, Kerala 691589",Umayanalloor,"VM83+395, Umayanalloor",Mayyanad,691589,Kerala,IN,https://www.google.com/maps/place/Salafi+Masjid/data=!4m7!3m6!1s0x3b05e35a1fa9b291:0xbdb99f9067d3f496!8m2!3d8.8651469!4d76.6534996!16s%2Fg%2F11c0q0n936!19sChIJkbKpH1rjBTsRlvTTZ5Cfub0?authuser=0&hl=en&rclk=1,"8.8651469,76.6534996"
Pallithottam Masjid,Mosque,"VHJP+9C9 Pallithottam Masjid, Pallithottam Rd, Thamarakulam, Kollam, Kerala 691006",Thamarakulam,"VHJP+9C9, Pallithottam Rd",Kollam,691006,Kerala,IN,https://www.google.com/maps/place/Pallithottam+Masjid/data=!4m7!3m6!1s0x3b05fc5d06b88267:0xa86bade12c502c05!8m2!3d8.8809111!4d76.5861171!16s%2Fg%2F1tz74dhx!19sChIJZ4K4Bl38BTsRBSxQLOGta6g?authuser=0&hl=en&rclk=1,"8.880911099999999,76.5861171"
ilavanthikulam Hidmathul islam masjid,Mosque,"VJV9+H73 ilavanthikulam Hidmathul islam masjid, Unnamed Rd, Ammannada, Kollam, Kerala 691021",Ammannada,"VJV9+H73, Unnamed Rd",Kollam,691021,Kerala,IN,https://www.google.com/maps/place/ilavanthikulam+Hidmathul+islam+masjid/data=!4m7!3m6!1s0x3b05fcdd87f9f321:0x4eaa300f83972faa!8m2!3d8.893886!4d76.618186!16s%2Fg%2F1pp2vk11b!19sChIJIfP5h938BTsRqi-Xgw8wqk4?authuser=0&hl=en&rclk=1,"8.893886,76.618186"
Collectorate Masjid,Mosque,"VHRG+Q66 Collectorate Masjid, T D Nagar, Vidya Nagar, Kollam, Kerala 691013","T D Nagar, Vidya Nagar",VHRG+Q66,Kollam,691013,Kerala,IN,https://www.google.com/maps/place/Collectorate+Masjid/data=!4m7!3m6!1s0x3b05fc49033a85e9:0x10f9b7a8705c51e2!8m2!3d8.8919156!4d76.5755057!16s%2Fg%2F11cp7g54s5!19sChIJ6YU6A0n8BTsR4lFccKi3-RA?authuser=0&hl=en&rclk=1,"8.891915599999999,76.5755057"
High School Junction Juma Masjid,Mosque,"VHRH+RQJ High School Junction Juma Masjid, High School Junction-Kottamukk Rd, T D Nagar, Olayil, High School Jun, Kollam, Kerala 691009","T D Nagar, Olayil, High School Jun","VHRH+RQJ, High School Junction-Kottamukk Rd",Kollam,691009,Kerala,IN,https://www.google.com/maps/place/High+School+Junction+Juma+Masjid/data=!4m7!3m6!1s0x3b05fc4ee117cdc5:0x2ff075bebf6f686c!8m2!3d8.8920871!4d76.5794034!16s%2Fg%2F11bzzmvql4!19sChIJxc0X4U78BTsRbGhvv7518C8?authuser=0&hl=en&rclk=1,"8.8920871,76.57940339999999"
Hilir Masjid,Mosque,"VJ9J+HRJ Hilir Masjid, Kerala 691020",,VJ9J+HRJ,,691020,Kerala,IN,https://www.google.com/maps/place/Hilir+Masjid/data=!4m7!3m6!1s0x3b05fcafd05089c7:0xe315967f05bef7b1!8m2!3d8.8689608!4d76.6320101!16s%2Fg%2F11c3sr6t4d!19sChIJx4lQ0K_8BTsRsfe-BX-WFeM?authuser=0&hl=en&rclk=1,"8.8689608,76.6320101"
Bilal Masjid,Mosque,"VJX7+WQX Bilal Masjid, National Highway 220, Randamkutty, Kollam, Kerala 691019",Randamkutty,"VJX7+WQX, National Highway 220",Kollam,691019,Kerala,IN,https://www.google.com/maps/place/Bilal+Masjid/data=!4m7!3m6!1s0x3b05fce1c784c61b:0x192c63544628dd50!8m2!3d8.8998736!4d76.6144767!16s%2Fg%2F12hkljbf6!19sChIJG8aEx-H8BTsRUN0oRlRjLBk?authuser=0&hl=en&rclk=1,"8.8998736,76.6144767"
Travancore Medical College Masjid,Mosque,"VJFV+V8R Travancore Medical College Masjid, Mylapure, Palathara, Thazhuthala, Kerala 691020","Mylapure, Palathara",VJFV+V8R,Thazhuthala,691020,Kerala,IN,https://www.google.com/maps/place/Travancore+Medical+College+Masjid/data=!4m7!3m6!1s0x3b05e34c9a58be51:0xb77a9e7b42750586!8m2!3d8.8747268!4d76.6432519!16s%2Fg%2F11b6lmhjsr!19sChIJUb5YmkzjBTsRhgV1Qnueerc?authuser=0&hl=en&rclk=1,"8.8747268,76.6432519"
Salafi Jumua Masjid Andamukkom,Mosque,"VHMQ+873 Salafi Jumua Masjid Andamukkom, Andamukkam, Kollam, Kerala 691001",Andamukkam,VHMQ+873,Kollam,691001,Kerala,IN,https://www.google.com/maps/place/Salafi+Jumua+Masjid+Andamukkom/data=!4m7!3m6!1s0x3b05fc5c11fba661:0x2622d87774c7495!8m2!3d8.8832722!4d76.588173!16s%2Fg%2F11ck5ysk10!19sChIJYab7EVz8BTsRlXRMd4ctYgI?authuser=0&hl=en&rclk=1,"8.8832722,76.588173"
Kizhakke Peroor Muslim Jama Ath,Mosque,"VJXW+3J8 Kizhakke Peroor Muslim Jama Ath, po, Palathara, Kollam, Kerala 691577",Palathara,"VJXW+3J8, po",Kollam,,Kerala,IN,https://www.google.com/maps/place/Kizhakke+Peroor+Muslim+Jama+Ath/data=!4m7!3m6!1s0x3b05e2d5e05e49d3:0x5103af9335553f59!8m2!3d8.9036373!4d76.6468799!16s%2Fg%2F1vhkhzt9!19sChIJ00le4NXiBTsRWT9VNZOvA1E?authuser=0&hl=en&rclk=1,"8.9036373,76.6468799"
Puthichira Thaikkavu Puthuchira Mylapure Kollam,Mosque,"Puthichira Thaikkavu Puthuchira Mylapure Kollam, Thazhuthala, Kerala 691020",,,Thazhuthala,691020,Kerala,IN,https://www.google.com/maps/place/Puthichira+Thaikkavu+Puthuchira+Mylapure+Kollam/data=!4m7!3m6!1s0x3b05e338c257b9ef:0x2b44540fe2d6111!8m2!3d8.8830561!4d76.6573004!16s%2Fg%2F1yfdq_qbd!19sChIJ77lXwjjjBTsREWEt_kBFtAI?authuser=0&hl=en&rclk=1,"8.8830561,76.6573004"
Hamidiya Juma Masjid,Mosque,"VHPM+3CG Hamidiya Juma Masjid, Hospital Rd, Chinnakada, Kollam, Kerala 691001",Chinnakada,"VHPM+3CG, Hospital Rd",Kollam,691001,Kerala,IN,https://www.google.com/maps/place/Hamidiya+Juma+Masjid/data=!4m7!3m6!1s0x3b05fc5b4abda915:0x84e0c42d909eeb6f!8m2!3d8.8851989!4d76.5835798!16s%2Fg%2F124t5bzc9!19sChIJFam9Slv8BTsRb-uekC3E4IQ?authuser=0&hl=en&rclk=1,"8.885198899999999,76.5835798"
Masjid,Mosque,"Masjid, Vikas Nagar, NH744, Karicode, Peroor, Kollam, Kerala 691005","Karicode, Peroor","Vikas Nagar, NH744",Kollam,691005,Kerala,IN,https://www.google.com/maps/place/Masjid/data=!4m7!3m6!1s0x3b05fd24743890cb:0xe308ec96be70429c!8m2!3d8.9085504!4d76.6241834!16s%2Fg%2F11c1l95q1d!19sChIJy5A4dCT9BTsRnEJwvpbsCOM?authuser=0&hl=en&rclk=1,"8.9085504,76.62418339999999"
Rotikka Masjid Complex,Mosque,"VHMQ+P99 Rotikka Masjid Complex, Paikkada Rd, Andamukkam, Kollam, Kerala 691001",Andamukkam,"VHMQ+P99, Paikkada Rd",Kollam,691001,Kerala,IN,https://www.google.com/maps/place/Rotikka+Masjid+Complex/data=!4m7!3m6!1s0x3b05fc5bf774298d:0x41a399ca918f6232!8m2!3d8.884279!4d76.5884708!16s%2Fg%2F1pyqkykr2!19sChIJjSl091v8BTsRMmKPkcqZo0E?authuser=0&hl=en&rclk=1,"8.884279,76.5884708"
Masjidil Noor,Mosque,"VJCG+3HG Masjidil Noor, Azad Nagar, Pallimukku, Kollam, Kerala 691011","Azad Nagar, Pallimukku",VJCG+3HG,Kollam,691011,Kerala,IN,https://www.google.com/maps/place/Masjidil+Noor/data=!4m7!3m6!1s0x3b05fcbabf806017:0xa55098c4a948e13d!8m2!3d8.870179!4d76.6264517!16s%2Fg%2F11f2713pxk!19sChIJF2CAv7r8BTsRPeFIqcSYUKU?authuser=0&hl=en&rclk=1,"8.870179,76.62645169999999"
Muvasuthul Muslimin Masjidh,Mosque,"VJ8F+W9R Muvasuthul Muslimin Masjidh, kavalpura, Eravipuram, Kollam, Kerala 691011",Eravipuram,"VJ8F+W9R, kavalpura",Kollam,691011,Kerala,IN,https://www.google.com/maps/place/Muvasuthul+Muslimin+Masjidh/data=!4m7!3m6!1s0x3b05fd36bc966f5f:0xae04753fe50429b6!8m2!3d8.8673694!4d76.6233895!16s%2Fg%2F11h6yvy9s3!19sChIJX2-WvDb9BTsRtikE5T91BK4?authuser=0&hl=en&rclk=1,"8.8673694,76.6233895"
Muhiyadheen Masjid,Mosque,"VJ9M+HM7 Muhiyadheen Masjid, Kollam, Kerala 691020",,VJ9M+HM7,Kollam,691020,Kerala,IN,https://www.google.com/maps/place/Muhiyadheen+Masjid/data=!4m7!3m6!1s0x3b05fcae18260eed:0x7625150bca545b81!8m2!3d8.8689185!4d76.6341693!16s%2Fg%2F11g8_sb50w!19sChIJ7Q4mGK78BTsRgVtUygsVJXY?authuser=0&hl=en&rclk=1,"8.8689185,76.6341693"
Panikkarukulam Masjid,Mosque,"VJGH+CV8 Panikkarukulam Masjid, Vadakkevila, Kollam, Kerala 691021",Vadakkevila,VJGH+CV8,Kollam,691021,Kerala,IN,https://www.google.com/maps/place/Panikkarukulam+Masjid/data=!4m7!3m6!1s0x3b05fcb9e021280f:0xed995666d0cb0f83!8m2!3d8.8760449!4d76.6297074!16s%2Fg%2F11dx94g9v8!19sChIJDygh4Ln8BTsRgw_L0GZWme0?authuser=0&hl=en&rclk=1,"8.8760449,76.6297074"
Ilahiya Masjid Perayam Mylapure Kollam,Mosque,"VMF6+W3X Ilahiya Masjid Perayam Mylapure Kollam, Umayanalloor, Thazhuthala, Kerala 691020",Umayanalloor,VMF6+W3X,Thazhuthala,691020,Kerala,IN,https://www.google.com/maps/place/Ilahiya+Masjid+Perayam+Mylapure+Kollam/data=!4m7!3m6!1s0x3b05e343c1790969:0x535992ab702367d9!8m2!3d8.8748732!4d76.6602438!16s%2Fg%2F1yfdq_qdg!19sChIJaQl5wUPjBTsR2WcjcKuSWVM?authuser=0&hl=en&rclk=1,"8.8748732,76.6602438"
Vayanakulam masjid,Mosque,"VJ7H+WVG Vayanakulam masjid, Unnamed Road, Kerala 691020",,"VJ7H+WVG, Unnamed Road",,691020,Kerala,IN,https://www.google.com/maps/place/Vayanakulam+masjid/data=!4m7!3m6!1s0x3b05fdad6e4a1d33:0x30a33406067b8b66!8m2!3d8.8648011!4d76.6297175!16s%2Fg%2F11fjmfcxvq!19sChIJMx1Kbq39BTsRZot7BgY0ozA?authuser=0&hl=en&rclk=1,"8.8648011,76.6297175"
Hidayathul Islam Madrasa,Mosque,"WJ9F+CR9 Hidayathul Islam Madrasa, Karicode, tkmc po, Kollam, Kerala 691015","Karicode, tkmc po",WJ9F+CR9,Kollam,,Kerala,IN,https://www.google.com/maps/place/Hidayathul+Islam+Madrasa/data=!4m7!3m6!1s0x3b05fddf01a7c24f:0x32b95287313c3a3d!8m2!3d8.9185426!4d76.6246162!16s%2Fg%2F11f60xt_y2!19sChIJT8KnAd_9BTsRPTo8MYdSuTI?authuser=0&hl=en&rclk=1,"8.9185426,76.62461619999999"
masjid al hujjaj,Mosque,"VJWJ+5CP masjid al hujjaj, Ayathil, Kottamkara, Kollam, Kerala 691577",Ayathil,VJWJ+5CP,"Kottamkara, Kollam",691577,Kerala,IN,https://www.google.com/maps/place/masjid+al+hujjaj/data=!4m7!3m6!1s0x3b05fcd0eead3c31:0x6c1c7007583af2c2!8m2!3d8.895457!4d76.6310837!16s%2Fg%2F11dd_qh2yk!19sChIJMTyt7tD8BTsRwvI6WAdwHGw?authuser=0&hl=en&rclk=1,"8.895457,76.63108369999999"
"Juma masjid, Kollam",Mosque,"VHRP+638 Juma masjid, Kollam, Taluk Kachery, Kollam, Kerala 691001",Taluk Kachery,VHRP+638,Kollam,691001,Kerala,IN,"https://www.google.com/maps/place/Juma+masjid,+Kollam/data=!4m7!3m6!1s0x3b05fc506a4bc65d:0xcee48de89c7541a4!8m2!3d8.8905421!4d76.5851972!16s%2Fg%2F11fxvj5zfg!19sChIJXcZLalD8BTsRpEF1nOiN5M4?authuser=0&hl=en&rclk=1","8.8905421,76.5851972"
Ziyarathumoodu Juma Masjid,Mosque,"WJ6H+R4G Ziyarathumoodu Juma Masjid, NH744, Mangad, Kollam, Kerala 691005",Mangad,"WJ6H+R4G, NH744",Kollam,691005,Kerala,IN,https://www.google.com/maps/place/Ziyarathumoodu+Juma+Masjid/data=!4m7!3m6!1s0x3b05fd2531400001:0xba40becd8b131fb6!8m2!3d8.9120502!4d76.6278235!16s%2Fg%2F11sscs6qz8!19sChIJAQBAMSX9BTsRth8Ti82-QLo?authuser=0&hl=en&rclk=1,"8.9120502,76.62782349999999"
Darul Huda Masjid & Madrasa,Mosque,"VJ9G+3PQ Darul Huda Masjid & Madrasa, Pallimukku, Kollam, Kerala 691021",Pallimukku,VJ9G+3PQ,Kollam,691021,Kerala,IN,https://www.google.com/maps/place/Darul+Huda+Masjid+%26+Madrasa/data=!4m7!3m6!1s0x3b05fca51e21c9c5:0x85e64c9e7cf0d91d!8m2!3d8.8677116!4d76.6268438!16s%2Fg%2F11fx7p51cy!19sChIJxckhHqX8BTsRHdnwfJ5M5oU?authuser=0&hl=en&rclk=1,"8.8677116,76.6268438"
Quadisiyya Students Centre & masjid,Mosque,"WJ6J+J96 Quadisiyya Students Centre & masjid, Kollam - Thirumangalam Rd, Karicode, Peroor, Kerala 691005","Karicode, Peroor","WJ6J+J96, Kollam - Thirumangalam Rd",,691005,Kerala,IN,https://www.google.com/maps/place/Quadisiyya+Students+Centre+%26+masjid/data=!4m7!3m6!1s0x3b05fd2febc4784b:0xce96539efb5591bf!8m2!3d8.9115255!4d76.630896!16s%2Fg%2F11bwqmfq2r!19sChIJS3jE6y_9BTsRv5FV-55Tls4?authuser=0&hl=en&rclk=1,"8.9115255,76.63089599999999"
"Sharaful Islam Masjid, Paikkulam, Vadakkevila",Mosque,"VJJC+8J7 Sharaful Islam Masjid, Paikkulam, Vadakkevila, Vadakkevila, Kollam, Kerala 691021",Vadakkevila,VJJC+8J7,Kollam,691021,Kerala,IN,"https://www.google.com/maps/place/Sharaful+Islam+Masjid,+Paikkulam,+Vadakkevila/data=!4m7!3m6!1s0x3b05fcc08ef002c3:0xbcc13d2304a59cb0!8m2!3d8.8807813!4d76.6215508!16s%2Fg%2F11hd1td_2f!19sChIJwwLwjsD8BTsRsJylBCM9wbw?authuser=0&hl=en&rclk=1","8.880781299999999,76.6215508"
Polayathodu Masjid,Mosque,"VJH4+C54 Polayathodu Masjid, Kappalandi Mukku, Mundakkal Village, Kollam, Kerala 691010","Kappalandi Mukku, Mundakkal Village",VJH4+C54,Kollam,691010,Kerala,IN,https://www.google.com/maps/place/Polayathodu+Masjid/data=!4m7!3m6!1s0x3b05fc8d466ee8ab:0x657d250571bc47cb!8m2!3d8.878524!4d76.605467!16s%2Fg%2F1pyqtm7vd!19sChIJq-huRo38BTsRy0e8cQUlfWU?authuser=0&hl=en&rclk=1,"8.878523999999999,76.60546699999999"
Salafi Masjid,Mosque,"WJ8M+QFF Salafi Masjid, Market Rd, Karicode, Peroor, Kerala 691004","Karicode, Peroor","WJ8M+QFF, Market Rd",,691004,Kerala,IN,https://www.google.com/maps/place/Salafi+Masjid/data=!4m7!3m6!1s0x3b05fd313c29acfb:0x7fc26e57cf5add8f!8m2!3d8.9169336!4d76.6336669!16s%2Fg%2F11bxdcfgj_!19sChIJ-6wpPDH9BTsRj91az1duwn8?authuser=0&hl=en&rclk=1,"8.9169336,76.6336669"
Pattani thangal masjid,Mosque,"VHJW+G54 Pattani thangal masjid, Unnamed Road, Cantonment South, Mundakkal Village, Kollam, Kerala 691001","Cantonment South, Mundakkal Village","VHJW+G54, Unnamed Road",Kollam,691001,Kerala,IN,https://www.google.com/maps/place/Pattani+thangal+masjid/data=!4m7!3m6!1s0x3b05fdda821e8dfb:0x7a63f39bc2cd2c5c!8m2!3d8.8812623!4d76.5954502!16s%2Fg%2F11h64p13wd!19sChIJ-40egtr9BTsRXCzNwpvzY3o?authuser=0&hl=en&rclk=1,"8.8812623,76.5954502"
Noorul Islam Madrasa,Mosque,"WJFF+J5X Noorul Islam Madrasa, Kollam - Theni Hwy, Mangad, Kollam, Kerala 691015",Mangad,"WJFF+J5X, Kollam - Theni Hwy",Kollam,691015,Kerala,IN,https://www.google.com/maps/place/Noorul+Islam+Madrasa/data=!4m7!3m6!1s0x3b05fd40b896189b:0xc210c25558a019ae!8m2!3d8.9241216!4d76.6229744!16s%2Fg%2F11hbv7qyzz!19sChIJmxiWuED9BTsRrhmgWFXCEMI?authuser=0&hl=en&rclk=1,"8.9241216,76.62297439999999"
Thevally Juma Masjid,Mosque,"VHXH+R5Q Thevally Juma Masjid, Kollam - Elamballoor Rd, Thevally Nagar, Palace Nagar, Thevally, Kollam, Kerala 691009","Thevally Nagar, Palace Nagar, Thevally","VHXH+R5Q, Kollam - Elamballoor Rd",Kollam,691009,Kerala,IN,https://www.google.com/maps/place/Thevally+Juma+Masjid/data=!4m7!3m6!1s0x3b05fc4c8339ad25:0x49b37722203ecd5c!8m2!3d8.8995766!4d76.5779753!16s%2Fg%2F11c6fb5ns5!19sChIJJa05g0z8BTsRXM0-ICJ3s0k?authuser=0&hl=en&rclk=1,"8.8995766,76.57797529999999"
Najumul Islam Masjid,Mosque,"VJ9F+3G7 Najumul Islam Masjid, Eravipuram - Pallimukku Rd, Pallimukku, Kavalpura, Kollam, Kerala 691021",Pallimukku,"VJ9F+3G7, Eravipuram - Pallimukku Rd","Kavalpura, Kollam",,Kerala,IN,https://www.google.com/maps/place/Najumul+Islam+Masjid/data=!4m7!3m6!1s0x3b05fdaee9e400d5:0xef7b641ab30dcdc3!8m2!3d8.8676687!4d76.6237846!16s%2Fg%2F11h77lp36w!19sChIJ1QDk6a79BTsRw80Nsxpke-8?authuser=0&hl=en&rclk=1,"8.8676687,76.6237846"
Irshadu Thalib Masjid,Mosque,"Irshadu Thalib Masjid, Pallimukku, Kollam, Kerala 691011",Pallimukku,,Kollam,,Kerala,IN,https://www.google.com/maps/place/Irshadu+Thalib+Masjid/data=!4m7!3m6!1s0x3b05fca5acd430c7:0x28ce04d70dc7313d!8m2!3d8.8659996!4d76.6263738!16s%2Fg%2F11g9gykh60!19sChIJxzDUrKX8BTsRPTHHDdcEzig?authuser=0&hl=en&rclk=1,"8.8659996,76.6263738"
Darul Salam Masjid,Mosque,"VJ9F+XC4 Darul Salam Masjid, Eravipuram - Pallimukku Rd, Pallimukku, kavalpura, Kollam, Kerala 691021",Pallimukku,"VJ9F+XC4, Eravipuram - Pallimukku Rd","kavalpura, Kollam",,Kerala,IN,https://www.google.com/maps/place/Darul+Salam+Masjid/data=!4m7!3m6!1s0x3b05fdcb06340b01:0x5bdca7e8ac650ebc!8m2!3d8.8698761!4d76.6235723!16s%2Fg%2F11hzmpjxy9!19sChIJAQs0Bsv9BTsRvA5lrOin3Fs?authuser=0&hl=en&rclk=1,"8.869876099999999,76.62357229999999"
Chamakkada masjid,Mosque,"VHMM+VGG Chamakkada masjid, Andamukkam, Chamkkada, Kollam, Kerala 691001","Andamukkam, Chamkkada",VHMM+VGG,Kollam,691001,Kerala,IN,https://www.google.com/maps/place/Chamakkada+masjid/data=!4m7!3m6!1s0x3b05fd4225d1365f:0x1d6ece733245b499!8m2!3d8.8847126!4d76.5838738!16s%2Fg%2F11t18gxqd6!19sChIJXzbRJUL9BTsRmbRFMnPObh0?authuser=0&hl=en&rclk=1,"8.8847126,76.58387379999999"
Juma Masjid,Mosque,"WH28+WF3 Juma Masjid, Unnamed Road, Kureepuzha South, Kollam, Kerala 691012",Kureepuzha South,"WH28+WF3, Unnamed Road",Kollam,691012,Kerala,IN,https://www.google.com/maps/place/Juma+Masjid/data=!4m7!3m6!1s0x3b05fd3b6528aa05:0xed344a754ed5c8a1!8m2!3d8.9022603!4d76.5661696!16s%2Fg%2F11fhk9mrj_!19sChIJBaooZTv9BTsRocjVTnVKNO0?authuser=0&hl=en&rclk=1,"8.9022603,76.5661696"
Masjid Sahaba,Mosque,"VJ9V+V9M Masjid Sahaba, Mylapure, Mevaram, Thazhuthala, Kerala 691020","Mylapure, Mevaram",VJ9V+V9M,Thazhuthala,691020,Kerala,IN,https://www.google.com/maps/place/Masjid+Sahaba/data=!4m7!3m6!1s0x3b05e3bfbdc87b8d:0x343eda4da6e8a027!8m2!3d8.8697051!4d76.6434163!16s%2Fg%2F11hyxszcpk!19sChIJjXvIvb_jBTsRJ6Dopk3aPjQ?authuser=0&hl=en&rclk=1,"8.8697051,76.6434163"
Makkani Masjid (Chinnakkada Jama'th),Mosque,"VJQ3+427 Makkani Masjid (Chinnakkada Jama'th), Kadapakkada, Kollam, Kerala 691008",Kadapakkada,VJQ3+427,Kollam,691008,Kerala,IN,https://www.google.com/maps/place/Makkani+Masjid+%28Chinnakkada+Jama%27th%29/data=!4m7!3m6!1s0x3b05fdcff131f9d7:0xb3facf02544d6ff8!8m2!3d8.8877883!4d76.6025554!16s%2Fg%2F11fl8lgqhp!19sChIJ1_kx8c_9BTsR-G9NVALP-rM?authuser=0&hl=en&rclk=1,"8.8877883,76.6025554"
Ayathil Muslim Juma Masjid,Mosque,"VJRH+RW3 Ayathil Muslim Juma Masjid, Ayathil, Kottamkara, Kollam, Kerala 691021",Ayathil,VJRH+RW3,"Kottamkara, Kollam",691021,Kerala,IN,https://www.google.com/maps/place/Ayathil+Muslim+Juma+Masjid/data=!4m7!3m6!1s0x3b05fd80b16235a7:0xc75e4daf859e5c0!8m2!3d8.8920216!4d76.6297972!16s%2Fg%2F11hfn4y7m_!19sChIJpzVisYD9BTsRwOVZ-NrkdQw?authuser=0&hl=en&rclk=1,"8.8920216,76.6297972"
VenkalaKada Masjid,Mosque,"VHMP+W2H VenkalaKada Masjid, Main Rd, Andamukkam, Chinnakada, Kollam, Kerala 691001","Andamukkam, Chinnakada","VHMP+W2H, Main Rd",Kollam,691001,Kerala,IN,https://www.google.com/maps/place/VenkalaKada+Masjid/data=!4m7!3m6!1s0x3b05fdf2e584928b:0xf1f0e9f24639373!8m2!3d8.8848197!4d76.5851225!16s%2Fg%2F11fl4ls4zz!19sChIJi5KE5fL9BTsRc5NjJJ8OHw8?authuser=0&hl=en&rclk=1,"8.8848197,76.5851225"
RIFAYI MASJID,Mosque,"VJ9H+QR8 RIFAYI MASJID, Pallimukku, Kollam, Kerala 691021",Pallimukku,VJ9H+QR8,Kollam,691021,Kerala,IN,https://www.google.com/maps/place/RIFAYI+MASJID/data=!4m7!3m6!1s0x3b05fd78c96d4309:0xbe5d95a3135e114d!8m2!3d8.8694087!4d76.6295934!16s%2Fg%2F11gsb61rbw!19sChIJCUNtyXj9BTsRTRFeE6OVXb4?authuser=0&hl=en&rclk=1,"8.8694087,76.62959339999999"
"Jeelani Masjid & Thouheedul Islam Madrassa Rayaramukk, Kallumthazham",Mosque,"WJ3J+599 Jeelani Masjid & Thouheedul Islam Madrassa Rayaramukk, Kallumthazham, Ayathil, Kottamkara, Kollam, Kerala 691577",Ayathil,WJ3J+599,"Kottamkara, Kollam",691577,Kerala,IN,"https://www.google.com/maps/place/Jeelani+Masjid+%26+Thouheedul+Islam+Madrassa+Rayaramukk,+Kallumthazham/data=!4m7!3m6!1s0x3b05fd630aef3a09:0x6668e25ef7e1ef64!8m2!3d8.9029137!4d76.6309866!16s%2Fg%2F11fktd27zs!19sChIJCTrvCmP9BTsRZO_h917iaGY?authuser=0&hl=en&rclk=1","8.9029137,76.6309866"
Valiyapally juma masjid,Mosque,"WJ28+VX7 Valiyapally juma masjid, Mangad, Kollam, Kerala 691019",Mangad,WJ28+VX7,Kollam,691019,Kerala,IN,https://www.google.com/maps/place/Valiyapally+juma+masjid/data=!4m7!3m6!1s0x3b05fd312a52dcd5:0xb5e9c645b6179f38!8m2!3d8.9021709!4d76.6174346!16s%2Fg%2F11s92j35z4!19sChIJ1dxSKjH9BTsROJ8XtkXG6bU?authuser=0&hl=en&rclk=1,"8.9021709,76.6174346"
Malikavayal Masjid,Mosque,"VJFC+RPP Malikavayal Masjid, Pallimukku, Kollam, Kerala 691021",Pallimukku,VJFC+RPP,Kollam,691021,Kerala,IN,https://www.google.com/maps/place/Malikavayal+Masjid/data=!4m7!3m6!1s0x3b05fdc0f70fbb7b:0x7d36481943d63276!8m2!3d8.8745901!4d76.6218323!16s%2Fg%2F11qndhjzyn!19sChIJe7sP98D9BTsRdjLWQxlINn0?authuser=0&hl=en&rclk=1,"8.874590099999999,76.6218323"
Masjid,Mosque,"VJG8+CP6 Masjid, Pattathanam, Chavara, Kollam, Kerala 691021",Pattathanam,VJG8+CP6,"Chavara, Kollam",691021,Kerala,IN,https://www.google.com/maps/place/Masjid/data=!4m7!3m6!1s0x3b05fc959605f73b:0x1e232c5ad94baaa5!8m2!3d8.8760395!4d76.6167652!16s%2Fg%2F11dfsx4cyf!19sChIJO_cFlpX8BTsRpapL2VosIx4?authuser=0&hl=en&rclk=1,"8.8760395,76.6167652"
klngngumukk msjid,Mosque,"VJHF+QFX klngngumukk msjid, Unnamed Road, Pallimukku, Kollam, Kerala 691021",Pallimukku,"VJHF+QFX, Unnamed Road",Kollam,691021,Kerala,IN,https://www.google.com/maps/place/%E0%B4%95%E0%B4%B2%E0%B4%99%E0%B5%8D%E0%B4%99%E0%B5%81%E0%B4%AE%E0%B5%81%E0%B4%95%E0%B5%8D%E0%B4%95%E0%B5%8D+%E0%B4%AE%E0%B4%B8%E0%B5%8D%E0%B4%9C%E0%B4%BF%E0%B4%A6%E0%B5%8D/data=!4m7!3m6!1s0x3b05fd1cb8615e91:0x3f2fd1deb3d75412!8m2!3d8.8794867!4d76.6237425!16s%2Fg%2F11fk14txx5!19sChIJkV5huBz9BTsRElTXs97RLz8?authuser=0&hl=en&rclk=1,"8.8794867,76.62374249999999"
Aboobaker Masjid,Mosque,"VJH5+66F Aboobaker Masjid, Santhi Nagar, Pallimukku, Kollam, Kerala 691010","Santhi Nagar, Pallimukku",VJH5+66F,Kollam,691010,Kerala,IN,https://www.google.com/maps/place/Aboobaker+Masjid/data=!4m7!3m6!1s0x3b05fcbee2ad4445:0x29f945048eda9919!8m2!3d8.8780653!4d76.6080539!16s%2Fg%2F1yfh_grbq!19sChIJRUSt4r78BTsRGZnajgRF-Sk?authuser=0&hl=en&rclk=1,"8.8780653,76.6080539"
Shaduli Masjid,Mosque,"VJHQ+GPQ Shaduli Masjid, Mylapure, Palathara, Kollam, Thazhuthala, Kerala 691020","Mylapure, Palathara",VJHQ+GPQ,"Kollam, Thazhuthala",691020,Kerala,IN,https://www.google.com/maps/place/Shaduli+Masjid/data=!4m7!3m6!1s0x3b05fcb512274959:0x3c52468d103f7ed!8m2!3d8.8788265!4d76.6393456!16s%2Fg%2F1tm__nn2!19sChIJWUknErX8BTsR7fcD0WgkxQM?authuser=0&hl=en&rclk=1,"8.878826499999999,76.6393456"
Ycet Masjid,Mosque,"VJHH+VM7 Ycet Masjid, Koonambaikulam Rd, Vadakkevila, Kollam, Kerala 691021",Vadakkevila,"VJHH+VM7, Koonambaikulam Rd",Kollam,691021,Kerala,IN,https://www.google.com/maps/place/Ycet+Masjid/data=!4m7!3m6!1s0x3b05fd1f1d366f39:0x96ffd496c050978c!8m2!3d8.8796529!4d76.6291765!16s%2Fg%2F11h4wk_9fn!19sChIJOW82HR_9BTsRjJdQwJbU_5Y?authuser=0&hl=en&rclk=1,"8.8796529,76.6291765"
Kilikolloor Thekkumkara,Mosque,"VJVH+4WG Kilikolloor Thekkumkara, Ayathil, Kottamkara, Kollam, Kerala 691021",Ayathil,VJVH+4WG,"Kottamkara, Kollam",691021,Kerala,IN,https://www.google.com/maps/place/Kilikolloor+Thekkumkara/data=!4m7!3m6!1s0x3b05fde4fde452bf:0x408da851673a1620!8m2!3d8.89314!4d76.6302259!16s%2Fg%2F11sfjybzrf!19sChIJv1Lk_eT9BTsRIBY6Z1GojUA?authuser=0&hl=en&rclk=1,"8.893139999999999,76.6302259"
All Isalb Masjid,Mosque,"VHMP+V3C All Isalb Masjid, Main Rd, Andamukkam, Kollam, Kerala 691001",Andamukkam,"VHMP+V3C, Main Rd",Kollam,691001,Kerala,IN,https://www.google.com/maps/place/All+Isalb+Masjid/data=!4m7!3m6!1s0x3b05fc5b6888246b:0x14eeeb1be21aa0d!8m2!3d8.884684!4d76.585126!16s%2Fg%2F1pyqjbnq4!19sChIJaySIaFv8BTsRDaohvrHuTgE?authuser=0&hl=en&rclk=1,"8.884684,76.585126"
"Juma Masjid, Karicode",Mosque,"Juma Masjid, Karicode, Karicode Bus Stop, NH744, Karicode, Peroor, Kerala 691004","Karicode, Peroor","Karicode Bus Stop, NH744",,691004,Kerala,IN,"https://www.google.com/maps/place/Juma+Masjid,+Karicode/data=!4m7!3m6!1s0x3b05fd31a92257f3:0x68c35d0331766ca!8m2!3d8.9171228!4d76.632122!16s%2Fg%2F11tmv9czky!19sChIJ81ciqTH9BTsRymYXM9A1jAY?authuser=0&hl=en&rclk=1","8.9171228,76.632122"
Darul uloom madrsa kayyalakkal,Mosque,"Darul uloom madrsa kayyalakkal, 118, Zamzam Nagar, Vadakkevila, Kollam, Kerala 691010","Zamzam Nagar, Vadakkevila",118,Kollam,691010,Kerala,IN,https://www.google.com/maps/place/Darul+uloom+madrsa+kayyalakkal/data=!4m7!3m6!1s0x3b05fd60a831e467:0x40ecfa9831b89069!8m2!3d8.8713803!4d76.6283303!16s%2Fg%2F11fr7dsbs0!19sChIJZ-QxqGD9BTsRaZC4MZj67EA?authuser=0&hl=en&rclk=1,"8.8713803,76.6283303"
Nadiyilazhikam Masjid,Mosque,"VJHG+R36 Nadiyilazhikam Masjid, Unnamed Road, Vadakkevila, Kollam, Kerala 691021",Vadakkevila,"VJHG+R36, Unnamed Road",Kollam,691021,Kerala,IN,https://www.google.com/maps/place/Nadiyilazhikam+Masjid/data=!4m7!3m6!1s0x3b05fd6867ed3ca1:0x70d84e86d27b6936!8m2!3d8.8795414!4d76.6251318!16s%2Fg%2F11j8t339vv!19sChIJoTztZ2j9BTsRNml70oZO2HA?authuser=0&hl=en&rclk=1,"8.879541399999999,76.62513179999999"
Kamala Surayya Juma Masjid,Mosque,"VHJR+WQ9 Kamala Surayya Juma Masjid, Suprabhaatham Daily, Kollam Bureau, Neslin towes, Beach Rd, opp. Petro Pump, Mundakkal Village, Kollam, Kerala 691001",Mundakkal Village,"VHJR+WQ9, Suprabhaatham Daily, Kollam Bureau, Neslin towes, Beach Rd, opp. Petro Pump",Kollam,691001,Kerala,IN,https://www.google.com/maps/place/Kamala+Surayya+Juma+Masjid/data=!4m7!3m6!1s0x3b05fdbfd308e017:0x1e31917c8460c28c!8m2!3d8.8823524!4d76.5920996!16s%2Fg%2F11t_sp9rx7!19sChIJF-AI07_9BTsRjMJghHyRMR4?authuser=0&hl=en&rclk=1,"8.8823524,76.5920996"
B,Mosque,"VJJH+FVR B, Vadakkevila, Kollam, Kerala 691021",Vadakkevila,VJJH+FVR,Kollam,691021,Kerala,IN,https://www.google.com/maps/place/B/data=!4m7!3m6!1s0x3b05fd3e66374bb1:0x138a54c3f2bec636!8m2!3d8.887089!4d76.5907882!16s%2Fg%2F11kpr4zmhc!19sChIJsUs3Zj79BTsRNsa-8sNUihM?authuser=0&hl=en&rclk=1,"8.887089,76.59078819999999"
Kilikolloor Juma Masjid,Mosque,"WJ28+VXC Kilikolloor Juma Masjid, NH 220, Mangad, Kollam, Kerala 691004",Mangad,"WJ28+VXC, NH 220",Kollam,691004,Kerala,IN,https://www.google.com/maps/place/Kilikolloor+Juma+Masjid/data=!4m7!3m6!1s0x3b05fd1fee3aaaab:0x9aeb173a43898703!8m2!3d8.9021924!4d76.6173982!16s%2Fg%2F11sscsgfvm!19sChIJq6o67h_9BTsRA4eJQzoX65o?authuser=0&hl=en&rclk=1,"8.902192399999999,76.6173982"
Muhiyadeen Masjid,Mosque,"VJV7+8M7 Muhiyadeen Masjid, Bavana Nagar, Kollam, Kerala 691019",Bavana Nagar,VJV7+8M7,Kollam,691019,Kerala,IN,https://www.google.com/maps/place/Muhiyadeen+Masjid/data=!4m7!3m6!1s0x3b05fd269575c939:0xa20f14bb22e1ff4!8m2!3d8.8932068!4d76.6141372!16s%2Fg%2F11g0lb4g5f!19sChIJOcl1lSb9BTsR9B8uskvxIAo?authuser=0&hl=en&rclk=1,"8.8932068,76.6141372"
Thangassery Masjid,Mosque,"VHHM+QX6 Thangassery Masjid, Vaddy-Pallithottam Rd, Jonaka Puram, Thamarakulam, Kollam, Kerala 691006","Jonaka Puram, Thamarakulam","VHHM+QX6, Vaddy-Pallithottam Rd",Kollam,691006,Kerala,IN,https://www.google.com/maps/place/Thangassery+Masjid/data=!4m7!3m6!1s0x3b05fc5d4287fbf3:0x5c1c70faf65aaace!8m2!3d8.8794039!4d76.5849!16s%2Fg%2F1pyqtxxnw!19sChIJ8_uHQl38BTsRzqpa9vpwHFw?authuser=0&hl=en&rclk=1,"8.8794039,76.58489999999999"
Noohkanne labba masjid,Mosque,"Noohkanne labba masjid, 212, PO, Zamzam Nagar, Vadakkevila, Kollam, Kerala 691010","Zamzam Nagar, Vadakkevila","212, PO",Kollam,691010,Kerala,IN,https://www.google.com/maps/place/Noohkanne+labba+masjid/data=!4m7!3m6!1s0x3b05fd9b50368981:0x652afafdb32d0e5c!8m2!3d8.8711392!4d76.6282649!16s%2Fg%2F11v18ykrxl!19sChIJgYk2UJv9BTsRXA4ts_36KmU?authuser=0&hl=en&rclk=1,"8.8711392,76.62826489999999"
Abdul Azeez Musliyar memorial masjid,Mosque,"Abdul Azeez Musliyar memorial masjid, Ayathil, Kottamkara, Kollam, Kerala 691577",Ayathil,,"Kottamkara, Kollam",691577,Kerala,IN,https://www.google.com/maps/place/Abdul+Azeez+Musliyar+memorial+masjid/data=!4m7!3m6!1s0x3b05fdc25d747b65:0xdb620d69b77bc4b0!8m2!3d8.9002904!4d76.6355689!16s%2Fg%2F11j7j3yvgj!19sChIJZXt0XcL9BTsRsMR7t2kNYts?authuser=0&hl=en&rclk=1,"8.9002904,76.6355689"
Hidayathul Islam Masjid Madrasa,Mosque,"VJCC+422 Hidayathul Islam Masjid Madrasa, Kadambattu Thaikavu - Kavalpura Rd, Eravipuram, Kollam, Kerala 691021",Eravipuram,"VJCC+422, Kadambattu Thaikavu - Kavalpura Rd",Kollam,,Kerala,IN,https://www.google.com/maps/place/Hidayathul+Islam+Masjid+Madrasa/data=!4m7!3m6!1s0x3b05fde24d84b63b:0x5ac192c059bc7820!8m2!3d8.8702518!4d76.6200142!16s%2Fg%2F11v5dmy9bn!19sChIJO7aETeL9BTsRIHi8WcCSwVo?authuser=0&hl=en&rclk=1,"8.8702518,76.6200142"
Mannamala masjid,Mosque,"Mannamala masjid, Universal Nagar 54 A, Kilikolloor, Karicode, Peroor, Kerala 691005","Karicode, Peroor","Universal Nagar 54 A, Kilikolloor",,691005,Kerala,IN,https://www.google.com/maps/place/Mannamala+masjid/data=!4m7!3m6!1s0x3b05fddc9826a323:0x76496b39d4aab561!8m2!3d8.9064439!4d76.6268926!16s%2Fg%2F11fsk9dnrp!19sChIJI6MmmNz9BTsRYbWq1DlrSXY?authuser=0&hl=en&rclk=1,"8.9064439,76.62689259999999"
Minnar Masjid,Mosque,"VHMH+3FF Minnar Masjid, Jonaka Puram, Thangassery, Kollam, Kerala 691013","Jonaka Puram, Thangassery",VHMH+3FF,Kollam,691013,Kerala,IN,https://www.google.com/maps/place/Minnar+Masjid/data=!4m7!3m6!1s0x3b05fc43e93016e1:0xb2392a82b50b07d0!8m2!3d8.882678!4d76.578672!16s%2Fg%2F1pyqfms2z!19sChIJ4RYw6UP8BTsR0AcLtYIqObI?authuser=0&hl=en&rclk=1,"8.882678,76.578672"
Masjid,Mosque,"VHJR+QVJ Masjid, Mundakkal Village, Kollam, Kerala 691001",Mundakkal Village,VHJR+QVJ,Kollam,691001,Kerala,IN,https://www.google.com/maps/place/Masjid/data=!4m7!3m6!1s0x3b05fd4de3b577dd:0xcb981f2e0c98e064!8m2!3d8.882191!4d76.5922803!16s%2Fg%2F11tfn2h6kx!19sChIJ3Xe14039BTsRZOCYDC4fmMs?authuser=0&hl=en&rclk=1,"8.882190999999999,76.5922803"
Rahma Masjid,Mosque,"Rahma Masjid, Bavana Nagar, Kollam, Kerala 691019",Bavana Nagar,,Kollam,,Kerala,IN,https://www.google.com/maps/place/Rahma+Masjid/data=!4m7!3m6!1s0x3b05fce6f5c48db7:0x8274e9ee23c58845!8m2!3d8.8932118!4d76.6141396!16s%2Fg%2F11g02thtxy!19sChIJt43E9eb8BTsRRYjFI-7pdII?authuser=0&hl=en&rclk=1,"8.8932118,76.6141396"
Masjid ahlusunnah,Mosque,"WJ4W+98F Masjid ahlusunnah, Peroor, Kottamkara, Kollam, Kerala 691004",Peroor,WJ4W+98F,"Kottamkara, Kollam",691004,Kerala,IN,https://www.google.com/maps/place/Masjid+ahlusunnah/data=!4m7!3m6!1s0x3b05e35e9b3aab05:0x3e61b4d5aee4c20c!8m2!3d8.9059487!4d76.6457953!16s%2Fg%2F11t_h_gzrq!19sChIJBas6m17jBTsRDMLkrtW0YT4?authuser=0&hl=en&rclk=1,"8.9059487,76.6457953"
mundaykkal masjidh,Mosque,"VJH4+HJQ mundaykkal masjidh, Polayathodu, Kollam, Kerala 691010",Polayathodu,VJH4+HJQ,Kollam,691010,Kerala,IN,https://www.google.com/maps/place/mundaykkal+masjidh/data=!4m7!3m6!1s0x3b05fd506e3b3ebb:0xa2d2f6bbde679d9b!8m2!3d8.878955!4d76.6065982!16s%2Fg%2F11h2nn8myk!19sChIJuz47blD9BTsRm51n3rv20qI?authuser=0&hl=en&rclk=1,"8.878955,76.6065982"
Poovanpuzha masjid,Mosque,"WH85+F65 Poovanpuzha masjid, Kannimel East, Kollam, Kerala 691003",Kannimel East,WH85+F65,Kollam,691003,Kerala,IN,https://www.google.com/maps/place/Poovanpuzha+masjid/data=!4m7!3m6!1s0x3b05fdfbc68e9293:0x6e482abed3278011!8m2!3d8.916648!4d76.5570715!16s%2Fg%2F11kj1182l5!19sChIJk5KOxvv9BTsREYAn074qSG4?authuser=0&hl=en&rclk=1,"8.916648,76.55707149999999"
Quwath ul Islam masjid mullukadu,Mosque,"VJXM+5FP Quwath ul Islam masjid mullukadu, Ayathil, Kottamkara, Kollam, Kerala 691577",Ayathil,VJXM+5FP,"Kottamkara, Kollam",691577,Kerala,IN,https://www.google.com/maps/place/Quwath+ul+Islam+masjid+mullukadu/data=!4m7!3m6!1s0x3b05fd877980c15d:0x690f13edd45a385!8m2!3d8.8979411!4d76.6337462!16s%2Fg%2F11l2ymn2fs!19sChIJXcGAeYf9BTsRhaNF3T7xkAY?authuser=0&hl=en&rclk=1,"8.897941099999999,76.63374619999999"
Pipe company masjid,Mosque,"WJ2P+26V Pipe company masjid, Ayathil, Kollam, Kerala 691577",Ayathil,WJ2P+26V,Kollam,691577,Kerala,IN,https://www.google.com/maps/place/Pipe+company+masjid/data=!4m7!3m6!1s0x3b05fd92a023f003:0x9ef74a479dcab8c6!8m2!3d8.9001053!4d76.6355441!16s%2Fg%2F11fqsh0jh3!19sChIJA_AjoJL9BTsRxrjKnUdK954?authuser=0&hl=en&rclk=1,"8.9001053,76.63554409999999"
Masjidul Fatah,Mosque,"Masjidul Fatah, 172, Orient Nagar Rd, Ammannada, Kollam, Kerala 691021",Ammannada,"172, Orient Nagar Rd",Kollam,691021,Kerala,IN,https://www.google.com/maps/place/Masjidul+Fatah/data=!4m7!3m6!1s0x3b05fd3a9f55c965:0x1a784a7cb55f7e7c!8m2!3d8.8915268!4d76.612883!16s%2Fg%2F11q946lp4q!19sChIJZclVnzr9BTsRfH5ftXxKeBo?authuser=0&hl=en&rclk=1,"8.8915268,76.612883"
Mampuzha Masjid,Mosque,"Mampuzha Masjid, Alummoodu p o, Mampuzha, Kollam, Kerala 691577",,"Alummoodu p o, Mampuzha","Kollam, Mampuzha",691577,Kerala,IN,https://www.google.com/maps/place/Mampuzha+Masjid/data=!4m7!3m6!1s0x3b05e32f697babfd:0x82b3bb4543e1ce61!8m2!3d8.9235688!4d76.654424!16s%2Fg%2F11rzfvdl5b!19sChIJ_at7aS_jBTsRYc7hQ0W7s4I?authuser=0&hl=en&rclk=1,"8.9235688,76.65442399999999"
taikkaav,Mosque,"VJXM+5FP taikkaav, Ayathil, Kottamkara, Kollam, Kerala 691577",Ayathil,VJXM+5FP,"Kottamkara, Kollam",691577,Kerala,IN,https://www.google.com/maps/place/%E0%B4%A4%E0%B5%88%E0%B4%95%E0%B5%8D%E0%B4%95%E0%B4%BE%E0%B4%B5%E0%B5%8D/data=!4m7!3m6!1s0x3b05fd6f9cdd516d:0x3689b3dfc297b61e!8m2!3d8.8979721!4d76.6337066!16s%2Fg%2F11lh6g0z16!19sChIJbVHdnG_9BTsRHraXwt-ziTY?authuser=0&hl=en&rclk=1,"8.897972099999999,76.6337066"
Quathibiya Masjid Mylapure Kollam,Mosque,"VJGX+2GR Quathibiya Masjid Mylapure Kollam, Umayanalloor, Thazhuthala, Kerala 691020",Umayanalloor,VJGX+2GR,Thazhuthala,691020,Kerala,IN,https://www.google.com/maps/place/Quathibiya+Masjid+Mylapure+Kollam/data=!4m7!3m6!1s0x3b05e34ec94340b9:0xdfec6c9b59874721!8m2!3d8.8751074!4d76.6487789!16s%2Fg%2F1yfdq_qql!19sChIJuUBDyU7jBTsRIUeHWZts7N8?authuser=0&hl=en&rclk=1,"8.8751074,76.6487789"
Prayer hall,Mosque,"Prayer hall, RP Mall, Salem - Kochi Hwy, Taluk Kachery, Kollam, Kerala 691001",Taluk Kachery,"RP Mall, Salem - Kochi Hwy",Kollam,691001,Kerala,IN,https://www.google.com/maps/place/Prayer+hall/data=!4m7!3m6!1s0x3b05fd66a5861f69:0xb788079117bca083!8m2!3d8.8897821!4d76.5858082!16s%2Fg%2F11t2w4kp3t!19sChIJaR-GpWb9BTsRg6C8F5EHiLc?authuser=0&hl=en&rclk=1,"8.8897821,76.5858082"
Sheikhuna Uppa Maqbara,Mosque,"Sheikhuna Uppa Maqbara, Shahu manzil, Skn 32, Vadakkevila, Kollam, Kerala 691021",Vadakkevila,"Shahu manzil, Skn 32",Kollam,691021,Kerala,IN,https://www.google.com/maps/place/Sheikhuna+Uppa+Maqbara/data=!4m7!3m6!1s0x3b05fd62048a0199:0xf5bc82db4016aedd!8m2!3d8.8788924!4d76.631091!16s%2Fg%2F11q4wq3j0t!19sChIJmQGKBGL9BTsR3a4WQNuCvPU?authuser=0&hl=en&rclk=1,"8.8788924,76.631091"
