name,main_category,address,address_ward,address_street,address_city,address_postal_code,address_state,address_country_code,link,coordinates
Jama Masjid,Mosque,"Jama Masjid, Old Delhi, Delhi, 110006","Jama Masjid, Old Delhi",,Delhi,110006,Delhi,IN,https://www.google.com/maps/place/Jama+Masjid/data=!4m7!3m6!1s0x390cfd18df89b215:0xdd57369e29bf9d96!8m2!3d28.6506792!4d77.2334421!16zL20vMDR5emo1!19sChIJFbKJ3xj9DDkRlp2_KZ42V90?authuser=0&hl=en&rclk=1,"28.6506792,77.23344209999999"
"BARI MASJID,AURAIYA",Mosque,"BARI MASJID,AURAIYA, Dhaka - Bairgania Rd, Dhaka, Bihar 845418",,Dhaka - Bairgania Rd,Dhaka,845418,Bihar,IN,"https://www.google.com/maps/place/BARI+MASJID,AURAIYA/data=!4m7!3m6!1s0x39ecc0cce417ed0d:0x2944952307d8d76d!8m2!3d26.6836847!4d85.1911037!16s%2Fg%2F11gglq9bfx!19sChIJDe0X5MzA7DkRbdfYByOVRCk?authuser=0&hl=en&rclk=1","26.683684699999997,85.1911037"
JAMA MASJID,Mosque,"P65V+VGC JAMA MASJID, Dist. Motihari, Dhaka - Bairgania Rd, Chandanbara, Bihar 845304",,"P65V+VGC, Dist. Motihari, Dhaka - Bairgania Rd",Chandanbara,845304,Bihar,IN,https://www.google.com/maps/place/JAMA+MASJID/data=!4m7!3m6!1s0x39ecc070e1e45a73:0xa5186e875744c97b!8m2!3d26.7096788!4d85.2437684!16s%2Fg%2F11ggt0vdn2!19sChIJc1rk4XDA7DkRe8lEV4duGKU?authuser=0&hl=en&rclk=1,"26.7096788,85.2437684"
"Badi Masjid,Bisrahiya",Mosque,"M5Q8+GGP Badi Masjid,Bisrahiya, Dhaka, Bihar 845418",,M5Q8+GGP,Dhaka,845418,Bihar,IN,"https://www.google.com/maps/place/Badi+Masjid,Bisrahiya/data=!4m7!3m6!1s0x39ecc77e7c5bff3d:0xf70ec6ca4205974!8m2!3d26.6888261!4d85.1663372!16s%2Fg%2F11f62sgpll!19sChIJPf9bfH7H7DkRdFkgpGzscA8?authuser=0&hl=en&rclk=1","26.6888261,85.1663372"
Jumma Masjid,Mosque,"P7Q8+R8M Jumma Masjid, Bairgania, Bihar",,P7Q8+R8M,Bairgania,,Bihar,IN,https://www.google.com/maps/place/Jumma+Masjid/data=!4m7!3m6!1s0x39ecbfe73fc4a29b:0xe3c1d9882430d5c7!8m2!3d26.7395871!4d85.2658039!16s%2Fg%2F11g6xp0ffb!19sChIJm6LEP-e_7DkRx9UwJIjZweM?authuser=0&hl=en&rclk=1,"26.739587099999998,85.2658039"
Jama Masjid Bhakurahar,Mosque,"Bhakurahar, P7VP+RFH Jama Masjid Bhakurahar, Bairgania, Bihar 843313",,"Bhakurahar, P7VP+RFH",Bairgania,843313,Bihar,IN,https://www.google.com/maps/place/Jama+Masjid+Bhakurahar/data=!4m7!3m6!1s0x39ec95814b468021:0x6c6dea34157c115a!8m2!3d26.7451459!4d85.2863231!16s%2Fg%2F11k06fpscc!19sChIJIYBGS4GV7DkRWhF8FTTqbWw?authuser=0&hl=en&rclk=1,"26.745145899999997,85.28632309999999"
"Islamia Jama Masjid "" Barwa Tola""",Mosque,"M7HM+7MC Islamia Jama Masjid "" Barwa Tola"", Barwa Tola, Bairgania, Bihar 843313",,"M7HM+7MC, Barwa Tola","Bairgania, Patahi",843313,Bihar,IN,https://www.google.com/maps/place/Islamia+Jama+Masjid+%22+Barwa+Tola%22/data=!4m7!3m6!1s0x39eceb396db61293:0x74a3c5ca58c208e5!8m2!3d26.6781863!4d85.2841354!16s%2Fg%2F11fppbzr0n!19sChIJkxK2bTnr7DkR5QjCWMrFo3Q?authuser=0&hl=en&rclk=1,"26.6781863,85.2841354"
Chhoti Masjid Bairgania,Mosque,"P7QG+HQ7 Chhoti Masjid Bairgania, Bairgania - Sitamarhi Rd, Bairgania, Bihar",,"P7QG+HQ7, Bairgania - Sitamarhi Rd",Bairgania,,Bihar,IN,https://www.google.com/maps/place/Chhoti+Masjid+Bairgania/data=!4m7!3m6!1s0x39ec954d7a4c4ae5:0x3087518e0f9983fe!8m2!3d26.7389051!4d85.2769296!16s%2Fg%2F11kmqprv0y!19sChIJ5UpMek2V7DkR_oOZD45RhzA?authuser=0&hl=en&rclk=1,"26.7389051,85.2769296"
Masjid,Mosque,"P7QF+W6X Masjid, Dhaka - Bairgania Rd, Bairgania, Bihar",,"P7QF+W6X, Dhaka - Bairgania Rd",Bairgania,,Bihar,IN,https://www.google.com/maps/place/Masjid/data=!4m7!3m6!1s0x39ec955f910f2727:0x28ff881c1079c1a1!8m2!3d26.7398634!4d85.2731147!16s%2Fg%2F11hbg9pk_y!19sChIJJycPkV-V7DkRocF5EByI_yg?authuser=0&hl=en&rclk=1,"26.739863399999997,85.2731147"
Jama masjid gowabari,Mosque,"Q63X+6FG Jama masjid gowabari, Guabari Main Road, Balua Gowabari, Bihar",,"Q63X+6FG, Guabari Main Road",Balua Gowabari,,Bihar,IN,https://www.google.com/maps/place/Jama+masjid+gowabari/data=!4m7!3m6!1s0x39ecbff37b7fa80f:0x57ca36c5d9d0bb89!8m2!3d26.7530515!4d85.248712!16s%2Fg%2F11q8jvnb1d!19sChIJD6h_e_O_7DkRibvQ2cU2ylc?authuser=0&hl=en&rclk=1,"26.753051499999998,85.248712"
Chhoti Masjid Islampur Bhakurahar,Mosque,"P7VM+5HJ Chhoti Masjid Islampur Bhakurahar, Bairgania - Sitamarhi Rd, Rasulpur Rambhadar urf Chlk, Bairgania, Bihar",,"P7VM+5HJ, Bairgania - Sitamarhi Rd","Rasulpur Rambhadar urf Chlk, Bairgania",,Bihar,IN,https://www.google.com/maps/place/Chhoti+Masjid+Islampur+Bhakurahar/data=!4m7!3m6!1s0x39ec954a72ed29a9:0xb50aacb8c3e4a272!8m2!3d26.7429643!4d85.2838796!16s%2Fg%2F11kmvtlc4p!19sChIJqSntckqV7DkRcqLkw7isCrU?authuser=0&hl=en&rclk=1,"26.742964299999997,85.28387959999999"
Masjid,Mosque,"Masjid, Ward No. 16 Bhakurahar, Bairgania, Bihar",,Ward No. 16 Bhakurahar,Bairgania,,Bihar,IN,https://www.google.com/maps/place/Masjid/data=!4m7!3m6!1s0x39ec951234e4622f:0xa4d325f54b2b64e2!8m2!3d26.7462391!4d85.2843968!16s%2Fg%2F11hh_59k6r!19sChIJL2LkNBKV7DkR4mQrS_Ul06Q?authuser=0&hl=en&rclk=1,"26.7462391,85.2843968"
Madina Masjid,Mosque,"P8V2+R3Q Madina Masjid, Bairgania - Sitamarhi Rd, Musachak, Bihar 843313",,"P8V2+R3Q, Bairgania - Sitamarhi Rd",Musachak,843313,Bihar,IN,https://www.google.com/maps/place/Madina+Masjid/data=!4m7!3m6!1s0x39ec95d062d20cbb:0xa1ec6f7dbe794fa5!8m2!3d26.7445815!4d85.3002453!16s%2Fg%2F11n0lrmfs9!19sChIJuwzSYtCV7DkRpU95vn1v7KE?authuser=0&hl=en&rclk=1,"26.7445815,85.3002453"
SHIVNAGAR MASJID,Mosque,"P7M7+93V SHIVNAGAR MASJID, Dhaka - Bairgania Rd, Bairgania, Bihar 843313",,"P7M7+93V, Dhaka - Bairgania Rd",Bairgania,843313,Bihar,IN,https://www.google.com/maps/place/SHIVNAGAR+MASJID/data=!4m7!3m6!1s0x39ecbf732c3b7859:0x3608477edf0bf37b!8m2!3d26.7334901!4d85.2626674!16s%2Fg%2F11hmq2bcpy!19sChIJWXg7LHO_7DkRe_ML335HCDY?authuser=0&hl=en&rclk=1,"26.733490099999997,85.2626674"
Chhoti Masjid Bhakurahar,Mosque,"Chhoti Masjid Bhakurahar, Ward No.15 Bhakurahar, Bairgania - Sitamarhi Rd, Bairgania, Bihar 843313",,"Ward No.15 Bhakurahar, Bairgania - Sitamarhi Rd",Bairgania,843313,Bihar,IN,https://www.google.com/maps/place/Chhoti+Masjid+Bhakurahar/data=!4m7!3m6!1s0x39ec951884cbed0d:0xc0c65bc1f360199c!8m2!3d26.7465077!4d85.2874102!16s%2Fg%2F11jq03twkb!19sChIJDe3LhBiV7DkRnBlg88FbxsA?authuser=0&hl=en&rclk=1,"26.7465077,85.2874102"
Masjid Bilal Azad Nagar Bhakurahar,Mosque,"Masjid Bilal Azad Nagar Bhakurahar, Ward No. 16 Bhakurahar, Bairgania, Bihar",,Ward No. 16 Bhakurahar,Bairgania,,Bihar,IN,https://www.google.com/maps/place/Masjid+Bilal+Azad+Nagar+Bhakurahar/data=!4m7!3m6!1s0x39ec95505cfffa9b:0x79e077310e79cff7!8m2!3d26.7462391!4d85.2843968!16s%2Fg%2F11kx29rd91!19sChIJm_r_XFCV7DkR9895DjF34Hk?authuser=0&hl=en&rclk=1,"26.7462391,85.2843968"
Masjid shekhouna,Mosque,"P7HH+448 Masjid shekhouna, Shekhouna, Bairgania, Bihar 843313",,P7HH+448,"Shekhouna, Bairgania",843313,Bihar,IN,https://www.google.com/maps/place/Masjid+shekhouna/data=!4m7!3m6!1s0x39ec959a009e0e65:0x873c95bb5a7c30ab!8m2!3d26.7277811!4d85.2778302!16s%2Fg%2F11q1vrld1x!19sChIJZQ6eAJqV7DkRqzB8WruVPIc?authuser=0&hl=en&rclk=1,"26.727781099999998,85.2778302"
"MAULANA CHAWK, Choti Masjid",Mosque,"MAULANA CHAWK, Choti Masjid, Choti Masjid, Bhakurahar, Bairgania, Bihar",Bhakurahar,Choti Masjid,Bairgania,,Bihar,IN,"https://www.google.com/maps/place/MAULANA+CHAWK,+Choti+Masjid/data=!4m7!3m6!1s0x39ec95d3296b5005:0x1c2a6a2784ab3843!8m2!3d26.7456034!4d85.2873901!16s%2Fg%2F11tj683cxy!19sChIJBVBrKdOV7DkRQzirhCdqKhw?authuser=0&hl=en&rclk=1","26.7456034,85.2873901"
Bilardhe Masjid,Mosque,"M7P5+HM4 Bilardhe Masjid, Bilardhe, po.jamua, ps, Dist, Bairgania, Bihar 843313",,"M7P5+HM4, Bilardhe, po.jamua, ps, Dist","Bairgania, Pachtaki Yadu",843313,Bihar,IN,https://www.google.com/maps/place/Bilardhe+Masjid/data=!4m7!3m6!1s0x39ecc1d386d2f8bb:0x1ee3c69193859a5d!8m2!3d26.6863832!4d85.259206!16s%2Fg%2F11s55gkyw_!19sChIJu_jShtPB7DkRXZqFk5HG4x4?authuser=0&hl=en&rclk=1,"26.686383199999998,85.25920599999999"
Chamda Godam Masjid,Mosque,"Chamda Godam Masjid, Chamda Godam, Bairgania, Bihar 843313",,Chamda Godam,Bairgania,843313,Bihar,IN,https://www.google.com/maps/place/Chamda+Godam+Masjid/data=!4m7!3m6!1s0x39ec9569ccb6e4b3:0x4236b7c10dc565f3!8m2!3d26.7435393!4d85.2777918!16s%2Fg%2F11tt0mfd6n!19sChIJs-S2zGmV7DkR82XFDcG3NkI?authuser=0&hl=en&rclk=1,"26.7435393,85.2777918"
