name,main_category,address,address_ward,address_street,address_city,address_postal_code,address_state,address_country_code,link,coordinates
Sakkarakottai Mosque,Mosque,"9R3V+QVC Sakkarakottai Mosque, Sakkarakottai P.O, Sakkarakottai, Tamil Nadu 623504",,"9R3V+QVC, Sakkarakottai P.O","Sakkarakottai, Ramanathapuram",623504,Tamil Nadu,IN,https://www.google.com/maps/place/Sakkarakottai+Mosque/data=!4m7!3m6!1s0x3b0197f0d81e8427:0xb49cfc11992eebf6!8m2!3d9.3544275!4d78.8446374!16s%2Fg%2F1vbl5_xr!19sChIJJ4Qe2PCXATsR9usumRH8nLQ?authuser=0&hl=en&rclk=1,"9.3544275,78.8446374"
Masjid Takwa Muslim Jamath,Mosque,"9R6R+VJ6 Masjid Takwa Muslim Jamath, Sivagnanapuram Road, Vasantha Nagar, Ramanathapuram, Tamil Nadu 623504",Vasantha Nagar,"9R6R+VJ6, Sivagnanapuram Road",Ramanathapuram,623504,Tamil Nadu,IN,https://www.google.com/maps/place/Masjid+Takwa+Muslim+Jamath/data=!4m7!3m6!1s0x3b0197f92c2e3bf7:0x7bf7db9109b6cf7c!8m2!3d9.3621666!4d78.8415237!16s%2Fg%2F11f_p27gl3!19sChIJ9zsuLPmXATsRfM-2CZHb93s?authuser=0&hl=en&rclk=1,"9.3621666,78.8415237"
Perungulam Jummah Masjid,Mosque,"8WPW+H82 Perungulam Jummah Masjid, PERUNGULAM Ramanathapuram Tamil Nadu 623536 India, Ramanathapuram, Tamil Nadu 623536",Ramanathapuram,"8WPW+H82, PERUNGULAM Ramanathapuram Tamil Nadu 623536 India",Perungulam,623536,Tamil Nadu,IN,https://www.google.com/maps/place/Perungulam+Jummah+Masjid/data=!4m7!3m6!1s0x3b0195c9a46b7225:0x4ead1b878a7d6a63!8m2!3d9.3348237!4d78.9490796!16s%2Fg%2F1tlk9tkm!19sChIJJXJrpMmVATsRY2p9iocbrU4?authuser=0&hl=en&rclk=1,"9.3348237,78.94907959999999"
Ramalan Nagar Masjid,Mosque,"9VHC+3J6 Ramalan Nagar Masjid, Ramalannagar, Ramanathapuram, Thiruvolhiyakalugoorani, Tamil Nadu 623504",,"9VHC+3J6, Ramalannagar","Ramanathapuram, Thiruvolhiyakalugoorani",623504,Tamil Nadu,IN,https://www.google.com/maps/place/Ramalan+Nagar+Masjid/data=!4m7!3m6!1s0x3b01bd65255bd83f:0x2d5018b98ee71a!8m2!3d9.3776625!4d78.8715156!16s%2Fg%2F11f4zzl31l!19sChIJP9hbJWW9ATsRGueOuRhQLQA?authuser=0&hl=en&rclk=1,"9.3776625,78.8715156"
Khan Sahib Street masjidun noor juma pallivasal,Mosque,"9R8V+4MJ Khan Sahib Street masjidun noor juma pallivasal, Khan saheb street, Velipattinam, Ramanathapuram, Tamil Nadu 623504",Velipattinam,"9R8V+4MJ, Khan saheb street",Ramanathapuram,623504,Tamil Nadu,IN,https://www.google.com/maps/place/Khan+Sahib+Street+masjidun+noor+juma+pallivasal/data=!4m7!3m6!1s0x3b0197fdd4e84ff5:0x987627bbbbe43908!8m2!3d9.3653262!4d78.844156!16s%2Fg%2F1vjdnhc7!19sChIJ9U_o1P2XATsRCDnku7sndpg?authuser=0&hl=en&rclk=1,"9.3653262,78.844156"
chinna muhallam muhaideen aandavar jumma pallivasal,Mosque,"chinna muhallam muhaideen aandavar jumma pallivasal, 2, Kollam Pattirai St, Velipattinam, Ramanathapuram, Tamil Nadu 623504",Velipattinam,"2, Kollam Pattirai St",Ramanathapuram,623504,Tamil Nadu,IN,https://www.google.com/maps/place/chinna+muhallam+muhaideen+aandavar+jumma+pallivasal/data=!4m7!3m6!1s0x3b0197ff194f93f5:0x8204f104e671d10e!8m2!3d9.3640519!4d78.8407016!16s%2Fg%2F1tc_v09y!19sChIJ9ZNPGf-XATsRDtFx5gTxBII?authuser=0&hl=en&rclk=1,"9.3640519,78.8407016"
Central Masjid & Islamic Center,Mosque,"9R5Q+R48 Central Masjid & Islamic Center, Vasantha Nagar, Ramanathapuram, Tamil Nadu 623504",Vasantha Nagar,9R5Q+R48,Ramanathapuram,623504,Tamil Nadu,IN,https://www.google.com/maps/place/Central+Masjid+%26+Islamic+Center/data=!4m7!3m6!1s0x3b0197f8f5aaaaa9:0x37bd26d0a6bb8c08!8m2!3d9.3595267!4d78.837842!16s%2Fg%2F11c6f57fgr!19sChIJqaqq9fiXATsRCIy7ptAmvTc?authuser=0&hl=en&rclk=1,"9.3595267,78.837842"
"Jummah Mosque, Sathankulam",Mosque,"8VJW+6MX Jummah Mosque, Sathankulam, Tamil Nadu 623536",,8VJW+6MX,,623536,Tamil Nadu,IN,"https://www.google.com/maps/place/Jummah+Mosque,+Sathankulam/data=!4m7!3m6!1s0x3b01965991beeb61:0x1b47d588e46a4bff!8m2!3d9.3306095!4d78.8967463!16s%2Fg%2F119vd64mz!19sChIJYeu-kVmWATsR_0tq5IjVRxs?authuser=0&hl=en&rclk=1","9.3306095,78.89674629999999"
'Abdul Baari Aalim Appa' Jumma Masjid,Mosque,"'Abdul Baari Aalim Appa' Jumma Masjid, 1/1043, Madurai-Rameswaram Rd, Bharathi Nagar, Ramanathapuram, Tamil Nadu 623503",Bharathi Nagar,"1/1043, Madurai-Rameswaram Rd",Ramanathapuram,623503,Tamil Nadu,IN,https://www.google.com/maps/place/%27%27Abdul+Baari+Aalim+Appa%27+Jumma+Masjid%27/data=!4m7!3m6!1s0x3b0197fbe6392d97:0xbe9779caed0cddf2!8m2!3d9.3614246!4d78.8446523!16s%2Fg%2F11b6sg_t2w!19sChIJly055vuXATsR8t0M7cp5l74?authuser=0&hl=en&rclk=1,"9.3614246,78.84465229999999"
Masjid Bilal,Mosque,"9R8Q+7V9 Masjid Bilal, Chinnakkadai St, Vasantha Nagar, Ramanathapuram, Tamil Nadu 623504",Vasantha Nagar,"9R8Q+7V9, Chinnakkadai St",Ramanathapuram,,Tamil Nadu,IN,https://www.google.com/maps/place/Masjid+Bilal/data=!4m7!3m6!1s0x3b0197ffa2ed673b:0xe9df3296709e17f0!8m2!3d9.3656678!4d78.83973!16s%2Fg%2F11g9f5kgzk!19sChIJO2ftov-XATsR8BeecJYy3-k?authuser=0&hl=en&rclk=1,"9.365667799999999,78.83973"
SAYYADINA ABUBAKAR SIDDIQUE (RALI) MOSQUE,Mosque,"9V93+4C8 SAYYADINA ABUBAKAR SIDDIQUE (RALI) MOSQUE, Sethupathynagar Valagam Rd, Vaigai Nagar, Ramanathapuram, Tamil Nadu 623503",Vaigai Nagar,"9V93+4C8, Sethupathynagar Valagam Rd",Ramanathapuram,623503,Tamil Nadu,IN,https://www.google.com/maps/place/SAYYADINA+ABUBAKAR+SIDDIQUE+%28RALI%29+MOSQUE/data=!4m7!3m6!1s0x3b01bd5893d61627:0x41c842ad267de693!8m2!3d9.3677754!4d78.8535628!16s%2Fg%2F11b7jfm148!19sChIJJxbWk1i9ATsRk-Z9Jq1CyEE?authuser=0&hl=en&rclk=1,"9.3677754,78.85356279999999"
"Sunnath Jamaath Masjid, Melakkottai",Mosque,"9VF9+VHF Sunnath Jamaath Masjid, Melakkottai, Pallivasal St, D.D. Vinayagar, Mellakottai, Thiruvolhiyakalugoorani, Tamil Nadu 623504",D.D. Vinayagar,"9VF9+VHF, Pallivasal St","Mellakottai, Thiruvolhiyakalugoorani",623504,Tamil Nadu,IN,"https://www.google.com/maps/place/Sunnath+Jamaath+Masjid,+Melakkottai/data=!4m7!3m6!1s0x3b01bd647bc77b53:0xce1490ce1a94e1ef!8m2!3d9.374682!4d78.8689347!16s%2Fg%2F11g9q31z8p!19sChIJU3vHe2S9ATsR7-GUGs6QFM4?authuser=0&hl=en&rclk=1","9.374682,78.8689347"
Periya Muhallam colombu alim jumma Masjid,Mosque,"9R8R+9M5 Periya Muhallam colombu alim jumma Masjid, Pallivasal St, Velipattinam, Ramanathapuram, Tamil Nadu 623504",Velipattinam,"9R8R+9M5, Pallivasal St",Ramanathapuram,623504,Tamil Nadu,IN,https://www.google.com/maps/place/Periya+Muhallam+colombu+alim+jumma+Masjid/data=!4m7!3m6!1s0x3b0197fe4fe8fde5:0x934da57b221c4ea5!8m2!3d9.3658935!4d78.8417275!16s%2Fg%2F11bxdv4n2x!19sChIJ5f3oT_6XATsRpU4cInulTZM?authuser=0&hl=en&rclk=1,"9.3658935,78.84172749999999"
Hajiyar Appa Masjid,Mosque,"9R8J+FMR Hajiyar Appa Masjid, Chalai Bazar, Ramanathapuram, Tamil Nadu 623501",Chalai Bazar,9R8J+FMR,Ramanathapuram,623501,Tamil Nadu,IN,https://www.google.com/maps/place/Hajiyar+Appa+Masjid/data=!4m7!3m6!1s0x3b0198074765df91:0xec7ae5d25a544f00!8m2!3d9.366241!4d78.8316471!16s%2Fg%2F11fxvm0_xz!19sChIJkd9lRweYATsRAE9UWtLleuw?authuser=0&hl=en&rclk=1,"9.366240999999999,78.8316471"
"""Chinna Muhallam Qabrustan"" pallivasal",Mosque,"""Chinna Muhallam Qabrustan"" pallivasal, Swami Vivekanandar, Salai St, Chalai Bazar, Ramanathapuram, Tamil Nadu 623501",Chalai Bazar,"Swami Vivekanandar, Salai St",Ramanathapuram,623501,Tamil Nadu,IN,https://www.google.com/maps/place/%22Chinna+Muhallam+Qabrustan%22+pallivasal/data=!4m7!3m6!1s0x3b01a2aa40f76b2f:0xef3ded743506b165!8m2!3d9.3694367!4d78.8338019!16s%2Fg%2F11c6s446gh!19sChIJL2v3QKqiATsRZbEGNXTtPe8?authuser=0&hl=en&rclk=1,"9.3694367,78.8338019"
Bharathi Nagar Centralised Mosque,Mosque,"9V62+W6M Bharathi Nagar Centralised Mosque, NH 49, Bharathi Nagar, Ramanathapuram, Tamil Nadu 623503",Bharathi Nagar,"9V62+W6M, NH 49",Ramanathapuram,623503,Tamil Nadu,IN,https://www.google.com/maps/place/Bharathi+Nagar+Centralised+Mosque/data=!4m7!3m6!1s0x3b0197e48bf1e171:0xc459d214bcd85761!8m2!3d9.3623449!4d78.8505486!16s%2Fg%2F1v82_jlh!19sChIJceHxi-SXATsRYVfYvBTSWcQ?authuser=0&hl=en&rclk=1,"9.3623449,78.8505486"
Periya Muhallam Grave Masjid,Mosque,"9RCJ+HM3 Periya Muhallam Grave Masjid, Faisal Nagar, Ramanathapuram, Tamil Nadu 623501",Faisal Nagar,9RCJ+HM3,Ramanathapuram,623501,Tamil Nadu,IN,https://www.google.com/maps/place/Periya+Muhallam+Grave+Masjid/data=!4m7!3m6!1s0x3b01a2a96930b27d:0x8c12fa9879ba77f2!8m2!3d9.3713969!4d78.8316612!16s%2Fg%2F11c6s2nks6!19sChIJfbIwaamiATsR8ne6eZj6Eow?authuser=0&hl=en&rclk=1,"9.371396899999999,78.8316612"
Paasipattarai muhaideen aandavar masjid,Mosque,"9R7Q+9R2 Paasipattarai muhaideen aandavar masjid, Pullikara St, Velipattinam, Ramanathapuram, Tamil Nadu 623504",Velipattinam,"9R7Q+9R2, Pullikara St",Ramanathapuram,623504,Tamil Nadu,IN,https://www.google.com/maps/place/Paasipattarai+muhaideen+aandavar+masjid/data=!4m7!3m6!1s0x3b01973910ee9b3f:0x84997f4c2bc253de!8m2!3d9.3633772!4d78.839524!16s%2Fg%2F11h12sfy5d!19sChIJP5vuEDmXATsR3lPCK0x_mYQ?authuser=0&hl=en&rclk=1,"9.3633772,78.839524"
masjid rahmaniah,Mosque,"9R8P+X7P masjid rahmaniah, Chalai Bazar, Kenikarai, Ramanathapuram, Tamil Nadu 623501",Chalai Bazar,9R8P+X7P,"Kenikarai, Ramanathapuram",623501,Tamil Nadu,IN,https://www.google.com/maps/place/masjid+rahmaniah/data=!4m7!3m6!1s0x3b0198007ec25e97:0xb95c64327ffac1f7!8m2!3d9.3674727!4d78.835705!16s%2Fg%2F11g022p26v!19sChIJl17CfgCYATsR98H6fzJkXLk?authuser=0&hl=en&rclk=1,"9.3674727,78.83570499999999"
Syed Ammal Masjid,Mosque,"9RCR+V96 Syed Ammal Masjid, D.D. Vinayagar, Ramanathapuram, Tamil Nadu 623504",D.D. Vinayagar,9RCR+V96,Ramanathapuram,623504,Tamil Nadu,IN,https://www.google.com/maps/place/Syed+Ammal+Masjid/data=!4m7!3m6!1s0x3b01bd548bae7255:0x49f34f974ebe1e90!8m2!3d9.3721665!4d78.8408944!16s%2Fg%2F11c2nc7jf3!19sChIJVXKui1S9ATsRkB6-TpdP80k?authuser=0&hl=en&rclk=1,"9.372166499999999,78.8408944"
TNTJ Market Bazar,Mosque,"9R9H+JF6 TNTJ Market Bazar, Unnamed Road, Gobilthankavelu, Ramanathapuram, Tamil Nadu 623501",Gobilthankavelu,"9R9H+JF6, Unnamed Road",Ramanathapuram,623501,Tamil Nadu,IN,https://www.google.com/maps/place/TNTJ+Market+Bazar/data=!4m7!3m6!1s0x3b01a2a841129617:0xda8144b11c12ae41!8m2!3d9.3690432!4d78.8286516!16s%2Fg%2F11f1n8hk61!19sChIJF5YSQaiiATsRQa4SHLFEgdo?authuser=0&hl=en&rclk=1,"9.3690432,78.8286516"
NABEESA AMMAL MASJID,Mosque,"9V36+7P4 NABEESA AMMAL MASJID, Unnamed Road, Pattinamkattan, Ramanathapuram, Tamil Nadu 623504",Pattinamkattan,"9V36+7P4, Unnamed Road",Ramanathapuram,623504,Tamil Nadu,IN,https://www.google.com/maps/place/NABEESA+AMMAL+MASJID/data=!4m7!3m6!1s0x3b01971b83dfba13:0xc4438676bf933c82!8m2!3d9.3531391!4d78.8618293!16s%2Fg%2F11gx_whyhx!19sChIJE7rfgxuXATsRgjyTv3aGQ8Q?authuser=0&hl=en&rclk=1,"9.3531391,78.8618293"
Masjid Munawwara Nehru Nagar,Mosque,"9R5X+VGW Masjid Munawwara Nehru Nagar, Madurai-Rameswaram Rd, Om Sakthi Nagar, Nehru Nagar, Ramanathapuram, Tamil Nadu 623503","Om Sakthi Nagar, Nehru Nagar","9R5X+VGW, Madurai-Rameswaram Rd",Ramanathapuram,623503,Tamil Nadu,IN,https://www.google.com/maps/place/Masjid+Munawwara+Nehru+Nagar/data=!4m7!3m6!1s0x3b0197fb4e324c2f:0xa2ee120f54008917!8m2!3d9.3597275!4d78.8488206!16s%2Fg%2F11c2pbp1yg!19sChIJL0wyTvuXATsRF4kAVA8S7qI?authuser=0&hl=en&rclk=1,"9.3597275,78.8488206"
Masjid Arrahman,Mosque,"9RFW+82Q Masjid Arrahman, Indira Nagar, Velipattinam, Ramanathapuram, Tamil Nadu 623504","Indira Nagar, Velipattinam",9RFW+82Q,Ramanathapuram,623504,Tamil Nadu,IN,https://www.google.com/maps/place/Masjid+Arrahman/data=!4m7!3m6!1s0x3b01bd0da1c0e615:0x1bd2f5eb9138e78e!8m2!3d9.3733481!4d78.8450964!16s%2Fg%2F11h3ghmtjz!19sChIJFebAoQ29ATsRjuc4kev10hs?authuser=0&hl=en&rclk=1,"9.3733481,78.8450964"
Masjid Easa,Mosque,"9RCH+QVR Masjid Easa, Laxmi Puram, Ramanathapuram, Tamil Nadu 623501",Laxmi Puram,9RCH+QVR,Ramanathapuram,623501,Tamil Nadu,IN,https://www.google.com/maps/place/Masjid+Easa/data=!4m7!3m6!1s0x3b01a2a8d8db2671:0xd8d9fff14e237bcf!8m2!3d9.3719981!4d78.8296341!16s%2Fg%2F11gf9qb005!19sChIJcSbb2KiiATsRz3sjTvH_2dg?authuser=0&hl=en&rclk=1,"9.371998099999999,78.82963409999999"
Kadhar pallivasal mosque,Mosque,"Kadhar pallivasal mosque, 16/2, Aghil kidangu street, Ramanathapuram, Tamil Nadu 623501",,"16/2, Aghil kidangu street",Ramanathapuram,623501,Tamil Nadu,IN,https://www.google.com/maps/place/Kadhar+pallivasal+mosque/data=!4m7!3m6!1s0x3b01a3a6a888b7bb:0x3e663143d7e0f898!8m2!3d9.3684929!4d78.8285146!16s%2Fg%2F11rmxmnsp3!19sChIJu7eIqKajATsRmPjg10MxZj4?authuser=0&hl=en&rclk=1,"9.3684929,78.82851459999999"
"TNTJ MASJID, SAKKARAKOTTAI",Mosque,"9R3X+V9X TNTJ MASJID, SAKKARAKOTTAI, Pasumpon Nagar, Ramanathapuram, Tamil Nadu 623504",Pasumpon Nagar,9R3X+V9X,Ramanathapuram,623504,Tamil Nadu,IN,"https://www.google.com/maps/place/TNTJ+MASJID,+SAKKARAKOTTAI/data=!4m7!3m6!1s0x3b0197652208d8a3:0x92334fabd75a91c0!8m2!3d9.3547441!4d78.8484944!16s%2Fg%2F11hyxk5nrl!19sChIJo9gIImWXATsRwJFa16tPM5I?authuser=0&hl=en&rclk=1","9.3547441,78.84849439999999"
Aruppukaratheru Jummah Masjid,Mosque,"9R6V+V3V Aruppukaratheru Jummah Masjid, Vasantha Nagar, Ramanathapuram, Tamil Nadu 623504",Vasantha Nagar,9R6V+V3V,Ramanathapuram,623504,Tamil Nadu,IN,https://www.google.com/maps/place/Aruppukaratheru+Jummah+Masjid/data=!4m7!3m6!1s0x3b0197713ff5a76b:0x977fa3769cdb7d65!8m2!3d9.3622281!4d78.8426756!16s%2Fg%2F11g0lqg56l!19sChIJa6f1P3GXATsRZX3bnHajf5c?authuser=0&hl=en&rclk=1,"9.3622281,78.84267559999999"
Jumma masjid Nochivayal,Mosque,"9RC8+7R4 Jumma masjid Nochivayal, Nochivayal, Periyar Nagar, Ramanathapuram, Tamil Nadu 623501","Nochivayal, Periyar Nagar",9RC8+7R4,Ramanathapuram,623501,Tamil Nadu,IN,https://www.google.com/maps/place/Jumma+masjid+Nochivayal/data=!4m7!3m6!1s0x3b01a3f03fcc603f:0x4c2df15444ee232b!8m2!3d9.3709577!4d78.8162123!16s%2Fg%2F11rd96vzjx!19sChIJP2DMP_CjATsRKyPuRFTxLUw?authuser=0&hl=en&rclk=1,"9.3709577,78.81621229999999"
tolllukai plllli,Mosque,"9V48+P4R tolllukai plllli, Kadampa Nagar, Ramanathapuram, Tamil Nadu 623503",Kadampa Nagar,9V48+P4R,Ramanathapuram,623503,Tamil Nadu,IN,https://www.google.com/maps/place/%E0%AE%A4%E0%AF%8A%E0%AE%B4%E0%AF%81%E0%AE%95%E0%AF%88+%E0%AE%AA%E0%AE%B3%E0%AF%8D%E0%AE%B3%E0%AE%BF/data=!4m7!3m6!1s0x3b01975f293f9275:0xc9b536a752b17af2!8m2!3d9.3568741!4d78.8652812!16s%2Fg%2F11nxt12qsb!19sChIJdZI_KV-XATsR8nqxUqc2tck?authuser=0&hl=en&rclk=1,"9.356874099999999,78.8652812"
Masjidul Aman jum'aa masjid,Place of worship,"9VG3+952 Masjidul Aman jum'aa masjid, Ramanathapuram, Tamil Nadu 623504",,9VG3+952,Ramanathapuram,,Tamil Nadu,IN,https://www.google.com/maps/place/Masjidul+Aman+jum%27aa+masjid/data=!4m7!3m6!1s0x3b01bd8631f56d89:0xf42774193724a896!8m2!3d9.3758941!4d78.8528834!16s%2Fg%2F11h7cpvf4r!19sChIJiW31MYa9ATsRlqgkNxl0J_Q?authuser=0&hl=en&rclk=1,"9.3758941,78.8528834"
aruppukkaartteru jumaa msjit,Mosque,"9R6V+V3V aruppukkaartteru jumaa msjit, paampuurnni roottu, vellippttttinnm, Ramanathapuram, Tamil Nadu 623504",vellippttttinnm,"9R6V+V3V, paampuurnni roottu",Ramanathapuram,623504,Tamil Nadu,IN,https://www.google.com/maps/place/%E0%AE%85%E0%AE%B0%E0%AF%81%E0%AE%AA%E0%AF%8D%E0%AE%AA%E0%AF%81%E0%AE%95%E0%AF%8D%E0%AE%95%E0%AE%BE%E0%AE%B0%E0%AE%A4%E0%AF%8D%E0%AE%A4%E0%AF%86%E0%AE%B0%E0%AF%81+%E0%AE%9C%E0%AF%81%E0%AE%AE%E0%AF%8D%E0%AE%86+%E0%AE%AE%E0%AE%B8%E0%AF%8D%E0%AE%9C%E0%AE%BF%E0%AE%A4%E0%AF%8D/data=!4m7!3m6!1s0x3b019723498f55a1:0x30c7258e7ca2ae0f!8m2!3d9.3622281!4d78.8426756!16s%2Fg%2F11h6v385kz!19sChIJoVWPSSOXATsRD66ifI4lxzA?authuser=0&hl=en&rclk=1,"9.3622281,78.84267559999999"
Eid Ka Maithaan iitkaa maitaannnm,Mosque,"9R7G+W4J Eid Ka Maithaan iitkaa maitaannnm, Gobilthankavelu, Ramanathapuram, Tamil Nadu 623501",Gobilthankavelu,9R7G+W4J,Ramanathapuram,623501,Tamil Nadu,IN,https://www.google.com/maps/place/Eid+Ka+Maithaan+%E0%AE%88%E0%AE%A4%E0%AF%8D%E0%AE%95%E0%AE%BE+%E0%AE%AE%E0%AF%88%E0%AE%A4%E0%AE%BE%E0%AE%A9%E0%AE%AE%E0%AF%8D/data=!4m7!3m6!1s0x3b01994171a07953:0x495280c44994f464!8m2!3d9.3648431!4d78.8252597!16s%2Fg%2F11gjjgc7ny!19sChIJU3mgcUGZATsRZPSUScSAUkk?authuser=0&hl=en&rclk=1,"9.3648431,78.82525969999999"
Shaheed jinna shahip jumma mosque,Mosque,"9RCC+4MV Shaheed jinna shahip jumma mosque, Gobilthankavelu, Ramanathapuram, Tamil Nadu 623501",Gobilthankavelu,9RCC+4MV,Ramanathapuram,623501,Tamil Nadu,IN,https://www.google.com/maps/place/Shaheed+jinna+shahip+jumma+mosque/data=!4m7!3m6!1s0x3b01a38d2dfe097b:0x519c8e772e919341!8m2!3d9.370353!4d78.8216649!16s%2Fg%2F11tjs7vkxn!19sChIJewn-LY2jATsRQZORLneOnFE?authuser=0&hl=en&rclk=1,"9.370353,78.8216649"
TNTJ Masjid District Head Office,Mosque,"TNTJ Masjid District Head Office, 7, Durai Raj Sathira St, Vasantha Nagar, Ramanathapuram, Tamil Nadu 623504",Vasantha Nagar,"7, Durai Raj Sathira St",Ramanathapuram,623504,Tamil Nadu,IN,https://www.google.com/maps/place/TNTJ+Masjid+District+Head+Office/data=!4m7!3m6!1s0x3b019966534ffb45:0x14335dd253859b8c!8m2!3d9.3643636!4d78.8381089!16s%2Fg%2F11kpdrvrf9!19sChIJRftPU2aZATsRjJuFU9JdMxQ?authuser=0&hl=en&rclk=1,"9.364363599999999,78.8381089"
t.mu.mu.k. plllli,Mosque,"9R8P+79J t.mu.mu.k. plllli, Rose Nagar, Chalai Bazar, Ramanathapuram, Tamil Nadu 623504","Rose Nagar, Chalai Bazar",9R8P+79J,Ramanathapuram,623504,Tamil Nadu,IN,https://www.google.com/maps/place/%E0%AE%A4.%E0%AE%AE%E0%AF%81.%E0%AE%AE%E0%AF%81.%E0%AE%95.+%E0%AE%AA%E0%AE%B3%E0%AF%8D%E0%AE%B3%E0%AE%BF/data=!4m7!3m6!1s0x3b0199eeb4fc074f:0x4ceb772d4a3d1270!8m2!3d9.3657019!4d78.8358947!16s%2Fg%2F11f6nlb_xt!19sChIJTwf8tO6ZATsRcBI9Si1360w?authuser=0&hl=en&rclk=1,"9.3657019,78.8358947"
Al masjidul hannan jummah masjid,Mosque,"8VG6+M7R Al masjidul hannan jummah masjid, Ramanathapuram, Tamil Nadu 623504",,8VG6+M7R,Ramanathapuram,,Tamil Nadu,IN,https://www.google.com/maps/place/Al+masjidul+hannan+jummah+masjid/data=!4m7!3m6!1s0x3b019710eb16f559:0x7b74b6fe9c124c81!8m2!3d9.3267294!4d78.8606384!16s%2Fg%2F11txj4t4km!19sChIJWfUW6xCXATsRgUwSnP62dHs?authuser=0&hl=en&rclk=1,"9.3267294,78.8606384"
