name,main_category,address,address_ward,address_street,address_city,address_postal_code,address_state,address_country_code,link,coordinates
Masjid Mujeeb Bagh,Mosque,"H74R+R4J Masjid Mujeeb Bagh, Mujeeb Bagh, Jamia Nagar, Okhla, New Delhi, Delhi 110025","Mujeeb Bagh, Jamia Nagar, Okhla",H74R+R4J,New Delhi,110025,Delhi,IN,https://www.google.com/maps/place/Masjid+Mujeeb+Bagh/data=!4m7!3m6!1s0x390ce40bc79e1ce9:0x18ab01f5fdcf10b3!8m2!3d28.5570856!4d77.2902574!16s%2Fg%2F11hbvrlrnj!19sChIJ6RyexwvkDDkRsxDP_fUBqxg?authuser=0&hl=en&rclk=1,"28.557085599999997,77.2902574"
Nooh Masjid,Mosque,"Nooh Masjid, F-12/35, Street Number 12 Jamia Nagar, Block F, Joga Bai Extension, Okhla, New Delhi, Delhi 110025","Block F, Joga Bai Extension, Okhla","F-12/35, Street Number 12 Jamia Nagar",New Delhi,110025,Delhi,IN,https://www.google.com/maps/place/Nooh+Masjid/data=!4m7!3m6!1s0x390ce3899c2d9279:0x291d5f701b631a8!8m2!3d28.56762!4d77.2838107!16s%2Fg%2F11bxfjvp52!19sChIJeZItnInjDDkRqDG2AffVkQI?authuser=0&hl=en&rclk=1,"28.567619999999998,77.28381069999999"
Noor Masjid,Mosque,"H73X+CHG Noor Masjid, Kalindi Kunj Rd, Abul Fazal Enclave Part 1, Block J, Jamia Nagar, Okhla, New Delhi, Delhi 110025","Abul Fazal Enclave Part 1, Block J, Jamia Nagar, Okhla","H73X+CHG, Kalindi Kunj Rd",New Delhi,110025,Delhi,IN,https://www.google.com/maps/place/Noor+Masjid/data=!4m7!3m6!1s0x390ce4103435d885:0x70062933e057a0e8!8m2!3d28.5535535!4d77.2989652!16s%2Fg%2F11btvb5bqr!19sChIJhdg1NBDkDDkR6KBX4DMpBnA?authuser=0&hl=en&rclk=1,"28.5535535,77.2989652"
Noori Masjid,Mosque,"Noori Masjid, M-20/96, Block B, Dabri Extension East, Dabri, New Delhi, Delhi, 110046","Block B, Dabri Extension East, Dabri",M-20/96,"New Delhi, Delhi",110046,Delhi,IN,https://www.google.com/maps/place/Noori+Masjid/data=!4m7!3m6!1s0x390d1b4e00048bc3:0xe0fa34299d2b42d8!8m2!3d28.6055137!4d77.0908015!16s%2Fg%2F11c5xczp9s!19sChIJw4sEAE4bDTkR2EIrnSk0-uA?authuser=0&hl=en&rclk=1,"28.6055137,77.0908015"
Masjid,Mosque,"H769+P87 Masjid, Block A, Friends Colony East, New Friends Colony, New Delhi, Delhi 110025","Block A, Friends Colony East, New Friends Colony",H769+P87,New Delhi,110025,Delhi,IN,https://www.google.com/maps/place/Masjid/data=!4m7!3m6!1s0x390ce3a3874c1a6d:0x3777b5148e43553a!8m2!3d28.5617917!4d77.2683072!16s%2Fg%2F11grc87l61!19sChIJbRpMh6PjDDkROlVDjhS1dzc?authuser=0&hl=en&rclk=1,"28.561791699999997,77.2683072"
Bait Ul Noor Masjid,Mosque,"Bait Ul Noor Masjid, Indira Gandhi Camp - 1, Block D, Taimoor Nagar, New Friends Colony, New Delhi, Delhi 110025","Block D, Taimoor Nagar, New Friends Colony",Indira Gandhi Camp - 1,New Delhi,110025,Delhi,IN,https://www.google.com/maps/place/Bait+Ul+Noor+Masjid/data=!4m7!3m6!1s0x390ce3b63c45baf3:0xfa4011e6f94af5dc!8m2!3d28.5687986!4d77.2677099!16s%2Fg%2F11g0_nymdb!19sChIJ87pFPLbjDDkR3PVK-eYRQPo?authuser=0&hl=en&rclk=1,"28.568798599999997,77.2677099"
Jamiya Masjid Markaz Konnur,Mosque,"6P2X+56C Jamiya Masjid Markaz Konnur, Konnur, Karnataka 591231",,6P2X+56C,Konnur,591231,Karnataka,IN,https://www.google.com/maps/place/Jamiya+Masjid+Markaz+Konnur/data=!4m7!3m6!1s0x3bc0baf02c041a45:0x866e086e09059afa!8m2!3d16.2004338!4d74.74802!16s%2Fg%2F11g6rlv765!19sChIJRRoELPC6wDsR-poFCW4IboY?authuser=0&hl=en&rclk=1,"16.2004338,74.74802"
Masjid Nawab Qutubuddin @ Amrood wali Masjid,Mosque,"Masjid Nawab Qutubuddin @ Amrood wali Masjid, Bulbuli Khana, 110006, Sita Ram Bazar, Chandni Chowk, Delhi, 110006","Sita Ram Bazar, Chandni Chowk","Bulbuli Khana, 110006",Delhi,110006,Delhi,IN,https://www.google.com/maps/place/Masjid+Nawab+Qutubuddin+@+Amrood+wali+Masjid/data=!4m7!3m6!1s0x390cfd22f08b979f:0xd0168ca11e45a358!8m2!3d28.6455631!4d77.2313851!16s%2Fg%2F11f_3tnsny!19sChIJn5eL8CL9DDkRWKNFHqGMFtA?authuser=0&hl=en&rclk=1,"28.6455631,77.2313851"
Noor masjid,Mosque,"Noor masjid, 88-A, Meharchand Market, Lodi Colony, New Delhi, Delhi 110003","Meharchand Market, Lodi Colony",88-A,New Delhi,110003,Delhi,IN,https://www.google.com/maps/place/Noor+masjid/data=!4m7!3m6!1s0x390ce3bde048d651:0x31a744236a19398c!8m2!3d28.5863397!4d77.2271578!16s%2Fg%2F11j0z5cnj_!19sChIJUdZI4L3jDDkRjDkZaiNEpzE?authuser=0&hl=en&rclk=1,"28.5863397,77.2271578"
Noor Masjid,Mosque,"Noor Masjid, 5/9 B 110014, Jangpura, New Delhi, Delhi 110014","Jangpura, Samman Bazar, Bhogal",5/9 B 110014,New Delhi,110014,Delhi,IN,https://www.google.com/maps/place/Noor+Masjid/data=!4m7!3m6!1s0x390ce3070da347dd:0x604a9a50b5f9c007!8m2!3d28.5821032!4d77.2485251!16s%2Fg%2F11c1n7_vvk!19sChIJ3UejDQfjDDkRB8D5tVCaSmA?authuser=0&hl=en&rclk=1,"28.5821032,77.2485251"
Masjid Noorul Islam(chotti masjid),Mosque,"G8GH+84X Masjid Noorul Islam(chotti masjid), Madanpur Khadar Phase 3, Madanpur Khadar, New Delhi, Delhi 110076","Madanpur Khadar Phase 3, Madanpur Khadar",G8GH+84X,New Delhi,110076,Delhi,IN,https://www.google.com/maps/place/Masjid+Noorul+Islam%28chotti+masjid%29/data=!4m7!3m6!1s0x390ce71a1a382a2f:0xf70170af0a005edc!8m2!3d28.5258612!4d77.3278717!16s%2Fg%2F11gmyh4_c2!19sChIJLyo4GhrnDDkR3F4ACq9wAfc?authuser=0&hl=en&rclk=1,"28.525861199999998,77.3278717"
Masjid,Mosque,"H77Q+868 Masjid, Okhla Village, Okhla, New Delhi, Delhi 110025","Okhla Village, Okhla",H77Q+868,New Delhi,110025,Delhi,IN,https://www.google.com/maps/place/Masjid/data=!4m7!3m6!1s0x390ce47512f7aa2b:0x544337a9b9e5d7a2!8m2!3d28.5632814!4d77.2880932!16s%2Fg%2F11gbtpj5td!19sChIJK6r3EnXkDDkRotfluak3Q1Q?authuser=0&hl=en&rclk=1,"28.563281399999997,77.28809319999999"
Ishaq Masjid,Mosque,"Ishaq Masjid, Ishaq Masjid Wali Gali, Block C, Sarai Kale Khan, New Delhi, Delhi 110013","Block C, Sarai Kale Khan",Ishaq Masjid Wali Gali,New Delhi,110013,Delhi,IN,https://www.google.com/maps/place/Ishaq+Masjid/data=!4m7!3m6!1s0x390ce376f8a80f59:0x43d242dbd3376818!8m2!3d28.5849571!4d77.2565889!16s%2Fg%2F11q2tx_6x1!19sChIJWQ-o-HbjDDkRGGg309tC0kM?authuser=0&hl=en&rclk=1,"28.5849571,77.2565889"
Masjid Noor msjd nwr,Mosque,"H74P+PHC Masjid Noor msjd nwr, Ajmal Bagh, Noor Nagar Extension, Noor Nagar, Okhla, New Delhi, Delhi 110025","Ajmal Bagh, Noor Nagar Extension, Noor Nagar, Okhla",H74P+PHC,New Delhi,110025,Delhi,IN,https://www.google.com/maps/place/Masjid+Noor+%D9%85%D8%B3%D8%AC%D8%AF+%D9%86%D9%88%D8%B1%E2%80%AD/data=!4m7!3m6!1s0x390ce37ce6d300d5:0x808f9d780ec51d19!8m2!3d28.5568118!4d77.2863907!16s%2Fg%2F11sbd_p0hp!19sChIJ1QDT5nzjDDkRGR3FDnidj4A?authuser=0&hl=en&rclk=1,"28.5568118,77.2863907"
Noori Masjid,Mosque,"Noori Masjid, S286, Block S, Brahampuri, Shahdara, Delhi, 110053","Block S, Brahampuri, Shahdara",S286,Delhi,110053,Delhi,IN,https://www.google.com/maps/place/Noori+Masjid/data=!4m7!3m6!1s0x390cfd49000e16b7:0x7fdd492a359ff0ad!8m2!3d28.68057!4d77.2665461!16s%2Fg%2F11rc9rdr_1!19sChIJtxYOAEn9DDkRrfCfNSpJ3X8?authuser=0&hl=en&rclk=1,"28.68057,77.2665461"
Masjid Khairunnisa,Mosque,"Masjid Khairunnisa, Dr Zakir Hussain Marg, Nizamuddin, National Zoological Park, Sundar Nagar, New Delhi, Delhi 110013","Nizamuddin, National Zoological Park, Sundar Nagar",Dr Zakir Hussain Marg,New Delhi,110013,Delhi,IN,https://www.google.com/maps/place/Masjid+Khairunnisa/data=!4m7!3m6!1s0x390ce3d200747f85:0x73902dfc0bf948c6!8m2!3d28.5949913!4d77.2432105!16s%2Fg%2F11fkcjf411!19sChIJhX90ANLjDDkRxkj5C_wtkHM?authuser=0&hl=en&rclk=1,"28.5949913,77.2432105"
Noor Betul Masjid,Mosque,"13/b2, 2nd floor, Noor Betul Masjid, Nala Rd, near madina masjid, Navjivan Buddh Vihar, Taimoor Nagar, New Friends Colony, New Delhi, Delhi 110025","Navjivan Buddh Vihar, Taimoor Nagar, New Friends Colony","13/b2, 2nd floor, Nala Rd, near madina masjid",New Delhi,110025,Delhi,IN,https://www.google.com/maps/place/Noor+Betul+Masjid/data=!4m7!3m6!1s0x390ce305c591fb91:0xc9dbc8283542cdaf!8m2!3d28.5711693!4d77.266965!16s%2Fg%2F11v11b0njk!19sChIJkfuRxQXjDDkRr81CNSjI28k?authuser=0&hl=en&rclk=1,"28.571169299999998,77.266965"
Noori Masjid,Mosque,"Noori Masjid, 263C, Block G 1, Talimabad, Sangam Vihar, New Delhi, Delhi 110080","Block G 1, Talimabad, Sangam Vihar",263C,New Delhi,110080,Delhi,IN,https://www.google.com/maps/place/Noori+Masjid/data=!4m7!3m6!1s0x390ce1ce9bad762d:0x8b1bd5983da6f608!8m2!3d28.5055544!4d77.2562686!16s%2Fg%2F11sjght1nw!19sChIJLXatm87hDDkRCPamPZjVG4s?authuser=0&hl=en&rclk=1,"28.505554399999998,77.2562686"
Masjid,Mosque,"Shop No: 5035, Masjid, Netaji Subhash Marg, Daryaganj, New Delhi, Delhi, 110002",Daryaganj,"Shop No: 5035, Netaji Subhash Marg","New Delhi, Delhi",110002,Delhi,IN,https://www.google.com/maps/place/Masjid/data=!4m7!3m6!1s0x390cfdf175041b95:0x8ef57a2bc9f92c1c!8m2!3d28.6480954!4d77.2403964!16s%2Fg%2F11s664lvxh!19sChIJlRsEdfH9DDkRHCz5ySt69Y4?authuser=0&hl=en&rclk=1,"28.6480954,77.2403964"
Jamiya Markaz Masjid Konnur,Mosque,"VF6W+9J8 Jamiya Markaz Masjid Konnur, Konnur, Karnataka 582206",,VF6W+9J8,Konnur,582206,Karnataka,IN,https://www.google.com/maps/place/Jamiya+Markaz+Masjid+Konnur/data=!4m7!3m6!1s0x3bb89bbeac5c41f5:0x2c7fa187ed70f8a2!8m2!3d15.8609054!4d75.4965791!16s%2Fg%2F11t5l_lpzb!19sChIJ9UFcrL6buDsRovhw7Yehfyw?authuser=0&hl=en&rclk=1,"15.8609054,75.49657909999999"
